{"type":"Feature","properties":{"id":"BGR.8","name":"Grad Sofiya","level":1,"country":"BGR"},"geometry":{"type":"Polygon","coordinates":[[[23.27851,42.53229],[23.43209,42.47265],[23.51632,42.52428],[23.5588,42.4208],[23.6544,42.43586],[23.56025,42.56009],[23.50278,42.65791],[23.52128,42.71905],[23.59632,42.83485],[23.49617,42.87072],[23.40057,42.84777],[23.27365,42.898],[23.24895,42.81721],[23.19975,42.78739],[23.17722,42.72894],[23.09061,42.73884],[23.0595,42.70987],[23.14756,42.66114],[23.16968,42.5905],[23.27851,42.53229]]]}}