{"type":"Feature","properties":{"id":"VNM.50.1","name":"Thanh Binh","level":2,"country":"VNM"},"geometry":{"type":"Polygon","coordinates":[[[105.55368,10.51571],[105.55945,10.5206],[105.5626,10.52913],[105.58587,10.57659],[105.58735,10.57732],[105.61639,10.63251],[105.61793,10.64352],[105.62383,10.64932],[105.59622,10.64808],[105.57143,10.64977],[105.50717,10.66008],[105.49577,10.66336],[105.46943,10.66447],[105.4627,10.65121],[105.45531,10.64705],[105.44336,10.66366],[105.42503,10.65829],[105.41358,10.67459],[105.40194,10.66253],[105.39046,10.65796],[105.37419,10.70344],[105.36828,10.70244],[105.36082,10.69395],[105.34661,10.69419],[105.34205,10.67392],[105.34291,10.63764],[105.34943,10.61761],[105.36818,10.57674],[105.39166,10.569],[105.40953,10.55391],[105.41568,10.55038],[105.44465,10.55292],[105.46976,10.53949],[105.47986,10.53561],[105.48613,10.54173],[105.5032,10.54628],[105.51333,10.54709],[105.5252,10.54147],[105.53884,10.53258],[105.55368,10.51571]]]}}