{"type":"Feature","properties":{"id":"VNM.16.25","name":"Long Bien","level":2,"country":"VNM"},"geometry":{"type":"Polygon","coordinates":[[[105.85701,21.04273],[105.86319,21.03321],[105.86776,21.02091],[105.87355,21.00758],[105.88292,21.00233],[105.90037,20.99433],[105.91004,21.00489],[105.92044,21.00441],[105.92717,21.0257],[105.93893,21.03996],[105.93165,21.06002],[105.92588,21.07033],[105.91645,21.07665],[105.90202,21.07891],[105.89343,21.07929],[105.87364,21.06867],[105.86453,21.06682],[105.84208,21.08158],[105.84167,21.07356],[105.84915,21.05357],[105.85701,21.04273]]]}}