{"type":"Feature","properties":{"id":"VNM.28.13","name":"Ea Sup","level":2,"country":"VNM"},"geometry":{"type":"Polygon","coordinates":[[[107.96108,13.00942],[107.95809,13.01574],[107.97292,13.02574],[107.98266,13.02033],[107.99451,13.02842],[108.00066,13.02973],[107.99786,13.0383],[107.99872,13.04923],[108.01033,13.05686],[108.01246,13.06489],[108.02006,13.07079],[108.03479,13.07421],[108.04311,13.07924],[108.05029,13.08929],[108.04797,13.1017],[108.02965,13.10093],[108.00947,13.10219],[108.0015,13.10775],[107.98891,13.11203],[107.98609,13.12276],[107.98538,13.14235],[107.98139,13.1578],[107.97539,13.1679],[107.99224,13.18321],[107.98661,13.20016],[107.98787,13.22084],[107.97801,13.23352],[107.98718,13.23727],[107.99994,13.24969],[108.00049,13.26092],[107.99722,13.27272],[108.00278,13.28931],[107.98363,13.30264],[107.98479,13.30793],[107.97296,13.34555],[107.9744,13.35806],[107.96821,13.36743],[107.95917,13.36989],[107.95518,13.3845],[107.93892,13.3758],[107.92072,13.37985],[107.90717,13.38889],[107.88697,13.38464],[107.87652,13.39361],[107.85168,13.3893],[107.83923,13.40051],[107.83146,13.3963],[107.81686,13.39284],[107.80882,13.39487],[107.79772,13.38815],[107.78611,13.37555],[107.77367,13.36946],[107.76223,13.36708],[107.75195,13.36927],[107.74892,13.36298],[107.7364,13.36696],[107.72932,13.36587],[107.72015,13.36941],[107.70998,13.36955],[107.70403,13.37467],[107.69629,13.37252],[107.69024,13.36557],[107.67527,13.35746],[107.67094,13.34915],[107.66319,13.35003],[107.65493,13.3424],[107.6501,13.3422],[107.64894,13.32706],[107.64086,13.33018],[107.63913,13.32363],[107.63062,13.32198],[107.61547,13.30927],[107.60646,13.30519],[107.51197,13.08568],[107.52336,13.08374],[107.55263,13.08835],[107.56052,13.08793],[107.59868,13.07794],[107.62123,13.07371],[107.63432,13.07478],[107.64201,13.07195],[107.65993,13.0694],[107.68723,13.07139],[107.69652,13.06136],[107.7163,13.04441],[107.72497,13.03061],[107.74239,13.01934],[107.76977,12.9916],[107.80083,13.00047],[107.81357,12.99989],[107.82006,12.997],[107.84576,12.99533],[107.85392,12.98495],[107.87567,12.98398],[107.8851,12.97168],[107.89939,12.96502],[107.91032,12.96208],[107.92194,12.96555],[107.90834,12.97153],[107.91809,12.97816],[107.94651,12.98772],[107.96108,13.00942]]]}}