{"type":"Feature","properties":{"id":"VNM.15.6","name":"Yen My","level":2,"country":"VNM"},"geometry":{"type":"Polygon","coordinates":[[[106.08505,20.88256],[106.08396,20.89018],[106.07298,20.90136],[106.07375,20.90824],[106.06428,20.93009],[106.04481,20.93531],[106.03164,20.94092],[106.03197,20.95394],[106.02517,20.95014],[106.02332,20.94355],[106.01641,20.938],[106.02062,20.93486],[106.01198,20.92603],[105.99805,20.92034],[105.99064,20.92303],[105.98206,20.91586],[105.97433,20.91416],[105.96563,20.90275],[105.96341,20.87593],[105.97411,20.87641],[105.97879,20.86478],[106.00718,20.86809],[106.01112,20.85753],[106.01717,20.85484],[106.02666,20.8406],[106.03783,20.84349],[106.0388,20.83634],[106.05608,20.84484],[106.06258,20.84403],[106.07544,20.85872],[106.07329,20.86791],[106.07497,20.87689],[106.08505,20.88256]]]}}