{"type":"Feature","properties":{"id":"VNM.5.7","name":"Dong Hy","level":2,"country":"VNM"},"geometry":{"type":"Polygon","coordinates":[[[105.79856,21.80493],[105.79504,21.79929],[105.7973,21.78743],[105.79004,21.77442],[105.80131,21.76849],[105.80228,21.76363],[105.79665,21.75592],[105.80909,21.74247],[105.81137,21.73327],[105.82181,21.72736],[105.82247,21.71935],[105.81468,21.70971],[105.79807,21.70493],[105.78629,21.69388],[105.79358,21.68572],[105.79391,21.67448],[105.79133,21.66646],[105.79851,21.66292],[105.80962,21.64821],[105.8173,21.64848],[105.81783,21.63705],[105.83343,21.62812],[105.83672,21.6224],[105.84732,21.61955],[105.85499,21.62104],[105.8573,21.60475],[105.85639,21.59509],[105.8657,21.58442],[105.86021,21.57858],[105.86714,21.56902],[105.87615,21.57432],[105.88904,21.57908],[105.90209,21.57998],[105.91826,21.59075],[105.93506,21.5847],[105.93988,21.56784],[105.95455,21.56385],[105.95955,21.57219],[105.97015,21.56788],[105.97156,21.56175],[105.98826,21.5627],[105.99906,21.55418],[106.00999,21.55766],[106.02932,21.54427],[106.0342,21.53126],[106.04386,21.52069],[106.0475,21.53054],[106.05381,21.53863],[106.05133,21.54511],[106.05455,21.55114],[106.04775,21.55882],[106.03092,21.5621],[106.03316,21.57136],[106.04907,21.58122],[106.05165,21.59203],[106.05721,21.60281],[106.06728,21.60463],[106.07432,21.61167],[106.06032,21.61761],[106.05167,21.62379],[106.05194,21.63234],[106.04355,21.64245],[106.03164,21.64493],[106.03022,21.65915],[106.0243,21.6688],[106.01631,21.67508],[105.99984,21.67929],[105.99715,21.6988],[105.98119,21.70982],[105.96071,21.70936],[105.94186,21.70291],[105.93343,21.69506],[105.91602,21.69446],[105.89946,21.69129],[105.88967,21.71255],[105.89583,21.71546],[105.89356,21.72769],[105.91249,21.7298],[105.91349,21.73831],[105.92289,21.74995],[105.9169,21.77615],[105.88811,21.77093],[105.88035,21.77671],[105.8593,21.78181],[105.85937,21.79332],[105.85419,21.79722],[105.84859,21.81305],[105.85653,21.81874],[105.85469,21.83583],[105.86231,21.84138],[105.8633,21.84979],[105.85896,21.84546],[105.84781,21.84416],[105.82408,21.84622],[105.81478,21.84376],[105.80479,21.83225],[105.80298,21.81433],[105.79856,21.80493]]]}}