{"type":"Feature","properties":{"id":"VNM.18.1","name":"Tam Duong","level":2,"country":"VNM"},"geometry":{"type":"Polygon","coordinates":[[[105.61645,21.36165],[105.61347,21.37094],[105.59632,21.38868],[105.59129,21.40046],[105.58332,21.4044],[105.57135,21.39679],[105.56527,21.40542],[105.5653,21.41527],[105.56089,21.4228],[105.5704,21.42567],[105.56896,21.43068],[105.55166,21.43271],[105.5446,21.44518],[105.53371,21.44455],[105.53353,21.44075],[105.52159,21.43112],[105.5245,21.42274],[105.52692,21.4018],[105.5187,21.39661],[105.52177,21.38951],[105.51132,21.37721],[105.51796,21.3741],[105.51806,21.36644],[105.51134,21.36359],[105.51486,21.35631],[105.50722,21.34791],[105.50497,21.33848],[105.51221,21.33002],[105.5108,21.32371],[105.52082,21.31697],[105.5273,21.31988],[105.53985,21.31413],[105.53276,21.30832],[105.53717,21.30401],[105.53272,21.29583],[105.53425,21.28552],[105.5446,21.28214],[105.55351,21.27511],[105.54939,21.289],[105.55402,21.29388],[105.54947,21.30401],[105.55742,21.30985],[105.56689,21.31042],[105.56029,21.31894],[105.57046,21.32644],[105.58586,21.33367],[105.59587,21.34374],[105.60537,21.34494],[105.60861,21.34072],[105.61729,21.34439],[105.62436,21.35327],[105.61645,21.36165]]]}}