{"type":"Feature","properties":{"id":"VNM.39.6","name":"Kon Ray","level":2,"country":"VNM"},"geometry":{"type":"Polygon","coordinates":[[[108.2325,14.38968],[108.24511,14.39655],[108.25217,14.39087],[108.27426,14.38637],[108.29651,14.39174],[108.29602,14.39954],[108.29151,14.40669],[108.29812,14.41948],[108.30729,14.42306],[108.31226,14.43265],[108.32267,14.44242],[108.32407,14.45474],[108.32974,14.45946],[108.36081,14.49215],[108.37505,14.51012],[108.38158,14.51168],[108.38341,14.52651],[108.36979,14.5319],[108.37367,14.54893],[108.36754,14.55814],[108.3591,14.56601],[108.33555,14.56279],[108.33153,14.55757],[108.31651,14.55924],[108.31016,14.55545],[108.29356,14.55545],[108.28446,14.55855],[108.26412,14.56978],[108.24858,14.57212],[108.22795,14.55886],[108.21355,14.56003],[108.2108,14.56952],[108.21692,14.57477],[108.22526,14.58692],[108.22653,14.60033],[108.24045,14.60908],[108.2373,14.61649],[108.23757,14.62656],[108.2421,14.63524],[108.2427,14.64713],[108.23038,14.68269],[108.22937,14.69533],[108.23522,14.70539],[108.23369,14.7195],[108.22841,14.72235],[108.22605,14.7344],[108.21525,14.74023],[108.21337,14.74556],[108.18243,14.75464],[108.17364,14.74834],[108.16484,14.74602],[108.14697,14.75132],[108.13793,14.76078],[108.1251,14.765],[108.11909,14.76309],[108.11262,14.74934],[108.10364,14.73933],[108.09298,14.73114],[108.08886,14.71982],[108.07917,14.71915],[108.07296,14.71194],[108.07522,14.70162],[108.07072,14.69323],[108.07034,14.68464],[108.06211,14.68164],[108.06231,14.67328],[108.07228,14.6654],[108.07631,14.64804],[108.07507,14.63601],[108.06295,14.62817],[108.06603,14.61967],[108.06657,14.60768],[108.07001,14.59894],[108.0661,14.57501],[108.0592,14.56397],[108.06348,14.559],[108.07534,14.55681],[108.0801,14.55071],[108.09229,14.54288],[108.09509,14.5371],[108.10258,14.53788],[108.11107,14.53317],[108.11031,14.52037],[108.10645,14.50865],[108.10953,14.49733],[108.10396,14.49465],[108.09684,14.48526],[108.08377,14.47987],[108.08806,14.46756],[108.08436,14.46246],[108.08525,14.45132],[108.08966,14.44484],[108.08396,14.43855],[108.081,14.42373],[108.08267,14.40291],[108.0775,14.39013],[108.08449,14.3836],[108.08331,14.37633],[108.08693,14.37028],[108.08606,14.34088],[108.0819,14.33419],[108.09613,14.33464],[108.10427,14.33767],[108.10457,14.34341],[108.11237,14.34584],[108.10843,14.35334],[108.1149,14.36348],[108.12632,14.35685],[108.13504,14.35528],[108.14002,14.36008],[108.14609,14.34764],[108.1561,14.35342],[108.16026,14.36245],[108.17014,14.368],[108.17637,14.36663],[108.18969,14.36873],[108.19265,14.37386],[108.20362,14.37486],[108.21002,14.38717],[108.22136,14.39148],[108.2325,14.38968]]]}}