{"type":"Feature","properties":{"id":"VNM.5.3","name":"Dai Tu","level":2,"country":"VNM"},"geometry":{"type":"Polygon","coordinates":[[[105.71326,21.43025],[105.70547,21.44321],[105.71514,21.45673],[105.7204,21.47388],[105.72797,21.48136],[105.73564,21.48298],[105.73774,21.491],[105.70947,21.51266],[105.71812,21.51786],[105.68802,21.53728],[105.67799,21.53957],[105.66675,21.55009],[105.6729,21.57107],[105.68856,21.57537],[105.70266,21.57698],[105.71053,21.58209],[105.71592,21.59189],[105.70895,21.59907],[105.71223,21.60617],[105.73135,21.60439],[105.75057,21.59854],[105.75995,21.59152],[105.77482,21.59549],[105.77507,21.60268],[105.77011,21.60984],[105.77577,21.6149],[105.77113,21.62121],[105.76063,21.62302],[105.75269,21.63405],[105.74839,21.63201],[105.74235,21.64023],[105.74111,21.64725],[105.73038,21.65223],[105.7321,21.66014],[105.72759,21.66648],[105.71777,21.66449],[105.71425,21.67023],[105.70012,21.67401],[105.68477,21.6807],[105.68149,21.68888],[105.67552,21.6918],[105.67756,21.70398],[105.67232,21.71116],[105.66028,21.71259],[105.64432,21.72092],[105.64434,21.73791],[105.64234,21.75248],[105.63624,21.75596],[105.62585,21.77723],[105.6115,21.76687],[105.59168,21.76703],[105.58571,21.76288],[105.58473,21.75217],[105.57846,21.74856],[105.56481,21.74783],[105.54593,21.75321],[105.54314,21.75976],[105.53386,21.75935],[105.52486,21.7648],[105.51782,21.75549],[105.50906,21.75037],[105.51597,21.73664],[105.50418,21.72977],[105.49927,21.71819],[105.49146,21.70778],[105.47768,21.69758],[105.48794,21.68875],[105.48688,21.68063],[105.48169,21.67874],[105.48355,21.65974],[105.49031,21.64371],[105.49789,21.63834],[105.50005,21.63206],[105.4966,21.61843],[105.50561,21.61236],[105.52364,21.5895],[105.52671,21.58261],[105.53594,21.58137],[105.54252,21.57384],[105.55684,21.57071],[105.56324,21.55845],[105.58289,21.54032],[105.58398,21.53534],[105.59753,21.53331],[105.60407,21.52877],[105.61205,21.50529],[105.61897,21.49849],[105.63262,21.49497],[105.63171,21.47936],[105.64459,21.46946],[105.65193,21.45776],[105.66651,21.46015],[105.67577,21.4579],[105.68742,21.44283],[105.69755,21.43903],[105.7045,21.44073],[105.71326,21.43025]]]}}