{"type":"Feature","properties":{"id":"VNM.4.8","name":"Ngan Son","level":2,"country":"VNM"},"geometry":{"type":"Polygon","coordinates":[[[105.88854,22.31595],[105.89835,22.30069],[105.908,22.29232],[105.9258,22.28312],[105.9365,22.29927],[105.94279,22.29465],[105.95349,22.29277],[105.96191,22.28572],[105.97167,22.29264],[105.97766,22.30095],[105.99598,22.29963],[106.01085,22.30356],[106.01958,22.31029],[106.03012,22.31022],[106.04446,22.31388],[106.05709,22.30922],[106.07856,22.32154],[106.10002,22.32145],[106.10806,22.31919],[106.11675,22.32144],[106.12085,22.332],[106.11929,22.33912],[106.12995,22.34698],[106.14371,22.3615],[106.16036,22.37251],[106.16362,22.38087],[106.17767,22.38655],[106.1848,22.38682],[106.1848,22.38706],[106.17881,22.39121],[106.17954,22.40011],[106.16969,22.40124],[106.16922,22.40656],[106.15986,22.40879],[106.14121,22.39353],[106.12356,22.40119],[106.11175,22.39801],[106.1019,22.41294],[106.10311,22.43365],[106.09592,22.44293],[106.10613,22.45135],[106.11489,22.46589],[106.12124,22.47101],[106.11717,22.48201],[106.12033,22.49854],[106.11975,22.51031],[106.10304,22.51479],[106.10436,22.5209],[106.09754,22.52653],[106.09504,22.53614],[106.09741,22.54588],[106.08899,22.55142],[106.0763,22.55198],[106.07639,22.55973],[106.0845,22.56653],[106.08364,22.57212],[106.06831,22.56854],[106.06088,22.5698],[106.05019,22.57683],[106.04153,22.56175],[106.02993,22.55677],[106.02367,22.55934],[106.00861,22.55363],[106.00458,22.54712],[105.98817,22.54327],[105.98097,22.53656],[105.9718,22.53477],[105.96702,22.52658],[105.95373,22.52191],[105.94799,22.52706],[105.93393,22.52618],[105.92637,22.5198],[105.92494,22.51206],[105.91419,22.49473],[105.9051,22.49405],[105.90633,22.49088],[105.89823,22.47374],[105.89119,22.47064],[105.88515,22.46295],[105.88402,22.4457],[105.87165,22.42685],[105.87144,22.40607],[105.86197,22.4008],[105.85638,22.38858],[105.86138,22.37455],[105.85192,22.36384],[105.86317,22.35845],[105.86591,22.35163],[105.87716,22.34677],[105.88486,22.33745],[105.8893,22.32533],[105.88854,22.31595]]]}}