{"type":"Feature","properties":{"id":"VNM.14.13","name":"Do Son","level":2,"country":"VNM"},"geometry":{"type":"MultiPolygon","coordinates":[[[[106.81689,20.66554],[106.81775,20.66818],[106.81353,20.66814],[106.81402,20.66654],[106.81689,20.66554]]],[[[106.78335,20.74585],[106.77509,20.74625],[106.75793,20.74097],[106.74539,20.75757],[106.72464,20.75202],[106.70775,20.75045],[106.72572,20.74286],[106.73405,20.73492],[106.7333,20.73082],[106.74021,20.72081],[106.72956,20.7075],[106.73375,20.69827],[106.74392,20.70475],[106.76713,20.71455],[106.7751,20.7029],[106.78479,20.70148],[106.7866,20.68872],[106.79984,20.68138],[106.79948,20.6737],[106.80555,20.67022],[106.81024,20.67619],[106.80388,20.68445],[106.79558,20.68838],[106.79828,20.69548],[106.7915,20.70129],[106.80203,20.72119],[106.7907,20.72243],[106.78335,20.74585]]]]}}