{"type":"Feature","properties":{"id":"VNM.30.6","name":"Nha Trang","level":2,"country":"VNM"},"geometry":{"type":"MultiPolygon","coordinates":[[[[109.30437,12.17185],[109.29746,12.17048],[109.2996,12.16408],[109.30904,12.16516],[109.30437,12.17185]]],[[[109.24519,12.17973],[109.23558,12.17921],[109.24091,12.17349],[109.24519,12.17973]]],[[[109.27714,12.18045],[109.27206,12.18164],[109.27113,12.17508],[109.27774,12.17555],[109.27714,12.18045]]],[[[109.2245,12.19582],[109.21857,12.18915],[109.22643,12.18739],[109.2245,12.19582]]],[[[109.27086,12.23211],[109.26128,12.22779],[109.26251,12.21979],[109.25475,12.21917],[109.24009,12.22446],[109.24047,12.21541],[109.2585,12.19935],[109.26931,12.19709],[109.27324,12.18794],[109.28429,12.18101],[109.29097,12.18026],[109.28913,12.19427],[109.29716,12.19576],[109.32386,12.18504],[109.32669,12.19138],[109.33546,12.19391],[109.3276,12.20121],[109.32758,12.20987],[109.33134,12.21671],[109.32867,12.2214],[109.31438,12.22517],[109.31143,12.21486],[109.30478,12.21496],[109.30324,12.22267],[109.29636,12.23031],[109.28192,12.22772],[109.27086,12.23211]]],[[[109.36053,12.27419],[109.35785,12.27263],[109.35948,12.26806],[109.36398,12.2716],[109.36053,12.27419]]],[[[109.37043,12.28011],[109.37047,12.28514],[109.3688,12.28585],[109.36839,12.28196],[109.37043,12.28011]]],[[[109.24385,12.29015],[109.24285,12.28744],[109.24629,12.28821],[109.24385,12.29015]]],[[[109.21859,12.36085],[109.21477,12.3626],[109.21547,12.35776],[109.21859,12.36085]]],[[[109.22365,12.14194],[109.22091,12.15434],[109.2009,12.16374],[109.20004,12.17169],[109.20812,12.17526],[109.20678,12.18869],[109.21588,12.19773],[109.21686,12.2114],[109.21054,12.21474],[109.20208,12.22563],[109.19783,12.23818],[109.19698,12.25381],[109.20049,12.26431],[109.20638,12.26822],[109.20262,12.27527],[109.20714,12.29072],[109.21924,12.29544],[109.23516,12.29509],[109.24302,12.30543],[109.23462,12.30784],[109.22131,12.32159],[109.21197,12.32429],[109.20928,12.33094],[109.2022,12.33591],[109.20392,12.34337],[109.19787,12.34765],[109.19578,12.35988],[109.19867,12.36647],[109.19674,12.37828],[109.18767,12.37795],[109.18258,12.374],[109.17353,12.3781],[109.16961,12.37573],[109.17523,12.36184],[109.15943,12.36001],[109.15679,12.36921],[109.14871,12.36622],[109.13531,12.36782],[109.11957,12.35673],[109.12193,12.34822],[109.11339,12.34287],[109.11762,12.33261],[109.12449,12.32874],[109.13131,12.31966],[109.13238,12.30865],[109.12933,12.29902],[109.13486,12.27654],[109.14097,12.27333],[109.13703,12.26507],[109.12672,12.25522],[109.12976,12.24764],[109.1281,12.2371],[109.13183,12.22651],[109.12052,12.21306],[109.11708,12.20322],[109.12586,12.1899],[109.1252,12.18614],[109.13661,12.18126],[109.14462,12.16354],[109.15033,12.16181],[109.15479,12.15403],[109.16715,12.14776],[109.171,12.15017],[109.18562,12.14533],[109.1918,12.14999],[109.19937,12.14512],[109.21541,12.14731],[109.22365,12.14194]]]]}}