{"type":"Feature","properties":{"id":"VNM.43.2","name":"Huong Thuy","level":2,"country":"VNM"},"geometry":{"type":"Polygon","coordinates":[[[107.52038,16.15633],[107.52888,16.1607],[107.54033,16.15834],[107.55035,16.16286],[107.56333,16.16152],[107.57396,16.16652],[107.58389,16.17908],[107.59321,16.17822],[107.60301,16.18388],[107.61214,16.18343],[107.62346,16.18824],[107.63098,16.19993],[107.64892,16.20053],[107.6503,16.20652],[107.66293,16.2104],[107.66505,16.22168],[107.66993,16.22943],[107.66163,16.23268],[107.66194,16.23976],[107.6712,16.24325],[107.66674,16.2529],[107.65832,16.25405],[107.65442,16.26422],[107.64785,16.27279],[107.64985,16.28056],[107.664,16.27899],[107.67941,16.28438],[107.68743,16.30252],[107.69416,16.32247],[107.70068,16.33224],[107.70489,16.34776],[107.71772,16.35694],[107.72749,16.37089],[107.73962,16.37697],[107.7575,16.36754],[107.75243,16.38478],[107.7463,16.39175],[107.73728,16.39565],[107.73186,16.40978],[107.71507,16.41893],[107.7113,16.43068],[107.69894,16.43517],[107.68596,16.43137],[107.6753,16.44271],[107.666,16.44302],[107.6604,16.45133],[107.65311,16.45267],[107.65219,16.46082],[107.6429,16.4667],[107.64403,16.47418],[107.6509,16.48058],[107.62373,16.49146],[107.60995,16.48889],[107.60567,16.48382],[107.60714,16.47395],[107.62687,16.47267],[107.62688,16.46722],[107.61971,16.46148],[107.62106,16.45391],[107.60935,16.44593],[107.61204,16.43628],[107.60919,16.43236],[107.61203,16.41025],[107.616,16.40643],[107.61053,16.39858],[107.60605,16.40516],[107.589,16.40818],[107.58688,16.41701],[107.57975,16.42493],[107.56385,16.42521],[107.56468,16.41454],[107.57491,16.39946],[107.57729,16.38629],[107.58941,16.37704],[107.59627,16.37862],[107.60577,16.36994],[107.60804,16.35381],[107.59524,16.34157],[107.59263,16.34681],[107.58109,16.34432],[107.56918,16.34564],[107.56468,16.33908],[107.55761,16.3374],[107.55863,16.32895],[107.54983,16.32304],[107.53003,16.32011],[107.53268,16.31341],[107.53351,16.29086],[107.52411,16.28132],[107.49723,16.2688],[107.50139,16.26527],[107.50148,16.2561],[107.50758,16.25407],[107.51576,16.2434],[107.52206,16.2244],[107.52876,16.21127],[107.52804,16.19799],[107.52127,16.17524],[107.51569,16.17024],[107.52038,16.15633]]]}}