{"type":"Feature","properties":{"id":"VNM.45.5","name":"Ba Ria","level":2,"country":"VNM"},"geometry":{"type":"Polygon","coordinates":[[[107.24787,10.5397],[107.24424,10.53732],[107.23549,10.54879],[107.22856,10.55035],[107.23021,10.56059],[107.22148,10.5625],[107.21912,10.5534],[107.20479,10.55398],[107.19774,10.54349],[107.18455,10.54115],[107.17318,10.559],[107.16977,10.55854],[107.17289,10.54135],[107.17092,10.53503],[107.15871,10.53167],[107.14936,10.53524],[107.14247,10.5265],[107.13732,10.51439],[107.13156,10.50916],[107.12566,10.50983],[107.12521,10.49509],[107.1211,10.47449],[107.11441,10.47596],[107.1203,10.45794],[107.13836,10.45503],[107.14362,10.45786],[107.1441,10.46674],[107.15598,10.46422],[107.16221,10.47374],[107.16718,10.47203],[107.16856,10.46409],[107.17634,10.46232],[107.17932,10.47124],[107.19202,10.4688],[107.19193,10.47828],[107.20678,10.49627],[107.21562,10.49448],[107.23148,10.50609],[107.24106,10.50935],[107.24843,10.52827],[107.24787,10.5397]]]}}