{"type":"Feature","properties":{"id":"VNM.23.7","name":"Tan Yen","level":2,"country":"VNM"},"geometry":{"type":"Polygon","coordinates":[[[106.18232,21.32119],[106.18194,21.32561],[106.18988,21.33416],[106.19369,21.34558],[106.19296,21.35606],[106.18847,21.36233],[106.18036,21.36261],[106.18611,21.37333],[106.17869,21.37639],[106.17361,21.39336],[106.1677,21.39544],[106.16648,21.40542],[106.16918,21.41367],[106.17691,21.42115],[106.16875,21.42515],[106.1584,21.43865],[106.15006,21.4367],[106.13532,21.44723],[106.12591,21.44617],[106.11578,21.45033],[106.10894,21.44801],[106.09807,21.45931],[106.09592,21.44873],[106.07922,21.44899],[106.07072,21.4581],[106.06394,21.45792],[106.0558,21.46845],[106.05132,21.46062],[106.04791,21.44146],[106.03186,21.43798],[106.02538,21.43169],[106.02975,21.42633],[106.03403,21.40818],[106.02078,21.3951],[106.01254,21.40249],[106.01219,21.39194],[106.01787,21.38545],[106.02572,21.38826],[106.03216,21.37882],[106.01934,21.38136],[106.00771,21.37876],[106.00736,21.36965],[106.01591,21.3597],[106.02493,21.35993],[106.03193,21.35437],[106.03524,21.33841],[106.04344,21.33564],[106.05814,21.33627],[106.06779,21.3404],[106.08537,21.33175],[106.09593,21.33032],[106.1055,21.32523],[106.1133,21.3299],[106.12167,21.32723],[106.1239,21.3334],[106.1372,21.33416],[106.1511,21.32151],[106.15399,21.31347],[106.16189,21.30965],[106.17462,21.30893],[106.18232,21.32119]]]}}