{"type":"Feature","properties":{"id":"VNM.62.2","name":"Quan Ba","level":2,"country":"VNM"},"geometry":{"type":"Polygon","coordinates":[[[105.13422,22.95723],[105.13758,22.97196],[105.14286,22.97914],[105.14206,22.99778],[105.12445,22.99916],[105.13312,23.01857],[105.13362,23.02382],[105.12125,23.03802],[105.10408,23.04978],[105.09398,23.06317],[105.0858,23.07009],[105.08765,23.08358],[105.07982,23.09697],[105.07198,23.09818],[105.06689,23.11006],[105.04731,23.12892],[105.03962,23.1307],[105.02753,23.14026],[105.02313,23.15267],[105.00366,23.16899],[104.98812,23.17144],[104.98331,23.18428],[104.97585,23.18838],[104.95984,23.19129],[104.95771,23.17897],[104.95043,23.17129],[104.92175,23.18421],[104.89421,23.17647],[104.88293,23.16585],[104.88305,23.14349],[104.87906,23.13193],[104.87174,23.12515],[104.86323,23.1241],[104.85584,23.13233],[104.83969,23.13009],[104.82973,23.13491],[104.80959,23.12906],[104.79688,23.12857],[104.80232,23.12185],[104.80384,23.10286],[104.809,23.07899],[104.81658,23.07824],[104.81512,23.05933],[104.82189,23.05347],[104.82197,23.03523],[104.82648,23.0303],[104.83137,23.01453],[104.83175,22.99705],[104.83724,22.99104],[104.83151,22.98156],[104.83763,22.97347],[104.84392,22.97711],[104.86736,22.98153],[104.8839,22.98936],[104.89332,23.00307],[104.88658,23.00518],[104.87979,23.01287],[104.87911,23.02202],[104.90333,23.02367],[104.90589,23.03383],[104.91418,23.03481],[104.91823,23.04072],[104.93716,23.04336],[104.93033,23.02657],[104.93127,23.00786],[104.93004,22.99951],[104.93499,22.99368],[104.9476,22.99746],[104.95082,22.99185],[104.96567,22.99197],[104.96851,22.98727],[104.96722,22.96295],[104.97508,22.94673],[104.98222,22.94196],[104.98693,22.94605],[104.98713,22.98004],[104.99612,22.98673],[105.00508,22.99827],[105.01811,22.9957],[105.02737,22.99077],[105.03896,22.96715],[105.05072,22.95363],[105.06099,22.94617],[105.07151,22.95388],[105.08063,22.95613],[105.09735,22.95512],[105.10552,22.96598],[105.1244,22.96623],[105.13422,22.95723]]]}}