{"type":"Feature","properties":{"id":"GRC.3","name":"Peloponnisos","level":1,"country":"GRC"},"geometry":{"type":"MultiPolygon","coordinates":[[[[23.15943,37.94054],[23.11077,38.02293],[23.07632,38.05974],[22.94288,38.08348],[22.88746,38.03364],[22.97535,37.97899],[22.95297,37.94941],[22.8672,37.93952],[22.7964,37.97679],[22.77833,38.00096],[22.68043,38.0666],[22.62062,38.08348],[22.51149,38.1293],[22.41481,38.13788],[22.35726,38.16295],[22.34802,38.12307],[22.37221,38.08985],[22.32776,38.00001],[22.23227,37.96332],[22.21356,37.87828],[22.22865,37.83537],[22.17253,37.81808],[22.14638,37.79415],[22.05419,37.80333],[22.01057,37.77888],[21.83136,37.85358],[21.77359,37.77899],[21.76863,37.73868],[21.7895,37.68964],[21.79074,37.58034],[21.85844,37.57179],[21.95022,37.51371],[21.88707,37.44539],[21.8882,37.41795],[21.85275,37.38154],[21.76459,37.37364],[21.68198,37.37897],[21.69581,37.31635],[21.6823,37.28392],[21.59213,37.22016],[21.56756,37.15632],[21.57862,37.07673],[21.59929,37.04572],[21.70265,36.95726],[21.70948,36.92593],[21.68849,36.89118],[21.70737,36.81802],[21.76417,36.79499],[21.82277,36.80858],[21.87403,36.72671],[21.93588,36.76602],[21.94508,36.78994],[21.92172,36.86323],[21.93735,36.97997],[21.9546,37.00365],[22.04811,37.03514],[22.15317,37.02119],[22.13787,36.91714],[22.17506,36.89118],[22.22153,36.89753],[22.29168,36.82014],[22.37062,36.67357],[22.36744,36.60253],[22.38404,36.5725],[22.3545,36.51191],[22.38136,36.48046],[22.4699,36.45234],[22.51149,36.46662],[22.48357,36.54792],[22.48406,36.60663],[22.50465,36.62425],[22.53346,36.70722],[22.57911,36.74038],[22.5774,36.78303],[22.62257,36.80345],[22.76515,36.80418],[22.80079,36.77578],[22.81935,36.70279],[22.88429,36.65424],[22.87469,36.63052],[22.93678,36.58617],[22.97242,36.52021],[23.03566,36.52802],[23.06512,36.5091],[23.06625,36.47346],[23.09474,36.44318],[23.13933,36.43407],[23.20362,36.45612],[23.15187,36.48729],[23.14536,36.54194],[23.08058,36.57929],[23.03566,36.64908],[23.02565,36.71564],[23.05201,36.74714],[23.08863,36.7329],[23.09555,36.80703],[23.05926,36.85151],[23.01173,36.93891],[22.99985,37.03327],[22.95639,37.09593],[22.89503,37.13386],[22.91163,37.18342],[22.81251,37.32933],[22.8104,37.34837],[22.75799,37.39826],[22.76482,37.43179],[22.73471,37.48334],[22.72316,37.54165],[22.73846,37.58088],[22.77833,37.59687],[22.81935,37.53547],[22.85402,37.51496],[22.88502,37.53315],[22.96388,37.5218],[23.01124,37.46906],[23.13201,37.44864],[23.07309,37.35521],[23.12241,37.34569],[23.14145,37.30952],[23.20362,37.30268],[23.20672,37.34369],[23.26238,37.34398],[23.23024,37.38459],[23.32325,37.40974],[23.44181,37.41441],[23.43054,37.45229],[23.37297,37.4441],[23.30507,37.45102],[23.27572,37.47433],[23.17898,37.50714],[23.15758,37.53474],[23.18695,37.60833],[23.16383,37.68159],[23.17555,37.71979],[23.12094,37.74091],[23.18238,37.7744],[23.18238,37.80915],[23.11411,37.85078],[23.01254,37.84756],[22.99513,37.88215],[23.01515,37.92524],[23.09409,37.91104],[23.15943,37.94054]]],[[[21.76417,36.75397],[21.7505,36.71239],[21.77784,36.69937],[21.78004,36.7475],[21.76417,36.75397]]],[[[21.69581,36.74038],[21.72934,36.78876],[21.70948,36.80174],[21.69695,36.77582],[21.69581,36.74038]]]]}}