{"type":"Feature","properties":{"id":"BRA.24.52","name":"Martins","level":2,"country":"BRA"},"geometry":{"type":"Polygon","coordinates":[[[-37.89008,-6.16718],[-37.8808,-6.1507],[-37.87048,-6.14539],[-37.8681,-6.1264],[-37.8576,-6.12292],[-37.86389,-6.104],[-37.8324,-6.08221],[-37.84558,-6.05701],[-37.8609,-6.03149],[-37.87,-6.0274],[-37.89691,-6.008],[-37.9267,-6.00739],[-37.93378,-6.0033],[-37.94312,-6.01062],[-37.94611,-6.0202],[-37.95471,-6.02979],[-37.96399,-6.05402],[-37.97998,-6.07422],[-37.94098,-6.09918],[-37.9375,-6.10852],[-37.94379,-6.13318],[-37.9408,-6.15479],[-37.94592,-6.16089],[-37.93323,-6.16199],[-37.92108,-6.15759],[-37.9234,-6.14911],[-37.91699,-6.14191],[-37.91071,-6.14948],[-37.90118,-6.15228],[-37.89429,-6.16138],[-37.90521,-6.17169],[-37.89801,-6.17603],[-37.89008,-6.16718]]]}}