{"type":"Feature","properties":{"id":"BRA.25.64","name":"Nossa Senhora das Dores","level":2,"country":"BRA"},"geometry":{"type":"Polygon","coordinates":[[[-37.11841,-10.40851],[-37.1319,-10.40668],[-37.14423,-10.41718],[-37.1604,-10.41089],[-37.17902,-10.41711],[-37.18762,-10.40808],[-37.2074,-10.40253],[-37.2113,-10.39221],[-37.22821,-10.37708],[-37.23352,-10.36292],[-37.23938,-10.35937],[-37.23962,-10.34198],[-37.24921,-10.32068],[-37.23792,-10.30908],[-37.2406,-10.29773],[-37.25458,-10.30499],[-37.26648,-10.30389],[-37.2879,-10.3183],[-37.29541,-10.32013],[-37.30841,-10.34637],[-37.3172,-10.35199],[-37.32721,-10.37372],[-37.34491,-10.37921],[-37.34021,-10.38531],[-37.34711,-10.3996],[-37.33569,-10.40002],[-37.32489,-10.42218],[-37.3313,-10.43121],[-37.31891,-10.43372],[-37.30859,-10.42639],[-37.29449,-10.44812],[-37.28961,-10.46649],[-37.32501,-10.48328],[-37.35101,-10.49078],[-37.3598,-10.48322],[-37.3468,-10.50677],[-37.31958,-10.54102],[-37.31152,-10.547],[-37.3136,-10.55688],[-37.3042,-10.57318],[-37.297,-10.57642],[-37.28418,-10.57361],[-37.26312,-10.57788],[-37.25031,-10.59442],[-37.21741,-10.61243],[-37.20581,-10.6239],[-37.20581,-10.60828],[-37.20068,-10.59772],[-37.177,-10.58038],[-37.17078,-10.57062],[-37.18079,-10.56281],[-37.13959,-10.50702],[-37.13818,-10.46991],[-37.13611,-10.4527],[-37.12048,-10.44299],[-37.11353,-10.43372],[-37.1098,-10.4187],[-37.11841,-10.40851]]]}}