{"type":"Feature","properties":{"id":"BRA.15.182","name":"Imbaú","level":2,"country":"BRA"},"geometry":{"type":"Polygon","coordinates":[[[-50.61041,-24.39581],[-50.62628,-24.39008],[-50.66882,-24.38269],[-50.68481,-24.3869],[-50.69849,-24.36798],[-50.7016,-24.35101],[-50.71448,-24.33478],[-50.71838,-24.31403],[-50.72321,-24.31311],[-50.72992,-24.32751],[-50.73651,-24.33148],[-50.7536,-24.33282],[-50.75861,-24.35321],[-50.78131,-24.37872],[-50.7937,-24.37701],[-50.80188,-24.388],[-50.82941,-24.39752],[-50.836,-24.4032],[-50.85211,-24.39313],[-50.85712,-24.39478],[-50.86639,-24.41199],[-50.87469,-24.40491],[-50.88379,-24.41211],[-50.86951,-24.4245],[-50.82953,-24.45068],[-50.8299,-24.4585],[-50.81311,-24.46863],[-50.81219,-24.48981],[-50.79761,-24.50012],[-50.79791,-24.51331],[-50.7865,-24.51788],[-50.76282,-24.5351],[-50.74719,-24.54419],[-50.73962,-24.55249],[-50.71918,-24.5611],[-50.7196,-24.54791],[-50.71008,-24.54791],[-50.70001,-24.53839],[-50.6969,-24.5293],[-50.68292,-24.51508],[-50.69049,-24.50891],[-50.68781,-24.49799],[-50.69519,-24.49078],[-50.69128,-24.48383],[-50.67212,-24.48669],[-50.66351,-24.47601],[-50.66528,-24.46429],[-50.65509,-24.45312],[-50.65509,-24.427],[-50.61792,-24.41589],[-50.61041,-24.39581]]]}}