{"type":"Feature","properties":{"id":"BRA.1.136","name":"Barro Alto","level":2,"country":"BRA"},"geometry":{"type":"Polygon","coordinates":[[[-48.75751,-14.86072],[-48.76111,-14.8468],[-48.74799,-14.84491],[-48.75012,-14.83508],[-48.74103,-14.82703],[-48.73999,-14.81158],[-48.72711,-14.81049],[-48.72229,-14.78918],[-48.72791,-14.77942],[-48.71722,-14.76471],[-48.72137,-14.75128],[-48.71411,-14.74121],[-48.71881,-14.73523],[-48.71301,-14.72601],[-48.7243,-14.71832],[-48.73169,-14.70612],[-48.72968,-14.69232],[-48.72461,-14.68573],[-48.72858,-14.67242],[-48.75568,-14.65778],[-48.76031,-14.64478],[-48.77283,-14.64349],[-48.7796,-14.65417],[-48.78223,-14.6662],[-48.79761,-14.6604],[-48.81702,-14.6651],[-48.81842,-14.67621],[-48.82721,-14.6853],[-48.83643,-14.68262],[-48.8432,-14.68939],[-48.85101,-14.68689],[-48.875,-14.6947],[-48.88422,-14.68829],[-48.8819,-14.6806],[-48.90631,-14.67108],[-48.92401,-14.6795],[-48.93848,-14.67719],[-48.9491,-14.68188],[-48.94751,-14.69531],[-48.92841,-14.70911],[-48.91278,-14.7356],[-48.90112,-14.73792],[-48.89252,-14.74591],[-48.8985,-14.76471],[-48.8952,-14.77991],[-48.90723,-14.80353],[-48.9162,-14.83478],[-48.94659,-14.85449],[-48.98499,-14.90723],[-49.00061,-14.9256],[-49.01001,-14.92902],[-49.03949,-14.96289],[-49.04248,-14.97229],[-49.05212,-14.97913],[-49.05579,-15.00012],[-49.04901,-15.00531],[-49.0321,-15.00891],[-49.02679,-15.0202],[-49.0155,-15.02917],[-49.00391,-15.02942],[-48.9967,-15.03693],[-48.99811,-15.05261],[-49.00549,-15.07452],[-49.02679,-15.07831],[-49.04303,-15.09741],[-49.04858,-15.1123],[-49.05798,-15.12048],[-49.07141,-15.12653],[-49.08313,-15.15051],[-49.06848,-15.14331],[-49.05432,-15.14569],[-49.04181,-15.1311],[-49.02472,-15.1311],[-49.00708,-15.11469],[-49.00488,-15.13831],[-48.97968,-15.13458],[-48.97302,-15.14319],[-48.97089,-15.16083],[-48.9599,-15.159],[-48.92609,-15.15991],[-48.90887,-15.1637],[-48.90051,-15.15369],[-48.88708,-15.14423],[-48.88269,-15.12],[-48.87061,-15.11121],[-48.86981,-15.10138],[-48.85291,-15.08459],[-48.85632,-15.07379],[-48.85303,-15.05933],[-48.83228,-15.03979],[-48.83331,-15.03009],[-48.82831,-15.02069],[-48.80859,-15.00549],[-48.80408,-14.99548],[-48.80859,-14.98718],[-48.8053,-14.97668],[-48.80682,-14.95203],[-48.79419,-14.93512],[-48.79742,-14.92981],[-48.79272,-14.91821],[-48.78339,-14.90918],[-48.77002,-14.9035],[-48.76001,-14.88831],[-48.76392,-14.875],[-48.75751,-14.86072]]]}}