{"type":"Feature","properties":{"id":"BRA.14.248","name":"Itapuca","level":2,"country":"BRA"},"geometry":{"type":"MultiPolygon","coordinates":[[[[-52.06329,-28.80951],[-52.06091,-28.80579],[-52.07471,-28.78522],[-52.06842,-28.77222],[-52.07751,-28.75812],[-52.06848,-28.74841],[-52.07892,-28.74103],[-52.08148,-28.74542],[-52.10809,-28.74091],[-52.13672,-28.74213],[-52.1557,-28.75153],[-52.18671,-28.75238],[-52.19391,-28.742],[-52.21069,-28.75598],[-52.2254,-28.76208],[-52.23871,-28.75739],[-52.2475,-28.74982],[-52.2486,-28.73651],[-52.2561,-28.73523],[-52.258,-28.72083],[-52.24609,-28.70612],[-52.24609,-28.69928],[-52.25861,-28.6864],[-52.2785,-28.69611],[-52.27692,-28.72852],[-52.27869,-28.7359],[-52.29468,-28.74359],[-52.29541,-28.7616],[-52.30389,-28.77258],[-52.3053,-28.78473],[-52.3205,-28.79651],[-52.32062,-28.80518],[-52.32819,-28.81329],[-52.2984,-28.80609],[-52.28351,-28.81311],[-52.27039,-28.80768],[-52.25488,-28.82343],[-52.24408,-28.8288],[-52.2309,-28.81201],[-52.21411,-28.8092],[-52.19641,-28.82001],[-52.1712,-28.82361],[-52.16199,-28.81232],[-52.14288,-28.81342],[-52.13177,-28.80481],[-52.10809,-28.81122],[-52.06927,-28.8053],[-52.06329,-28.80951]]],[[[-52.25861,-28.6864],[-52.2569,-28.68048],[-52.25952,-28.68329],[-52.25861,-28.6864]]]]}}