{"type":"Feature","properties":{"id":"BRA.9.10","name":"Praia Norte","level":2,"country":"BRA"},"geometry":{"type":"Polygon","coordinates":[[[-47.83911,-5.59961],[-47.80652,-5.55878],[-47.79919,-5.5564],[-47.79358,-5.54279],[-47.75311,-5.55688],[-47.74799,-5.56989],[-47.74048,-5.55682],[-47.73932,-5.54651],[-47.73199,-5.53699],[-47.72601,-5.51501],[-47.71332,-5.50452],[-47.70319,-5.46429],[-47.70538,-5.44641],[-47.6958,-5.43341],[-47.68121,-5.41962],[-47.68121,-5.41553],[-47.72101,-5.39441],[-47.74432,-5.38013],[-47.76831,-5.37811],[-47.79291,-5.3847],[-47.82861,-5.38629],[-47.82593,-5.40668],[-47.8299,-5.41681],[-47.8255,-5.43073],[-47.82959,-5.44379],[-47.8443,-5.44409],[-47.8551,-5.4541],[-47.85321,-5.47522],[-47.86578,-5.48669],[-47.8595,-5.49402],[-47.86548,-5.5116],[-47.85669,-5.52521],[-47.85968,-5.54791],[-47.85999,-5.56909],[-47.8382,-5.59131],[-47.83911,-5.59961]]]}}