{"type":"Feature","properties":{"id":"BRA.14.126","name":"Caçapava do Sul","level":2,"country":"BRA"},"geometry":{"type":"Polygon","coordinates":[[[-53.44281,-30.96429],[-53.43573,-30.94971],[-53.4173,-30.96582],[-53.41772,-30.95349],[-53.41339,-30.93048],[-53.40912,-30.92322],[-53.41852,-30.9104],[-53.43158,-30.88647],[-53.42328,-30.87988],[-53.4187,-30.85461],[-53.41461,-30.84601],[-53.41339,-30.80579],[-53.37701,-30.77838],[-53.36011,-30.77661],[-53.34961,-30.78223],[-53.32721,-30.77661],[-53.30542,-30.78119],[-53.28821,-30.76758],[-53.2738,-30.78271],[-53.25909,-30.78638],[-53.23798,-30.78192],[-53.22882,-30.77319],[-53.21667,-30.76923],[-53.2157,-30.74579],[-53.21228,-30.72968],[-53.18292,-30.71088],[-53.19031,-30.70563],[-53.185,-30.69159],[-53.20099,-30.68011],[-53.19128,-30.6767],[-53.1875,-30.65253],[-53.20331,-30.63898],[-53.20111,-30.63318],[-53.21991,-30.62579],[-53.23389,-30.60138],[-53.24011,-30.59772],[-53.2486,-30.57452],[-53.22992,-30.57092],[-53.2345,-30.55933],[-53.229,-30.54541],[-53.242,-30.53278],[-53.23328,-30.5213],[-53.21649,-30.52112],[-53.21942,-30.49841],[-53.22571,-30.48889],[-53.23108,-30.46948],[-53.21442,-30.4646],[-53.21332,-30.45178],[-53.21661,-30.44708],[-53.20782,-30.4317],[-53.19843,-30.42871],[-53.19641,-30.41669],[-53.1889,-30.41022],[-53.19922,-30.40381],[-53.19208,-30.39569],[-53.17682,-30.39429],[-53.17822,-30.37939],[-53.17041,-30.37378],[-53.17731,-30.35852],[-53.16992,-30.35071],[-53.18842,-30.34009],[-53.17889,-30.32782],[-53.18372,-30.31409],[-53.19983,-30.31238],[-53.20581,-30.29883],[-53.21521,-30.29761],[-53.21991,-30.30878],[-53.21899,-30.32269],[-53.24042,-30.33319],[-53.25549,-30.33661],[-53.26941,-30.34528],[-53.28119,-30.34521],[-53.3172,-30.32672],[-53.32428,-30.32721],[-53.33649,-30.31879],[-53.33313,-30.30841],[-53.34271,-30.29492],[-53.34479,-30.26172],[-53.35181,-30.24841],[-53.33948,-30.22729],[-53.33179,-30.22302],[-53.32849,-30.20581],[-53.30688,-30.17273],[-53.30408,-30.16443],[-53.30731,-30.15039],[-53.30182,-30.13702],[-53.32971,-30.14832],[-53.34192,-30.16119],[-53.35883,-30.18591],[-53.38251,-30.20032],[-53.39081,-30.2124],[-53.41418,-30.21143],[-53.42029,-30.23071],[-53.43591,-30.23871],[-53.4516,-30.25171],[-53.45819,-30.26093],[-53.47241,-30.27112],[-53.47229,-30.28223],[-53.48273,-30.29572],[-53.46338,-30.30103],[-53.46869,-30.31311],[-53.46649,-30.32941],[-53.48273,-30.34332],[-53.50171,-30.37988],[-53.51062,-30.38568],[-53.5166,-30.39709],[-53.52759,-30.4032],[-53.54651,-30.39301],[-53.54883,-30.36371],[-53.61401,-30.37781],[-53.63348,-30.39362],[-53.63458,-30.4032],[-53.64331,-30.41119],[-53.64789,-30.42572],[-53.65588,-30.43231],[-53.69238,-30.42102],[-53.70032,-30.41602],[-53.70532,-30.40228],[-53.71692,-30.40631],[-53.71503,-30.41431],[-53.7215,-30.42328],[-53.71381,-30.4364],[-53.71991,-30.4538],[-53.71259,-30.47241],[-53.71259,-30.48383],[-53.7254,-30.48761],[-53.74292,-30.51251],[-53.74683,-30.51361],[-53.742,-30.526],[-53.74701,-30.53119],[-53.7373,-30.54919],[-53.73822,-30.56989],[-53.7536,-30.578],[-53.76898,-30.5976],[-53.77429,-30.6001],[-53.7829,-30.6286],[-53.80249,-30.63348],[-53.79669,-30.6427],[-53.80072,-30.65662],[-53.79413,-30.67609],[-53.79791,-30.70502],[-53.81342,-30.71667],[-53.80389,-30.72919],[-53.81769,-30.73993],[-53.82123,-30.75],[-53.81439,-30.75922],[-53.80353,-30.76532],[-53.80499,-30.7865],[-53.78778,-30.79852],[-53.76849,-30.79779],[-53.76831,-30.78888],[-53.75769,-30.77502],[-53.74622,-30.77258],[-53.73389,-30.78308],[-53.72223,-30.78741],[-53.70709,-30.80109],[-53.70038,-30.8161],[-53.68488,-30.81293],[-53.6897,-30.82532],[-53.66711,-30.84271],[-53.65228,-30.84058],[-53.64783,-30.86951],[-53.59943,-30.86078],[-53.60211,-30.87158],[-53.59851,-30.8866],[-53.60553,-30.89429],[-53.59741,-30.90961],[-53.60101,-30.91949],[-53.59009,-30.92468],[-53.58032,-30.91919],[-53.57288,-30.90851],[-53.56268,-30.92181],[-53.52838,-30.94519],[-53.50293,-30.9397],[-53.5036,-30.95001],[-53.4967,-30.96149],[-53.4892,-30.95819],[-53.4809,-30.9679],[-53.47028,-30.95599],[-53.45581,-30.95758],[-53.45331,-30.96729],[-53.44281,-30.96429]]]}}