{"type":"Feature","properties":{"id":"BRA.21.32","name":"Águia Branca","level":2,"country":"BRA"},"geometry":{"type":"Polygon","coordinates":[[[-40.76251,-18.8476],[-40.77258,-18.8562],[-40.79309,-18.85681],[-40.80219,-18.84479],[-40.81708,-18.84222],[-40.82629,-18.8476],[-40.83331,-18.86029],[-40.84772,-18.8576],[-40.86212,-18.86298],[-40.85681,-18.87653],[-40.86261,-18.89581],[-40.88123,-18.89319],[-40.8985,-18.90051],[-40.90601,-18.94043],[-40.85779,-18.94031],[-40.8573,-19.02063],[-40.8374,-19.02191],[-40.81543,-19.01569],[-40.80249,-19.02399],[-40.79053,-19.02533],[-40.78333,-19.01941],[-40.78491,-19.00983],[-40.77899,-19.0022],[-40.76581,-18.99463],[-40.75702,-18.99921],[-40.73962,-19.02863],[-40.72949,-19.03522],[-40.72632,-19.04742],[-40.71869,-19.05658],[-40.70349,-19.0611],[-40.70709,-19.07361],[-40.71472,-19.07788],[-40.7171,-19.0965],[-40.71033,-19.10889],[-40.69989,-19.10773],[-40.68628,-19.11261],[-40.68829,-19.12402],[-40.6983,-19.13251],[-40.6908,-19.14893],[-40.68848,-19.13177],[-40.67908,-19.12372],[-40.68292,-19.10468],[-40.6731,-19.09808],[-40.65942,-19.09979],[-40.65442,-19.09052],[-40.64532,-19.086],[-40.61713,-19.08148],[-40.59851,-19.06378],[-40.57898,-19.06799],[-40.55548,-19.04633],[-40.5639,-19.04291],[-40.57269,-19.05219],[-40.60358,-19.04602],[-40.61639,-19.03961],[-40.6217,-19.0238],[-40.63739,-19.02448],[-40.6452,-19.01251],[-40.63428,-18.98779],[-40.65198,-18.98041],[-40.646,-18.96869],[-40.65582,-18.94641],[-40.6734,-18.94409],[-40.67688,-18.93408],[-40.70032,-18.93158],[-40.7016,-18.94049],[-40.71002,-18.94153],[-40.72021,-18.93433],[-40.73163,-18.93768],[-40.74078,-18.93329],[-40.73859,-18.901],[-40.73199,-18.89679],[-40.73651,-18.88342],[-40.7146,-18.87408],[-40.71161,-18.86371],[-40.72272,-18.84912],[-40.73859,-18.84998],[-40.745,-18.84271],[-40.76251,-18.8476]]]}}