{"type":"Feature","properties":{"id":"BRA.6.150","name":"Bom Jesus das Selvas","level":2,"country":"BRA"},"geometry":{"type":"Polygon","coordinates":[[[-46.91901,-4.85059],[-46.4649,-4.85089],[-46.47198,-4.84198],[-46.474,-4.82123],[-46.48437,-4.80878],[-46.47791,-4.7818],[-46.47137,-4.7774],[-46.461,-4.76251],[-46.4679,-4.74951],[-46.4671,-4.73969],[-46.47821,-4.72668],[-46.48633,-4.7218],[-46.47949,-4.70618],[-46.48163,-4.69208],[-46.49042,-4.6817],[-46.49139,-4.66632],[-46.47632,-4.6521],[-46.48969,-4.62042],[-46.48932,-4.59692],[-46.49219,-4.591],[-46.49371,-4.5556],[-46.48071,-4.55109],[-46.48529,-4.53473],[-46.49103,-4.52917],[-46.49341,-4.50769],[-46.49811,-4.49512],[-46.49078,-4.474],[-46.49902,-4.46552],[-46.50153,-4.44012],[-46.49939,-4.42841],[-46.4928,-4.41779],[-46.50098,-4.40942],[-46.50122,-4.39282],[-46.50531,-4.37952],[-46.49371,-4.35388],[-46.49823,-4.33612],[-46.49091,-4.32611],[-46.48822,-4.30878],[-46.49341,-4.30261],[-46.49371,-4.28943],[-46.4751,-4.27411],[-46.48529,-4.2475],[-46.47852,-4.23248],[-46.48022,-4.22333],[-46.47919,-4.19989],[-46.48749,-4.20209],[-46.49573,-4.21283],[-46.51978,-4.23071],[-46.53333,-4.24292],[-46.53162,-4.25348],[-46.53839,-4.26758],[-46.55011,-4.27509],[-46.55682,-4.27289],[-46.57751,-4.29291],[-46.58911,-4.29968],[-46.5921,-4.30762],[-46.61108,-4.31708],[-46.63281,-4.33459],[-46.64331,-4.33569],[-46.65002,-4.34198],[-46.67761,-4.3421],[-46.68799,-4.35608],[-46.70032,-4.35669],[-46.72131,-4.37421],[-46.73969,-4.38239],[-46.7677,-4.3728],[-46.7804,-4.37531],[-46.79852,-4.37433],[-46.82318,-4.37793],[-46.83911,-4.38721],[-46.841,-4.39551],[-46.84448,-4.41571],[-46.85718,-4.43268],[-46.85901,-4.45612],[-46.86798,-4.46881],[-46.89648,-4.48523],[-46.90271,-4.50879],[-46.89789,-4.51703],[-46.90912,-4.54102],[-46.92712,-4.56561],[-46.92859,-4.57501],[-46.93738,-4.58319],[-46.93878,-4.59381],[-46.935,-4.60718],[-46.94458,-4.61938],[-46.9408,-4.64209],[-46.9361,-4.64783],[-46.93701,-4.65851],[-46.93372,-4.67499],[-46.92651,-4.68231],[-46.93372,-4.69373],[-46.93561,-4.70923],[-46.93329,-4.71771],[-46.93799,-4.72913],[-46.9375,-4.75012],[-46.9259,-4.76978],[-46.92841,-4.78662],[-46.91962,-4.80573],[-46.92187,-4.83173],[-46.92889,-4.84869],[-46.91901,-4.85059]]]}}