{"type":"Feature","properties":{"id":"BRA.1.245","name":"Maurilândia","level":2,"country":"BRA"},"geometry":{"type":"Polygon","coordinates":[[[-50.18848,-18.06018],[-50.19519,-18.05591],[-50.20709,-18.03601],[-50.21771,-18.0285],[-50.22778,-18.01349],[-50.25439,-18.03168],[-50.26233,-18.02979],[-50.29053,-18.03021],[-50.29559,-18.0224],[-50.28351,-18.00311],[-50.29022,-17.99811],[-50.30762,-18.00781],[-50.30792,-17.99152],[-50.32141,-17.98792],[-50.3288,-17.97852],[-50.32898,-17.96912],[-50.33832,-17.96222],[-50.3443,-17.94342],[-50.35718,-17.94702],[-50.36731,-17.94373],[-50.37329,-17.93262],[-50.3866,-17.93561],[-50.40179,-17.92981],[-50.42133,-17.94629],[-50.44208,-17.94171],[-50.4682,-17.95148],[-50.4693,-17.97571],[-50.48071,-18.00031],[-50.50482,-18.01392],[-50.5072,-18.01788],[-50.43848,-18.05182],[-50.43518,-18.07581],[-50.42731,-18.08752],[-50.42712,-18.09479],[-50.39929,-18.12952],[-50.3941,-18.14038],[-50.38733,-18.14252],[-50.3783,-18.15381],[-50.35608,-18.15887],[-50.35162,-18.15552],[-50.34418,-18.13452],[-50.3219,-18.11359],[-50.31342,-18.11371],[-50.30109,-18.0993],[-50.3028,-18.09241],[-50.28381,-18.07959],[-50.26099,-18.07751],[-50.25128,-18.07092],[-50.2403,-18.07819],[-50.22522,-18.07782],[-50.21143,-18.0694],[-50.19531,-18.06738],[-50.18848,-18.06018]]]}}