{"type":"Feature","properties":{"id":"BRA.12.552","name":"Uberaba","level":2,"country":"BRA"},"geometry":{"type":"Polygon","coordinates":[[[-47.98041,-20.03522],[-47.95673,-20.04761],[-47.94598,-20.06049],[-47.94348,-20.09198],[-47.92822,-20.11243],[-47.89911,-20.12671],[-47.89441,-20.12433],[-47.87451,-20.09668],[-47.86981,-20.07611],[-47.86963,-20.06281],[-47.86072,-20.05481],[-47.86072,-20.04608],[-47.87329,-20.03729],[-47.87579,-20.02142],[-47.85968,-19.99292],[-47.85181,-19.98932],[-47.85529,-19.97772],[-47.83838,-19.95868],[-47.83752,-19.94489],[-47.8609,-19.90631],[-47.85828,-19.89789],[-47.86188,-19.8811],[-47.84692,-19.87671],[-47.84229,-19.86768],[-47.82642,-19.87091],[-47.82092,-19.8847],[-47.80481,-19.89288],[-47.79858,-19.90302],[-47.78558,-19.90582],[-47.76489,-19.90161],[-47.75818,-19.90332],[-47.74658,-19.90222],[-47.73108,-19.89111],[-47.73071,-19.87689],[-47.71191,-19.87671],[-47.7066,-19.86469],[-47.69562,-19.86133],[-47.68549,-19.85162],[-47.69299,-19.83521],[-47.69281,-19.81628],[-47.67169,-19.7757],[-47.6618,-19.77032],[-47.6496,-19.7522],[-47.63898,-19.72998],[-47.64691,-19.70709],[-47.64661,-19.6947],[-47.63788,-19.68152],[-47.60413,-19.67151],[-47.60522,-19.65302],[-47.59912,-19.64081],[-47.5838,-19.63092],[-47.58508,-19.62402],[-47.61188,-19.59851],[-47.61713,-19.57611],[-47.61481,-19.56641],[-47.63452,-19.55969],[-47.6601,-19.56531],[-47.68378,-19.56671],[-47.70178,-19.56268],[-47.72021,-19.54901],[-47.73798,-19.54449],[-47.74908,-19.5285],[-47.76672,-19.51978],[-47.77948,-19.49579],[-47.77051,-19.47418],[-47.77319,-19.46429],[-47.7854,-19.43921],[-47.77692,-19.42291],[-47.7829,-19.41168],[-47.78992,-19.38708],[-47.79572,-19.3764],[-47.79218,-19.35962],[-47.79822,-19.34778],[-47.79822,-19.33331],[-47.7923,-19.32098],[-47.7981,-19.30902],[-47.79382,-19.27368],[-47.78821,-19.25452],[-47.80298,-19.23602],[-47.80609,-19.22479],[-47.80121,-19.20032],[-47.80951,-19.17871],[-47.81873,-19.17401],[-47.83429,-19.15588],[-47.84161,-19.13062],[-47.84851,-19.11951],[-47.85168,-19.09528],[-47.8703,-19.086],[-47.87091,-19.09418],[-47.88672,-19.10651],[-47.89478,-19.1037],[-47.90118,-19.09149],[-47.91382,-19.09631],[-47.91101,-19.10608],[-47.9198,-19.13458],[-47.91553,-19.15698],[-47.909,-19.17218],[-47.90363,-19.21082],[-47.91162,-19.2207],[-47.91351,-19.23151],[-47.90302,-19.26611],[-47.9292,-19.26703],[-47.92749,-19.27661],[-47.94849,-19.29468],[-47.9472,-19.3111],[-47.9538,-19.33191],[-47.9599,-19.33698],[-47.97461,-19.33228],[-47.98859,-19.3111],[-47.98938,-19.29883],[-47.9856,-19.28448],[-47.99341,-19.27399],[-47.99402,-19.2641],[-48.00061,-19.25488],[-48.01978,-19.25012],[-48.02722,-19.24432],[-48.0556,-19.24011],[-48.07068,-19.2403],[-48.07922,-19.245],[-48.08752,-19.24011],[-48.0918,-19.22858],[-48.08881,-19.21649],[-48.10211,-19.20502],[-48.11212,-19.19031],[-48.10699,-19.17981],[-48.12891,-19.17908],[-48.14331,-19.16919],[-48.14911,-19.159],[-48.16492,-19.15588],[-48.17932,-19.14929],[-48.18829,-19.15131],[-48.1908,-19.17291],[-48.22809,-19.18988],[-48.23151,-19.20221],[-48.22443,-19.21021],[-48.2265,-19.21802],[-48.24121,-19.2276],[-48.26599,-19.2356],[-48.26709,-19.24591],[-48.28351,-19.25342],[-48.29901,-19.26929],[-48.30731,-19.28241],[-48.31403,-19.28619],[-48.33832,-19.28241],[-48.33582,-19.30029],[-48.32111,-19.31268],[-48.31873,-19.31848],[-48.32861,-19.32819],[-48.33179,-19.34558],[-48.34271,-19.3443],[-48.3476,-19.36731],[-48.3399,-19.38098],[-48.3432,-19.3924],[-48.33978,-19.39893],[-48.35638,-19.41211],[-48.34113,-19.42871],[-48.31598,-19.43799],[-48.30829,-19.44641],[-48.28259,-19.44409],[-48.27539,-19.43951],[-48.2666,-19.44458],[-48.2594,-19.46082],[-48.24799,-19.47461],[-48.23688,-19.48309],[-48.22559,-19.48572],[-48.2146,-19.50562],[-48.19092,-19.5224],[-48.18372,-19.54218],[-48.17419,-19.539],[-48.16138,-19.54181],[-48.14661,-19.56482],[-48.14758,-19.57861],[-48.16541,-19.59662],[-48.16931,-19.61621],[-48.17511,-19.62469],[-48.1684,-19.6391],[-48.16901,-19.64691],[-48.17963,-19.66443],[-48.17719,-19.67401],[-48.1853,-19.6947],[-48.20569,-19.69812],[-48.21411,-19.69531],[-48.22278,-19.70221],[-48.24951,-19.70581],[-48.26147,-19.71558],[-48.2829,-19.7229],[-48.31812,-19.72949],[-48.32678,-19.73932],[-48.32031,-19.74518],[-48.29181,-19.75671],[-48.27411,-19.75598],[-48.27258,-19.77362],[-48.24872,-19.823],[-48.2356,-19.84119],[-48.2182,-19.84839],[-48.19598,-19.86353],[-48.17023,-19.8728],[-48.1568,-19.88202],[-48.14203,-19.87268],[-48.1366,-19.85919],[-48.12482,-19.84961],[-48.11688,-19.8515],[-48.10773,-19.84491],[-48.09808,-19.85992],[-48.0838,-19.86261],[-48.0694,-19.85309],[-48.04871,-19.86621],[-48.0321,-19.87958],[-48.02679,-19.88818],[-48.01178,-19.89508],[-47.99341,-19.89142],[-47.99768,-19.90289],[-48.008,-19.91058],[-48.01898,-19.93372],[-48.03448,-19.9516],[-48.01019,-19.96222],[-48.01233,-19.97101],[-47.9939,-19.995],[-47.98743,-20.02252],[-47.98041,-20.03522]]]}}