{"type":"Feature","properties":{"id":"BRA.12.77","name":"Carlos Chagas","level":2,"country":"BRA"},"geometry":{"type":"Polygon","coordinates":[[[-40.60651,-17.35602],[-40.61731,-17.35791],[-40.62268,-17.37579],[-40.63751,-17.39392],[-40.65363,-17.39581],[-40.664,-17.39172],[-40.66919,-17.396],[-40.68292,-17.39203],[-40.6897,-17.38458],[-40.68268,-17.36841],[-40.68781,-17.35419],[-40.69751,-17.34943],[-40.71039,-17.35999],[-40.72571,-17.34381],[-40.73969,-17.34821],[-40.74872,-17.34631],[-40.77191,-17.34741],[-40.78558,-17.36249],[-40.79572,-17.35718],[-40.8006,-17.36823],[-40.81531,-17.3764],[-40.8512,-17.35168],[-40.85431,-17.34161],[-40.87469,-17.34082],[-40.88391,-17.35229],[-40.89288,-17.34021],[-40.90363,-17.33398],[-40.92279,-17.33478],[-40.94391,-17.32959],[-40.95239,-17.3327],[-40.95813,-17.34552],[-40.94812,-17.35809],[-40.95819,-17.37012],[-40.95923,-17.3772],[-40.95428,-17.40082],[-40.94458,-17.40649],[-40.94531,-17.41461],[-40.9635,-17.41913],[-40.97418,-17.43469],[-40.96448,-17.44922],[-40.95361,-17.45428],[-40.94672,-17.46838],[-40.95001,-17.48022],[-40.9364,-17.47998],[-40.92371,-17.48853],[-40.91919,-17.50262],[-40.92719,-17.51782],[-40.93903,-17.513],[-40.95032,-17.52759],[-40.95721,-17.54578],[-40.94171,-17.58148],[-40.94879,-17.59161],[-40.96808,-17.60132],[-40.98352,-17.59991],[-40.98798,-17.58099],[-40.99811,-17.58423],[-41,-17.5918],[-41.03888,-17.60571],[-41.04761,-17.60431],[-41.0592,-17.61902],[-41.08002,-17.60498],[-41.0871,-17.60419],[-41.09161,-17.61639],[-41.10303,-17.61493],[-41.11871,-17.62872],[-41.12128,-17.63611],[-41.13489,-17.64899],[-41.15649,-17.6441],[-41.16681,-17.6344],[-41.18542,-17.62592],[-41.19891,-17.60883],[-41.21552,-17.62622],[-41.18213,-17.64893],[-41.1723,-17.66339],[-41.16998,-17.67401],[-41.16351,-17.6803],[-41.14642,-17.68121],[-41.12732,-17.71808],[-41.13171,-17.73279],[-41.12329,-17.74091],[-41.13098,-17.75281],[-41.1391,-17.75732],[-41.14081,-17.77039],[-41.14972,-17.77698],[-41.13922,-17.79858],[-41.13049,-17.80499],[-41.1156,-17.8045],[-41.10199,-17.82501],[-41.08862,-17.83423],[-41.08441,-17.85901],[-41.09778,-17.84558],[-41.10303,-17.85229],[-41.1026,-17.86823],[-41.12231,-17.88843],[-41.13831,-17.88312],[-41.15271,-17.90259],[-41.14789,-17.9162],[-41.1496,-17.93158],[-41.13812,-17.93951],[-41.1413,-17.94641],[-41.12402,-17.95459],[-41.11072,-17.94641],[-41.10162,-17.95349],[-41.1015,-17.97479],[-41.08911,-17.98059],[-41.08539,-17.99701],[-41.06488,-17.99969],[-41.05182,-18.0047],[-41.04761,-17.99261],[-41.03229,-17.9859],[-41.0285,-17.96832],[-41.01709,-17.97601],[-41.0083,-17.97052],[-41.01251,-17.95898],[-41.005,-17.9505],[-40.98743,-17.95813],[-40.96741,-17.95148],[-40.94739,-17.96912],[-40.93402,-17.961],[-40.9198,-17.9657],[-40.92108,-17.97571],[-40.91083,-17.98779],[-40.90308,-17.98608],[-40.8905,-17.9823],[-40.8822,-17.97083],[-40.87738,-17.98199],[-40.86298,-17.98822],[-40.84772,-17.96753],[-40.83002,-17.95428],[-40.82202,-17.96301],[-40.8075,-17.95251],[-40.7981,-17.95728],[-40.79309,-17.94678],[-40.79279,-17.93268],[-40.78491,-17.92279],[-40.78979,-17.91479],[-40.78638,-17.90259],[-40.77411,-17.896],[-40.76318,-17.89722],[-40.75568,-17.88562],[-40.73651,-17.87671],[-40.72321,-17.88123],[-40.71802,-17.8725],[-40.69568,-17.87091],[-40.68683,-17.86481],[-40.68402,-17.85602],[-40.67328,-17.862],[-40.6618,-17.86072],[-40.625,-17.86371],[-40.63141,-17.85229],[-40.60571,-17.83582],[-40.59821,-17.82611],[-40.59637,-17.815],[-40.57452,-17.81641],[-40.54962,-17.81079],[-40.53802,-17.80341],[-40.4986,-17.78961],[-40.48761,-17.78192],[-40.49933,-17.77301],[-40.51941,-17.77698],[-40.5329,-17.77429],[-40.53711,-17.76031],[-40.55219,-17.74799],[-40.5575,-17.7384],[-40.58893,-17.7345],[-40.60522,-17.72882],[-40.61322,-17.71881],[-40.6084,-17.70068],[-40.6109,-17.68903],[-40.59149,-17.66791],[-40.59113,-17.65521],[-40.59918,-17.65192],[-40.60309,-17.6344],[-40.62488,-17.58978],[-40.62042,-17.5777],[-40.60669,-17.5658],[-40.59912,-17.55402],[-40.57959,-17.54352],[-40.56799,-17.5282],[-40.55951,-17.5224],[-40.54498,-17.50043],[-40.54541,-17.48761],[-40.55231,-17.47632],[-40.54041,-17.4679],[-40.54431,-17.45728],[-40.53839,-17.4502],[-40.52142,-17.44678],[-40.55408,-17.43549],[-40.57001,-17.41589],[-40.57849,-17.4137],[-40.59668,-17.42059],[-40.60858,-17.41779],[-40.62311,-17.40479],[-40.6142,-17.39758],[-40.5993,-17.39178],[-40.59888,-17.3645],[-40.60651,-17.35602]]]}}