{"type":"Feature","properties":{"id":"BRA.2.75","name":"Bananal","level":2,"country":"BRA"},"geometry":{"type":"Polygon","coordinates":[[[-44.31628,-22.84332],[-44.3064,-22.83209],[-44.28699,-22.82861],[-44.2832,-22.83508],[-44.26929,-22.82941],[-44.26141,-22.80811],[-44.24701,-22.80359],[-44.24011,-22.79199],[-44.25629,-22.78589],[-44.25049,-22.75812],[-44.2428,-22.7547],[-44.22961,-22.7356],[-44.21899,-22.7323],[-44.20068,-22.73499],[-44.20251,-22.71619],[-44.18652,-22.71198],[-44.17401,-22.70282],[-44.17639,-22.69269],[-44.1684,-22.68781],[-44.16449,-22.67181],[-44.172,-22.65887],[-44.19019,-22.64832],[-44.18488,-22.63782],[-44.19049,-22.63123],[-44.20441,-22.62561],[-44.20428,-22.61652],[-44.2215,-22.61548],[-44.2323,-22.60858],[-44.24841,-22.60681],[-44.26031,-22.60962],[-44.26813,-22.6004],[-44.28821,-22.60748],[-44.2951,-22.6004],[-44.31989,-22.59552],[-44.32458,-22.5896],[-44.34241,-22.58789],[-44.3512,-22.59949],[-44.34991,-22.60919],[-44.3609,-22.6123],[-44.36652,-22.62408],[-44.38318,-22.6275],[-44.37659,-22.65228],[-44.38281,-22.65558],[-44.39539,-22.67828],[-44.39331,-22.68939],[-44.40759,-22.71069],[-44.41663,-22.73102],[-44.42511,-22.72791],[-44.4538,-22.74011],[-44.46118,-22.73608],[-44.48029,-22.74091],[-44.48431,-22.74951],[-44.49658,-22.7558],[-44.50922,-22.76941],[-44.49249,-22.7666],[-44.48761,-22.77582],[-44.4707,-22.77148],[-44.46722,-22.78271],[-44.48743,-22.79822],[-44.49518,-22.80792],[-44.50092,-22.83832],[-44.49609,-22.8476],[-44.48419,-22.84692],[-44.4765,-22.85822],[-44.4798,-22.86652],[-44.46692,-22.8844],[-44.43762,-22.87311],[-44.43262,-22.86139],[-44.422,-22.84998],[-44.40979,-22.84662],[-44.39972,-22.8551],[-44.3916,-22.85278],[-44.38123,-22.85828],[-44.33191,-22.84259],[-44.3255,-22.83801],[-44.31628,-22.84332]]]}}