{"type":"Feature","properties":{"id":"BRA.16.142","name":"Frei Rogério","level":2,"country":"BRA"},"geometry":{"type":"Polygon","coordinates":[[[-50.76581,-27.30591],[-50.76849,-27.28461],[-50.75781,-27.27917],[-50.7406,-27.28619],[-50.7323,-27.27979],[-50.7392,-27.27039],[-50.74982,-27.27081],[-50.75891,-27.25891],[-50.74573,-27.24878],[-50.72968,-27.25488],[-50.73322,-27.23578],[-50.74078,-27.22589],[-50.7229,-27.22302],[-50.72968,-27.20221],[-50.7171,-27.19098],[-50.70282,-27.1886],[-50.68262,-27.15613],[-50.7016,-27.15271],[-50.70941,-27.14679],[-50.70081,-27.13647],[-50.70868,-27.1369],[-50.72388,-27.13562],[-50.73688,-27.12042],[-50.7561,-27.12341],[-50.78241,-27.11841],[-50.82111,-27.15271],[-50.8277,-27.16052],[-50.8252,-27.17139],[-50.8382,-27.1842],[-50.82599,-27.19232],[-50.82599,-27.20361],[-50.81891,-27.20691],[-50.82111,-27.22968],[-50.81018,-27.23798],[-50.79639,-27.24158],[-50.7876,-27.25159],[-50.79962,-27.26233],[-50.79309,-27.26801],[-50.77771,-27.26721],[-50.77509,-27.28601],[-50.77802,-27.29431],[-50.76581,-27.30591]]]}}