{"type":"Feature","properties":{"id":"BRA.2.488","name":"Guarulhos","level":2,"country":"BRA"},"geometry":{"type":"Polygon","coordinates":[[[-46.33502,-23.33313],[-46.349,-23.3291],[-46.35791,-23.31799],[-46.35651,-23.28888],[-46.36432,-23.27411],[-46.38141,-23.27881],[-46.38971,-23.28748],[-46.39948,-23.28851],[-46.40448,-23.3006],[-46.41852,-23.31403],[-46.44373,-23.34088],[-46.44818,-23.35028],[-46.4455,-23.35822],[-46.46698,-23.35699],[-46.47528,-23.36188],[-46.48633,-23.35809],[-46.49463,-23.34839],[-46.50958,-23.35492],[-46.52179,-23.35571],[-46.53693,-23.36261],[-46.54468,-23.37579],[-46.54523,-23.38531],[-46.5556,-23.39771],[-46.55652,-23.40912],[-46.56622,-23.41559],[-46.56519,-23.43903],[-46.5705,-23.45642],[-46.56158,-23.47388],[-46.56183,-23.49982],[-46.55621,-23.50909],[-46.54651,-23.50598],[-46.52301,-23.48541],[-46.5105,-23.4787],[-46.48218,-23.47681],[-46.46082,-23.48291],[-46.43091,-23.47681],[-46.42688,-23.47211],[-46.41071,-23.47083],[-46.40131,-23.48608],[-46.3866,-23.47589],[-46.39172,-23.4621],[-46.39288,-23.4483],[-46.38501,-23.44513],[-46.38281,-23.4339],[-46.36188,-23.43512],[-46.3775,-23.40179],[-46.36871,-23.39319],[-46.37128,-23.38678],[-46.3703,-23.36591],[-46.34741,-23.3479],[-46.33502,-23.33313]]]}}