{"type":"Feature","properties":{"id":"BRA.15.313","name":"Carambeí","level":2,"country":"BRA"},"geometry":{"type":"Polygon","coordinates":[[[-49.97778,-25.02118],[-49.95972,-25.01172],[-49.95361,-24.99512],[-49.95221,-24.98102],[-49.93842,-24.95508],[-49.94,-24.9472],[-49.961,-24.9353],[-49.97681,-24.94318],[-49.98163,-24.93842],[-49.98273,-24.92462],[-49.992,-24.91528],[-50.00952,-24.91321],[-50.01672,-24.89838],[-50.03308,-24.87341],[-50.0437,-24.86401],[-50.073,-24.85492],[-50.07672,-24.84619],[-50.06781,-24.83838],[-50.07758,-24.81927],[-50.09198,-24.80841],[-50.1095,-24.8075],[-50.13019,-24.82092],[-50.1488,-24.81061],[-50.14948,-24.78381],[-50.16553,-24.77081],[-50.17078,-24.76172],[-50.18591,-24.75641],[-50.21771,-24.76141],[-50.23138,-24.76831],[-50.24628,-24.7652],[-50.27728,-24.78021],[-50.2948,-24.77771],[-50.30371,-24.7821],[-50.3064,-24.8042],[-50.2959,-24.81873],[-50.29651,-24.83148],[-50.30499,-24.83368],[-50.30231,-24.85468],[-50.32721,-24.84558],[-50.35553,-24.84668],[-50.33893,-24.87091],[-50.32068,-24.86169],[-50.31671,-24.86578],[-50.33893,-24.88202],[-50.32318,-24.8924],[-50.30389,-24.922],[-50.28229,-24.93121],[-50.26642,-24.93451],[-50.25293,-24.95221],[-50.22168,-24.96033],[-50.20251,-24.9585],[-50.17822,-24.96332],[-50.15973,-24.98389],[-50.16241,-24.99481],[-50.14099,-25.00879],[-50.12579,-25.01093],[-50.10773,-25.0014],[-50.0741,-24.99683],[-50.06592,-24.9906],[-50.03381,-24.99371],[-50.02441,-24.9989],[-50.0174,-25.01019],[-50.00098,-25.00623],[-49.98511,-25.02411],[-49.97778,-25.02118]]]}}