{"type":"Feature","properties":{"id":"BRA.18.18","name":"São Julião","level":2,"country":"BRA"},"geometry":{"type":"Polygon","coordinates":[[[-40.9599,-7.1076],[-40.9115,-7.12531],[-40.88159,-7.15668],[-40.85632,-7.14771],[-40.85468,-7.12921],[-40.84528,-7.12659],[-40.7757,-7.1347],[-40.7486,-7.14642],[-40.72949,-7.16028],[-40.69159,-7.15973],[-40.6933,-7.14392],[-40.72931,-7.1026],[-40.74481,-7.0694],[-40.7616,-7.02252],[-40.7912,-7.00171],[-40.79761,-6.98718],[-40.80499,-6.98169],[-40.81958,-6.9856],[-40.83179,-6.9837],[-40.84052,-6.98993],[-40.84961,-6.98541],[-40.86011,-6.98999],[-40.85431,-7.02032],[-40.8877,-7.04901],[-40.91321,-7.0766],[-40.94452,-7.0932],[-40.9599,-7.1076]]]}}