{"type":"Feature","properties":{"id":"BRA.16.103","name":"Witmarsum","level":2,"country":"BRA"},"geometry":{"type":"Polygon","coordinates":[[[-49.70972,-26.91809],[-49.73859,-26.91272],[-49.76898,-26.8963],[-49.76898,-26.88879],[-49.8161,-26.89282],[-49.8399,-26.90002],[-49.87262,-26.91663],[-49.88458,-26.90662],[-49.89221,-26.91071],[-49.92322,-26.9126],[-49.93628,-26.92621],[-49.95221,-26.92828],[-49.9577,-26.93848],[-49.95972,-26.95691],[-49.9563,-26.97101],[-49.94629,-26.99469],[-49.92352,-27.00171],[-49.89661,-26.99823],[-49.90961,-26.99561],[-49.91272,-26.96503],[-49.88531,-26.96143],[-49.87262,-26.95331],[-49.8147,-26.94391],[-49.8186,-26.95428],[-49.80219,-26.95868],[-49.7926,-26.94922],[-49.78339,-26.95831],[-49.76251,-26.9668],[-49.75763,-26.96112],[-49.7312,-26.96033],[-49.7146,-26.94],[-49.70972,-26.91809]]]}}