{"type":"Feature","properties":{"id":"BRA.18.96","name":"Morro do Chapéu do Piauí","level":2,"country":"BRA"},"geometry":{"type":"Polygon","coordinates":[[[-42.15833,-3.60608],[-42.15399,-3.58862],[-42.1908,-3.55469],[-42.19409,-3.57001],[-42.20459,-3.58148],[-42.20758,-3.59521],[-42.22168,-3.60498],[-42.2431,-3.60162],[-42.25958,-3.59619],[-42.26038,-3.6394],[-42.29669,-3.6604],[-42.32849,-3.72369],[-42.32812,-3.74292],[-42.35468,-3.758],[-42.36829,-3.76801],[-42.38708,-3.7818],[-42.39301,-3.8327],[-42.34668,-3.8374],[-42.29309,-3.78571],[-42.27472,-3.78308],[-42.26202,-3.78552],[-42.24969,-3.77399],[-42.24683,-3.76422],[-42.22742,-3.76361],[-42.21881,-3.75629],[-42.20648,-3.75238],[-42.20831,-3.737],[-42.19238,-3.7226],[-42.20801,-3.70001],[-42.20599,-3.6911],[-42.1781,-3.68408],[-42.17493,-3.66443],[-42.16882,-3.65302],[-42.16553,-3.63562],[-42.1579,-3.61572],[-42.15833,-3.60608]]]}}