{"type":"Feature","properties":{"id":"BRA.8.27","name":"Cacaulândia","level":2,"country":"BRA"},"geometry":{"type":"Polygon","coordinates":[[[-63.21033,-10.1684],[-63.21539,-10.18658],[-63.22461,-10.20068],[-63.21881,-10.2132],[-63.23102,-10.22272],[-63.2345,-10.24042],[-63.23071,-10.25232],[-63.2384,-10.2674],[-63.23108,-10.27582],[-63.23181,-10.28387],[-63.24451,-10.28882],[-63.23779,-10.30072],[-63.23901,-10.3233],[-63.24341,-10.33618],[-63.25928,-10.33789],[-63.25989,-10.37299],[-63.2511,-10.37469],[-63.25171,-10.3833],[-63.25891,-10.39551],[-63.24451,-10.4032],[-63.2514,-10.42542],[-63.24048,-10.43018],[-63.23151,-10.44232],[-63.23981,-10.45673],[-63.23352,-10.46667],[-63.23529,-10.48291],[-63.2251,-10.4906],[-63.2226,-10.48779],[-63.2149,-10.49121],[-63.19031,-10.49231],[-62.99988,-10.49139],[-62.78821,-10.49292],[-62.75208,-10.42828],[-62.67029,-10.28802],[-62.72748,-10.24628],[-62.73938,-10.24811],[-62.74762,-10.23383],[-62.76788,-10.22131],[-62.78003,-10.20618],[-62.78949,-10.20398],[-62.82953,-10.17548],[-62.83252,-10.16742],[-63.12988,-10.16711],[-63.21033,-10.1684]]]}}