{"type":"Feature","properties":{"id":"BRA.6.131","name":"Lima Campos","level":2,"country":"BRA"},"geometry":{"type":"Polygon","coordinates":[[[-44.3479,-4.5589],[-44.43018,-4.4812],[-44.57758,-4.47571],[-44.58398,-4.4964],[-44.57672,-4.50262],[-44.57379,-4.52081],[-44.55829,-4.52692],[-44.54962,-4.52649],[-44.54303,-4.53351],[-44.54639,-4.54321],[-44.54102,-4.5575],[-44.54053,-4.57141],[-44.52838,-4.57831],[-44.52301,-4.60382],[-44.51001,-4.6087],[-44.49738,-4.61768],[-44.49878,-4.64331],[-44.48578,-4.65039],[-44.39832,-4.66479],[-44.40668,-4.6571],[-44.40509,-4.6499],[-44.41168,-4.63501],[-44.41418,-4.6167],[-44.39978,-4.60718],[-44.38782,-4.60571],[-44.38708,-4.59662],[-44.38,-4.58228],[-44.3703,-4.5777],[-44.36041,-4.57922],[-44.35413,-4.57428],[-44.3479,-4.5589]]]}}