{"type":"Feature","properties":{"id":"BRA.15.114","name":"Astorga","level":2,"country":"BRA"},"geometry":{"type":"Polygon","coordinates":[[[-51.59338,-23.1297],[-51.59448,-23.11719],[-51.60999,-23.1076],[-51.62903,-23.10602],[-51.63928,-23.09271],[-51.65021,-23.08582],[-51.66309,-23.09009],[-51.6723,-23.08752],[-51.67963,-23.12939],[-51.68829,-23.15051],[-51.69391,-23.15662],[-51.71082,-23.16101],[-51.72369,-23.16998],[-51.72632,-23.19159],[-51.74902,-23.19482],[-51.74298,-23.20789],[-51.73163,-23.22198],[-51.73932,-23.23352],[-51.74548,-23.22711],[-51.76172,-23.22528],[-51.77142,-23.23492],[-51.77808,-23.2489],[-51.78442,-23.25391],[-51.80109,-23.25568],[-51.82343,-23.26202],[-51.8316,-23.27283],[-51.86963,-23.28772],[-51.87073,-23.30322],[-51.85529,-23.30701],[-51.85248,-23.3158],[-51.84113,-23.31293],[-51.83679,-23.3219],[-51.84521,-23.32721],[-51.8111,-23.32251],[-51.80353,-23.3252],[-51.79071,-23.34082],[-51.77661,-23.33539],[-51.7677,-23.33032],[-51.76489,-23.34528],[-51.74011,-23.35132],[-51.72949,-23.34821],[-51.72418,-23.35559],[-51.71179,-23.35748],[-51.70599,-23.37781],[-51.69672,-23.3866],[-51.69012,-23.37769],[-51.68011,-23.37488],[-51.66559,-23.36371],[-51.65851,-23.35181],[-51.64838,-23.34442],[-51.64581,-23.33661],[-51.62402,-23.31592],[-51.61023,-23.2937],[-51.60571,-23.28119],[-51.59131,-23.28308],[-51.60413,-23.26849],[-51.61121,-23.24481],[-51.62152,-23.23169],[-51.61359,-23.20428],[-51.61389,-23.18091],[-51.60602,-23.15143],[-51.59729,-23.1286],[-51.59338,-23.1297]]]}}