{"type":"Feature","properties":{"id":"BRA.16.31","name":"São Martinho","level":2,"country":"BRA"},"geometry":{"type":"Polygon","coordinates":[[[-48.922,-28.23541],[-48.91052,-28.23401],[-48.90961,-28.22028],[-48.93811,-28.17419],[-48.92462,-28.14288],[-48.91528,-28.1424],[-48.90002,-28.15399],[-48.88519,-28.15082],[-48.86981,-28.09491],[-48.86951,-28.08069],[-48.87402,-28.07318],[-48.89301,-28.07928],[-48.90161,-28.06079],[-48.93579,-28.07288],[-48.94299,-28.09021],[-48.95111,-28.09692],[-48.95001,-28.10663],[-48.966,-28.10809],[-48.97168,-28.08569],[-48.9762,-28.078],[-48.99622,-28.06592],[-49.00641,-28.05371],[-49.0213,-28.0481],[-49.03339,-28.03558],[-49.03821,-28.02338],[-49.0354,-28.01312],[-49.05151,-27.99042],[-49.04401,-28.01831],[-49.04779,-28.02863],[-49.06262,-28.03949],[-49.05609,-28.05573],[-49.06219,-28.06201],[-49.06372,-28.08551],[-49.0614,-28.0896],[-49.06488,-28.11041],[-49.05878,-28.12012],[-49.05231,-28.14203],[-49.0307,-28.151],[-49.01849,-28.14972],[-49.01221,-28.16321],[-48.99799,-28.16461],[-48.97382,-28.18988],[-48.97729,-28.2113],[-48.96271,-28.22192],[-48.96082,-28.23669],[-48.9444,-28.2395],[-48.922,-28.23541]]]}}