{"type":"Feature","properties":{"id":"BRA.15.27","name":"Pitangueiras","level":2,"country":"BRA"},"geometry":{"type":"Polygon","coordinates":[[[-51.59131,-23.28308],[-51.58051,-23.28711],[-51.573,-23.27472],[-51.56158,-23.27789],[-51.5517,-23.2749],[-51.53821,-23.26251],[-51.54102,-23.25848],[-51.52899,-23.24042],[-51.52917,-23.22998],[-51.5224,-23.21741],[-51.5202,-23.19611],[-51.52722,-23.17462],[-51.53851,-23.17212],[-51.53882,-23.1637],[-51.55402,-23.15417],[-51.55908,-23.13599],[-51.57452,-23.13953],[-51.59338,-23.1297],[-51.59729,-23.1286],[-51.60602,-23.15143],[-51.61389,-23.18091],[-51.61359,-23.20428],[-51.62152,-23.23169],[-51.61121,-23.24481],[-51.60413,-23.26849],[-51.59131,-23.28308]]]}}