{"type":"Feature","properties":{"id":"BRA.1.205","name":"Jaraguá","level":2,"country":"BRA"},"geometry":{"type":"Polygon","coordinates":[[[-49.2843,-15.4375],[-49.30292,-15.4657],[-49.31073,-15.46771],[-49.31073,-15.48621],[-49.3147,-15.49188],[-49.33282,-15.48492],[-49.33881,-15.4975],[-49.35199,-15.49878],[-49.37878,-15.49561],[-49.39728,-15.50208],[-49.42133,-15.49298],[-49.43573,-15.4978],[-49.43689,-15.51831],[-49.44153,-15.52728],[-49.45471,-15.53241],[-49.4657,-15.52771],[-49.48779,-15.51282],[-49.50421,-15.51581],[-49.50409,-15.5025],[-49.51868,-15.49219],[-49.5202,-15.47919],[-49.5282,-15.47241],[-49.53571,-15.47601],[-49.54462,-15.46741],[-49.55371,-15.46667],[-49.56848,-15.47668],[-49.57422,-15.49768],[-49.57483,-15.51703],[-49.5639,-15.5246],[-49.56403,-15.53229],[-49.55219,-15.54431],[-49.56201,-15.56012],[-49.56299,-15.57611],[-49.55731,-15.5899],[-49.5625,-15.59521],[-49.55792,-15.60602],[-49.56,-15.6189],[-49.55682,-15.63458],[-49.5531,-15.6748],[-49.55713,-15.68549],[-49.53662,-15.716],[-49.54529,-15.74261],[-49.54352,-15.74951],[-49.55768,-15.76642],[-49.55981,-15.7793],[-49.57013,-15.7807],[-49.5777,-15.7887],[-49.58118,-15.8053],[-49.57861,-15.81372],[-49.58521,-15.84271],[-49.59601,-15.85681],[-49.59399,-15.86578],[-49.60431,-15.8714],[-49.6084,-15.88159],[-49.59631,-15.8974],[-49.59241,-15.91602],[-49.57391,-15.92499],[-49.56311,-15.92072],[-49.5459,-15.92108],[-49.5426,-15.93921],[-49.547,-15.9599],[-49.55219,-15.96753],[-49.5495,-15.97479],[-49.5332,-15.97729],[-49.51703,-15.97803],[-49.50842,-15.97308],[-49.46667,-16.00372],[-49.47083,-15.98279],[-49.4657,-15.97089],[-49.47241,-15.96558],[-49.4704,-15.94958],[-49.44952,-15.93201],[-49.4408,-15.9317],[-49.39441,-15.90558],[-49.38898,-15.90399],[-49.37891,-15.91461],[-49.36261,-15.90198],[-49.36078,-15.89728],[-49.34369,-15.90009],[-49.33209,-15.86981],[-49.3396,-15.85809],[-49.3255,-15.8371],[-49.29858,-15.82721],[-49.28168,-15.83362],[-49.26538,-15.82739],[-49.2569,-15.81659],[-49.2453,-15.8374],[-49.22742,-15.84253],[-49.21667,-15.85291],[-49.15601,-15.69592],[-49.12982,-15.6236],[-49.14331,-15.62262],[-49.14838,-15.6167],[-49.16949,-15.62708],[-49.17792,-15.6153],[-49.18848,-15.61041],[-49.18768,-15.60272],[-49.19861,-15.5918],[-49.21301,-15.56671],[-49.22241,-15.5708],[-49.23743,-15.56012],[-49.22961,-15.5484],[-49.23102,-15.52722],[-49.22668,-15.52252],[-49.23248,-15.51202],[-49.2262,-15.49091],[-49.22009,-15.48871],[-49.22388,-15.47571],[-49.23419,-15.46332],[-49.23572,-15.45459],[-49.25348,-15.4574],[-49.26959,-15.44751],[-49.26898,-15.4408],[-49.2843,-15.4375]]]}}