{"type":"Feature","properties":{"id":"BRA.22.130","name":"Bom Jesus","level":2,"country":"BRA"},"geometry":{"type":"Polygon","coordinates":[[[-38.67187,-6.84802],[-38.66211,-6.85663],[-38.65289,-6.87292],[-38.64691,-6.87762],[-38.63629,-6.85211],[-38.62549,-6.8429],[-38.61438,-6.84021],[-38.61609,-6.83209],[-38.59961,-6.81311],[-38.58423,-6.8006],[-38.57159,-6.79889],[-38.57922,-6.78931],[-38.61371,-6.78339],[-38.6181,-6.79382],[-38.62762,-6.79071],[-38.63843,-6.79272],[-38.63599,-6.80353],[-38.6521,-6.81201],[-38.66809,-6.82831],[-38.67187,-6.84802]]]}}