{"type":"Feature","properties":{"id":"BRA.21.70","name":"Brejetuba","level":2,"country":"BRA"},"geometry":{"type":"Polygon","coordinates":[[[-41.29669,-19.93701],[-41.30792,-19.9483],[-41.31262,-19.97302],[-41.3197,-19.979],[-41.30878,-19.99701],[-41.30908,-20.0163],[-41.31732,-20.02759],[-41.31848,-20.0415],[-41.3241,-20.05231],[-41.33331,-20.0589],[-41.33759,-20.08643],[-41.34479,-20.08899],[-41.34399,-20.1001],[-41.35071,-20.11963],[-41.35193,-20.1311],[-41.36151,-20.14313],[-41.37451,-20.16718],[-41.38202,-20.18842],[-41.4126,-20.20581],[-41.41498,-20.20789],[-41.41571,-20.21722],[-41.4101,-20.2312],[-41.39832,-20.23279],[-41.39313,-20.22589],[-41.3797,-20.22162],[-41.37561,-20.20459],[-41.34961,-20.19843],[-41.34009,-20.2168],[-41.33911,-20.22443],[-41.35071,-20.23529],[-41.34772,-20.24231],[-41.33368,-20.24469],[-41.31671,-20.25818],[-41.31128,-20.2677],[-41.30438,-20.27081],[-41.29431,-20.25372],[-41.30878,-20.2395],[-41.29883,-20.22992],[-41.28241,-20.24103],[-41.27301,-20.23383],[-41.26831,-20.24701],[-41.25677,-20.25409],[-41.26001,-20.27283],[-41.23798,-20.2771],[-41.24213,-20.26581],[-41.22919,-20.26141],[-41.24188,-20.21881],[-41.2428,-20.19928],[-41.25128,-20.1806],[-41.24628,-20.17493],[-41.24579,-20.16211],[-41.23053,-20.16083],[-41.22998,-20.13208],[-41.22412,-20.12732],[-41.2406,-20.10779],[-41.2525,-20.08191],[-41.24408,-20.07343],[-41.2348,-20.05463],[-41.24402,-20.03528],[-41.25208,-20.02728],[-41.23859,-20.008],[-41.25348,-19.98352],[-41.26093,-19.96179],[-41.27319,-19.9585],[-41.27252,-19.94373],[-41.29669,-19.93701]]]}}