{"type":"Feature","properties":{"id":"BRA.2.71","name":"Penápolis","level":2,"country":"BRA"},"geometry":{"type":"Polygon","coordinates":[[[-50.06073,-21.58441],[-50.0451,-21.56641],[-50.04761,-21.56281],[-50.02533,-21.5296],[-50.01331,-21.52118],[-50.00079,-21.50153],[-49.98743,-21.48669],[-49.99878,-21.48181],[-50.00378,-21.46503],[-49.99933,-21.44861],[-50.0058,-21.4295],[-50.00079,-21.40887],[-49.99432,-21.4032],[-49.99219,-21.38739],[-49.98071,-21.37732],[-49.97711,-21.3609],[-49.97809,-21.34943],[-49.97992,-21.33508],[-49.98749,-21.3175],[-50.0108,-21.2998],[-50.01428,-21.28601],[-50.0249,-21.27411],[-50.02209,-21.26501],[-50.00598,-21.25098],[-49.99768,-21.23169],[-49.99231,-21.22778],[-50,-21.22662],[-50.02728,-21.21069],[-50.07031,-21.21332],[-50.0929,-21.2196],[-50.11462,-21.20819],[-50.13,-21.19482],[-50.14062,-21.21332],[-50.14301,-21.25232],[-50.14709,-21.2699],[-50.13928,-21.27972],[-50.13861,-21.29889],[-50.14362,-21.31549],[-50.16309,-21.32709],[-50.16138,-21.33691],[-50.16309,-21.35999],[-50.14441,-21.38049],[-50.15033,-21.38818],[-50.14783,-21.39941],[-50.1535,-21.40509],[-50.151,-21.4173],[-50.15869,-21.4223],[-50.18109,-21.42731],[-50.19342,-21.44641],[-50.20312,-21.44861],[-50.22211,-21.46552],[-50.23938,-21.46722],[-50.25848,-21.49542],[-50.27063,-21.51178],[-50.27979,-21.53271],[-50.27411,-21.55988],[-50.25409,-21.54468],[-50.24408,-21.54272],[-50.23907,-21.53583],[-50.22351,-21.53021],[-50.21069,-21.53229],[-50.1897,-21.52789],[-50.14691,-21.52869],[-50.14532,-21.54999],[-50.12329,-21.55182],[-50.10382,-21.55859],[-50.10968,-21.57922],[-50.10663,-21.58893],[-50.0899,-21.58649],[-50.07672,-21.58771],[-50.06073,-21.58441]]]}}