{"type":"Feature","properties":{"id":"BRA.12.642","name":"Barra Longa","level":2,"country":"BRA"},"geometry":{"type":"Polygon","coordinates":[[[-43.02441,-20.41052],[-43.02332,-20.38843],[-43.01569,-20.37378],[-43.0318,-20.36011],[-43.03082,-20.34998],[-43.03839,-20.34479],[-43.01251,-20.32568],[-42.99359,-20.33008],[-42.98108,-20.34399],[-42.96991,-20.33978],[-42.96582,-20.32831],[-42.95422,-20.31891],[-42.95111,-20.30731],[-42.95111,-20.27368],[-42.96899,-20.27179],[-42.97571,-20.25769],[-42.97418,-20.21942],[-42.96991,-20.20782],[-42.95789,-20.20361],[-42.98053,-20.1994],[-43.00012,-20.19989],[-43.02362,-20.20728],[-43.03241,-20.19379],[-43.06,-20.19],[-43.06421,-20.19171],[-43.08313,-20.17743],[-43.1037,-20.17358],[-43.11261,-20.17889],[-43.1236,-20.1734],[-43.13251,-20.17651],[-43.14221,-20.16772],[-43.15509,-20.16913],[-43.16309,-20.17853],[-43.1593,-20.20538],[-43.1524,-20.21198],[-43.14978,-20.22998],[-43.1507,-20.25018],[-43.1712,-20.26868],[-43.18121,-20.28119],[-43.18109,-20.28821],[-43.17218,-20.30151],[-43.17401,-20.31079],[-43.14801,-20.31439],[-43.13361,-20.3396],[-43.12952,-20.34729],[-43.11169,-20.35712],[-43.10632,-20.36353],[-43.09363,-20.35937],[-43.07709,-20.36609],[-43.05121,-20.40338],[-43.0351,-20.41248],[-43.02441,-20.41052]]]}}