{"type":"Feature","properties":{"id":"BRA.22.155","name":"São João do Tigre","level":2,"country":"BRA"},"geometry":{"type":"Polygon","coordinates":[[[-36.87958,-8.01703],[-36.87451,-8.03058],[-36.87628,-8.04181],[-36.88953,-8.0517],[-36.89563,-8.07098],[-36.89569,-8.08551],[-36.9173,-8.10211],[-36.92688,-8.12622],[-36.93512,-8.1355],[-36.93848,-8.16071],[-36.95203,-8.17651],[-36.96368,-8.18121],[-36.9577,-8.2049],[-36.96478,-8.21759],[-36.96051,-8.23828],[-36.95599,-8.2475],[-36.96283,-8.25549],[-36.96808,-8.26923],[-36.95618,-8.29919],[-36.94733,-8.29108],[-36.94733,-8.2782],[-36.94208,-8.2738],[-36.92291,-8.26978],[-36.90833,-8.25311],[-36.89581,-8.24078],[-36.87921,-8.2356],[-36.86169,-8.22241],[-36.81293,-8.20551],[-36.80328,-8.19348],[-36.78778,-8.18982],[-36.77539,-8.19061],[-36.76599,-8.19641],[-36.75421,-8.19189],[-36.75012,-8.17572],[-36.74213,-8.17273],[-36.724,-8.17249],[-36.71808,-8.16248],[-36.72278,-8.15088],[-36.70361,-8.15802],[-36.68689,-8.15649],[-36.69409,-8.14178],[-36.6665,-8.12372],[-36.64008,-8.11969],[-36.6286,-8.11102],[-36.62811,-8.10229],[-36.6369,-8.0932],[-36.64618,-8.09222],[-36.64948,-8.08191],[-36.65771,-8.07581],[-36.64661,-8.06549],[-36.6283,-8.05621],[-36.62921,-8.02661],[-36.62671,-8.00403],[-36.62762,-7.98608],[-36.62292,-7.98108],[-36.6214,-7.966],[-36.61151,-7.94849],[-36.58679,-7.95868],[-36.57312,-7.95532],[-36.57892,-7.94568],[-36.57251,-7.93591],[-36.57532,-7.9353],[-36.8172,-7.95959],[-36.83972,-7.98419],[-36.85168,-7.99182],[-36.86719,-8.0105],[-36.87958,-8.01703]]]}}