{"type":"Feature","properties":{"id":"BRA.9.69","name":"São Pedro da Água Branca","level":2,"country":"BRA"},"geometry":{"type":"Polygon","coordinates":[[[-48.4519,-5.11182],[-48.75513,-5.34918],[-48.74091,-5.35278],[-48.73041,-5.34802],[-48.7121,-5.35303],[-48.70441,-5.34473],[-48.69922,-5.32013],[-48.6922,-5.31158],[-48.67938,-5.30579],[-48.65833,-5.30811],[-48.63861,-5.32001],[-48.63013,-5.33289],[-48.61108,-5.33801],[-48.58411,-5.31128],[-48.56799,-5.28113],[-48.56848,-5.26282],[-48.5625,-5.24658],[-48.55768,-5.22388],[-48.53571,-5.20081],[-48.52301,-5.1933],[-48.51172,-5.19159],[-48.48761,-5.19379],[-48.46613,-5.18542],[-48.44238,-5.18329],[-48.41962,-5.1767],[-48.38751,-5.17358],[-48.36389,-5.1684],[-48.35309,-5.17389],[-48.32861,-5.19659],[-48.31403,-5.203],[-48.29449,-5.2038],[-48.2738,-5.21521],[-48.23492,-5.22821],[-48.22498,-5.23541],[-48.2146,-5.23071],[-48.21448,-5.20831],[-48.2207,-5.1947],[-48.20312,-5.1673],[-48.19971,-5.15161],[-48.20361,-5.13702],[-48.20142,-5.12488],[-48.211,-5.10681],[-48.2124,-5.08289],[-48.22101,-5.0752],[-48.22351,-5.06653],[-48.2171,-5.05841],[-48.2149,-5.04681],[-48.19208,-5.01318],[-48.19531,-4.99542],[-48.18793,-4.9823],[-48.2124,-4.92493],[-48.354,-5.03711],[-48.38171,-5.0575],[-48.40039,-5.0741],[-48.41931,-5.08539],[-48.42749,-5.07532],[-48.43762,-5.0835],[-48.43311,-5.09808],[-48.4519,-5.11182]]]}}