{"type":"Feature","properties":{"id":"BRA.14.483","name":"Santo Ângelo","level":2,"country":"BRA"},"geometry":{"type":"Polygon","coordinates":[[[-54.17932,-28.1391],[-54.22241,-28.14478],[-54.25781,-28.1601],[-54.27618,-28.16492],[-54.30371,-28.15881],[-54.31281,-28.16162],[-54.336,-28.1615],[-54.37628,-28.15839],[-54.39062,-28.16101],[-54.3941,-28.15131],[-54.40253,-28.14832],[-54.40521,-28.13928],[-54.41101,-28.13501],[-54.41058,-28.19312],[-54.45111,-28.19427],[-54.45203,-28.22559],[-54.47711,-28.23212],[-54.48871,-28.245],[-54.50208,-28.25873],[-54.52649,-28.26929],[-54.53131,-28.27802],[-54.5412,-28.29498],[-54.54022,-28.30121],[-54.52539,-28.30548],[-54.51788,-28.31818],[-54.50818,-28.31689],[-54.51758,-28.30139],[-54.51941,-28.28149],[-54.50952,-28.27539],[-54.50311,-28.27899],[-54.50659,-28.28961],[-54.50458,-28.3031],[-54.49609,-28.31708],[-54.4873,-28.31421],[-54.49188,-28.29871],[-54.48981,-28.29169],[-54.4743,-28.289],[-54.46191,-28.29468],[-54.45868,-28.30219],[-54.46301,-28.33551],[-54.44659,-28.34009],[-54.4328,-28.3349],[-54.4151,-28.33551],[-54.40009,-28.31592],[-54.38928,-28.32111],[-54.39801,-28.33038],[-54.39471,-28.3476],[-54.38251,-28.33862],[-54.37128,-28.33972],[-54.37042,-28.35022],[-54.35181,-28.35278],[-54.3465,-28.34528],[-54.3429,-28.32178],[-54.33459,-28.31781],[-54.3299,-28.32819],[-54.31671,-28.33301],[-54.3111,-28.32758],[-54.3125,-28.31598],[-54.29291,-28.31262],[-54.29053,-28.31927],[-54.30341,-28.32599],[-54.29901,-28.34021],[-54.29181,-28.34381],[-54.28387,-28.3562],[-54.26202,-28.35181],[-54.2644,-28.32739],[-54.24731,-28.32098],[-54.23071,-28.33331],[-54.24969,-28.33838],[-54.25128,-28.34869],[-54.24011,-28.3587],[-54.22662,-28.36493],[-54.23291,-28.34802],[-54.22449,-28.33881],[-54.1897,-28.34003],[-54.18213,-28.32971],[-54.1723,-28.33301],[-54.15991,-28.33032],[-54.15521,-28.33929],[-54.14313,-28.3363],[-54.14551,-28.33063],[-54.1311,-28.31818],[-54.13501,-28.30682],[-54.12891,-28.2981],[-54.12988,-28.28571],[-54.1236,-28.2774],[-54.104,-28.27399],[-54.10791,-28.25891],[-54.11682,-28.25122],[-54.10699,-28.24158],[-54.11578,-28.21619],[-54.13031,-28.19159],[-54.1308,-28.18311],[-54.1452,-28.16418],[-54.1535,-28.15741],[-54.16321,-28.15802],[-54.17499,-28.15033],[-54.17932,-28.1391]]]}}