{"type":"Feature","properties":{"id":"BRA.17.180","name":"Salitre","level":2,"country":"BRA"},"geometry":{"type":"MultiPolygon","coordinates":[[[[-40.1225,-7.01813],[-40.12433,-7.02069],[-40.12152,-7.02338],[-40.12073,-7.02039],[-40.1225,-7.01813]]],[[[-40.52338,-7.3183],[-40.50049,-7.328],[-40.44849,-7.36133],[-40.43378,-7.36713],[-40.3938,-7.3681],[-40.3736,-7.36261],[-40.35822,-7.35248],[-40.35071,-7.33411],[-40.34589,-7.32959],[-40.32941,-7.31848],[-40.32141,-7.30591],[-40.30969,-7.3009],[-40.28387,-7.29919],[-40.263,-7.30103],[-40.24298,-7.31708],[-40.26678,-7.24841],[-40.24908,-7.22638],[-40.25128,-7.20288],[-40.26233,-7.19482],[-40.26849,-7.17871],[-40.2619,-7.1626],[-40.26251,-7.14819],[-40.2417,-7.12653],[-40.23999,-7.11359],[-40.22809,-7.10901],[-40.1748,-7.07721],[-40.17657,-7.06921],[-40.16931,-7.06],[-40.16522,-7.04773],[-40.16559,-7.03821],[-40.1474,-7.0321],[-40.1413,-7.02661],[-40.1225,-7.01813],[-40.1333,-7.00122],[-40.15649,-7.01508],[-40.18091,-7.01788],[-40.19208,-7.02478],[-40.21338,-7.03009],[-40.22919,-7.03961],[-40.24933,-7.05701],[-40.25781,-7.06763],[-40.27509,-7.06879],[-40.29681,-7.07721],[-40.31561,-7.07721],[-40.32281,-7.08282],[-40.32471,-7.10101],[-40.32123,-7.1272],[-40.3338,-7.12781],[-40.4469,-7.08881],[-40.4411,-7.08081],[-40.45819,-7.07709],[-40.48969,-7.11871],[-40.48437,-7.13318],[-40.49573,-7.16962],[-40.495,-7.18268],[-40.50128,-7.1886],[-40.5061,-7.21088],[-40.51349,-7.23969],[-40.51581,-7.2644],[-40.51178,-7.3006],[-40.52338,-7.3183]]]]}}