{"type":"Feature","properties":{"id":"BRA.7.142","name":"Quatipuru","level":2,"country":"BRA"},"geometry":{"type":"Polygon","coordinates":[[[-47.00049,-1.0116],[-46.99213,-0.99463],[-47.00403,-0.95862],[-46.9953,-0.94897],[-47.00043,-0.93262],[-46.99841,-0.92761],[-47.00641,-0.91388],[-46.99841,-0.89801],[-46.98322,-0.8999],[-46.97351,-0.8725],[-46.95648,-0.85852],[-46.94342,-0.86041],[-46.93762,-0.8551],[-46.94501,-0.8255],[-46.94202,-0.80798],[-46.95001,-0.80042],[-46.9483,-0.79419],[-46.9624,-0.78021],[-46.96918,-0.76672],[-46.95221,-0.7467],[-46.94641,-0.7298],[-46.96002,-0.70972],[-46.97498,-0.70428],[-46.99371,-0.7146],[-46.98901,-0.72369],[-46.99622,-0.7417],[-47.00342,-0.74829],[-47.00311,-0.76001],[-47.01398,-0.77069],[-47.02142,-0.76428],[-47.03003,-0.76642],[-47.0365,-0.78131],[-47.03528,-0.78931],[-47.0498,-0.7984],[-47.06311,-0.79352],[-47.06952,-0.80658],[-47.06781,-0.8136],[-47.08392,-0.83191],[-47.08081,-0.84308],[-47.08362,-0.85529],[-47.07568,-0.86261],[-47.07953,-0.89111],[-47.07397,-0.90332],[-47.07361,-0.91669],[-47.07703,-0.92871],[-47.0705,-0.94519],[-47.08081,-0.95209],[-47.07269,-0.9801],[-47.0531,-0.99219],[-47.03198,-0.99152],[-47.02899,-0.99799],[-47.01282,-1.01288],[-47.00049,-1.0116]]]}}