{"type":"Feature","properties":{"id":"BRA.1.14","name":"Buritinópolis","level":2,"country":"BRA"},"geometry":{"type":"Polygon","coordinates":[[[-46.396,-14.47711],[-46.38562,-14.47308],[-46.3891,-14.45813],[-46.3808,-14.44531],[-46.37109,-14.44629],[-46.35699,-14.44159],[-46.33478,-14.4527],[-46.32428,-14.44751],[-46.30011,-14.4422],[-46.29071,-14.44269],[-46.27631,-14.43372],[-46.25568,-14.43951],[-46.25128,-14.44501],[-46.23651,-14.44031],[-46.22351,-14.44238],[-46.22211,-14.44989],[-46.19928,-14.45471],[-46.18469,-14.4447],[-46.17621,-14.43323],[-46.18091,-14.42261],[-46.2005,-14.40228],[-46.19781,-14.3623],[-46.18903,-14.32501],[-46.18591,-14.31891],[-46.18738,-14.3017],[-46.19141,-14.29462],[-46.1969,-14.30469],[-46.21149,-14.3092],[-46.22559,-14.31818],[-46.24451,-14.34369],[-46.26251,-14.35321],[-46.28101,-14.37201],[-46.31873,-14.36969],[-46.33112,-14.3764],[-46.34692,-14.37299],[-46.36407,-14.38281],[-46.36688,-14.3996],[-46.39581,-14.40479],[-46.40851,-14.41351],[-46.41351,-14.41138],[-46.43018,-14.42139],[-46.4375,-14.45642],[-46.45831,-14.47748],[-46.45392,-14.48248],[-46.43359,-14.48437],[-46.42657,-14.49158],[-46.42072,-14.48309],[-46.41229,-14.48822],[-46.396,-14.47711]]]}}