{"type":"Feature","properties":{"id":"BRA.12.99","name":"Sabinópolis","level":2,"country":"BRA"},"geometry":{"type":"Polygon","coordinates":[[[-43.24689,-18.77283],[-43.23401,-18.77081],[-43.21393,-18.77271],[-43.21198,-18.78351],[-43.20581,-18.7887],[-43.21033,-18.81927],[-43.20502,-18.8244],[-43.20728,-18.83948],[-43.19952,-18.86041],[-43.17749,-18.86261],[-43.16962,-18.8562],[-43.15869,-18.85449],[-43.1524,-18.83551],[-43.12939,-18.8255],[-43.1228,-18.83179],[-43.10968,-18.83209],[-43.09833,-18.82581],[-43.0943,-18.81732],[-43.08441,-18.81561],[-43.0799,-18.80481],[-43.06232,-18.79199],[-43.03851,-18.76672],[-43.04022,-18.7605],[-43.01892,-18.74951],[-42.9986,-18.74561],[-42.97998,-18.7334],[-42.9903,-18.71881],[-42.9942,-18.7066],[-43.00092,-18.70471],[-43.00781,-18.69348],[-42.99432,-18.6731],[-42.98853,-18.672],[-42.97168,-18.65442],[-42.95331,-18.66101],[-42.94452,-18.67133],[-42.93433,-18.66589],[-42.92059,-18.66718],[-42.91302,-18.6734],[-42.90033,-18.67529],[-42.8941,-18.67072],[-42.87042,-18.67072],[-42.85883,-18.67719],[-42.85181,-18.67389],[-42.85681,-18.6615],[-42.87061,-18.6543],[-42.87622,-18.64221],[-42.8844,-18.63611],[-42.89423,-18.61151],[-42.8905,-18.60339],[-42.90491,-18.5918],[-42.90991,-18.57721],[-42.90149,-18.57111],[-42.89661,-18.56091],[-42.91101,-18.55042],[-42.90668,-18.53192],[-42.92401,-18.50061],[-42.91101,-18.49402],[-42.91571,-18.47638],[-42.91461,-18.45929],[-42.92932,-18.44983],[-42.9306,-18.43701],[-42.94708,-18.44238],[-42.95758,-18.43652],[-42.9715,-18.44269],[-42.98981,-18.4552],[-43.00708,-18.47418],[-43.01752,-18.50677],[-43.03442,-18.505],[-43.04248,-18.51471],[-43.05249,-18.51788],[-43.0567,-18.52838],[-43.05243,-18.53381],[-43.06439,-18.55298],[-43.08258,-18.56842],[-43.09741,-18.56458],[-43.10028,-18.5517],[-43.11121,-18.5506],[-43.12091,-18.55688],[-43.14111,-18.5592],[-43.15363,-18.55548],[-43.17023,-18.56061],[-43.18091,-18.57239],[-43.18359,-18.59271],[-43.19171,-18.60132],[-43.20728,-18.6015],[-43.21362,-18.59619],[-43.2132,-18.61548],[-43.2049,-18.62152],[-43.2113,-18.6369],[-43.2088,-18.64691],[-43.2149,-18.66083],[-43.21198,-18.66589],[-43.20972,-18.69708],[-43.2041,-18.70563],[-43.18622,-18.71338],[-43.19171,-18.71912],[-43.20349,-18.71667],[-43.22229,-18.72559],[-43.23071,-18.73401],[-43.22882,-18.74121],[-43.24591,-18.76343],[-43.24689,-18.77283]]]}}