{"type":"Feature","properties":{"id":"BRA.7.113","name":"Prainha","level":2,"country":"BRA"},"geometry":{"type":"Polygon","coordinates":[[[-53.95929,-0.995],[-53.95032,-1.02521],[-53.94409,-1.0365],[-53.9024,-1.04828],[-53.89581,-1.0542],[-53.8927,-1.0719],[-53.90338,-1.0929],[-53.89941,-1.12451],[-53.89081,-1.15259],[-53.89282,-1.16528],[-53.87909,-1.2049],[-53.85468,-1.2439],[-53.85822,-1.26349],[-53.87982,-1.28491],[-53.88171,-1.29272],[-53.8761,-1.30542],[-53.84381,-1.32849],[-53.83008,-1.34058],[-53.82098,-1.36041],[-53.81671,-1.37903],[-53.82428,-1.4292],[-53.828,-1.43842],[-53.84711,-1.45398],[-53.85529,-1.47089],[-53.88501,-1.50751],[-53.88489,-1.55542],[-53.87738,-1.57758],[-53.86389,-1.59021],[-53.86401,-1.61139],[-53.89209,-1.6264],[-53.8985,-1.63861],[-53.92657,-1.6449],[-53.9256,-1.66913],[-53.92041,-1.67578],[-53.90259,-1.68689],[-53.88892,-1.68182],[-53.86243,-1.69379],[-53.84772,-1.69061],[-53.83289,-1.69531],[-53.80841,-1.7099],[-53.79468,-1.71509],[-53.79102,-1.7243],[-53.9184,-1.90948],[-53.89722,-1.89783],[-53.86469,-1.8963],[-53.83411,-1.88489],[-53.80249,-1.88281],[-53.78918,-1.88861],[-53.78571,-1.90039],[-53.79059,-1.92169],[-53.80029,-1.93408],[-53.82031,-1.94562],[-53.84637,-1.9635],[-53.91998,-2.00061],[-53.95831,-2.0271],[-53.97009,-2.0423],[-53.99841,-2.07001],[-54.0083,-2.07379],[-54.02429,-2.09009],[-54.03601,-2.11261],[-54.03741,-2.125],[-54.03528,-2.17719],[-54.039,-2.2041],[-54.04919,-2.23352],[-54.07001,-2.27228],[-54.0932,-2.30731],[-54.11859,-2.33752],[-54.14838,-2.36011],[-54.16791,-2.37073],[-54.21161,-2.38849],[-54.26581,-2.41541],[-54.26001,-2.42511],[-54.26031,-2.43628],[-54.25208,-2.4516],[-54.2373,-2.461],[-54.22632,-2.48181],[-54.23218,-2.50641],[-54.2428,-2.5152],[-54.24152,-2.53198],[-54.25403,-2.57428],[-54.24939,-2.58972],[-54.22711,-2.60358],[-54.21179,-2.6167],[-54.19238,-2.62238],[-54.18311,-2.62891],[-54.17853,-2.64032],[-54.18512,-2.65179],[-54.17981,-2.66119],[-54.1701,-2.664],[-54.16302,-2.6748],[-54.1662,-2.68848],[-54.14838,-2.70148],[-54.151,-2.71252],[-54.15887,-2.7229],[-54.1369,-2.73437],[-54.11151,-2.75458],[-54.1106,-2.77539],[-54.11218,-2.88647],[-54.10303,-2.88647],[-53.85529,-2.88739],[-53.6084,-2.86511],[-53.60828,-2.85321],[-53.5993,-2.84241],[-53.59241,-2.82629],[-53.5943,-2.81311],[-53.58582,-2.80463],[-53.56488,-2.79181],[-53.5451,-2.79108],[-53.5235,-2.77521],[-53.50269,-2.7829],[-53.50171,-2.77161],[-53.48718,-2.76489],[-53.4787,-2.7724],[-53.45441,-2.77649],[-53.42761,-2.76239],[-53.41241,-2.76288],[-53.40851,-2.74988],[-53.39062,-2.7381],[-53.38641,-2.74249],[-53.35791,-2.7373],[-53.33618,-2.7373],[-53.32971,-2.7431],[-53.30969,-2.74329],[-53.28442,-2.75598],[-53.28339,-2.76208],[-53.27161,-2.77112],[-53.24701,-2.76971],[-53.2356,-2.74811],[-53.2121,-2.7298],[-53.20789,-2.72058],[-53.19049,-2.70758],[-53.1701,-2.69519],[-53.17059,-2.68439],[-53.16528,-2.67712],[-53.14642,-2.66528],[-53.12689,-2.6698],[-53.10681,-2.68591],[-53.0849,-2.68231],[-53.07611,-2.68811],[-53.06378,-2.68048],[-53.04687,-2.6828],[-53.03479,-2.67761],[-53.02881,-2.68188],[-53.00983,-2.67743],[-53.00189,-2.6723],[-52.9837,-2.65991],[-52.97858,-2.66412],[-52.96667,-2.65698],[-53.38428,-2.505],[-53.37268,-2.50049],[-53.3631,-2.49048],[-53.36182,-2.48218],[-53.32538,-2.45361],[-53.3075,-2.45508],[-53.29382,-2.44958],[-53.27881,-2.42822],[-53.271,-2.40491],[-53.26019,-2.39539],[-53.2525,-2.39398],[-53.2334,-2.37799],[-53.22571,-2.3653],[-53.22681,-2.33313],[-53.23102,-2.32471],[-53.23499,-2.29401],[-53.23859,-2.28558],[-53.2356,-2.24438],[-53.2442,-2.22888],[-53.2428,-2.20312],[-53.25018,-2.17169],[-53.27222,-2.14478],[-53.27948,-2.1189],[-53.27979,-2.09869],[-53.27661,-2.08789],[-53.28601,-2.07861],[-53.30499,-2.08148],[-53.31671,-2.07599],[-53.32678,-2.06628],[-53.33081,-2.0531],[-53.3454,-2.0531],[-53.3479,-2.0401],[-53.36121,-2.0354],[-53.35962,-2.02539],[-53.34491,-2.02069],[-53.34491,-2.01361],[-53.32098,-2.00439],[-53.30579,-2.00598],[-53.30029,-1.9978],[-53.30121,-1.98749],[-53.2876,-1.98108],[-53.26019,-1.97589],[-53.23779,-1.98718],[-53.22229,-1.98859],[-53.21808,-1.99481],[-53.20648,-1.99188],[-53.19513,-1.98462],[-53.17609,-1.97949],[-53.15741,-1.96838],[-53.13818,-1.9505],[-53.12958,-1.93231],[-53.11658,-1.91821],[-53.09308,-1.90771],[-53.07349,-1.896],[-53.06049,-1.88141],[-53.05408,-1.86322],[-53.04871,-1.84003],[-53.0368,-1.82739],[-53.03918,-1.8139],[-53.02917,-1.78333],[-53.01111,-1.77881],[-52.99878,-1.77148],[-52.9939,-1.76202],[-52.99969,-1.74329],[-53.01849,-1.75739],[-53.04718,-1.7688],[-53.09021,-1.77448],[-53.11798,-1.78113],[-53.13928,-1.77521],[-53.15668,-1.7749],[-53.21619,-1.75848],[-53.24292,-1.75739],[-53.29071,-1.76929],[-53.31079,-1.7688],[-53.32031,-1.74939],[-53.3371,-1.74268],[-53.35358,-1.7489],[-53.35937,-1.74268],[-53.35559,-1.73529],[-53.36188,-1.70209],[-53.36121,-1.68799],[-53.36658,-1.67902],[-53.36731,-1.66791],[-53.37708,-1.64648],[-53.383,-1.62579],[-53.39758,-1.60071],[-53.40192,-1.58081],[-53.4104,-1.56818],[-53.41278,-1.5564],[-53.42657,-1.52789],[-53.44489,-1.51398],[-53.44531,-1.49432],[-53.453,-1.48059],[-53.46198,-1.45679],[-53.47351,-1.44928],[-53.48468,-1.43579],[-53.47729,-1.41669],[-53.48291,-1.40778],[-53.4873,-1.38678],[-53.48541,-1.37842],[-53.49518,-1.3418],[-53.50452,-1.3302],[-53.51251,-1.31372],[-53.52228,-1.3053],[-53.53131,-1.28418],[-53.5484,-1.2641],[-53.55621,-1.25171],[-53.56421,-1.2229],[-53.57452,-1.21448],[-53.60211,-1.2049],[-53.6131,-1.20471],[-53.63281,-1.18811],[-53.63641,-1.17389],[-53.6283,-1.15338],[-53.63361,-1.14008],[-53.64758,-1.13428],[-53.67542,-1.09149],[-53.67889,-1.06091],[-53.67841,-1.04938],[-53.68542,-1.0376],[-53.68408,-1.01648],[-53.70038,-0.98578],[-53.70581,-0.9809],[-53.72711,-0.97949],[-53.74548,-0.97351],[-53.76678,-0.96088],[-53.7962,-0.95001],[-53.81708,-0.95111],[-53.85272,-0.96619],[-53.88141,-0.98389],[-53.90851,-0.9953],[-53.935,-0.9986],[-53.95929,-0.995]]]}}