{"type":"Feature","properties":{"id":"BRA.1.10","name":"Guarinos","level":2,"country":"BRA"},"geometry":{"type":"Polygon","coordinates":[[[-49.77521,-14.75531],[-49.77222,-14.75891],[-49.77789,-14.78448],[-49.7984,-14.79108],[-49.79358,-14.79791],[-49.79431,-14.80969],[-49.8028,-14.81848],[-49.80219,-14.8338],[-49.81018,-14.84418],[-49.81451,-14.85901],[-49.81201,-14.875],[-49.81409,-14.88861],[-49.80872,-14.89771],[-49.8186,-14.93079],[-49.80792,-14.93982],[-49.7876,-14.92792],[-49.77209,-14.93488],[-49.7699,-14.91901],[-49.75299,-14.90881],[-49.73907,-14.91278],[-49.72919,-14.90582],[-49.71942,-14.88971],[-49.70428,-14.87891],[-49.68689,-14.85681],[-49.6745,-14.85638],[-49.6673,-14.83459],[-49.66211,-14.84253],[-49.64551,-14.8371],[-49.6571,-14.72949],[-49.6626,-14.72321],[-49.66608,-14.7049],[-49.67682,-14.69049],[-49.68988,-14.66119],[-49.6958,-14.6582],[-49.70148,-14.64209],[-49.70941,-14.63239],[-49.7179,-14.6322],[-49.73279,-14.61621],[-49.7334,-14.60541],[-49.70312,-14.5979],[-49.6991,-14.60193],[-49.67291,-14.58942],[-49.63489,-14.578],[-49.63373,-14.57098],[-49.64471,-14.5553],[-49.65192,-14.55231],[-49.65271,-14.54163],[-49.66229,-14.52899],[-49.65741,-14.51062],[-49.6618,-14.48102],[-49.6687,-14.47742],[-49.68182,-14.48053],[-49.69409,-14.46692],[-49.70111,-14.47272],[-49.7135,-14.46619],[-49.7215,-14.4693],[-49.72351,-14.4801],[-49.75409,-14.47729],[-49.7569,-14.49341],[-49.75458,-14.50342],[-49.755,-14.53119],[-49.75983,-14.53278],[-49.76398,-14.5141],[-49.77429,-14.51038],[-49.78113,-14.5235],[-49.77881,-14.53918],[-49.79022,-14.53241],[-49.79993,-14.53448],[-49.82019,-14.54938],[-49.82501,-14.56299],[-49.81091,-14.58118],[-49.82019,-14.58319],[-49.81927,-14.60059],[-49.81238,-14.6167],[-49.802,-14.61499],[-49.78491,-14.61969],[-49.77618,-14.6394],[-49.76941,-14.64471],[-49.77588,-14.65479],[-49.74481,-14.65833],[-49.7428,-14.67529],[-49.73608,-14.67371],[-49.73389,-14.6947],[-49.74628,-14.70508],[-49.75311,-14.70551],[-49.76532,-14.72339],[-49.77521,-14.74683],[-49.77521,-14.75531]]]}}