{"type":"Feature","properties":{"id":"BRA.13.85","name":"Alta Floresta","level":2,"country":"BRA"},"geometry":{"type":"Polygon","coordinates":[[[-56.27411,-9.40192],[-56.27509,-9.42072],[-56.2641,-9.44409],[-56.2536,-9.45581],[-56.25311,-9.46741],[-56.2652,-9.49683],[-56.28381,-9.51581],[-56.28943,-9.52661],[-56.30762,-9.54669],[-56.30908,-9.5611],[-56.32019,-9.57861],[-56.31848,-9.59003],[-56.32599,-9.60529],[-56.33521,-9.6156],[-56.34241,-9.6413],[-56.33801,-9.6474],[-56.34332,-9.66058],[-56.34167,-9.68549],[-56.3559,-9.7243],[-56.35071,-9.7381],[-56.35358,-9.77228],[-56.34729,-9.77612],[-56.3399,-9.79608],[-56.32861,-9.80981],[-56.32922,-9.82111],[-56.341,-9.83478],[-56.34711,-9.86792],[-56.33228,-9.89569],[-56.33173,-9.90112],[-56.36829,-9.91553],[-56.37939,-9.91821],[-56.44202,-9.9079],[-56.44641,-9.90887],[-56.4892,-9.93109],[-56.5257,-9.93469],[-56.59271,-9.9173],[-56.6366,-9.92981],[-56.65198,-9.92853],[-56.65833,-9.93591],[-56.73688,-9.93811],[-56.89581,-9.9469],[-56.93481,-9.93573],[-56.93958,-9.95111],[-56.92371,-9.96179],[-56.92999,-9.97711],[-56.92859,-9.99762],[-56.91461,-10.01111],[-56.90399,-10.03387],[-56.90912,-10.04858],[-56.90033,-10.05872],[-56.91858,-10.06122],[-56.93732,-10.0697],[-56.94843,-10.08618],[-56.94891,-10.09619],[-56.9707,-10.12219],[-56.95563,-10.12518],[-56.94019,-10.14581],[-56.94379,-10.15302],[-56.94232,-10.16858],[-56.95001,-10.17981],[-56.94342,-10.19171],[-56.94043,-10.20782],[-56.94281,-10.22302],[-56.93182,-10.23419],[-56.9364,-10.25641],[-56.92639,-10.26691],[-56.93292,-10.27533],[-56.94159,-10.27429],[-56.95868,-10.27838],[-56.96503,-10.28442],[-56.96741,-10.29431],[-56.96692,-10.3219],[-56.97699,-10.32141],[-56.9823,-10.34241],[-56.97839,-10.3584],[-56.96411,-10.36029],[-56.95001,-10.36658],[-56.93591,-10.3645],[-56.92932,-10.3689],[-56.91321,-10.36829],[-56.86829,-10.37378],[-56.85193,-10.37262],[-56.83582,-10.37878],[-56.83142,-10.38452],[-56.8175,-10.38269],[-56.80481,-10.3905],[-56.80798,-10.40601],[-56.80353,-10.41162],[-56.79401,-10.40802],[-56.78931,-10.4198],[-56.77838,-10.42822],[-56.76703,-10.42712],[-56.76147,-10.44812],[-56.7536,-10.4599],[-56.74182,-10.46521],[-56.73071,-10.47571],[-56.72131,-10.47162],[-56.71521,-10.47729],[-56.71552,-10.492],[-56.7124,-10.5061],[-56.69238,-10.53021],[-56.68359,-10.53149],[-56.68359,-10.54352],[-56.6723,-10.54468],[-56.66638,-10.55951],[-56.6438,-10.58478],[-56.62872,-10.59491],[-56.5932,-10.60199],[-56.58258,-10.59943],[-56.57568,-10.6062],[-56.56049,-10.61133],[-56.54541,-10.62268],[-56.53412,-10.62769],[-56.52411,-10.6391],[-56.50208,-10.6449],[-56.48431,-10.6546],[-56.46771,-10.66699],[-56.43921,-10.67688],[-56.43152,-10.68341],[-56.40338,-10.65973],[-56.39258,-10.63702],[-56.40088,-10.62091],[-56.41211,-10.61371],[-56.40448,-10.59039],[-56.40833,-10.57928],[-56.35773,-10.59473],[-56.3371,-10.57758],[-56.32239,-10.578],[-56.30798,-10.58588],[-56.2854,-10.58081],[-56.2738,-10.58179],[-56.26001,-10.5719],[-56.26099,-10.55908],[-56.25598,-10.54883],[-56.24579,-10.5437],[-56.2334,-10.53088],[-56.24231,-10.51282],[-56.23651,-10.49542],[-56.24951,-10.48981],[-56.26318,-10.47552],[-56.26599,-10.45978],[-56.28351,-10.44409],[-56.27698,-10.43542],[-56.2774,-10.4256],[-56.29523,-10.41571],[-56.28101,-10.40417],[-56.2699,-10.40582],[-56.26233,-10.40009],[-56.25348,-10.40088],[-56.24152,-10.39032],[-56.2262,-10.39722],[-56.20618,-10.3974],[-56.20032,-10.39313],[-56.17712,-10.38611],[-56.16998,-10.38141],[-56.15399,-10.3783],[-56.1394,-10.36823],[-56.13098,-10.36932],[-56.1095,-10.36591],[-56.09308,-10.35669],[-56.09021,-10.34949],[-56.07648,-10.34021],[-56.06238,-10.33893],[-56.06152,-10.32208],[-56.0708,-10.3111],[-56.07953,-10.30768],[-56.0965,-10.28619],[-56.11462,-10.28278],[-56.1311,-10.27631],[-56.12958,-10.26379],[-56.14508,-10.25],[-56.16461,-10.25238],[-56.17438,-10.25061],[-56.19,-10.26428],[-56.20538,-10.26569],[-56.21082,-10.28198],[-56.21631,-10.28699],[-56.23962,-10.28418],[-56.19928,-10.2066],[-56.1908,-10.19269],[-56.18268,-10.18829],[-56.17432,-10.1734],[-56.14429,-10.16138],[-56.13519,-10.15308],[-56.1203,-10.1488],[-56.10199,-10.1286],[-56.09869,-10.1095],[-56.08942,-10.10638],[-56.07593,-10.11249],[-56.05939,-10.10681],[-56.05139,-10.12109],[-56.03198,-10.11798],[-56.0257,-10.12512],[-56.01782,-10.12238],[-56.00079,-10.1239],[-55.98999,-10.10852],[-55.97137,-10.09821],[-55.94629,-10.07019],[-55.935,-10.06171],[-55.90588,-10.0498],[-55.89539,-10.03632],[-55.90039,-10.02161],[-55.89832,-10.00891],[-55.90179,-9.99982],[-55.88782,-9.97058],[-55.87518,-9.95728],[-55.87061,-9.91998],[-55.86121,-9.88782],[-55.86139,-9.86951],[-55.8587,-9.85968],[-55.84509,-9.84631],[-55.84259,-9.82642],[-55.83691,-9.81653],[-55.84161,-9.80981],[-55.84009,-9.79468],[-55.82343,-9.77112],[-55.83032,-9.74469],[-55.83081,-9.73212],[-55.85962,-9.72388],[-55.88879,-9.67841],[-55.91138,-9.6593],[-55.9231,-9.63971],[-55.92291,-9.62921],[-55.93311,-9.60901],[-55.92719,-9.58551],[-55.91382,-9.5686],[-55.90991,-9.55121],[-55.89801,-9.5332],[-55.89191,-9.50891],[-55.90503,-9.48853],[-55.9021,-9.47931],[-55.90179,-9.45728],[-55.88892,-9.44531],[-55.87079,-9.44781],[-55.8653,-9.43439],[-56.15649,-9.4104],[-56.27411,-9.40192]]]}}