{"type":"Feature","properties":{"id":"BRA.27.13","name":"Vitória do Jari","level":2,"country":"BRA"},"geometry":{"type":"Polygon","coordinates":[[[-51.77838,-1.14038],[-51.75531,-1.1142],[-51.70428,-1.06769],[-51.68719,-1.03601],[-51.68561,-1.01288],[-51.6897,-0.9975],[-51.68988,-0.97559],[-51.69562,-0.92468],[-51.69049,-0.89252],[-51.69098,-0.85382],[-51.68811,-0.82318],[-51.6842,-0.8064],[-51.68488,-0.79602],[-51.70618,-0.80048],[-51.72192,-0.81049],[-51.73181,-0.82532],[-51.73688,-0.83801],[-51.72882,-0.84119],[-51.73322,-0.85272],[-51.74792,-0.86151],[-51.76001,-0.86151],[-51.76929,-0.86792],[-51.77991,-0.86292],[-51.79218,-0.867],[-51.80829,-0.86279],[-51.82141,-0.86792],[-51.82428,-0.88031],[-51.81598,-0.88861],[-51.82349,-0.90881],[-51.83209,-0.90662],[-51.84021,-0.91461],[-51.84552,-0.90479],[-51.85748,-0.90253],[-51.85999,-0.89258],[-51.87762,-0.88019],[-51.8844,-0.88971],[-51.90338,-0.88348],[-51.9007,-0.8739],[-51.92187,-0.87018],[-51.92969,-0.8786],[-51.93848,-0.86969],[-51.95502,-0.86963],[-51.9621,-0.8645],[-51.98169,-0.87079],[-52.00153,-0.88708],[-52.01721,-0.89209],[-52.02362,-0.88953],[-52.03198,-0.9007],[-52.04901,-0.90381],[-52.05841,-0.91168],[-52.0589,-0.92023],[-52.07428,-0.91602],[-52.08142,-0.90942],[-52.11279,-0.91431],[-52.13739,-0.9129],[-52.15021,-0.9021],[-52.1637,-0.88599],[-52.18298,-0.85132],[-52.18188,-0.84528],[-52.19019,-0.8363],[-52.21271,-0.82831],[-52.21741,-0.82971],[-52.2356,-0.81348],[-52.24683,-0.81281],[-52.2663,-0.80261],[-52.2785,-0.79901],[-52.30798,-0.79742],[-52.34308,-0.79791],[-52.35291,-0.80182],[-52.37128,-0.79791],[-52.38373,-0.8103],[-52.39618,-0.80731],[-52.45551,-0.8302],[-52.44427,-0.83411],[-52.43213,-0.84778],[-52.41241,-0.86261],[-52.40118,-0.8819],[-52.40521,-0.91278],[-52.42932,-0.92029],[-52.43939,-0.93591],[-52.4361,-0.94922],[-52.4248,-0.95941],[-52.4187,-0.97211],[-52.41821,-0.99902],[-52.41449,-1.00928],[-52.41681,-1.02551],[-52.42749,-1.03778],[-52.427,-1.05078],[-52.41998,-1.05261],[-52.40021,-1.04358],[-52.38312,-1.05402],[-52.35809,-1.0625],[-52.35199,-1.0697],[-52.33881,-1.10559],[-52.33301,-1.11591],[-52.31281,-1.1142],[-52.29578,-1.11749],[-52.2854,-1.12488],[-52.26562,-1.12891],[-52.24518,-1.12531],[-52.22211,-1.13452],[-52.18781,-1.13251],[-52.17889,-1.12958],[-52.16241,-1.13391],[-52.14673,-1.1488],[-52.12531,-1.14581],[-52.11658,-1.1499],[-52.10669,-1.18298],[-52.1109,-1.21503],[-52.09882,-1.22791],[-52.07031,-1.2359],[-52.06018,-1.23621],[-52.05151,-1.23059],[-52.04749,-1.21429],[-52.06299,-1.19281],[-52.0639,-1.18591],[-52.05499,-1.17688],[-52.04089,-1.1701],[-52.02118,-1.17041],[-52.01129,-1.1676],[-51.99109,-1.17181],[-51.987,-1.1568],[-51.99329,-1.1377],[-51.98828,-1.12268],[-51.97498,-1.12061],[-51.96558,-1.12579],[-51.96198,-1.1344],[-51.96588,-1.15961],[-51.95581,-1.16968],[-51.9469,-1.16602],[-51.93091,-1.13409],[-51.92291,-1.13281],[-51.90839,-1.15149],[-51.89709,-1.16199],[-51.88721,-1.16638],[-51.84448,-1.15961],[-51.80908,-1.1571],[-51.78839,-1.14758],[-51.77838,-1.14038]]]}}