{"type":"Feature","properties":{"id":"BRA.12.245","name":"Centralina","level":2,"country":"BRA"},"geometry":{"type":"Polygon","coordinates":[[[-49.24683,-18.52283],[-49.2674,-18.52649],[-49.28223,-18.53418],[-49.289,-18.54321],[-49.29211,-18.56512],[-49.2843,-18.56982],[-49.28052,-18.5835],[-49.27399,-18.58929],[-49.2627,-18.5907],[-49.25092,-18.60431],[-49.25299,-18.6123],[-49.24738,-18.63123],[-49.23651,-18.64539],[-49.23468,-18.66083],[-49.21411,-18.67938],[-49.1922,-18.68341],[-49.15741,-18.67041],[-49.15002,-18.68982],[-49.13312,-18.71338],[-49.07129,-18.75958],[-49.06989,-18.77191],[-49.05042,-18.78802],[-49.0556,-18.77509],[-49.05353,-18.75983],[-49.05951,-18.74902],[-49.04199,-18.71948],[-49.05109,-18.69983],[-49.03992,-18.6759],[-49.04822,-18.66931],[-49.06311,-18.6665],[-49.07782,-18.65363],[-49.09802,-18.62738],[-49.104,-18.60712],[-49.10962,-18.60559],[-49.11353,-18.58881],[-49.13269,-18.57111],[-49.12848,-18.56329],[-49.15112,-18.55518],[-49.16852,-18.56812],[-49.17969,-18.54889],[-49.2157,-18.52411],[-49.23901,-18.53711],[-49.24683,-18.52283]]]}}