{"type":"Feature","properties":{"id":"BRA.13.117","name":"Vila Bela da Santíssima Trindade","level":2,"country":"BRA"},"geometry":{"type":"Polygon","coordinates":[[[-60.38202,-13.99158],[-60.39398,-13.9928],[-60.40228,-13.99951],[-60.40143,-14.00989],[-60.40692,-14.03082],[-60.4162,-14.03778],[-60.42828,-14.05389],[-60.43219,-14.06848],[-60.4483,-14.08569],[-60.4621,-14.09369],[-60.4704,-14.08972],[-60.47949,-14.10138],[-60.47333,-14.1084],[-60.48383,-14.11603],[-60.47461,-14.13098],[-60.48181,-14.1369],[-60.4743,-14.15179],[-60.47632,-14.16071],[-60.48492,-14.16559],[-60.49188,-14.1886],[-60.48608,-14.19312],[-60.47229,-14.19202],[-60.46753,-14.20569],[-60.47028,-14.21393],[-60.46222,-14.22321],[-60.46393,-14.23437],[-60.45001,-14.24042],[-60.44952,-14.25012],[-60.46521,-14.2652],[-60.45691,-14.29199],[-60.45331,-14.31329],[-60.44061,-14.32123],[-60.4389,-14.32782],[-60.4256,-14.3432],[-60.42279,-14.35339],[-60.41388,-14.35858],[-60.40833,-14.3681],[-60.39642,-14.36432],[-60.39673,-14.38782],[-60.40381,-14.3999],[-60.3996,-14.4043],[-60.40271,-14.4162],[-60.39941,-14.43231],[-60.38312,-14.44171],[-60.3783,-14.46429],[-60.362,-14.47052],[-60.36151,-14.4856],[-60.34851,-14.49701],[-60.34698,-14.50531],[-60.33862,-14.51111],[-60.34198,-14.52399],[-60.33649,-14.52942],[-60.33533,-14.54608],[-60.32782,-14.56183],[-60.33118,-14.5686],[-60.32593,-14.58002],[-60.32593,-14.59271],[-60.32111,-14.60889],[-60.31641,-14.61371],[-60.29163,-14.62518],[-60.27301,-14.62073],[-60.24432,-15.0968],[-60.50098,-15.09619],[-60.565,-15.1087],[-60.53302,-15.14648],[-60.50043,-15.17981],[-60.23859,-15.47388],[-60.20331,-15.8858],[-60.17151,-16.26599],[-59.86902,-16.27228],[-59.4682,-16.27911],[-59.45221,-16.26758],[-59.45129,-16.25879],[-59.46008,-16.23761],[-59.46442,-16.2063],[-59.47388,-16.18671],[-59.48651,-16.18048],[-59.49048,-16.17419],[-59.48682,-16.15802],[-59.47778,-16.15051],[-59.48401,-16.14911],[-59.50049,-16.15588],[-59.51489,-16.17322],[-59.53589,-16.17932],[-59.55731,-16.17938],[-59.56262,-16.19098],[-59.5791,-16.19421],[-59.6037,-16.17542],[-59.62628,-16.17072],[-59.6355,-16.16272],[-59.64758,-16.16119],[-59.6676,-16.16388],[-59.67902,-16.15271],[-59.6897,-16.13428],[-59.711,-16.1225],[-59.71448,-16.11102],[-59.73248,-16.09772],[-59.74158,-16.08691],[-59.75677,-16.08752],[-59.76129,-16.08008],[-59.75891,-16.0589],[-59.76581,-16.04181],[-59.78961,-16.02808],[-59.79749,-16.01782],[-59.79718,-16.00458],[-59.8056,-15.98779],[-59.81769,-15.97821],[-59.81812,-15.97052],[-59.82703,-15.95563],[-59.83441,-15.95319],[-59.84698,-15.96619],[-59.87152,-15.97339],[-59.89178,-15.98358],[-59.91193,-15.98462],[-59.9292,-15.96832],[-59.93793,-15.96478],[-59.94049,-15.94879],[-59.93793,-15.93091],[-59.94739,-15.92389],[-59.94562,-15.91028],[-59.95422,-15.90082],[-59.95093,-15.88611],[-59.95428,-15.87231],[-59.9751,-15.86298],[-59.97552,-15.8512],[-59.96948,-15.83679],[-59.98029,-15.81311],[-59.9895,-15.8147],[-59.99402,-15.80389],[-60.00641,-15.79169],[-60.01611,-15.77759],[-60.00641,-15.7489],[-60.02039,-15.73871],[-60.01611,-15.72351],[-60.02411,-15.71808],[-60.02618,-15.7077],[-60.03271,-15.70093],[-60.03009,-15.69128],[-60.03369,-15.68201],[-60.0415,-15.67963],[-60.03851,-15.66949],[-60.04449,-15.66339],[-60.04687,-15.64331],[-60.0401,-15.6286],[-60.03943,-15.61768],[-60.02643,-15.60248],[-60.03082,-15.58551],[-60.026,-15.57361],[-60.01508,-15.56512],[-60.01648,-15.55591],[-59.49231,-15.44128],[-59.48541,-15.4223],[-59.43201,-15.22852],[-59.44519,-15.22211],[-59.48993,-15.14893],[-59.5116,-15.09961],[-59.53571,-15.05878],[-59.54108,-15.0448],[-59.56299,-15.02069],[-59.57251,-15.00592],[-59.57672,-14.98029],[-59.55109,-14.97852],[-59.54211,-14.96368],[-59.52863,-14.96088],[-59.52081,-14.9646],[-59.50909,-14.96228],[-59.49731,-14.9729],[-59.47699,-14.98541],[-59.45172,-14.9696],[-59.44598,-14.96002],[-59.57068,-14.8324],[-59.58179,-14.81873],[-59.6283,-14.81781],[-59.6427,-14.81543],[-59.65271,-14.81],[-59.66083,-14.79889],[-59.66492,-14.78271],[-59.6767,-14.77753],[-59.68158,-14.77039],[-59.67841,-14.76233],[-59.6615,-14.75049],[-59.67511,-14.72339],[-59.69708,-14.70258],[-59.7179,-14.6792],[-59.73761,-14.66418],[-59.76801,-14.64618],[-59.77112,-14.64203],[-59.77661,-14.61212],[-59.79492,-14.59448],[-59.79541,-14.57959],[-59.79999,-14.56488],[-59.80878,-14.55298],[-59.82458,-14.55139],[-59.84131,-14.534],[-59.8446,-14.51581],[-59.85382,-14.51141],[-59.8576,-14.50262],[-59.86792,-14.49341],[-59.88483,-14.49939],[-59.90033,-14.49878],[-59.93079,-14.48419],[-59.94208,-14.47589],[-59.96429,-14.45349],[-59.97449,-14.42981],[-59.99481,-14.41809],[-60.0202,-14.41418],[-60.03302,-14.42072],[-60.05621,-14.42352],[-60.0719,-14.43042],[-60.09009,-14.42462],[-60.11298,-14.42798],[-60.12128,-14.42041],[-60.12701,-14.40839],[-60.13641,-14.4054],[-60.1322,-14.39081],[-60.14209,-14.38562],[-60.14722,-14.37531],[-60.1579,-14.38031],[-60.1662,-14.37769],[-60.16278,-14.35162],[-60.17041,-14.34491],[-60.17688,-14.31549],[-60.18872,-14.32141],[-60.1994,-14.29791],[-60.19751,-14.28693],[-60.21863,-14.28241],[-60.21332,-14.26971],[-60.23071,-14.2597],[-60.22571,-14.255],[-60.23132,-14.2439],[-60.22522,-14.23981],[-60.22839,-14.22461],[-60.2356,-14.21552],[-60.23853,-14.1864],[-60.24811,-14.18591],[-60.24628,-14.1748],[-60.25031,-14.16821],[-60.26581,-14.16901],[-60.28162,-14.15338],[-60.2702,-14.146],[-60.2735,-14.13708],[-60.28632,-14.12659],[-60.28302,-14.10889],[-60.28839,-14.09583],[-60.30298,-14.08411],[-60.29749,-14.073],[-60.31348,-14.0686],[-60.30908,-14.06152],[-60.31702,-14.0658],[-60.32397,-14.05621],[-60.32452,-14.04388],[-60.33112,-14.03278],[-60.33942,-14.03003],[-60.34772,-14.02051],[-60.3504,-14.00983],[-60.3634,-14.0105],[-60.37488,-14.0177],[-60.3822,-14.00238],[-60.38202,-13.99158]]]}}