{"type":"Feature","properties":{"id":"BRA.20.77","name":"Nova Canaã","level":2,"country":"BRA"},"geometry":{"type":"Polygon","coordinates":[[[-40.1369,-15.00958],[-40.12299,-15.02112],[-40.11639,-15.03558],[-40.09882,-15.0415],[-40.08331,-15.0282],[-40.0885,-15.0166],[-40.08539,-15.00519],[-40.073,-15.00391],[-40.05591,-14.97729],[-40.0498,-14.95361],[-40.04559,-14.95038],[-40.03802,-14.92963],[-40.03662,-14.89642],[-40.04572,-14.87408],[-40.03387,-14.83801],[-40.03552,-14.83002],[-40.0249,-14.81958],[-40.08661,-14.77008],[-40.10999,-14.78589],[-40.13629,-14.75873],[-40.15088,-14.76422],[-40.16461,-14.75763],[-40.18011,-14.75671],[-40.19098,-14.74878],[-40.20789,-14.74219],[-40.21021,-14.71661],[-40.20831,-14.70428],[-40.21521,-14.69751],[-40.2149,-14.68561],[-40.22089,-14.67261],[-40.2312,-14.67261],[-40.25049,-14.66272],[-40.26862,-14.6665],[-40.27972,-14.6571],[-40.29211,-14.65741],[-40.29608,-14.66351],[-40.2951,-14.68188],[-40.30219,-14.69598],[-40.3017,-14.70972],[-40.29401,-14.7215],[-40.29858,-14.74469],[-40.32019,-14.74438],[-40.31781,-14.76471],[-40.31989,-14.77502],[-40.31512,-14.78918],[-40.32178,-14.80292],[-40.31293,-14.82031],[-40.30951,-14.8407],[-40.28223,-14.85571],[-40.28479,-14.86591],[-40.27478,-14.87073],[-40.27661,-14.88611],[-40.28162,-14.89172],[-40.27771,-14.90039],[-40.2912,-14.91858],[-40.29413,-14.93378],[-40.29401,-14.94861],[-40.29993,-14.95941],[-40.1369,-15.00958]]]}}