{"type":"Feature","properties":{"id":"BRA.20.377","name":"Cocos","level":2,"country":"BRA"},"geometry":{"type":"Polygon","coordinates":[[[-44.38,-14.04572],[-44.46869,-14.03131],[-44.49579,-14.01691],[-44.50043,-14.00952],[-44.51782,-14.00299],[-44.65369,-13.90253],[-44.6618,-13.89172],[-44.66858,-13.88928],[-44.68811,-13.89288],[-44.70331,-13.8877],[-44.71179,-13.88879],[-44.71863,-13.87689],[-44.72711,-13.87073],[-44.74921,-13.8656],[-44.76251,-13.84442],[-44.79089,-13.82593],[-44.79523,-13.8266],[-44.80878,-13.8302],[-44.82172,-13.84991],[-44.8338,-13.85358],[-44.84491,-13.88263],[-44.8573,-13.8858],[-44.86731,-13.9057],[-44.87408,-13.90521],[-44.88733,-13.92187],[-44.90259,-13.92572],[-44.8999,-13.93793],[-44.90338,-13.9433],[-44.90759,-13.9657],[-44.9068,-13.97931],[-44.91479,-14.00342],[-44.92383,-14.01398],[-44.94122,-14.01428],[-44.94751,-14.02008],[-44.95099,-14.03168],[-44.99579,-14.0415],[-45.0094,-14.04608],[-45.01501,-14.05371],[-45.04163,-14.06201],[-45.04938,-14.07288],[-45.07428,-14.07611],[-45.09961,-14.09882],[-45.1073,-14.11841],[-45.12482,-14.112],[-45.15131,-14.11731],[-45.16058,-14.125],[-45.1701,-14.1217],[-45.19232,-14.12848],[-45.20288,-14.14819],[-45.22089,-14.15479],[-45.22052,-14.16681],[-45.2406,-14.17493],[-45.25293,-14.18573],[-45.26398,-14.19989],[-45.27551,-14.19879],[-45.2793,-14.20569],[-45.30432,-14.21161],[-45.30322,-14.22162],[-45.31482,-14.22449],[-45.32611,-14.23401],[-45.33368,-14.2453],[-45.35022,-14.2536],[-45.37378,-14.25708],[-45.39008,-14.27539],[-45.40088,-14.29559],[-45.40887,-14.2973],[-45.41718,-14.31549],[-45.43158,-14.33118],[-45.45209,-14.32971],[-45.46991,-14.34222],[-45.47998,-14.3454],[-45.49298,-14.35681],[-45.49591,-14.37671],[-45.50812,-14.38428],[-45.54199,-14.41608],[-45.54761,-14.42889],[-45.56091,-14.4436],[-45.58069,-14.45209],[-45.60791,-14.47772],[-45.62341,-14.50439],[-45.63879,-14.51288],[-45.67279,-14.51819],[-45.67682,-14.52191],[-45.68359,-14.54651],[-45.70978,-14.56201],[-45.71661,-14.56989],[-45.72748,-14.57141],[-45.72968,-14.57953],[-45.7464,-14.60059],[-45.75372,-14.60303],[-45.76831,-14.62201],[-45.80139,-14.64929],[-45.81842,-14.66022],[-45.83398,-14.67493],[-45.83862,-14.6839],[-45.8587,-14.69659],[-45.86499,-14.70923],[-45.87622,-14.716],[-45.88452,-14.7298],[-45.8963,-14.73761],[-45.90082,-14.74548],[-45.91858,-14.76239],[-45.93591,-14.77319],[-45.94739,-14.7901],[-45.95959,-14.80072],[-45.96362,-14.8103],[-45.98712,-14.82343],[-45.99512,-14.82251],[-46.02612,-14.85931],[-46.03851,-14.87488],[-46.0213,-14.88379],[-46.00391,-14.90228],[-46.00842,-14.92041],[-46.00519,-14.92743],[-45.9953,-14.92798],[-45.99109,-14.93658],[-45.97931,-14.94739],[-45.97241,-14.94861],[-45.966,-14.96558],[-45.96619,-14.97699],[-45.97479,-15.0047],[-45.97339,-15.02771],[-45.97522,-15.0379],[-45.98743,-15.05103],[-46.01202,-15.0722],[-46.01849,-15.0813],[-46.01941,-15.09302],[-46.02753,-15.10132],[-46.02692,-15.10968],[-46.03351,-15.11731],[-46.0437,-15.1181],[-46.0498,-15.13611],[-46.0434,-15.14618],[-46.04779,-15.1637],[-46.0575,-15.17383],[-46.07251,-15.17657],[-46.09161,-15.18481],[-46.099,-15.19269],[-46.1192,-15.1922],[-46.1189,-15.20209],[-46.09882,-15.2168],[-46.10059,-15.23029],[-46.09711,-15.2431],[-46.08411,-15.24622],[-46.07599,-15.26459],[-46.05701,-15.26233],[-46.05518,-15.25159],[-46.03882,-15.23059],[-46.03949,-15.21729],[-46.03229,-15.21411],[-46.02863,-15.20172],[-46.01038,-15.1958],[-45.98401,-15.19489],[-45.97321,-15.16882],[-45.97119,-15.15491],[-45.95422,-15.14032],[-45.94012,-15.13599],[-45.9187,-15.1333],[-45.89893,-15.14362],[-45.87982,-15.15649],[-45.87201,-15.1579],[-45.8537,-15.14459],[-45.84637,-15.14581],[-45.83478,-15.13611],[-45.83221,-15.12451],[-45.82599,-15.1167],[-45.81122,-15.11438],[-45.79852,-15.11829],[-45.78888,-15.11407],[-45.77692,-15.11731],[-45.7431,-15.1192],[-45.7226,-15.11121],[-45.71832,-15.09821],[-45.68652,-15.08691],[-45.67322,-15.07782],[-45.65619,-15.04901],[-45.65973,-15.03943],[-45.65662,-15.0274],[-45.64252,-15.02002],[-45.6355,-15.02362],[-45.62012,-15.01941],[-45.60712,-14.99701],[-45.59448,-14.98419],[-45.59302,-14.97711],[-45.578,-14.96753],[-45.56799,-14.9566],[-45.56708,-14.94531],[-45.5528,-14.9447],[-45.54779,-14.93878],[-45.5354,-14.93811],[-45.52069,-14.95258],[-45.51001,-14.95221],[-45.49841,-14.94641],[-45.49078,-14.96008],[-45.4704,-14.9502],[-45.45831,-14.95441],[-45.4425,-14.93518],[-45.43433,-14.92181],[-45.4248,-14.92529],[-45.41138,-14.92358],[-45.38721,-14.90662],[-45.36963,-14.88861],[-45.37201,-14.88098],[-45.36261,-14.87183],[-45.35211,-14.87469],[-45.34882,-14.86261],[-45.33051,-14.85962],[-45.31799,-14.85248],[-45.3114,-14.8363],[-45.30621,-14.8349],[-45.28992,-14.82568],[-45.28772,-14.81769],[-45.27441,-14.81152],[-45.26501,-14.80231],[-45.25873,-14.78949],[-45.24182,-14.78571],[-45.23169,-14.77502],[-45.22919,-14.76569],[-45.20392,-14.74518],[-45.19128,-14.74969],[-45.16638,-14.73431],[-45.15338,-14.74219],[-45.1004,-14.75079],[-45.08441,-14.74902],[-45.06519,-14.7312],[-45.04681,-14.69],[-45.03961,-14.69049],[-45.03241,-14.67639],[-44.995,-14.66669],[-44.97919,-14.65112],[-44.97992,-14.64569],[-44.96088,-14.6319],[-44.94672,-14.63263],[-44.93152,-14.62262],[-44.91669,-14.61969],[-44.909,-14.61359],[-44.90973,-14.60419],[-44.8974,-14.60553],[-44.89111,-14.59851],[-44.8703,-14.5929],[-44.8623,-14.57928],[-44.84369,-14.57721],[-44.85413,-14.56708],[-44.84772,-14.55902],[-44.8476,-14.5462],[-44.83002,-14.53339],[-44.83533,-14.51971],[-44.82391,-14.51709],[-44.83459,-14.50562],[-44.82788,-14.49969],[-44.81671,-14.50482],[-44.81152,-14.49591],[-44.79541,-14.49628],[-44.78088,-14.48248],[-44.77002,-14.4776],[-44.75708,-14.47809],[-44.74182,-14.46851],[-44.7251,-14.4566],[-44.72382,-14.44928],[-44.71179,-14.4444],[-44.70081,-14.44818],[-44.69818,-14.43201],[-44.68762,-14.42059],[-44.67432,-14.42401],[-44.65839,-14.41638],[-44.6626,-14.40741],[-44.65723,-14.39551],[-44.64288,-14.39203],[-44.6347,-14.39392],[-44.6261,-14.37671],[-44.61719,-14.37531],[-44.61011,-14.36542],[-44.59833,-14.3681],[-44.58612,-14.35352],[-44.578,-14.35388],[-44.56549,-14.34082],[-44.55762,-14.33728],[-44.54352,-14.34149],[-44.54108,-14.33221],[-44.53003,-14.32831],[-44.51831,-14.3299],[-44.50342,-14.32233],[-44.48761,-14.32849],[-44.47211,-14.31409],[-44.45361,-14.31201],[-44.43939,-14.30322],[-44.42902,-14.28699],[-44.41882,-14.28168],[-44.42688,-14.27911],[-44.43402,-14.25293],[-44.44751,-14.23938],[-44.44751,-14.22998],[-44.45361,-14.22308],[-44.46851,-14.21613],[-44.46198,-14.19513],[-44.44501,-14.19238],[-44.44,-14.18762],[-44.44373,-14.17609],[-44.43903,-14.16821],[-44.44122,-14.15948],[-44.45093,-14.16028],[-44.44452,-14.14148],[-44.43408,-14.14313],[-44.4278,-14.13391],[-44.42981,-14.12378],[-44.41968,-14.11859],[-44.42249,-14.11133],[-44.41882,-14.09802],[-44.42511,-14.08142],[-44.41571,-14.0769],[-44.40338,-14.07831],[-44.39032,-14.07422],[-44.37842,-14.05182],[-44.38,-14.04572]],[[-45.3114,-14.8363],[-45.31519,-14.8363],[-45.3161,-14.83282],[-45.31293,-14.83331],[-45.3114,-14.8363]]]}}