{"type":"Feature","properties":{"id":"BRA.14.469","name":"Mampituba","level":2,"country":"BRA"},"geometry":{"type":"Polygon","coordinates":[[[-50.03473,-29.34882],[-50.03021,-29.3432],[-50.03442,-29.32568],[-50.02161,-29.3114],[-50.00519,-29.30231],[-49.99823,-29.30371],[-49.95532,-29.28558],[-49.94208,-29.27148],[-49.9408,-29.2641],[-49.93042,-29.25372],[-49.90369,-29.2536],[-49.88672,-29.25842],[-49.8891,-29.24261],[-49.90051,-29.21552],[-49.91931,-29.20691],[-49.93451,-29.20831],[-49.94458,-29.20129],[-49.9649,-29.2002],[-49.97162,-29.21332],[-49.99341,-29.22638],[-50.00751,-29.22528],[-50.03491,-29.23401],[-50.05182,-29.242],[-50.05969,-29.24109],[-50.07379,-29.24939],[-50.10541,-29.25488],[-50.1153,-29.26068],[-50.10852,-29.27942],[-50.08643,-29.30048],[-50.05402,-29.3208],[-50.0412,-29.34381],[-50.03772,-29.34558],[-50.03473,-29.34882]]]}}