{"type":"Feature","properties":{"id":"BRA.18.41","name":"Corrente","level":2,"country":"BRA"},"geometry":{"type":"Polygon","coordinates":[[[-44.79431,-10.32819],[-45.00061,-10.1308],[-45.10608,-10.13843],[-45.19263,-10.14502],[-45.28571,-10.2016],[-45.38843,-10.24463],[-45.4906,-10.30103],[-45.47321,-10.31531],[-45.45679,-10.3385],[-45.4303,-10.35937],[-45.42578,-10.3703],[-45.42981,-10.40381],[-45.4245,-10.42651],[-45.41852,-10.43231],[-45.396,-10.44501],[-45.40021,-10.46301],[-45.40973,-10.47278],[-45.43109,-10.4884],[-45.44733,-10.5083],[-45.43799,-10.52643],[-45.44092,-10.54291],[-45.44641,-10.552],[-45.44611,-10.56232],[-45.43671,-10.57678],[-45.43732,-10.61548],[-45.43231,-10.63049],[-45.42529,-10.63879],[-45.41309,-10.64563],[-45.30438,-10.60718],[-45.1911,-10.58978],[-45.02393,-10.65503],[-45.02881,-10.61511],[-44.96509,-10.61591],[-44.89001,-10.508],[-44.85522,-10.5],[-44.84509,-10.48962],[-44.84851,-10.47443],[-44.83649,-10.47192],[-44.82971,-10.46509],[-44.8302,-10.45148],[-44.81201,-10.44958],[-44.81091,-10.4436],[-44.8172,-10.42902],[-44.8056,-10.4278],[-44.8089,-10.41571],[-44.80103,-10.40698],[-44.83142,-10.34058],[-44.79431,-10.32819]]]}}