{"type":"Feature","properties":{"id":"BRA.18.29","name":"Cajazeiras do Piauí","level":2,"country":"BRA"},"geometry":{"type":"Polygon","coordinates":[[[-42.60638,-6.8089],[-42.60779,-6.81671],[-42.60211,-6.83789],[-42.59302,-6.84741],[-42.58502,-6.84558],[-42.57922,-6.85632],[-42.56659,-6.86902],[-42.55322,-6.8689],[-42.54022,-6.86298],[-42.52411,-6.8689],[-42.50043,-6.88068],[-42.4895,-6.87891],[-42.47351,-6.89532],[-42.47333,-6.90472],[-42.45099,-6.90918],[-42.43408,-6.90149],[-42.40851,-6.86371],[-42.40509,-6.8537],[-42.39661,-6.84418],[-42.39319,-6.83191],[-42.37,-6.82208],[-42.36023,-6.80591],[-42.33398,-6.79919],[-42.31921,-6.77051],[-42.31799,-6.76208],[-42.32611,-6.75751],[-42.33331,-6.74542],[-42.33441,-6.73029],[-42.34943,-6.71912],[-42.3559,-6.7207],[-42.36493,-6.71301],[-42.362,-6.68011],[-42.37402,-6.6767],[-42.39368,-6.66553],[-42.4082,-6.66211],[-42.41718,-6.67102],[-42.42859,-6.66211],[-42.43408,-6.66718],[-42.45911,-6.66931],[-42.46661,-6.66321],[-42.47809,-6.66803],[-42.47211,-6.6792],[-42.479,-6.69531],[-42.49091,-6.70831],[-42.50531,-6.7132],[-42.51318,-6.71991],[-42.5271,-6.7074],[-42.53571,-6.70801],[-42.54541,-6.7193],[-42.55768,-6.724],[-42.5495,-6.74121],[-42.5636,-6.75531],[-42.5639,-6.77289],[-42.57013,-6.78412],[-42.59833,-6.79962],[-42.60638,-6.8089]]]}}