{"type":"Feature","properties":{"id":"BRA.12.812","name":"Padre Paraíso","level":2,"country":"BRA"},"geometry":{"type":"Polygon","coordinates":[[[-41.67468,-16.98608],[-41.66699,-16.99298],[-41.67548,-17.00818],[-41.6792,-17.03619],[-41.68628,-17.04718],[-41.67187,-17.05298],[-41.66632,-17.06189],[-41.65369,-17.0719],[-41.6532,-17.0871],[-41.66888,-17.10492],[-41.6571,-17.12018],[-41.65918,-17.13501],[-41.64978,-17.15198],[-41.64752,-17.18451],[-41.64038,-17.1994],[-41.63123,-17.20331],[-41.62219,-17.19263],[-41.6228,-17.1803],[-41.61401,-17.1756],[-41.60742,-17.16492],[-41.59802,-17.15881],[-41.6012,-17.13721],[-41.58679,-17.12872],[-41.57172,-17.12439],[-41.55688,-17.12701],[-41.55829,-17.11072],[-41.52032,-17.10321],[-41.50659,-17.09662],[-41.48401,-17.08081],[-41.47229,-17.08191],[-41.46069,-17.11011],[-41.43982,-17.11639],[-41.43561,-17.12469],[-41.41443,-17.12592],[-41.40948,-17.11359],[-41.41199,-17.10431],[-41.40051,-17.08911],[-41.40198,-17.06927],[-41.38892,-17.05719],[-41.38568,-17.04999],[-41.40039,-17.03259],[-41.44171,-17.034],[-41.4447,-17.02441],[-41.4408,-17.00549],[-41.44672,-16.99689],[-41.44641,-16.9845],[-41.45551,-16.94708],[-41.46558,-16.93469],[-41.48871,-16.92529],[-41.51379,-16.93658],[-41.52942,-16.94958],[-41.53339,-16.94891],[-41.55591,-16.91821],[-41.58191,-16.91351],[-41.59631,-16.91962],[-41.59949,-16.92572],[-41.61621,-16.93921],[-41.62799,-16.94519],[-41.64032,-16.96411],[-41.65332,-16.96771],[-41.66168,-16.97821],[-41.67468,-16.98608]]]}}