{"type":"Feature","properties":{"id":"BRA.18.146","name":"Simões","level":2,"country":"BRA"},"geometry":{"type":"Polygon","coordinates":[[[-40.98798,-7.53119],[-40.98212,-7.55811],[-40.96881,-7.56891],[-40.96948,-7.58331],[-40.96503,-7.59119],[-40.9436,-7.59851],[-40.94061,-7.59698],[-40.90009,-7.60052],[-40.88538,-7.62323],[-40.85211,-7.6264],[-40.82849,-7.66681],[-40.79742,-7.69281],[-40.79993,-7.72449],[-40.80719,-7.7666],[-40.7782,-7.7774],[-40.76062,-7.7793],[-40.74371,-7.77588],[-40.7334,-7.77728],[-40.72028,-7.78601],[-40.70349,-7.78601],[-40.69312,-7.79791],[-40.68988,-7.81549],[-40.69519,-7.85278],[-40.67749,-7.86908],[-40.69098,-7.8985],[-40.68439,-7.91772],[-40.67542,-7.92731],[-40.6662,-7.92621],[-40.65588,-7.93799],[-40.64081,-7.93738],[-40.63629,-7.93311],[-40.61749,-7.94983],[-40.59979,-7.95471],[-40.57941,-7.9469],[-40.57129,-7.95239],[-40.55499,-7.94849],[-40.54388,-7.96149],[-40.5459,-7.93689],[-40.5415,-7.8869],[-40.53821,-7.8739],[-40.53809,-7.85681],[-40.54199,-7.8385],[-40.55481,-7.81842],[-40.57831,-7.80518],[-40.6286,-7.79248],[-40.64508,-7.7868],[-40.66461,-7.7738],[-40.67358,-7.7616],[-40.67529,-7.74658],[-40.67181,-7.73541],[-40.66101,-7.72052],[-40.6438,-7.70813],[-40.63373,-7.69678],[-40.62769,-7.685],[-40.62183,-7.65833],[-40.62671,-7.63123],[-40.63208,-7.61792],[-40.6449,-7.5957],[-40.6626,-7.57953],[-40.67731,-7.56293],[-40.69458,-7.53778],[-40.70428,-7.51868],[-40.71381,-7.4939],[-40.71503,-7.48071],[-40.7536,-7.47791],[-40.76581,-7.47559],[-40.80579,-7.48401],[-40.87152,-7.44879],[-40.8869,-7.45831],[-40.8905,-7.46869],[-40.90088,-7.47571],[-40.9021,-7.48602],[-40.9187,-7.48761],[-40.93579,-7.49689],[-40.94141,-7.50781],[-40.95691,-7.51758],[-40.96411,-7.51691],[-40.98798,-7.53119]]]}}