{"type":"Feature","properties":{"id":"BRA.2.284","name":"Santo Antônio da Alegria","level":2,"country":"BRA"},"geometry":{"type":"Polygon","coordinates":[[[-47.14709,-21.03491],[-47.15698,-21.0188],[-47.15112,-21.01031],[-47.15033,-20.99689],[-47.14368,-20.9823],[-47.14783,-20.97241],[-47.18091,-20.95398],[-47.1944,-20.96912],[-47.21588,-20.97162],[-47.22632,-20.98322],[-47.23792,-20.98163],[-47.2467,-20.98621],[-47.24451,-20.99561],[-47.25269,-21.00458],[-47.24939,-21.01788],[-47.23828,-21.03949],[-47.23889,-21.05042],[-47.23383,-21.07269],[-47.2348,-21.08319],[-47.24762,-21.07599],[-47.25751,-21.07568],[-47.26898,-21.09271],[-47.29071,-21.10168],[-47.29639,-21.09711],[-47.30792,-21.10138],[-47.2926,-21.11078],[-47.29053,-21.12042],[-47.28021,-21.13971],[-47.2655,-21.13971],[-47.25409,-21.1543],[-47.2439,-21.16022],[-47.23621,-21.17029],[-47.23071,-21.18573],[-47.23163,-21.19342],[-47.22412,-21.19983],[-47.18799,-21.21301],[-47.17078,-21.19513],[-47.14838,-21.19739],[-47.13971,-21.18573],[-47.12891,-21.18872],[-47.11761,-21.1861],[-47.1228,-21.16663],[-47.11609,-21.15289],[-47.12671,-21.14429],[-47.13281,-21.13391],[-47.12152,-21.11249],[-47.11371,-21.10529],[-47.12811,-21.09918],[-47.14191,-21.08722],[-47.1394,-21.06927],[-47.1463,-21.05762],[-47.14709,-21.03491]]]}}