{"type":"Feature","properties":{"id":"BRA.12.200","name":"Bela Vista de Minas","level":2,"country":"BRA"},"geometry":{"type":"Polygon","coordinates":[[[-43.01062,-19.82922],[-43.02228,-19.82739],[-43.0412,-19.83063],[-43.05341,-19.82379],[-43.06799,-19.80438],[-43.07458,-19.80621],[-43.08081,-19.79401],[-43.08942,-19.79138],[-43.09473,-19.78198],[-43.09418,-19.76331],[-43.08191,-19.74951],[-43.09198,-19.7406],[-43.09918,-19.72888],[-43.10779,-19.72601],[-43.11591,-19.73309],[-43.13239,-19.7301],[-43.13611,-19.73541],[-43.16089,-19.73969],[-43.16528,-19.74799],[-43.14612,-19.76019],[-43.15741,-19.7663],[-43.16321,-19.77612],[-43.18829,-19.7738],[-43.19427,-19.7887],[-43.18341,-19.79321],[-43.17432,-19.79138],[-43.14569,-19.80371],[-43.13422,-19.80249],[-43.12518,-19.81653],[-43.11621,-19.81598],[-43.09882,-19.82343],[-43.1109,-19.83911],[-43.09601,-19.84888],[-43.08911,-19.8584],[-43.08319,-19.87323],[-43.07031,-19.8858],[-43.06311,-19.88568],[-43.05719,-19.8689],[-43.0614,-19.85889],[-43.05823,-19.85193],[-43.03961,-19.84222],[-43.02478,-19.84058],[-43.01062,-19.82922]]]}}