{"type":"Feature","properties":{"id":"BRA.15.214","name":"Esperança Nova","level":2,"country":"BRA"},"geometry":{"type":"Polygon","coordinates":[[[-53.74872,-23.67169],[-53.78888,-23.66571],[-53.8114,-23.66699],[-53.8269,-23.66351],[-53.85541,-23.66083],[-53.88092,-23.66492],[-53.87292,-23.69611],[-53.85681,-23.72241],[-53.85431,-23.73291],[-53.8385,-23.74982],[-53.81073,-23.75043],[-53.80011,-23.75623],[-53.7876,-23.7735],[-53.77551,-23.7854],[-53.76062,-23.78473],[-53.74609,-23.7757],[-53.74091,-23.76788],[-53.72919,-23.73779],[-53.73669,-23.7298],[-53.7453,-23.70831],[-53.73163,-23.69562],[-53.74872,-23.67169]]]}}