{"type":"Feature","properties":{"id":"BRA.2.280","name":"Iporanga","level":2,"country":"BRA"},"geometry":{"type":"Polygon","coordinates":[[[-48.78809,-24.55798],[-48.78241,-24.56659],[-48.78918,-24.57178],[-48.78021,-24.59009],[-48.771,-24.58661],[-48.75311,-24.58899],[-48.74902,-24.6051],[-48.73871,-24.61359],[-48.73199,-24.63971],[-48.75879,-24.64581],[-48.77911,-24.66461],[-48.80371,-24.66748],[-48.81091,-24.67438],[-48.80078,-24.6748],[-48.7876,-24.6817],[-48.7785,-24.69592],[-48.76971,-24.69562],[-48.75879,-24.68091],[-48.75018,-24.69519],[-48.74048,-24.68738],[-48.71851,-24.68298],[-48.6994,-24.6853],[-48.68842,-24.67889],[-48.6908,-24.66809],[-48.6778,-24.6712],[-48.67181,-24.68011],[-48.67651,-24.69263],[-48.67499,-24.70178],[-48.66443,-24.70648],[-48.65491,-24.69092],[-48.6416,-24.68829],[-48.63782,-24.67761],[-48.62512,-24.67889],[-48.61591,-24.66852],[-48.604,-24.66821],[-48.59338,-24.67432],[-48.58258,-24.6712],[-48.57892,-24.6842],[-48.5683,-24.69562],[-48.5647,-24.70618],[-48.53711,-24.72491],[-48.53192,-24.71881],[-48.53082,-24.69891],[-48.52411,-24.68262],[-48.50409,-24.66803],[-48.49609,-24.66882],[-48.48608,-24.67859],[-48.47528,-24.66522],[-48.46082,-24.66083],[-48.45721,-24.64618],[-48.45978,-24.64038],[-48.45178,-24.62408],[-48.45392,-24.61731],[-48.44629,-24.6012],[-48.42938,-24.58508],[-48.41101,-24.58472],[-48.40198,-24.57111],[-48.40851,-24.55939],[-48.42639,-24.55341],[-48.43402,-24.5434],[-48.42822,-24.53149],[-48.4082,-24.52301],[-48.3963,-24.52191],[-48.38239,-24.50311],[-48.3924,-24.48969],[-48.37659,-24.47339],[-48.36499,-24.46991],[-48.35181,-24.45972],[-48.34711,-24.44122],[-48.35791,-24.43372],[-48.36151,-24.422],[-48.37152,-24.42291],[-48.38202,-24.4328],[-48.39899,-24.42743],[-48.388,-24.41138],[-48.37793,-24.40503],[-48.37653,-24.39648],[-48.36859,-24.39032],[-48.36951,-24.37921],[-48.35992,-24.36621],[-48.36261,-24.34808],[-48.35449,-24.34558],[-48.35162,-24.33661],[-48.36169,-24.31091],[-48.37048,-24.30389],[-48.38232,-24.3042],[-48.39081,-24.30408],[-48.39972,-24.2865],[-48.40613,-24.28381],[-48.41101,-24.26782],[-48.43201,-24.2641],[-48.45178,-24.26282],[-48.45892,-24.25403],[-48.46448,-24.27301],[-48.45282,-24.28522],[-48.47528,-24.28943],[-48.4942,-24.2804],[-48.50342,-24.28912],[-48.50439,-24.3031],[-48.52271,-24.31061],[-48.5329,-24.32031],[-48.54822,-24.3053],[-48.55701,-24.28711],[-48.56781,-24.29852],[-48.58521,-24.31012],[-48.60168,-24.33301],[-48.60571,-24.33411],[-48.59381,-24.34253],[-48.5686,-24.3363],[-48.55981,-24.3399],[-48.54388,-24.33441],[-48.53461,-24.34662],[-48.51361,-24.33832],[-48.50153,-24.3493],[-48.50519,-24.35529],[-48.49188,-24.37018],[-48.49609,-24.38879],[-48.50232,-24.38812],[-48.5108,-24.40161],[-48.52191,-24.41052],[-48.51971,-24.41791],[-48.53003,-24.42963],[-48.54999,-24.44043],[-48.573,-24.4339],[-48.58569,-24.43481],[-48.59338,-24.4422],[-48.61469,-24.45331],[-48.61859,-24.44232],[-48.63031,-24.43872],[-48.63269,-24.45758],[-48.6543,-24.45618],[-48.67352,-24.47351],[-48.6676,-24.47961],[-48.6745,-24.48907],[-48.70428,-24.50879],[-48.71521,-24.51141],[-48.72809,-24.52612],[-48.7619,-24.54651],[-48.78809,-24.55798]]]}}