{"type":"Feature","properties":{"id":"BRA.20.363","name":"Antas","level":2,"country":"BRA"},"geometry":{"type":"Polygon","coordinates":[[[-38.15033,-10.4566],[-38.2373,-10.38049],[-38.25281,-10.31421],[-38.41498,-10.30829],[-38.33978,-10.33112],[-38.34119,-10.37421],[-38.38782,-10.38751],[-38.3728,-10.40161],[-38.41699,-10.4397],[-38.42041,-10.44421],[-38.41962,-10.45923],[-38.41388,-10.46588],[-38.39978,-10.46338],[-38.36841,-10.47559],[-38.35071,-10.47021],[-38.34198,-10.47388],[-38.30438,-10.47168],[-38.2915,-10.4765],[-38.25299,-10.46051],[-38.23871,-10.46759],[-38.22522,-10.46991],[-38.2193,-10.47668],[-38.20782,-10.46991],[-38.1944,-10.47913],[-38.1828,-10.4801],[-38.1712,-10.47083],[-38.1637,-10.46942],[-38.15033,-10.4566]]]}}