{"type":"Feature","properties":{"id":"BRA.24.37","name":"Carnaúba dos Dantas","level":2,"country":"BRA"},"geometry":{"type":"Polygon","coordinates":[[[-36.67969,-6.57928],[-36.65149,-6.58582],[-36.63751,-6.59198],[-36.62402,-6.5921],[-36.61212,-6.58508],[-36.58752,-6.58478],[-36.5755,-6.5979],[-36.55719,-6.60022],[-36.55048,-6.60773],[-36.53241,-6.60699],[-36.52081,-6.61182],[-36.52448,-6.60028],[-36.5127,-6.59442],[-36.47351,-6.61438],[-36.46631,-6.62848],[-36.45929,-6.63428],[-36.44928,-6.62421],[-36.43701,-6.62891],[-36.4411,-6.59998],[-36.44122,-6.57361],[-36.44391,-6.55939],[-36.4491,-6.55389],[-36.47028,-6.54858],[-36.47858,-6.54089],[-36.48181,-6.52008],[-36.50043,-6.51349],[-36.51788,-6.50269],[-36.52582,-6.5011],[-36.5282,-6.47931],[-36.5459,-6.48383],[-36.58008,-6.47351],[-36.58612,-6.48291],[-36.5946,-6.48541],[-36.62579,-6.51129],[-36.63202,-6.52679],[-36.64258,-6.53491],[-36.64801,-6.5329],[-36.65839,-6.55463],[-36.67529,-6.5769],[-36.67969,-6.57928]]]}}