{"type":"Feature","properties":{"id":"BRA.14.31","name":"Pinto Bandeira","level":2,"country":"BRA"},"geometry":{"type":"Polygon","coordinates":[[[-51.42322,-29.1568],[-51.42322,-29.12708],[-51.41162,-29.1272],[-51.4129,-29.0874],[-51.4256,-29.08759],[-51.42657,-29.07092],[-51.42212,-29.05981],[-51.4389,-29.06158],[-51.46112,-29.0191],[-51.47632,-29.01801],[-51.48792,-29.03302],[-51.50842,-29.02539],[-51.51868,-29.02771],[-51.52222,-29.03668],[-51.51788,-29.04608],[-51.49799,-29.05499],[-51.50488,-29.08173],[-51.49658,-29.0874],[-51.5011,-29.10162],[-51.49841,-29.11041],[-51.51141,-29.11389],[-51.51129,-29.12201],[-51.4859,-29.1228],[-51.47388,-29.13281],[-51.47992,-29.1441],[-51.46771,-29.15448],[-51.46759,-29.16351],[-51.45813,-29.16803],[-51.42328,-29.16498],[-51.42322,-29.1568]]]}}