{"type":"Feature","properties":{"id":"BRA.14.299","name":"Ibiraiaras","level":2,"country":"BRA"},"geometry":{"type":"MultiPolygon","coordinates":[[[[-51.74939,-28.44891],[-51.74738,-28.45111],[-51.7442,-28.45001],[-51.74939,-28.44891]]],[[[-51.75958,-28.44891],[-51.74939,-28.44891],[-51.75409,-28.44379],[-51.75958,-28.44891]]],[[[-51.70551,-28.31311],[-51.70282,-28.33441],[-51.70581,-28.341],[-51.69897,-28.35303],[-51.71661,-28.36969],[-51.70453,-28.37921],[-51.71368,-28.39862],[-51.71271,-28.40552],[-51.7204,-28.42059],[-51.72858,-28.42029],[-51.72278,-28.43671],[-51.73437,-28.43671],[-51.7442,-28.45001],[-51.71112,-28.45551],[-51.68719,-28.46631],[-51.6778,-28.46411],[-51.64313,-28.46631],[-51.61932,-28.47968],[-51.62183,-28.46509],[-51.6142,-28.44812],[-51.60272,-28.44281],[-51.58441,-28.42493],[-51.57239,-28.41968],[-51.54779,-28.42169],[-51.53381,-28.41461],[-51.5191,-28.4126],[-51.51453,-28.40588],[-51.49829,-28.3949],[-51.5083,-28.38629],[-51.5174,-28.3916],[-51.53491,-28.37292],[-51.53851,-28.35468],[-51.52979,-28.33398],[-51.54163,-28.32581],[-51.54468,-28.3136],[-51.56653,-28.30591],[-51.59399,-28.30139],[-51.60339,-28.2934],[-51.63611,-28.25171],[-51.62939,-28.27478],[-51.64581,-28.30261],[-51.65509,-28.3053],[-51.66553,-28.32379],[-51.6839,-28.31543],[-51.70551,-28.31311]]]]}}