{"type":"Feature","properties":{"id":"BRA.1.202","name":"Trindade","level":2,"country":"BRA"},"geometry":{"type":"Polygon","coordinates":[[[-49.4469,-16.71649],[-49.43988,-16.6955],[-49.4425,-16.67731],[-49.43878,-16.67041],[-49.4137,-16.6499],[-49.38843,-16.64282],[-49.38129,-16.6319],[-49.38232,-16.6236],[-49.39142,-16.61389],[-49.39142,-16.59808],[-49.3924,-16.58459],[-49.42181,-16.55701],[-49.41791,-16.54022],[-49.42688,-16.53662],[-49.4505,-16.53778],[-49.4563,-16.52771],[-49.45471,-16.5202],[-49.4585,-16.49561],[-49.59509,-16.52618],[-49.60052,-16.51758],[-49.6153,-16.50598],[-49.62152,-16.4906],[-49.63361,-16.49408],[-49.65833,-16.50958],[-49.66272,-16.50049],[-49.68512,-16.50159],[-49.68958,-16.50671],[-49.69513,-16.52081],[-49.68042,-16.53448],[-49.66052,-16.5379],[-49.6474,-16.54779],[-49.63989,-16.5426],[-49.62219,-16.55328],[-49.59589,-16.5451],[-49.60193,-16.5647],[-49.61292,-16.57562],[-49.62158,-16.57892],[-49.63641,-16.59491],[-49.64313,-16.61658],[-49.65399,-16.62958],[-49.65948,-16.66058],[-49.66821,-16.67078],[-49.68878,-16.67023],[-49.69281,-16.68048],[-49.69061,-16.69098],[-49.68188,-16.7049],[-49.67322,-16.71271],[-49.67572,-16.72461],[-49.66278,-16.72968],[-49.6554,-16.73798],[-49.6535,-16.7605],[-49.64099,-16.77063],[-49.61688,-16.77917],[-49.63782,-16.79022],[-49.63251,-16.8042],[-49.59851,-16.80182],[-49.59302,-16.7854],[-49.58081,-16.77222],[-49.57391,-16.77551],[-49.56512,-16.78802],[-49.5459,-16.79852],[-49.54602,-16.80823],[-49.5321,-16.81042],[-49.52441,-16.80591],[-49.5069,-16.80353],[-49.52899,-16.78528],[-49.5307,-16.7782],[-49.54602,-16.77643],[-49.53979,-16.76611],[-49.54242,-16.75018],[-49.53912,-16.74512],[-49.51819,-16.74109],[-49.49738,-16.7478],[-49.48859,-16.7359],[-49.47223,-16.73499],[-49.4472,-16.72211],[-49.4469,-16.71649]]]}}