{"type":"Feature","properties":{"id":"BRA.16.271","name":"São Bento do Sul","level":2,"country":"BRA"},"geometry":{"type":"Polygon","coordinates":[[[-49.48572,-26.18408],[-49.48761,-26.19458],[-49.47839,-26.21729],[-49.47693,-26.2298],[-49.47083,-26.24213],[-49.47168,-26.28241],[-49.47601,-26.302],[-49.46588,-26.30499],[-49.4682,-26.32562],[-49.46442,-26.33911],[-49.46631,-26.36371],[-49.45392,-26.39008],[-49.46198,-26.39801],[-49.4707,-26.41699],[-49.47992,-26.42187],[-49.46301,-26.42242],[-49.45001,-26.42731],[-49.44019,-26.4173],[-49.44391,-26.40192],[-49.44189,-26.38599],[-49.4342,-26.36963],[-49.42383,-26.36603],[-49.4151,-26.35522],[-49.39789,-26.34912],[-49.37958,-26.3576],[-49.36108,-26.36243],[-49.35571,-26.37659],[-49.34039,-26.37891],[-49.32458,-26.38782],[-49.32581,-26.37579],[-49.31799,-26.37048],[-49.30212,-26.3689],[-49.28052,-26.3772],[-49.27063,-26.38672],[-49.23151,-26.39642],[-49.21753,-26.38562],[-49.19989,-26.38062],[-49.198,-26.37323],[-49.17841,-26.36823],[-49.17719,-26.36139],[-49.18549,-26.34802],[-49.18561,-26.33081],[-49.17902,-26.31158],[-49.16858,-26.30933],[-49.22302,-26.28259],[-49.2475,-26.26898],[-49.26178,-26.26251],[-49.31671,-26.22882],[-49.32581,-26.2218],[-49.32629,-26.2002],[-49.34381,-26.1922],[-49.3678,-26.19208],[-49.3736,-26.20111],[-49.3844,-26.1983],[-49.41058,-26.18402],[-49.41803,-26.18781],[-49.42969,-26.16968],[-49.4411,-26.16431],[-49.46118,-26.16382],[-49.46301,-26.17078],[-49.47931,-26.1853],[-49.48572,-26.18408]]]}}