{"type":"Feature","properties":{"id":"BRA.12.533","name":"Jacinto","level":2,"country":"BRA"},"geometry":{"type":"Polygon","coordinates":[[[-40.46838,-16.1944],[-40.46198,-16.20312],[-40.46771,-16.2113],[-40.46661,-16.22479],[-40.47791,-16.24561],[-40.47351,-16.25708],[-40.46698,-16.25739],[-40.45581,-16.24872],[-40.44519,-16.24988],[-40.43958,-16.26599],[-40.43921,-16.27942],[-40.42963,-16.28052],[-40.42511,-16.2901],[-40.42859,-16.30029],[-40.42291,-16.30548],[-40.40942,-16.30579],[-40.41083,-16.32141],[-40.41632,-16.33868],[-40.41321,-16.36322],[-40.42468,-16.3703],[-40.43048,-16.3808],[-40.43201,-16.39441],[-40.42902,-16.40887],[-40.41779,-16.42279],[-40.41321,-16.40472],[-40.40198,-16.3847],[-40.3905,-16.38031],[-40.3847,-16.38568],[-40.36188,-16.37738],[-40.34851,-16.39612],[-40.3299,-16.3985],[-40.31989,-16.39581],[-40.2912,-16.4021],[-40.28271,-16.3985],[-40.27063,-16.41022],[-40.27148,-16.42859],[-40.2616,-16.43298],[-40.25659,-16.44641],[-40.24091,-16.45978],[-40.23322,-16.4519],[-40.22528,-16.453],[-40.22083,-16.44458],[-40.2049,-16.44482],[-40.1936,-16.4353],[-40.18079,-16.43079],[-40.16351,-16.43213],[-40.15363,-16.41681],[-40.16681,-16.38458],[-40.19513,-16.33929],[-40.21649,-16.31268],[-40.21002,-16.27753],[-40.20569,-16.26721],[-40.21118,-16.25922],[-40.20361,-16.25098],[-40.20471,-16.2392],[-40.19928,-16.23108],[-40.1861,-16.2348],[-40.17462,-16.22241],[-40.16199,-16.20111],[-40.1604,-16.185],[-40.15381,-16.1806],[-40.14368,-16.16058],[-40.1449,-16.1449],[-40.13562,-16.12671],[-40.13959,-16.11871],[-40.16772,-16.11621],[-40.17688,-16.10602],[-40.18591,-16.10699],[-40.19318,-16.10022],[-40.18231,-16.0835],[-40.1972,-16.04687],[-40.19531,-16.03711],[-40.20398,-16.02533],[-40.19318,-16.00873],[-40.22913,-15.96838],[-40.23541,-15.97382],[-40.2547,-15.97083],[-40.27551,-15.97302],[-40.29919,-15.98651],[-40.30469,-15.99438],[-40.31512,-15.98669],[-40.33112,-15.98181],[-40.33502,-15.97101],[-40.35999,-15.96521],[-40.36401,-15.95831],[-40.36041,-15.94751],[-40.36407,-15.93268],[-40.37311,-15.9292],[-40.39172,-15.9386],[-40.40448,-15.92932],[-40.41852,-15.93262],[-40.43561,-15.94281],[-40.42871,-15.95422],[-40.42859,-15.96771],[-40.45288,-15.96478],[-40.46429,-15.95142],[-40.48102,-15.96552],[-40.49841,-15.9718],[-40.49268,-15.9903],[-40.49249,-16.01031],[-40.4809,-16.03259],[-40.4527,-16.05048],[-40.43451,-16.05499],[-40.42578,-16.05353],[-40.41882,-16.0769],[-40.42438,-16.07971],[-40.42792,-16.09222],[-40.4151,-16.10681],[-40.41632,-16.12122],[-40.4353,-16.13641],[-40.43152,-16.14893],[-40.4339,-16.15961],[-40.4519,-16.1615],[-40.46033,-16.17499],[-40.46899,-16.17792],[-40.46838,-16.1944]]]}}