{"type":"Feature","properties":{"id":"BRA.17.57","name":"Trairi","level":2,"country":"BRA"},"geometry":{"type":"Polygon","coordinates":[[[-39.45581,-3.20862],[-39.47601,-3.19769],[-39.48462,-3.20453],[-39.49939,-3.19971],[-39.50909,-3.20258],[-39.51019,-3.21759],[-39.50458,-3.24121],[-39.51422,-3.25452],[-39.52112,-3.27478],[-39.50482,-3.29608],[-39.5116,-3.31409],[-39.50281,-3.32233],[-39.50439,-3.34271],[-39.50232,-3.35339],[-39.49573,-3.35498],[-39.4917,-3.37122],[-39.47961,-3.39569],[-39.46661,-3.4024],[-39.44861,-3.40869],[-39.43469,-3.42029],[-39.43091,-3.4314],[-39.33173,-3.50159],[-39.33661,-3.51288],[-39.33551,-3.52863],[-39.35229,-3.54791],[-39.36328,-3.54828],[-39.36298,-3.55933],[-39.37292,-3.57812],[-39.3634,-3.58008],[-39.34869,-3.573],[-39.31488,-3.58099],[-39.30658,-3.56488],[-39.31201,-3.55841],[-39.30371,-3.53381],[-39.2937,-3.53149],[-39.2868,-3.5246],[-39.28339,-3.50232],[-39.26288,-3.49121],[-39.26379,-3.48248],[-39.258,-3.4715],[-39.25751,-3.4563],[-39.25311,-3.44788],[-39.2558,-3.43909],[-39.25378,-3.41931],[-39.25031,-3.41193],[-39.25348,-3.39661],[-39.263,-3.38501],[-39.26093,-3.37732],[-39.25049,-3.36981],[-39.25519,-3.35999],[-39.23523,-3.35852],[-39.21442,-3.3501],[-39.20441,-3.35608],[-39.19513,-3.34961],[-39.1933,-3.34253],[-39.1814,-3.3396],[-39.17529,-3.32928],[-39.16559,-3.32599],[-39.17749,-3.3092],[-39.18982,-3.28729],[-39.22699,-3.24152],[-39.2373,-3.23572],[-39.2511,-3.2229],[-39.26068,-3.21802],[-39.27649,-3.21979],[-39.2926,-3.21509],[-39.31299,-3.20581],[-39.3302,-3.19519],[-39.3407,-3.18158],[-39.35211,-3.1748],[-39.36469,-3.17328],[-39.37891,-3.18372],[-39.39899,-3.18591],[-39.41803,-3.20093],[-39.4303,-3.20642],[-39.44531,-3.20428],[-39.45581,-3.20862]],[[-39.48462,-3.20453],[-39.48169,-3.20831],[-39.48639,-3.20941],[-39.48462,-3.20453]],[[-39.45581,-3.20862],[-39.45831,-3.21191],[-39.46088,-3.21051],[-39.45581,-3.20862]]]}}