{"type":"Feature","properties":{"id":"BRA.17.22","name":"Sobral","level":2,"country":"BRA"},"geometry":{"type":"Polygon","coordinates":[[[-40.55609,-3.6521],[-40.61041,-3.6499],[-40.6557,-3.79718],[-40.68878,-3.80072],[-40.7124,-3.80542],[-40.71753,-3.81989],[-40.71002,-3.82178],[-40.69458,-3.83459],[-40.67871,-3.84192],[-40.65491,-3.83173],[-40.64282,-3.83868],[-40.62201,-3.82611],[-40.61401,-3.8421],[-40.60211,-3.84399],[-40.57422,-3.86139],[-40.53333,-3.8526],[-40.49988,-3.85132],[-40.4895,-3.84198],[-40.45752,-3.83502],[-40.44458,-3.83398],[-40.43121,-3.8208],[-40.42358,-3.81879],[-40.41571,-3.80652],[-40.3894,-3.80151],[-40.3786,-3.84619],[-40.36963,-3.86029],[-40.35962,-3.83691],[-40.34039,-3.78333],[-40.328,-3.78839],[-40.3075,-3.78668],[-40.31091,-3.76361],[-40.30389,-3.76001],[-40.30621,-3.74988],[-40.28461,-3.73041],[-40.25739,-3.71521],[-40.23572,-3.69751],[-40.18811,-3.6958],[-40.1261,-3.70081],[-40.12061,-3.71368],[-40.12073,-3.73608],[-40.11682,-3.75958],[-40.10852,-3.76312],[-40.11542,-3.77698],[-40.11591,-3.79102],[-40.12512,-3.82721],[-40.12762,-3.84918],[-40.13647,-3.85931],[-40.13971,-3.87592],[-40.13501,-3.88562],[-40.13898,-3.89691],[-40.15002,-3.90338],[-40.14948,-3.91229],[-40.17822,-3.94989],[-40.18872,-3.9577],[-40.18152,-3.97461],[-40.1701,-3.98572],[-40.16791,-3.99329],[-40.15131,-4.01471],[-40.13269,-4.03369],[-40.10278,-4.0509],[-40.0885,-4.04999],[-40.0824,-4.05939],[-40.0722,-4.05688],[-40.05591,-4.05951],[-40.05042,-4.07092],[-40.01941,-4.08472],[-40.00983,-4.08728],[-39.9975,-4.08209],[-39.98871,-4.09052],[-39.98822,-4.10638],[-39.97021,-4.1062],[-39.9718,-4.11371],[-39.95392,-4.1264],[-39.92352,-4.13177],[-39.91528,-4.13678],[-39.85791,-4.1369],[-39.84778,-4.11902],[-39.84003,-4.1131],[-39.85748,-4.09882],[-39.84943,-4.08752],[-39.85889,-4.0769],[-39.8772,-4.06183],[-39.87201,-4.0517],[-39.87451,-4.04211],[-39.88708,-4.03949],[-39.8985,-4.04272],[-39.92603,-4.03351],[-39.91602,-4.00952],[-39.92468,-3.98871],[-39.9389,-3.98938],[-39.9436,-3.97559],[-39.95331,-3.9635],[-39.9762,-3.9444],[-39.99323,-3.93689],[-39.99921,-3.92908],[-39.99841,-3.92059],[-40.0069,-3.89911],[-39.9248,-3.94611],[-39.97632,-3.77661],[-40.01111,-3.7605],[-40.01422,-3.74158],[-40.0119,-3.7356],[-40.01691,-3.72058],[-40.01471,-3.71301],[-40.02002,-3.6947],[-40.0152,-3.6839],[-40.01361,-3.6676],[-40.00702,-3.65448],[-40.00891,-3.64709],[-39.9939,-3.62689],[-39.97681,-3.58643],[-39.97729,-3.57599],[-39.9986,-3.58002],[-40.00909,-3.57819],[-40.02081,-3.58221],[-40.04163,-3.58063],[-40.05243,-3.58881],[-40.06171,-3.5882],[-40.06879,-3.59302],[-40.09729,-3.62158],[-40.11969,-3.63879],[-40.11011,-3.64532],[-40.10937,-3.65839],[-40.11249,-3.67212],[-40.11298,-3.69061],[-40.13348,-3.68689],[-40.14758,-3.6684],[-40.16418,-3.66711],[-40.17322,-3.67419],[-40.1839,-3.66479],[-40.18341,-3.65479],[-40.18878,-3.64801],[-40.2038,-3.6391],[-40.2121,-3.62482],[-40.20129,-3.6095],[-40.20892,-3.59723],[-40.21503,-3.60162],[-40.22382,-3.5918],[-40.23022,-3.57819],[-40.24341,-3.58148],[-40.26379,-3.57678],[-40.26941,-3.573],[-40.2793,-3.57251],[-40.28003,-3.5827],[-40.29749,-3.5918],[-40.29218,-3.60498],[-40.29901,-3.6217],[-40.32202,-3.61902],[-40.3374,-3.62122],[-40.35791,-3.61371],[-40.36731,-3.61621],[-40.39893,-3.62793],[-40.40143,-3.64191],[-40.40833,-3.6449],[-40.4248,-3.64301],[-40.43542,-3.63831],[-40.4483,-3.63751],[-40.4549,-3.6413],[-40.49408,-3.63232],[-40.50391,-3.6427],[-40.51459,-3.64893],[-40.5434,-3.65491],[-40.55609,-3.6521]]]}}