{"type":"Feature","properties":{"id":"BRA.6.196","name":"Lago dos Rodrigues","level":2,"country":"BRA"},"geometry":{"type":"Polygon","coordinates":[[[-44.84308,-4.50531],[-44.87292,-4.48688],[-44.89331,-4.48633],[-44.90649,-4.4928],[-44.91931,-4.49469],[-44.92712,-4.48749],[-44.91931,-4.52148],[-44.9281,-4.52142],[-44.99841,-4.59338],[-44.99823,-4.63239],[-45.00171,-4.64008],[-45.03162,-4.66968],[-45.03979,-4.68219],[-45.03998,-4.69122],[-44.98328,-4.66418],[-44.98383,-4.6394],[-44.95813,-4.65179],[-44.97839,-4.67187],[-44.97559,-4.68982],[-44.95068,-4.69299],[-44.94232,-4.68683],[-44.9328,-4.6665],[-44.9212,-4.6557],[-44.9093,-4.65479],[-44.90289,-4.6441],[-44.90131,-4.62439],[-44.89148,-4.61969],[-44.89758,-4.60052],[-44.89111,-4.58331],[-44.87299,-4.57898],[-44.87091,-4.57068],[-44.86133,-4.56622],[-44.86041,-4.55621],[-44.85138,-4.54773],[-44.84308,-4.50531]]]}}