{"type":"Feature","properties":{"id":"BRA.16.136","name":"Planalto Alegre","level":2,"country":"BRA"},"geometry":{"type":"Polygon","coordinates":[[[-52.89783,-27.086],[-52.8877,-27.08728],[-52.86078,-27.10358],[-52.8515,-27.11298],[-52.83533,-27.10937],[-52.83282,-27.08929],[-52.83728,-27.0741],[-52.84381,-27.06671],[-52.8443,-27.04919],[-52.84021,-27.04462],[-52.84039,-27.01788],[-52.84021,-27.0097],[-52.89172,-27.01062],[-52.89349,-26.97461],[-52.90552,-26.97351],[-52.89899,-27.04468],[-52.89783,-27.086]]]}}