{"type":"Feature","properties":{"id":"BRA.15.302","name":"Planaltina do Paraná","level":2,"country":"BRA"},"geometry":{"type":"Polygon","coordinates":[[[-52.78741,-23.00513],[-52.79602,-22.98828],[-52.81702,-22.96759],[-52.82739,-22.97009],[-52.83539,-22.98389],[-52.88611,-22.93988],[-52.88818,-22.94843],[-52.90161,-22.96338],[-52.922,-22.97119],[-52.93359,-22.98401],[-52.94611,-22.98889],[-52.97021,-23.01929],[-52.97119,-23.039],[-52.97571,-23.0545],[-52.99078,-23.07269],[-53.02002,-23.09302],[-53.0343,-23.10791],[-53.0332,-23.14062],[-53.02478,-23.17279],[-53.02478,-23.1958],[-53.02209,-23.20441],[-53.03381,-23.20923],[-53.02539,-23.22321],[-53.01459,-23.23059],[-52.99792,-23.23639],[-52.98383,-23.23749],[-52.97803,-23.23291],[-52.95563,-23.22858],[-52.9447,-23.22119],[-52.94012,-23.2077],[-52.93451,-23.2074],[-52.92169,-23.22302],[-52.92908,-23.24091],[-52.92102,-23.2392],[-52.91809,-23.22632],[-52.90979,-23.22302],[-52.91388,-23.21368],[-52.91522,-23.19269],[-52.90521,-23.18188],[-52.90411,-23.17358],[-52.91089,-23.15051],[-52.91229,-23.1236],[-52.91528,-23.11542],[-52.9184,-23.08423],[-52.9165,-23.07269],[-52.9071,-23.06299],[-52.9024,-23.04773],[-52.89313,-23.03961],[-52.88458,-23.02301],[-52.86719,-23.03119],[-52.8551,-23.03302],[-52.8266,-23.05688],[-52.78741,-23.00513]]]}}