{"type":"Feature","properties":{"id":"BRA.2.445","name":"Dois Córregos","level":2,"country":"BRA"},"geometry":{"type":"Polygon","coordinates":[[[-48.26129,-22.60571],[-48.2478,-22.57849],[-48.25421,-22.55902],[-48.25378,-22.54901],[-48.25958,-22.54242],[-48.24268,-22.52191],[-48.23651,-22.51923],[-48.24481,-22.51471],[-48.27222,-22.5282],[-48.28601,-22.52338],[-48.27661,-22.49579],[-48.25928,-22.49249],[-48.24432,-22.47992],[-48.24438,-22.46832],[-48.255,-22.4624],[-48.2691,-22.44678],[-48.27802,-22.42889],[-48.26849,-22.41541],[-48.2655,-22.40442],[-48.25061,-22.38831],[-48.23853,-22.39282],[-48.2428,-22.37323],[-48.23969,-22.36713],[-48.2439,-22.35089],[-48.25549,-22.33612],[-48.27148,-22.30499],[-48.2887,-22.28101],[-48.29779,-22.27802],[-48.29242,-22.26862],[-48.30859,-22.26538],[-48.32068,-22.26929],[-48.32861,-22.26599],[-48.32532,-22.24323],[-48.32129,-22.23529],[-48.32642,-22.2171],[-48.31879,-22.2113],[-48.31439,-22.19702],[-48.34131,-22.18048],[-48.35663,-22.19928],[-48.36841,-22.18671],[-48.39478,-22.19263],[-48.41559,-22.24048],[-48.41742,-22.25232],[-48.42511,-22.26147],[-48.427,-22.27332],[-48.44928,-22.30652],[-48.45221,-22.32111],[-48.45923,-22.33313],[-48.4881,-22.34021],[-48.48071,-22.35699],[-48.4682,-22.35291],[-48.45361,-22.36328],[-48.4231,-22.37982],[-48.40851,-22.38531],[-48.39801,-22.4187],[-48.3941,-22.42181],[-48.39911,-22.43591],[-48.3905,-22.46143],[-48.38171,-22.47778],[-48.36407,-22.49542],[-48.36212,-22.5022],[-48.36658,-22.51611],[-48.36011,-22.53131],[-48.3606,-22.56561],[-48.38452,-22.58002],[-48.37421,-22.59149],[-48.36469,-22.60931],[-48.35138,-22.61371],[-48.34131,-22.6228],[-48.3324,-22.62512],[-48.31201,-22.6084],[-48.28149,-22.5965],[-48.26868,-22.59698],[-48.26129,-22.60571]]]}}