{"type":"Feature","properties":{"id":"BRA.2.113","name":"Ubarana","level":2,"country":"BRA"},"geometry":{"type":"Polygon","coordinates":[[[-49.68329,-21.20361],[-49.68732,-21.18439],[-49.68073,-21.17249],[-49.67291,-21.17279],[-49.6604,-21.1601],[-49.6626,-21.12708],[-49.67578,-21.13483],[-49.68982,-21.13098],[-49.71021,-21.13629],[-49.73669,-21.13501],[-49.75372,-21.1524],[-49.76251,-21.15259],[-49.77301,-21.177],[-49.78412,-21.19318],[-49.78381,-21.20813],[-49.80219,-21.20349],[-49.81531,-21.20392],[-49.81592,-21.21191],[-49.82501,-21.23822],[-49.849,-21.25879],[-49.85681,-21.26031],[-49.84918,-21.27032],[-49.83191,-21.27588],[-49.81543,-21.27991],[-49.80182,-21.29291],[-49.78339,-21.29773],[-49.76758,-21.30579],[-49.75439,-21.2973],[-49.74542,-21.29712],[-49.72229,-21.29938],[-49.72137,-21.29242],[-49.71149,-21.28802],[-49.7179,-21.27551],[-49.71582,-21.25812],[-49.70599,-21.24872],[-49.69098,-21.24213],[-49.69409,-21.23651],[-49.6817,-21.22278],[-49.68329,-21.20361]]]}}