{"type":"Feature","properties":{"id":"BRA.25.69","name":"Itabaianinha","level":2,"country":"BRA"},"geometry":{"type":"Polygon","coordinates":[[[-37.67029,-11.23901],[-37.67731,-11.2337],[-37.68579,-11.21033],[-37.7041,-11.18982],[-37.70001,-11.18323],[-37.70618,-11.17511],[-37.71771,-11.16309],[-37.72888,-11.16241],[-37.73718,-11.1499],[-37.74261,-11.15338],[-37.76422,-11.1424],[-37.77771,-11.1319],[-37.79108,-11.1333],[-37.8465,-11.16071],[-37.87622,-11.18768],[-37.8667,-11.20929],[-37.87079,-11.21851],[-37.88519,-11.21289],[-37.90479,-11.22198],[-37.92212,-11.24139],[-37.92389,-11.24908],[-37.93658,-11.26971],[-37.93488,-11.27393],[-37.91571,-11.28931],[-37.89941,-11.27582],[-37.8786,-11.28802],[-37.87219,-11.2843],[-37.86298,-11.29932],[-37.85052,-11.2981],[-37.82849,-11.32031],[-37.81891,-11.31952],[-37.8147,-11.33081],[-37.79181,-11.34839],[-37.78339,-11.3736],[-37.77039,-11.37799],[-37.76831,-11.39001],[-37.76178,-11.3938],[-37.76282,-11.40588],[-37.75018,-11.40381],[-37.74719,-11.4101],[-37.73212,-11.40271],[-37.6922,-11.36578],[-37.69208,-11.30811],[-37.66339,-11.28998],[-37.66278,-11.25079],[-37.67029,-11.23901]]]}}