{"type":"Feature","properties":{"id":"BRA.19.6","name":"Branquinha","level":2,"country":"BRA"},"geometry":{"type":"Polygon","coordinates":[[[-36.0426,-9.28101],[-36.00293,-9.26599],[-35.88641,-9.13831],[-35.9917,-9.1861],[-36.05988,-9.21539],[-36.0672,-9.20673],[-36.08063,-9.20599],[-36.08899,-9.20142],[-36.11188,-9.20801],[-36.12848,-9.20172],[-36.16443,-9.2121],[-36.1853,-9.21301],[-36.20081,-9.21869],[-36.14551,-9.24042],[-36.09888,-9.26099],[-36.08142,-9.26581],[-36.0686,-9.26099],[-36.065,-9.27301],[-36.04492,-9.2771],[-36.0426,-9.28101]]]}}