{"type":"Feature","properties":{"id":"BRA.17.115","name":"Cariús","level":2,"country":"BRA"},"geometry":{"type":"Polygon","coordinates":[[[-39.28198,-6.52539],[-39.34131,-6.53448],[-39.34479,-6.52368],[-39.35791,-6.50781],[-39.35303,-6.50128],[-39.35461,-6.48828],[-39.34882,-6.4856],[-39.35138,-6.46899],[-39.35901,-6.46667],[-39.375,-6.47479],[-39.38611,-6.4646],[-39.39978,-6.46228],[-39.42041,-6.46283],[-39.4292,-6.46851],[-39.43188,-6.48181],[-39.44238,-6.49249],[-39.45599,-6.4953],[-39.46051,-6.50812],[-39.4754,-6.51172],[-39.48718,-6.51019],[-39.49591,-6.51831],[-39.51178,-6.52521],[-39.51758,-6.54169],[-39.53259,-6.5517],[-39.53711,-6.55841],[-39.58112,-6.57672],[-39.59619,-6.57721],[-39.60278,-6.58588],[-39.6228,-6.59521],[-39.64783,-6.61072],[-39.67902,-6.6228],[-39.69238,-6.61859],[-39.72131,-6.62402],[-39.73792,-6.6319],[-39.73022,-6.64008],[-39.70831,-6.63672],[-39.70111,-6.64459],[-39.68518,-6.63751],[-39.66931,-6.63959],[-39.65668,-6.6532],[-39.6546,-6.67328],[-39.64941,-6.67639],[-39.64673,-6.7099],[-39.63971,-6.72058],[-39.64178,-6.73871],[-39.62653,-6.73437],[-39.60968,-6.74872],[-39.59998,-6.7489],[-39.59961,-6.75952],[-39.61511,-6.78802],[-39.55548,-6.77551],[-39.54431,-6.76831],[-39.51062,-6.77631],[-39.50311,-6.75763],[-39.49609,-6.75171],[-39.47919,-6.75592],[-39.46521,-6.77618],[-39.45081,-6.77911],[-39.44098,-6.78998],[-39.4198,-6.7829],[-39.41638,-6.77301],[-39.4054,-6.76611],[-39.39832,-6.75531],[-39.38312,-6.76898],[-39.36713,-6.76288],[-39.36029,-6.77032],[-39.34009,-6.76581],[-39.3288,-6.77051],[-39.31311,-6.758],[-39.30109,-6.75403],[-39.29883,-6.74121],[-39.32489,-6.73669],[-39.3363,-6.72479],[-39.31873,-6.7027],[-39.31561,-6.68451],[-39.30798,-6.68542],[-39.29041,-6.67358],[-39.28961,-6.65741],[-39.2818,-6.64868],[-39.28021,-6.62952],[-39.29089,-6.61792],[-39.29578,-6.60791],[-39.30823,-6.6095],[-39.31122,-6.60291],[-39.31189,-6.58392],[-39.30011,-6.57501],[-39.29761,-6.56122],[-39.29053,-6.54687],[-39.28809,-6.534],[-39.28198,-6.52539]]]}}