{"type":"Feature","properties":{"id":"BRA.2.614","name":"Elisiário","level":2,"country":"BRA"},"geometry":{"type":"Polygon","coordinates":[[[-49.04651,-21.13678],[-49.07788,-21.12903],[-49.08533,-21.11078],[-49.09479,-21.11041],[-49.11902,-21.08539],[-49.1178,-21.10052],[-49.1239,-21.10651],[-49.12628,-21.12073],[-49.12561,-21.1391],[-49.15033,-21.1709],[-49.1535,-21.18469],[-49.14362,-21.18671],[-49.1344,-21.18689],[-49.12439,-21.19501],[-49.11139,-21.19629],[-49.091,-21.22052],[-49.0744,-21.2099],[-49.05988,-21.1922],[-49.04041,-21.19318],[-49.02148,-21.17999],[-49.03479,-21.16742],[-49.039,-21.15692],[-49.05341,-21.1546],[-49.05902,-21.1474],[-49.04651,-21.13678]]]}}