{"type":"Feature","properties":{"id":"BRA.27.14","name":"Itaubal","level":2,"country":"BRA"},"geometry":{"type":"MultiPolygon","coordinates":[[[[-50.68628,0.41333],[-50.69098,0.4137],[-50.68958,0.41052],[-50.68628,0.41333]]],[[[-50.59961,0.24933],[-50.57971,0.27008],[-50.55609,0.3067],[-50.53931,0.34589],[-50.5238,0.3725],[-50.51898,0.39392],[-50.50763,0.41772],[-50.50403,0.43512],[-50.4859,0.45892],[-50.4762,0.48151],[-50.47131,0.49969],[-50.47119,0.51312],[-50.46729,0.53088],[-50.4494,0.5769],[-50.43652,0.6001],[-50.40979,0.62347],[-50.44391,0.66333],[-50.43701,0.68951],[-50.44,0.69647],[-50.453,0.70789],[-50.45721,0.72992],[-50.4834,0.73132],[-50.4845,0.73767],[-50.50299,0.74512],[-50.50262,0.75427],[-50.51923,0.76208],[-50.52899,0.76031],[-50.53619,0.75952],[-50.54828,0.7677],[-50.565,0.77008],[-50.57239,0.7597],[-50.56818,0.74573],[-50.57343,0.73828],[-50.60193,0.75189],[-50.61371,0.75269],[-50.62061,0.7345],[-50.62122,0.70569],[-50.617,0.69171],[-50.62549,0.68909],[-50.62689,0.64252],[-50.63031,0.62653],[-50.64081,0.62292],[-50.64838,0.6059],[-50.6463,0.59772],[-50.65369,0.59308],[-50.65808,0.60553],[-50.66699,0.6109],[-50.67041,0.62628],[-50.6814,0.62689],[-50.68701,0.6131],[-50.70172,0.6131],[-50.70453,0.62347],[-50.71112,0.62732],[-50.71332,0.64172],[-50.7229,0.64471],[-50.72711,0.63812],[-50.74542,0.6427],[-50.75269,0.65808],[-50.75989,0.65973],[-50.77173,0.67212],[-50.77789,0.69409],[-50.78851,0.70868],[-50.80042,0.71429],[-50.82233,0.73932],[-50.828,0.75049],[-50.84833,0.75513],[-50.8927,0.6759],[-50.90417,0.68408],[-50.91412,0.6853],[-50.9231,0.67468],[-50.94232,0.67133],[-50.9342,0.6543],[-50.92529,0.64832],[-50.92023,0.63708],[-50.91852,0.62048],[-50.90961,0.59991],[-50.90619,0.56812],[-50.89581,0.56451],[-50.88708,0.57507],[-50.87659,0.57928],[-50.86658,0.57813],[-50.8454,0.56567],[-50.84778,0.55811],[-50.8338,0.55151],[-50.82068,0.55029],[-50.80859,0.52869],[-50.79541,0.52588],[-50.77942,0.5451],[-50.76868,0.54327],[-50.76221,0.53149],[-50.76489,0.52008],[-50.75378,0.4881],[-50.74579,0.47449],[-50.73071,0.47351],[-50.7301,0.46252],[-50.71008,0.44873],[-50.70862,0.43811],[-50.70001,0.43268],[-50.70471,0.41791],[-50.68628,0.41333],[-50.68958,0.3985],[-50.69629,0.39807],[-50.70581,0.38629],[-50.68298,0.37811],[-50.68481,0.36047],[-50.68042,0.35327],[-50.6864,0.33929],[-50.69531,0.3371],[-50.70428,0.34088],[-50.70898,0.32013],[-50.70471,0.29889],[-50.64478,0.20868],[-50.6236,0.23169],[-50.59961,0.24933]],[[-50.52899,0.76031],[-50.52838,0.75732],[-50.53101,0.75568],[-50.52899,0.76031]]]]}}