{"type":"Feature","properties":{"id":"BRA.2.346","name":"Indiaporã","level":2,"country":"BRA"},"geometry":{"type":"Polygon","coordinates":[[[-50.3371,-19.86963],[-50.33539,-19.88],[-50.33893,-19.8985],[-50.34943,-19.90741],[-50.35193,-19.91699],[-50.34509,-19.92981],[-50.34399,-19.96271],[-50.33881,-19.98492],[-50.33191,-20.03583],[-50.30109,-20.0202],[-50.29413,-20.01849],[-50.28198,-20.00708],[-50.26862,-20.01599],[-50.26361,-20.03223],[-50.25171,-20.03552],[-50.2392,-20.04541],[-50.21619,-20.04651],[-50.20129,-20.02252],[-50.1983,-20.00061],[-50.19061,-19.98761],[-50.18829,-19.97919],[-50.19263,-19.96521],[-50.18451,-19.95691],[-50.18829,-19.94952],[-50.18848,-19.93158],[-50.18542,-19.92059],[-50.18341,-19.89362],[-50.17249,-19.87518],[-50.2016,-19.86639],[-50.21558,-19.86658],[-50.24518,-19.87671],[-50.28558,-19.8678],[-50.3064,-19.87408],[-50.3371,-19.86963]]]}}