{"type":"Feature","properties":{"id":"BRA.20.258","name":"Xique-Xique","level":2,"country":"BRA"},"geometry":{"type":"Polygon","coordinates":[[[-43.2644,-11.48328],[-43.2536,-11.48608],[-43.2251,-11.49878],[-43.0567,-11.5285],[-43.05481,-11.55981],[-43.04382,-11.55353],[-43.0321,-11.56409],[-43.01929,-11.57123],[-43.01062,-11.58862],[-43.00079,-11.59772],[-42.9801,-11.5976],[-42.96771,-11.61493],[-42.95679,-11.62323],[-42.93488,-11.62732],[-42.94141,-11.60303],[-42.93921,-11.58539],[-42.93042,-11.57782],[-42.92102,-11.57898],[-42.90302,-11.59509],[-42.88428,-11.5993],[-42.8811,-11.60699],[-42.87018,-11.61322],[-42.85431,-11.61212],[-42.86438,-11.599],[-42.86682,-11.5799],[-42.867,-11.55731],[-42.862,-11.54218],[-42.83679,-11.52728],[-42.9126,-11.27728],[-42.82098,-11.30792],[-42.8277,-11.28442],[-42.83698,-11.27283],[-42.83551,-11.25189],[-42.83661,-11.23383],[-42.84351,-11.21521],[-42.83289,-11.19983],[-42.83832,-11.15698],[-42.82141,-11.14099],[-42.80499,-11.14142],[-42.80231,-11.12793],[-42.78571,-11.11731],[-42.77112,-11.09998],[-42.7655,-11.0874],[-42.77032,-11.07782],[-42.78021,-11.07062],[-42.78979,-11.05762],[-42.76147,-11.04559],[-42.7533,-11.0351],[-42.76147,-11.0155],[-42.73792,-11.0061],[-42.72162,-11.0036],[-42.7063,-11.00769],[-42.69348,-11.00739],[-42.67151,-11.01471],[-42.66663,-11.02338],[-42.65112,-11.0351],[-42.6347,-11.04022],[-42.62518,-11.0564],[-42.6275,-11.0733],[-42.62042,-11.08551],[-42.60919,-11.07648],[-42.5387,-11.00549],[-42.53961,-10.99841],[-42.52301,-10.90411],[-42.42291,-10.77393],[-42.41211,-10.76819],[-42.3913,-10.76642],[-42.37292,-10.77551],[-42.36511,-10.77191],[-42.35553,-10.74768],[-42.34259,-10.72449],[-42.34119,-10.7016],[-42.34381,-10.69513],[-42.34003,-10.68201],[-42.32819,-10.67462],[-42.32269,-10.65973],[-42.33099,-10.65082],[-42.32611,-10.63928],[-42.32538,-10.61731],[-42.33429,-10.60773],[-42.33051,-10.60211],[-42.33002,-10.58392],[-42.34338,-10.56091],[-42.34021,-10.55072],[-42.34778,-10.5462],[-42.35492,-10.53461],[-42.35748,-10.51031],[-42.34888,-10.4892],[-42.34271,-10.48181],[-42.3288,-10.4812],[-42.32568,-10.46338],[-42.31818,-10.45551],[-42.31549,-10.44269],[-42.3316,-10.435],[-42.33441,-10.42023],[-42.32861,-10.41492],[-42.33179,-10.39331],[-42.34381,-10.3902],[-42.35132,-10.3822],[-42.3443,-10.36981],[-42.36261,-10.36591],[-42.3681,-10.3606],[-42.3609,-10.34473],[-42.36981,-10.33398],[-42.38013,-10.33289],[-42.3819,-10.32538],[-42.39331,-10.31989],[-42.39862,-10.31232],[-42.39618,-10.30359],[-42.38538,-10.29938],[-42.3692,-10.27948],[-42.36682,-10.26788],[-42.37231,-10.24829],[-42.37988,-10.24451],[-42.38812,-10.22369],[-42.39008,-10.20508],[-42.39478,-10.19269],[-42.40521,-10.18512],[-42.4024,-10.20172],[-42.4057,-10.2226],[-42.40302,-10.24908],[-42.4165,-10.26422],[-42.43488,-10.26929],[-42.45618,-10.30029],[-42.45868,-10.31079],[-42.45428,-10.3432],[-42.45923,-10.36938],[-42.46448,-10.3822],[-42.49188,-10.40851],[-42.5058,-10.41449],[-42.54572,-10.44897],[-42.5545,-10.46051],[-42.56891,-10.46942],[-42.57971,-10.49408],[-42.57758,-10.51508],[-42.5816,-10.53748],[-42.58722,-10.5451],[-42.62,-10.56927],[-42.62872,-10.57471],[-42.64252,-10.57501],[-42.64838,-10.58258],[-42.6604,-10.5871],[-42.66028,-10.60101],[-42.67432,-10.61169],[-42.68298,-10.63812],[-42.69751,-10.6673],[-42.69281,-10.67981],[-42.69843,-10.6925],[-42.7005,-10.70831],[-42.71838,-10.7431],[-42.73138,-10.75781],[-42.74011,-10.7757],[-42.7688,-10.81],[-42.7807,-10.81738],[-42.80402,-10.8186],[-42.82239,-10.81293],[-42.83661,-10.81799],[-42.85199,-10.8089],[-42.86493,-10.81299],[-42.87628,-10.8374],[-42.89801,-10.83972],[-42.92041,-10.84772],[-42.93878,-10.86108],[-42.94171,-10.87909],[-42.95038,-10.88611],[-42.97198,-10.8913],[-42.98749,-10.90741],[-42.98981,-10.91431],[-42.98529,-10.92981],[-42.98938,-10.94049],[-42.9978,-10.94678],[-43.02301,-10.95801],[-43.03711,-10.96698],[-43.04541,-10.99683],[-43.05792,-11.0094],[-43.07648,-11.01361],[-43.09448,-11.02551],[-43.09833,-11.03333],[-43.09833,-11.05432],[-43.1203,-11.07611],[-43.1214,-11.09442],[-43.13202,-11.1026],[-43.13141,-11.12189],[-43.14313,-11.13751],[-43.14441,-11.15619],[-43.14899,-11.16388],[-43.17151,-11.18018],[-43.17853,-11.18762],[-43.1861,-11.2063],[-43.1958,-11.22302],[-43.19861,-11.2381],[-43.18671,-11.26233],[-43.18988,-11.2818],[-43.17358,-11.31372],[-43.17279,-11.32111],[-43.18689,-11.33331],[-43.20251,-11.3396],[-43.2215,-11.36932],[-43.23993,-11.40778],[-43.24359,-11.41919],[-43.24518,-11.43848],[-43.2644,-11.48328]]]}}