{"type":"Feature","properties":{"id":"BRA.17.93","name":"Baixio","level":2,"country":"BRA"},"geometry":{"type":"Polygon","coordinates":[[[-38.6731,-6.70758],[-38.703,-6.698],[-38.7207,-6.6897],[-38.73871,-6.67798],[-38.75891,-6.67609],[-38.80157,-6.65887],[-38.82971,-6.65918],[-38.84198,-6.66711],[-38.85492,-6.6745],[-38.85919,-6.6886],[-38.85303,-6.69482],[-38.85382,-6.70331],[-38.84631,-6.70923],[-38.83832,-6.70929],[-38.80011,-6.72449],[-38.78851,-6.71881],[-38.77911,-6.72131],[-38.76068,-6.73688],[-38.75879,-6.74341],[-38.74731,-6.75562],[-38.73492,-6.75671],[-38.71979,-6.7674],[-38.69812,-6.76343],[-38.68671,-6.76703],[-38.68091,-6.755],[-38.66919,-6.75909],[-38.65308,-6.75842],[-38.65051,-6.75171],[-38.65723,-6.74011],[-38.6568,-6.72968],[-38.66382,-6.72449],[-38.6731,-6.70758]]]}}