{"type":"Feature","properties":{"id":"BRA.12.342","name":"Virginópolis","level":2,"country":"BRA"},"geometry":{"type":"Polygon","coordinates":[[[-42.53491,-18.72491],[-42.54163,-18.7179],[-42.57159,-18.7041],[-42.59509,-18.71283],[-42.62048,-18.70258],[-42.61938,-18.67932],[-42.63263,-18.66461],[-42.64948,-18.66229],[-42.66138,-18.66901],[-42.67218,-18.6637],[-42.68542,-18.66699],[-42.71869,-18.65521],[-42.72589,-18.66351],[-42.72162,-18.6712],[-42.72052,-18.68842],[-42.72302,-18.69891],[-42.7395,-18.6958],[-42.75702,-18.70172],[-42.77069,-18.7002],[-42.7757,-18.70441],[-42.77301,-18.7215],[-42.77338,-18.74841],[-42.76801,-18.76398],[-42.76001,-18.80157],[-42.7655,-18.83051],[-42.7627,-18.84369],[-42.74213,-18.85248],[-42.74731,-18.8692],[-42.7345,-18.87732],[-42.7348,-18.89081],[-42.70648,-18.89728],[-42.69891,-18.8877],[-42.67981,-18.89783],[-42.65582,-18.90552],[-42.63239,-18.90381],[-42.62988,-18.91138],[-42.61932,-18.91229],[-42.61621,-18.91949],[-42.60168,-18.9292],[-42.59119,-18.92279],[-42.58282,-18.92761],[-42.58331,-18.94733],[-42.5722,-18.95001],[-42.55731,-18.93701],[-42.56732,-18.91321],[-42.56171,-18.90363],[-42.56079,-18.8924],[-42.55231,-18.8905],[-42.54431,-18.86969],[-42.54871,-18.86078],[-42.5484,-18.84698],[-42.5603,-18.84021],[-42.5708,-18.8429],[-42.57538,-18.83521],[-42.58551,-18.84131],[-42.58893,-18.8595],[-42.599,-18.86401],[-42.60571,-18.87543],[-42.62152,-18.8717],[-42.62109,-18.84918],[-42.63159,-18.8421],[-42.62872,-18.83459],[-42.63013,-18.81311],[-42.64148,-18.79291],[-42.6366,-18.7785],[-42.63989,-18.77258],[-42.62842,-18.75482],[-42.6214,-18.75549],[-42.6123,-18.74548],[-42.60651,-18.75262],[-42.58868,-18.74622],[-42.5813,-18.73608],[-42.55499,-18.7262],[-42.53491,-18.72491]]]}}