{"type":"Feature","properties":{"id":"BRA.1.143","name":"Montividiu","level":2,"country":"BRA"},"geometry":{"type":"Polygon","coordinates":[[[-51.52722,-17.34912],[-51.53601,-17.37872],[-51.49951,-17.3833],[-51.47461,-17.39203],[-51.45203,-17.40802],[-51.448,-17.41553],[-51.44891,-17.43048],[-51.43408,-17.43903],[-51.4314,-17.44531],[-51.44531,-17.45453],[-51.45673,-17.46869],[-51.41901,-17.4834],[-51.34241,-17.5083],[-51.31512,-17.50781],[-51.30121,-17.51489],[-51.27802,-17.52002],[-51.26471,-17.51929],[-51.24121,-17.5332],[-51.20892,-17.52649],[-51.18671,-17.52979],[-51.1557,-17.51813],[-51.12732,-17.52191],[-51.11823,-17.52618],[-51.1059,-17.52179],[-51.08148,-17.52881],[-51.05933,-17.5235],[-51.01239,-17.48901],[-51.00922,-17.4809],[-50.98181,-17.45941],[-50.96619,-17.44122],[-50.94971,-17.42853],[-50.93811,-17.414],[-50.95001,-17.40582],[-50.95911,-17.3924],[-50.97699,-17.38971],[-50.98749,-17.3736],[-50.98041,-17.34399],[-50.9743,-17.33978],[-50.96899,-17.32721],[-50.97388,-17.31879],[-50.98871,-17.31671],[-50.99268,-17.32318],[-51.00439,-17.31708],[-51.0127,-17.32703],[-51.02618,-17.30621],[-51.0451,-17.28839],[-51.05792,-17.28711],[-51.07129,-17.29401],[-51.08551,-17.29071],[-51.09241,-17.28491],[-51.117,-17.2865],[-51.12323,-17.27289],[-51.1167,-17.2373],[-51.12579,-17.21771],[-51.09802,-17.19629],[-51.0827,-17.18781],[-51.0459,-17.177],[-51.02478,-17.17603],[-51.01392,-17.16418],[-51.01562,-17.1532],[-51.01147,-17.12689],[-51.00171,-17.12079],[-50.9903,-17.10278],[-50.96222,-17.09961],[-50.9469,-17.09058],[-50.94861,-17.07501],[-50.95758,-17.06891],[-50.96191,-17.05908],[-50.98163,-17.03778],[-51.00128,-17.02301],[-51.02521,-16.9903],[-51.03119,-16.97119],[-51.04651,-16.9585],[-51.0542,-16.95599],[-51.06329,-16.9649],[-51.07489,-16.96039],[-51.09442,-16.96478],[-51.10791,-16.97321],[-51.09082,-16.99188],[-51.08698,-17.01611],[-51.09821,-17.03479],[-51.09698,-17.0556],[-51.11829,-17.0722],[-51.11432,-17.0802],[-51.13568,-17.09222],[-51.13312,-17.11322],[-51.14679,-17.12231],[-51.15778,-17.12402],[-51.1709,-17.117],[-51.19159,-17.12592],[-51.20721,-17.11829],[-51.21442,-17.125],[-51.22949,-17.13171],[-51.25061,-17.15179],[-51.25958,-17.15308],[-51.27161,-17.16071],[-51.26471,-17.18262],[-51.27979,-17.18988],[-51.29431,-17.18231],[-51.2879,-17.20221],[-51.28601,-17.22382],[-51.31952,-17.2547],[-51.32281,-17.2688],[-51.33722,-17.26959],[-51.34448,-17.2771],[-51.3656,-17.2832],[-51.40887,-17.30811],[-51.41809,-17.32849],[-51.4339,-17.33942],[-51.46021,-17.3407],[-51.48132,-17.34509],[-51.49469,-17.33643],[-51.51141,-17.33319],[-51.52179,-17.3374],[-51.52722,-17.34912]]]}}