{"type":"Feature","properties":{"id":"BRA.16.77","name":"Morro Grande","level":2,"country":"BRA"},"geometry":{"type":"Polygon","coordinates":[[[-49.67041,-28.75128],[-49.68152,-28.73718],[-49.67291,-28.7229],[-49.67609,-28.6969],[-49.68622,-28.6875],[-49.69922,-28.6814],[-49.71118,-28.66608],[-49.70782,-28.64758],[-49.70959,-28.63989],[-49.70319,-28.63019],[-49.716,-28.62433],[-49.75531,-28.62433],[-49.76532,-28.62],[-49.77643,-28.62909],[-49.78412,-28.6239],[-49.78259,-28.61072],[-49.79523,-28.61591],[-49.79901,-28.62421],[-49.8175,-28.63971],[-49.81201,-28.65289],[-49.83063,-28.6676],[-49.83838,-28.66608],[-49.83978,-28.68573],[-49.83148,-28.68909],[-49.84253,-28.70831],[-49.83801,-28.70972],[-49.8407,-28.71472],[-49.8092,-28.71832],[-49.79962,-28.71399],[-49.79669,-28.7533],[-49.77979,-28.75818],[-49.76831,-28.77899],[-49.73322,-28.80402],[-49.7254,-28.80701],[-49.70062,-28.84479],[-49.69678,-28.84491],[-49.67822,-28.86493],[-49.66998,-28.82581],[-49.65778,-28.82709],[-49.64929,-28.82031],[-49.6618,-28.80841],[-49.66321,-28.79578],[-49.66901,-28.78949],[-49.66339,-28.77258],[-49.67041,-28.75128]]]}}