{"type":"Feature","properties":{"id":"BRA.16.143","name":"Palhoça","level":2,"country":"BRA"},"geometry":{"type":"Polygon","coordinates":[[[-48.60321,-27.66241],[-48.62042,-27.659],[-48.63812,-27.65051],[-48.64398,-27.62793],[-48.65442,-27.62183],[-48.66351,-27.6087],[-48.67218,-27.61871],[-48.68811,-27.61353],[-48.70581,-27.61139],[-48.7392,-27.61591],[-48.74298,-27.6322],[-48.7384,-27.6571],[-48.72351,-27.68738],[-48.70673,-27.6955],[-48.70319,-27.71509],[-48.69672,-27.72711],[-48.68951,-27.74969],[-48.67889,-27.75879],[-48.70728,-27.77399],[-48.71619,-27.77521],[-48.73682,-27.78711],[-48.73993,-27.8009],[-48.7464,-27.82721],[-48.73718,-27.84271],[-48.73688,-27.8634],[-48.73071,-27.87128],[-48.72351,-27.8941],[-48.70673,-27.89618],[-48.69891,-27.90308],[-48.65942,-27.90991],[-48.65161,-27.90161],[-48.633,-27.91229],[-48.62408,-27.91101],[-48.60852,-27.91681],[-48.59003,-27.90582],[-48.57361,-27.88672],[-48.57861,-27.88239],[-48.59741,-27.8808],[-48.60162,-27.87091],[-48.60089,-27.85901],[-48.59302,-27.84943],[-48.57611,-27.84369],[-48.57721,-27.8252],[-48.5929,-27.80469],[-48.59161,-27.7912],[-48.59998,-27.78351],[-48.59802,-27.76361],[-48.58789,-27.75092],[-48.599,-27.7337],[-48.60101,-27.71771],[-48.59741,-27.71069],[-48.59949,-27.68921],[-48.6037,-27.67401],[-48.60321,-27.66241]]]}}