{"type":"Feature","properties":{"id":"BRA.18.83","name":"Nova Santa Rita","level":2,"country":"BRA"},"geometry":{"type":"Polygon","coordinates":[[[-42.02179,-7.93652],[-42.05621,-7.97443],[-42.09668,-7.95111],[-42.11078,-7.97137],[-42.1283,-7.9585],[-42.13458,-7.98901],[-42.151,-8.00189],[-42.16162,-8.005],[-42.16571,-8.01611],[-42.16351,-8.02411],[-42.14752,-8.03351],[-42.14508,-8.04779],[-42.14789,-8.05988],[-42.15601,-8.06781],[-42.16492,-8.09698],[-42.1637,-8.10999],[-42.15869,-8.11401],[-42.15918,-8.13538],[-42.17761,-8.16229],[-42.17859,-8.17273],[-42.18561,-8.18958],[-42.17859,-8.19812],[-42.15271,-8.19897],[-42.1427,-8.19531],[-42.13739,-8.20581],[-42.04779,-8.27643],[-42.00079,-8.29218],[-41.98749,-8.29541],[-41.92401,-8.25671],[-41.8916,-8.1344],[-41.84399,-8.11951],[-41.85968,-8.11371],[-41.85651,-8.06549],[-41.8736,-8.0509],[-41.9024,-8.01361],[-41.94818,-8.013],[-41.99408,-7.98651],[-42.0318,-7.9754],[-42.0213,-7.94318],[-42.02179,-7.93652]]]}}