{"type":"Feature","properties":{"id":"BRA.12.659","name":"Monte Belo","level":2,"country":"BRA"},"geometry":{"type":"Polygon","coordinates":[[[-46.34821,-21.18073],[-46.36682,-21.18738],[-46.37592,-21.18762],[-46.39398,-21.2027],[-46.39838,-21.19641],[-46.41718,-21.1936],[-46.41571,-21.21661],[-46.4046,-21.2182],[-46.40503,-21.23071],[-46.41211,-21.23798],[-46.4115,-21.24591],[-46.40112,-21.27319],[-46.4165,-21.2926],[-46.41711,-21.32489],[-46.4245,-21.32892],[-46.43433,-21.34271],[-46.42828,-21.35388],[-46.4303,-21.36578],[-46.44342,-21.38971],[-46.43451,-21.39551],[-46.4256,-21.39331],[-46.41168,-21.39691],[-46.40649,-21.39111],[-46.35498,-21.38202],[-46.3465,-21.40448],[-46.33948,-21.41669],[-46.32501,-21.41431],[-46.31689,-21.4187],[-46.29199,-21.4115],[-46.29163,-21.4231],[-46.28302,-21.4314],[-46.26569,-21.43152],[-46.24609,-21.41742],[-46.23993,-21.42133],[-46.22919,-21.40143],[-46.2182,-21.39441],[-46.21588,-21.36969],[-46.20551,-21.35468],[-46.20349,-21.34241],[-46.21411,-21.34418],[-46.22552,-21.33331],[-46.24188,-21.32471],[-46.23969,-21.31628],[-46.24432,-21.30078],[-46.24219,-21.28241],[-46.23602,-21.2702],[-46.24048,-21.25598],[-46.24933,-21.25269],[-46.2594,-21.25671],[-46.27521,-21.2403],[-46.28271,-21.23792],[-46.29218,-21.21869],[-46.31421,-21.21161],[-46.32159,-21.20361],[-46.33502,-21.20203],[-46.34821,-21.18073]]]}}