{"type":"Feature","properties":{"id":"BRA.24.95","name":"Touros","level":2,"country":"BRA"},"geometry":{"type":"Polygon","coordinates":[[[-35.76361,-5.45032],[-35.73761,-5.41632],[-35.73181,-5.4046],[-35.71881,-5.38922],[-35.69189,-5.37122],[-35.67938,-5.36041],[-35.64172,-5.33441],[-35.58929,-5.31171],[-35.57953,-5.30157],[-35.5343,-5.33868],[-35.50751,-5.3349],[-35.50201,-5.33752],[-35.48389,-5.33289],[-35.4726,-5.32648],[-35.45709,-5.3233],[-35.44421,-5.3172],[-35.43732,-5.32849],[-35.41852,-5.33282],[-35.38641,-5.27142],[-35.38379,-5.26978],[-35.3913,-5.25281],[-35.41821,-5.22058],[-35.43402,-5.21332],[-35.45831,-5.19739],[-35.46722,-5.18011],[-35.487,-5.15887],[-35.5116,-5.15271],[-35.53442,-5.14288],[-35.57111,-5.13428],[-35.61682,-5.11499],[-35.62982,-5.19922],[-35.65302,-5.22528],[-35.6828,-5.27728],[-35.69598,-5.2713],[-35.70538,-5.29401],[-35.7619,-5.29358],[-35.83191,-5.30609],[-35.8139,-5.46472],[-35.79712,-5.46051],[-35.77649,-5.4433],[-35.76361,-5.45032]]]}}