{"type":"Feature","properties":{"id":"BRA.15.45","name":"Paulo Frontin","level":2,"country":"BRA"},"geometry":{"type":"Polygon","coordinates":[[[-50.89801,-26.05328],[-50.89752,-26.05652],[-50.9007,-26.07928],[-50.89783,-26.09308],[-50.87598,-26.09473],[-50.87262,-26.10431],[-50.86041,-26.10681],[-50.84943,-26.09332],[-50.828,-26.07849],[-50.8186,-26.06879],[-50.80328,-26.06921],[-50.79028,-26.08063],[-50.78558,-26.09381],[-50.77332,-26.10748],[-50.7594,-26.13239],[-50.7514,-26.1405],[-50.74829,-26.16138],[-50.72858,-26.1745],[-50.69849,-26.18091],[-50.69208,-26.17493],[-50.6781,-26.14783],[-50.64941,-26.13159],[-50.64771,-26.12201],[-50.65631,-26.1012],[-50.64423,-26.08911],[-50.6405,-26.0788],[-50.62738,-26.06201],[-50.6236,-26.0545],[-50.62811,-26.03479],[-50.65222,-26.0166],[-50.65442,-26.00079],[-50.66162,-25.99359],[-50.659,-25.97748],[-50.66913,-25.96851],[-50.6875,-25.9577],[-50.69989,-25.97852],[-50.71051,-25.9837],[-50.72192,-26],[-50.74878,-25.98138],[-50.75922,-25.99078],[-50.7735,-25.99213],[-50.82001,-25.99139],[-50.85321,-25.99469],[-50.85992,-26.00122],[-50.86841,-25.9989],[-50.88708,-26.00873],[-50.8855,-26.02179],[-50.888,-26.04242],[-50.89801,-26.05328]]]}}