{"type":"Feature","properties":{"id":"BRA.7.118","name":"Gurupá","level":2,"country":"BRA"},"geometry":{"type":"Polygon","coordinates":[[[-51.4325,-0.47333],[-51.4577,-0.51318],[-51.48041,-0.53668],[-51.48462,-0.5434],[-51.51508,-0.56598],[-51.52618,-0.5802],[-51.57159,-0.62311],[-51.59552,-0.65039],[-51.62,-0.6911],[-51.6424,-0.72418],[-51.66541,-0.7619],[-51.67139,-0.77612],[-51.68488,-0.79602],[-51.6842,-0.8064],[-51.68811,-0.82318],[-51.69098,-0.85382],[-51.69049,-0.89252],[-51.69562,-0.92468],[-51.68988,-0.97559],[-51.6897,-0.9975],[-51.68561,-1.01288],[-51.68719,-1.03601],[-51.70428,-1.06769],[-51.75531,-1.1142],[-51.77838,-1.14038],[-51.7793,-1.16608],[-51.7829,-1.18378],[-51.79071,-1.19861],[-51.81628,-1.2171],[-51.86261,-1.24219],[-51.87561,-1.26361],[-51.8891,-1.2749],[-51.89081,-1.30939],[-51.89709,-1.33069],[-51.90442,-1.34552],[-51.91919,-1.36469],[-51.93652,-1.38239],[-51.95581,-1.40588],[-51.99109,-1.43512],[-52.01428,-1.43829],[-52.04639,-1.44818],[-52.06183,-1.44971],[-52.11151,-1.47009],[-52.12439,-1.46991],[-52.1355,-1.47461],[-52.15582,-1.47803],[-52.2132,-1.48328],[-52.23022,-1.48602],[-52.23871,-1.49042],[-52.25189,-1.50409],[-52.24579,-1.5202],[-52.24188,-1.54309],[-52.22491,-1.57031],[-52.21082,-1.59729],[-52.20068,-1.60382],[-52.17969,-1.6059],[-52.1593,-1.60449],[-52.1449,-1.60809],[-52.10498,-1.6048],[-52.09241,-1.60681],[-52.02521,-1.59662],[-51.99341,-1.59888],[-51.96942,-1.59058],[-51.9599,-1.58948],[-51.95831,-1.59943],[-51.96991,-1.61029],[-51.9704,-1.6203],[-51.96033,-1.62518],[-51.95801,-1.6394],[-51.95203,-1.64661],[-51.96088,-1.65869],[-51.96393,-1.67548],[-51.98608,-1.70099],[-51.98401,-1.72589],[-51.98999,-1.74298],[-51.98639,-1.75861],[-51.98572,-1.77917],[-51.9812,-1.78711],[-51.97839,-1.80341],[-51.9632,-1.82471],[-51.95941,-1.81073],[-51.95221,-1.79791],[-51.93549,-1.7804],[-51.9245,-1.76221],[-51.90662,-1.7442],[-51.88971,-1.73029],[-51.88177,-1.72882],[-51.87341,-1.73529],[-51.86981,-1.74969],[-51.85968,-1.75818],[-51.8363,-1.75299],[-51.76111,-1.72308],[-51.71753,-1.7168],[-51.70032,-1.71619],[-51.66071,-1.70673],[-51.62378,-1.70398],[-51.59338,-1.69739],[-51.56598,-1.6933],[-51.5473,-1.68262],[-51.53271,-1.66089],[-51.51111,-1.64209],[-51.49628,-1.63849],[-51.45801,-1.64258],[-51.20898,-1.22668],[-51.21808,-1.22748],[-51.237,-1.23779],[-51.24982,-1.23431],[-51.25989,-1.22729],[-51.27631,-1.22089],[-51.25641,-1.20081],[-51.23541,-1.164],[-51.23181,-1.14691],[-51.2168,-1.10791],[-51.21069,-1.09113],[-51.2074,-1.0733],[-51.19928,-1.05902],[-51.19238,-1.03949],[-51.1908,-1.02551],[-51.18451,-1.01282],[-51.18518,-0.99652],[-51.17749,-0.97729],[-51.17853,-0.96729],[-51.17151,-0.94189],[-51.16931,-0.8963],[-51.17749,-0.85632],[-51.18658,-0.8299],[-51.19263,-0.77618],[-51.19171,-0.75598],[-51.18542,-0.7262],[-51.16449,-0.69751],[-51.15021,-0.68268],[-51.09448,-0.6615],[-51.11792,-0.64929],[-51.12341,-0.63879],[-51.12183,-0.62518],[-51.10461,-0.59448],[-51.0929,-0.56281],[-51.0957,-0.54639],[-51.10303,-0.54108],[-51.12421,-0.55072],[-51.14459,-0.54779],[-51.16718,-0.53131],[-51.18091,-0.50562],[-51.17749,-0.4986],[-51.16101,-0.49298],[-51.14838,-0.48309],[-51.14838,-0.46143],[-51.14221,-0.44897],[-51.14081,-0.43689],[-51.14349,-0.42059],[-51.15503,-0.4024],[-51.16528,-0.40491],[-51.1958,-0.42023],[-51.22949,-0.42908],[-51.27191,-0.43188],[-51.30371,-0.43671],[-51.33478,-0.44531],[-51.37189,-0.46399],[-51.42792,-0.47638],[-51.4325,-0.47333]]]}}