{"type":"Feature","properties":{"id":"BRA.1.123","name":"Amorinópolis","level":2,"country":"BRA"},"geometry":{"type":"Polygon","coordinates":[[[-51.00031,-16.6347],[-51.03052,-16.62531],[-51.03101,-16.612],[-51.02399,-16.60138],[-51.02728,-16.58661],[-51.02521,-16.56927],[-51.04651,-16.55951],[-51.06219,-16.5498],[-51.06262,-16.53961],[-51.07141,-16.5307],[-51.07489,-16.51892],[-51.09222,-16.51422],[-51.12091,-16.51331],[-51.14368,-16.51031],[-51.16571,-16.51929],[-51.17401,-16.5202],[-51.18451,-16.53113],[-51.21301,-16.51453],[-51.2196,-16.50439],[-51.23248,-16.50452],[-51.23389,-16.51703],[-51.24091,-16.52631],[-51.24463,-16.54272],[-51.2348,-16.56079],[-51.21649,-16.56348],[-51.203,-16.58038],[-51.20093,-16.60779],[-51.19482,-16.61212],[-51.19391,-16.62482],[-51.18372,-16.64508],[-51.16382,-16.63843],[-51.15833,-16.63208],[-51.13922,-16.63281],[-51.133,-16.66052],[-51.12421,-16.6676],[-51.11938,-16.69043],[-51.11182,-16.71198],[-51.11462,-16.72931],[-51.10559,-16.73383],[-51.10248,-16.75623],[-51.1076,-16.76501],[-51.09949,-16.7699],[-51.09509,-16.79132],[-51.08978,-16.80042],[-51.0752,-16.79828],[-51.06561,-16.80579],[-51.06561,-16.81561],[-51.05701,-16.82098],[-51.04608,-16.79687],[-51.04431,-16.78711],[-51.04791,-16.77338],[-51.0459,-16.7428],[-51.03662,-16.73602],[-51.03113,-16.71613],[-51.02301,-16.69672],[-51.02393,-16.6817],[-51.03381,-16.6676],[-51.0285,-16.65503],[-51.01819,-16.65271],[-51.00262,-16.64191],[-51.00031,-16.6347]]]}}