{"type":"Feature","properties":{"id":"BRA.15.64","name":"São José dos Pinhais","level":2,"country":"BRA"},"geometry":{"type":"Polygon","coordinates":[[[-49.27051,-25.61151],[-49.26062,-25.61829],[-49.26068,-25.63818],[-49.25763,-25.67023],[-49.24951,-25.69562],[-49.24719,-25.73181],[-49.24072,-25.74109],[-49.24548,-25.75311],[-49.24988,-25.77539],[-49.24152,-25.79773],[-49.25562,-25.81921],[-49.22821,-25.8136],[-49.20679,-25.82611],[-49.20111,-25.80872],[-49.19232,-25.80402],[-49.1709,-25.8139],[-49.16089,-25.78418],[-49.15521,-25.77631],[-49.15509,-25.76471],[-49.14362,-25.75092],[-49.12988,-25.75452],[-49.1181,-25.7464],[-49.1051,-25.74951],[-49.08368,-25.74231],[-49.07849,-25.75439],[-49.08008,-25.77881],[-49.06232,-25.79633],[-49.05792,-25.79138],[-49.0354,-25.79089],[-49.02753,-25.79431],[-49.01068,-25.78729],[-49.0022,-25.79413],[-48.98431,-25.82758],[-48.97168,-25.823],[-48.96393,-25.83038],[-48.95782,-25.83173],[-48.92279,-25.81659],[-48.90851,-25.81262],[-48.89429,-25.8205],[-48.88361,-25.81079],[-48.86359,-25.80499],[-48.85211,-25.79681],[-48.8703,-25.77441],[-48.87549,-25.76019],[-48.89532,-25.76141],[-48.9386,-25.74261],[-48.94861,-25.72699],[-48.95813,-25.73499],[-48.974,-25.72528],[-48.97711,-25.71698],[-48.96619,-25.70251],[-48.96863,-25.69739],[-48.96411,-25.6767],[-48.96912,-25.66541],[-48.961,-25.6593],[-48.95331,-25.6424],[-48.95801,-25.62988],[-48.95941,-25.61353],[-48.95618,-25.5979],[-48.94098,-25.59253],[-48.94019,-25.58441],[-48.9552,-25.58313],[-48.9718,-25.57593],[-48.97137,-25.54431],[-48.9613,-25.53802],[-48.96863,-25.52252],[-48.98462,-25.53058],[-48.9953,-25.54138],[-49.00879,-25.53992],[-49.02472,-25.5506],[-49.04199,-25.54242],[-49.06891,-25.5401],[-49.09412,-25.52222],[-49.10791,-25.51471],[-49.12482,-25.49762],[-49.13281,-25.495],[-49.14038,-25.47382],[-49.17493,-25.46161],[-49.185,-25.47223],[-49.19922,-25.50153],[-49.2171,-25.52222],[-49.2171,-25.52991],[-49.22559,-25.53809],[-49.22223,-25.56042],[-49.23682,-25.5639],[-49.24481,-25.57538],[-49.24359,-25.58398],[-49.258,-25.59723],[-49.27002,-25.60321],[-49.27051,-25.61151]]]}}