{"type":"Feature","properties":{"id":"BRA.17.126","name":"Ibaretama","level":2,"country":"BRA"},"geometry":{"type":"Polygon","coordinates":[[[-38.76562,-4.62341],[-38.76898,-4.63062],[-38.7821,-4.6311],[-38.78339,-4.6405],[-38.79218,-4.64752],[-38.80157,-4.64911],[-38.80499,-4.65887],[-38.81488,-4.672],[-38.8313,-4.66882],[-38.8432,-4.67151],[-38.85699,-4.66681],[-38.87488,-4.6803],[-38.80231,-4.74121],[-38.8598,-4.82928],[-38.86078,-4.83948],[-38.87543,-4.85162],[-38.88599,-4.84241],[-38.8996,-4.83539],[-38.92212,-4.82831],[-38.91809,-4.85278],[-38.90741,-4.86768],[-38.89069,-4.89569],[-38.89008,-4.91608],[-38.88452,-4.93341],[-38.8075,-4.92151],[-38.70111,-4.9024],[-38.6474,-4.93591],[-38.63861,-4.92743],[-38.63922,-4.91779],[-38.64911,-4.9024],[-38.646,-4.89563],[-38.65631,-4.88788],[-38.66528,-4.87433],[-38.66418,-4.86639],[-38.6485,-4.85059],[-38.6413,-4.85071],[-38.62091,-4.83893],[-38.6142,-4.83832],[-38.59692,-4.81671],[-38.58868,-4.81128],[-38.57941,-4.79761],[-38.5752,-4.7782],[-38.5788,-4.77118],[-38.55243,-4.75641],[-38.53851,-4.7558],[-38.52002,-4.73401],[-38.5329,-4.70502],[-38.52759,-4.68542],[-38.52869,-4.67932],[-38.53741,-4.67981],[-38.55042,-4.67279],[-38.56848,-4.67291],[-38.57532,-4.66931],[-38.5827,-4.67151],[-38.61688,-4.69531],[-38.63202,-4.70001],[-38.63647,-4.6864],[-38.6546,-4.6814],[-38.6637,-4.6615],[-38.67151,-4.66571],[-38.67798,-4.65698],[-38.68793,-4.65259],[-38.68658,-4.64539],[-38.698,-4.62671],[-38.70172,-4.61169],[-38.71118,-4.612],[-38.71881,-4.61981],[-38.73907,-4.61841],[-38.75629,-4.62469],[-38.76562,-4.62341]]]}}