{"type":"Feature","properties":{"id":"BRA.12.801","name":"Bonfinópolis de Minas","level":2,"country":"BRA"},"geometry":{"type":"Polygon","coordinates":[[[-46.31201,-16.29791],[-46.32159,-16.29749],[-46.33429,-16.2876],[-46.34119,-16.27368],[-46.36389,-16.2749],[-46.383,-16.26398],[-46.40442,-16.2641],[-46.41632,-16.2735],[-46.43469,-16.27771],[-46.45813,-16.2868],[-46.4873,-16.30682],[-46.50641,-16.30621],[-46.51208,-16.32031],[-46.50061,-16.33752],[-46.51178,-16.3559],[-46.5105,-16.37708],[-46.51331,-16.38391],[-46.51093,-16.39563],[-46.4953,-16.40619],[-46.45862,-16.41351],[-46.43439,-16.44263],[-46.43219,-16.461],[-46.40509,-16.47211],[-46.3844,-16.5033],[-46.3913,-16.5127],[-46.39178,-16.52551],[-46.38678,-16.53583],[-46.38422,-16.55322],[-46.38501,-16.5741],[-46.39069,-16.58252],[-46.38391,-16.59619],[-46.37451,-16.60571],[-46.36139,-16.5993],[-46.34149,-16.59558],[-46.34741,-16.57568],[-46.33301,-16.5639],[-46.32629,-16.55359],[-46.31439,-16.5462],[-46.30481,-16.54572],[-46.29791,-16.55261],[-46.28992,-16.57489],[-46.28387,-16.58362],[-46.26892,-16.59637],[-46.25598,-16.60339],[-46.24701,-16.60303],[-46.2323,-16.61389],[-46.22571,-16.62433],[-46.20929,-16.6297],[-46.19971,-16.63611],[-46.19592,-16.6499],[-46.1861,-16.66211],[-46.17621,-16.65723],[-46.15869,-16.66089],[-46.14313,-16.68048],[-46.15503,-16.70111],[-46.13922,-16.72131],[-46.14349,-16.72821],[-46.16022,-16.73608],[-46.16791,-16.7605],[-46.16522,-16.77661],[-46.15033,-16.7821],[-46.1369,-16.77881],[-46.12238,-16.76471],[-46.10358,-16.76141],[-46.09088,-16.75092],[-46.08258,-16.72382],[-46.09271,-16.7063],[-46.08008,-16.70392],[-46.06732,-16.71521],[-46.05469,-16.71771],[-46.04321,-16.711],[-46.0354,-16.71661],[-46.02191,-16.70679],[-46.0108,-16.71069],[-46.0094,-16.6947],[-45.99152,-16.69513],[-46.00452,-16.66632],[-46.005,-16.64673],[-46.01459,-16.63672],[-46.00043,-16.62073],[-45.98212,-16.62122],[-45.98071,-16.61401],[-45.97101,-16.60779],[-45.97308,-16.59521],[-45.96759,-16.59113],[-45.96191,-16.57703],[-45.94861,-16.57422],[-45.95148,-16.55389],[-45.94171,-16.54749],[-45.91492,-16.54169],[-45.91083,-16.53149],[-45.91522,-16.52539],[-45.91663,-16.50641],[-45.92151,-16.49371],[-45.91162,-16.4765],[-45.90228,-16.4715],[-45.89313,-16.45001],[-45.89893,-16.43073],[-45.91083,-16.41309],[-45.9079,-16.39539],[-45.91998,-16.37219],[-45.94489,-16.3775],[-45.95312,-16.3974],[-45.9693,-16.38818],[-45.97742,-16.39929],[-45.98749,-16.39331],[-45.99512,-16.38239],[-46.00861,-16.37958],[-46.02448,-16.38788],[-46.04822,-16.38721],[-46.06403,-16.39331],[-46.08282,-16.37091],[-46.10449,-16.3692],[-46.11212,-16.37891],[-46.13501,-16.37439],[-46.14929,-16.37799],[-46.16632,-16.36481],[-46.18048,-16.3642],[-46.19,-16.35931],[-46.20032,-16.33893],[-46.21472,-16.34332],[-46.2431,-16.3396],[-46.26672,-16.33289],[-46.27502,-16.31921],[-46.28821,-16.3136],[-46.30371,-16.3114],[-46.31201,-16.29791]]]}}