{"type":"Feature","properties":{"id":"BRA.12.88","name":"Brás Pires","level":2,"country":"BRA"},"geometry":{"type":"Polygon","coordinates":[[[-43.2403,-20.96881],[-43.22461,-20.95831],[-43.21918,-20.94299],[-43.20569,-20.93158],[-43.1983,-20.93951],[-43.18219,-20.93298],[-43.17139,-20.9248],[-43.15192,-20.9184],[-43.16101,-20.88751],[-43.15381,-20.87549],[-43.15601,-20.85791],[-43.14722,-20.84723],[-43.14459,-20.8371],[-43.1535,-20.82642],[-43.15503,-20.81531],[-43.17712,-20.8045],[-43.19281,-20.8161],[-43.20331,-20.80518],[-43.21851,-20.79431],[-43.2301,-20.80188],[-43.24371,-20.8053],[-43.26703,-20.80212],[-43.28052,-20.81531],[-43.30029,-20.81671],[-43.30811,-20.84229],[-43.29559,-20.85162],[-43.29559,-20.88361],[-43.29041,-20.89001],[-43.28851,-20.91309],[-43.27948,-20.9173],[-43.27289,-20.93152],[-43.28198,-20.93738],[-43.28949,-20.95599],[-43.28052,-20.96332],[-43.25781,-20.95978],[-43.25061,-20.96698],[-43.2403,-20.96881]]]}}