{"type":"Feature","properties":{"id":"BRA.12.67","name":"São Sebastião da Vargem Alegre","level":2,"country":"BRA"},"geometry":{"type":"Polygon","coordinates":[[[-42.61169,-20.98688],[-42.63049,-21.01001],[-42.62939,-21.02448],[-42.62201,-21.03271],[-42.62732,-21.04053],[-42.6416,-21.0401],[-42.64301,-21.05902],[-42.65802,-21.06299],[-42.65558,-21.07831],[-42.64349,-21.07568],[-42.62311,-21.07611],[-42.59119,-21.06],[-42.58173,-21.05072],[-42.5603,-21.05481],[-42.54742,-21.04413],[-42.54968,-21.0318],[-42.55823,-21.02679],[-42.5553,-21.01611],[-42.57092,-21.01129],[-42.57953,-20.98889],[-42.573,-20.97668],[-42.56403,-20.97052],[-42.5816,-20.95258],[-42.58899,-20.95618],[-42.60413,-20.97241],[-42.61169,-20.98688]]]}}