{"type":"Feature","properties":{"id":"BRA.18.3","name":"Bela Vista do Piauí","level":2,"country":"BRA"},"geometry":{"type":"Polygon","coordinates":[[[-41.73041,-7.96051],[-41.77502,-7.93359],[-41.81989,-7.93121],[-41.85669,-7.93909],[-41.86469,-7.92548],[-41.87592,-7.9126],[-41.88049,-7.89709],[-41.88922,-7.88953],[-41.91388,-7.8764],[-41.9375,-7.90448],[-41.9743,-7.90491],[-42.02399,-7.90881],[-42.02179,-7.93652],[-42.0213,-7.94318],[-42.0318,-7.9754],[-41.99408,-7.98651],[-41.94818,-8.013],[-41.9024,-8.01361],[-41.8736,-8.0509],[-41.85651,-8.06549],[-41.85968,-8.11371],[-41.84399,-8.11951],[-41.83221,-8.12048],[-41.81329,-8.11688],[-41.77728,-8.11688],[-41.75018,-8.09241],[-41.73993,-8.08838],[-41.69299,-8.06891],[-41.71521,-8.05573],[-41.72711,-8.0274],[-41.73889,-7.98749],[-41.73041,-7.96051]]]}}