{"type":"Feature","properties":{"id":"BRA.2.480","name":"São Sebastião da Grama","level":2,"country":"BRA"},"geometry":{"type":"Polygon","coordinates":[[[-46.62921,-21.76862],[-46.63812,-21.74878],[-46.66058,-21.75092],[-46.67542,-21.73938],[-46.67511,-21.73273],[-46.6889,-21.72552],[-46.69012,-21.71692],[-46.70203,-21.70978],[-46.71539,-21.71118],[-46.7345,-21.70752],[-46.74103,-21.69641],[-46.75641,-21.69189],[-46.76941,-21.69482],[-46.79718,-21.68481],[-46.80518,-21.66138],[-46.81671,-21.65991],[-46.82111,-21.67151],[-46.83252,-21.67859],[-46.84192,-21.69641],[-46.85022,-21.70081],[-46.85779,-21.69702],[-46.87158,-21.70978],[-46.86719,-21.7243],[-46.84802,-21.74481],[-46.8432,-21.75958],[-46.828,-21.755],[-46.8183,-21.76001],[-46.82001,-21.77081],[-46.81378,-21.78241],[-46.80389,-21.78748],[-46.802,-21.7951],[-46.77972,-21.81439],[-46.77081,-21.8252],[-46.75061,-21.83429],[-46.73621,-21.82312],[-46.72058,-21.82092],[-46.70691,-21.83099],[-46.70361,-21.841],[-46.69202,-21.83783],[-46.68073,-21.8233],[-46.6701,-21.81549],[-46.66821,-21.80792],[-46.65179,-21.79028],[-46.65417,-21.77979],[-46.63953,-21.76892],[-46.62921,-21.76862]]]}}