{"type":"Feature","properties":{"id":"BRA.22.177","name":"Mari","level":2,"country":"BRA"},"geometry":{"type":"Polygon","coordinates":[[[-35.31622,-6.98529],[-35.3324,-6.99231],[-35.34491,-6.98541],[-35.35742,-6.99072],[-35.367,-7.00262],[-35.37598,-7.02338],[-35.37738,-7.03278],[-35.32788,-7.09698],[-35.31531,-7.11548],[-35.3017,-7.11688],[-35.29059,-7.11151],[-35.28741,-7.10901],[-35.27832,-7.10162],[-35.2627,-7.07581],[-35.25421,-7.06641],[-35.24872,-7.04791],[-35.25012,-7.02972],[-35.25568,-7.0224],[-35.2558,-6.99683],[-35.2525,-6.98523],[-35.26208,-6.96503],[-35.26202,-6.95569],[-35.27832,-6.96948],[-35.31622,-6.98529]]]}}