{"type":"Feature","properties":{"id":"BRA.23.81","name":"Niterói","level":2,"country":"BRA"},"geometry":{"type":"MultiPolygon","coordinates":[[[[-43.08191,-22.98621],[-43.08551,-22.98639],[-43.08423,-22.98907],[-43.08191,-22.98621]]],[[[-43.13177,-22.8728],[-43.13733,-22.87042],[-43.13708,-22.875],[-43.13177,-22.8728]]],[[[-43.11792,-22.85883],[-43.12323,-22.85937],[-43.11981,-22.86353],[-43.11792,-22.85883]]],[[[-42.95728,-22.90088],[-42.98468,-22.90771],[-42.98712,-22.89362],[-42.99463,-22.888],[-43.00958,-22.89062],[-43.0293,-22.87561],[-43.06708,-22.86951],[-43.104,-22.85681],[-43.13391,-22.88098],[-43.12811,-22.8913],[-43.1366,-22.90289],[-43.12988,-22.909],[-43.11609,-22.90503],[-43.10742,-22.91522],[-43.0957,-22.91638],[-43.09619,-22.92621],[-43.10571,-22.93512],[-43.11658,-22.93811],[-43.11212,-22.95203],[-43.07611,-22.95612],[-43.0509,-22.96411],[-43.04028,-22.97528],[-43.01709,-22.97632],[-43.02301,-22.97028],[-43.02142,-22.96051],[-43.01129,-22.95099],[-42.99371,-22.94122],[-42.98212,-22.93152],[-42.97412,-22.91858],[-42.95428,-22.90802],[-42.95728,-22.90088]]]]}}