{"type":"Feature","properties":{"id":"BRA.16.1","name":"Mirim Doce","level":2,"country":"BRA"},"geometry":{"type":"Polygon","coordinates":[[[-50.31592,-27.07452],[-50.33521,-27.07861],[-50.34821,-27.09338],[-50.34808,-27.09961],[-50.33228,-27.10138],[-50.32092,-27.11261],[-50.31531,-27.12372],[-50.31848,-27.14532],[-50.3045,-27.15271],[-50.30591,-27.16553],[-50.29523,-27.16528],[-50.28711,-27.172],[-50.29102,-27.20068],[-50.28949,-27.21478],[-50.27063,-27.21002],[-50.26532,-27.22601],[-50.24341,-27.23828],[-50.22748,-27.24158],[-50.22089,-27.24689],[-50.19739,-27.2395],[-50.19061,-27.25159],[-50.18311,-27.25513],[-50.17639,-27.26941],[-50.16461,-27.27441],[-50.14142,-27.27222],[-50.13049,-27.27411],[-50.12311,-27.27148],[-50.11511,-27.25958],[-50.0957,-27.24652],[-50.07098,-27.23859],[-50.05939,-27.22772],[-50.0636,-27.2196],[-50.04779,-27.20679],[-50.04291,-27.21741],[-50.0257,-27.22162],[-50.01611,-27.21088],[-50.0036,-27.21161],[-49.99298,-27.18951],[-50.00403,-27.17462],[-50.03168,-27.17242],[-50.05011,-27.17371],[-50.06268,-27.14978],[-50.09381,-27.14362],[-50.10651,-27.14722],[-50.13171,-27.14032],[-50.13861,-27.13348],[-50.15161,-27.13379],[-50.16791,-27.14911],[-50.18579,-27.14783],[-50.20062,-27.15259],[-50.21588,-27.14929],[-50.22662,-27.1507],[-50.23181,-27.14178],[-50.23291,-27.1286],[-50.24548,-27.11261],[-50.24762,-27.10321],[-50.26239,-27.09698],[-50.28473,-27.09528],[-50.28961,-27.10852],[-50.3009,-27.10999],[-50.31421,-27.09003],[-50.30981,-27.08228],[-50.31592,-27.07452]]]}}