{"type":"Feature","properties":{"id":"BRA.24.128","name":"Maxaranguape","level":2,"country":"BRA"},"geometry":{"type":"Polygon","coordinates":[[[-35.25513,-5.51752],[-35.2597,-5.50873],[-35.25989,-5.48291],[-35.2724,-5.4787],[-35.28931,-5.45642],[-35.29291,-5.42743],[-35.29962,-5.42352],[-35.3103,-5.40973],[-35.30988,-5.3913],[-35.31982,-5.37793],[-35.3255,-5.3808],[-35.362,-5.41382],[-35.37341,-5.4165],[-35.37939,-5.43433],[-35.38782,-5.44922],[-35.40039,-5.43872],[-35.41321,-5.43652],[-35.42603,-5.43939],[-35.43683,-5.44592],[-35.4494,-5.4447],[-35.48151,-5.45331],[-35.50171,-5.49292],[-35.49329,-5.48779],[-35.47028,-5.48492],[-35.4541,-5.46991],[-35.43451,-5.46899],[-35.41882,-5.45819],[-35.3847,-5.46838],[-35.37122,-5.46478],[-35.35779,-5.46991],[-35.33081,-5.48889],[-35.3125,-5.49121],[-35.30511,-5.48712],[-35.28131,-5.49451],[-35.27081,-5.5069],[-35.27069,-5.51471],[-35.258,-5.52979],[-35.25513,-5.51752]]]}}