{"type":"Feature","properties":{"id":"BRA.2.107","name":"Urupês","level":2,"country":"BRA"},"geometry":{"type":"Polygon","coordinates":[[[-49.1535,-21.18469],[-49.17023,-21.18091],[-49.18359,-21.1687],[-49.18842,-21.15851],[-49.18481,-21.14648],[-49.2099,-21.13831],[-49.22858,-21.12439],[-49.24121,-21.12659],[-49.25421,-21.13409],[-49.27789,-21.13342],[-49.30121,-21.12579],[-49.31592,-21.1264],[-49.32672,-21.13],[-49.34131,-21.15369],[-49.36218,-21.16321],[-49.37268,-21.15521],[-49.3866,-21.16138],[-49.38782,-21.172],[-49.39648,-21.18121],[-49.38843,-21.20038],[-49.38751,-21.21161],[-49.36932,-21.21838],[-49.36389,-21.22778],[-49.36322,-21.2392],[-49.34888,-21.23608],[-49.3324,-21.23743],[-49.32739,-21.24591],[-49.31561,-21.24792],[-49.31049,-21.2572],[-49.29272,-21.26721],[-49.29022,-21.2807],[-49.28491,-21.28729],[-49.27051,-21.28589],[-49.25769,-21.29852],[-49.22913,-21.3136],[-49.22198,-21.29468],[-49.21161,-21.28101],[-49.20142,-21.27881],[-49.18878,-21.26349],[-49.17371,-21.24951],[-49.16443,-21.22369],[-49.14612,-21.21661],[-49.14203,-21.20038],[-49.14362,-21.18671],[-49.1535,-21.18469]]]}}