{"type":"Feature","properties":{"id":"BRA.16.81","name":"Saltinho","level":2,"country":"BRA"},"geometry":{"type":"Polygon","coordinates":[[[-53.06311,-26.64331],[-52.99609,-26.63708],[-52.94391,-26.61682],[-52.92932,-26.60632],[-52.92761,-26.58252],[-52.92419,-26.5802],[-52.92932,-26.57251],[-52.94568,-26.56653],[-52.96521,-26.552],[-52.97919,-26.53491],[-52.99341,-26.54651],[-53.00409,-26.54169],[-53.01611,-26.54382],[-53.0191,-26.52991],[-53.06293,-26.55182],[-53.10828,-26.56561],[-53.12201,-26.57379],[-53.11639,-26.57953],[-53.09332,-26.59302],[-53.09558,-26.60449],[-53.11151,-26.6228],[-53.11292,-26.6297],[-53.09949,-26.6275],[-53.0863,-26.63879],[-53.06732,-26.63391],[-53.06311,-26.64331]]]}}