{"type":"Feature","properties":{"id":"BRA.14.44","name":"Caxias do Sul","level":2,"country":"BRA"},"geometry":{"type":"MultiPolygon","coordinates":[[[[-51.11151,-29.04102],[-51.10663,-29.03381],[-51.11322,-29.03241],[-51.11151,-29.04102]]],[[[-51.12299,-28.87732],[-51.09052,-28.87988],[-51.07458,-28.88702],[-51.06219,-28.90338],[-51.05542,-28.91779],[-51.0365,-28.92151],[-51.03131,-28.92798],[-51.01672,-28.9314],[-50.98523,-28.9458],[-50.9787,-28.94592],[-50.96259,-28.95728],[-50.9541,-28.96771],[-50.9516,-28.979],[-50.94501,-28.98108],[-50.93591,-28.99951],[-50.92187,-29.00482],[-50.92419,-29.01581],[-50.93732,-29.02301],[-50.96198,-29.01251],[-50.9809,-29.01788],[-50.98578,-29.02539],[-51.00098,-29.021],[-51.04108,-29.03351],[-51.05682,-29.03131],[-51.08301,-29.03772],[-51.09552,-29.03632],[-51.11151,-29.04102],[-51.1109,-29.07941],[-51.1452,-29.08038],[-51.1449,-29.08759],[-51.20129,-29.08618],[-51.22211,-29.08759],[-51.29718,-29.08801],[-51.28748,-29.10199],[-51.29279,-29.1134],[-51.29279,-29.1485],[-51.29462,-29.1731],[-51.29388,-29.19391],[-51.28851,-29.19379],[-51.28851,-29.24542],[-51.26569,-29.24591],[-51.26672,-29.2951],[-51.21649,-29.33661],[-51.22418,-29.3465],[-51.21259,-29.35748],[-51.20282,-29.354],[-51.1778,-29.32538],[-51.15338,-29.336],[-51.1369,-29.33881],[-51.12701,-29.32343],[-51.1264,-29.31482],[-51.11292,-29.30908],[-51.10101,-29.31763],[-51.09198,-29.30481],[-51.08862,-29.29089],[-51.06989,-29.29169],[-51.04901,-29.30768],[-51.03131,-29.29401],[-51.01398,-29.30139],[-51.00098,-29.3175],[-50.98608,-29.32019],[-50.98669,-29.30621],[-50.96942,-29.29791],[-50.9632,-29.30579],[-50.95203,-29.30481],[-50.94788,-29.28821],[-50.94098,-29.28369],[-50.9281,-29.2887],[-50.91931,-29.30762],[-50.90759,-29.30139],[-50.90833,-29.28741],[-50.89081,-29.28778],[-50.8808,-29.27899],[-50.8819,-29.27179],[-50.8584,-29.24762],[-50.85431,-29.21472],[-50.84778,-29.20929],[-50.83423,-29.17859],[-50.84271,-29.16858],[-50.84338,-29.15948],[-50.8382,-29.14178],[-50.8479,-29.12189],[-50.8653,-29.12378],[-50.87531,-29.11688],[-50.91382,-29.11841],[-50.91089,-29.10779],[-50.90259,-29.09888],[-50.9024,-29.09021],[-50.91461,-29.08038],[-50.8941,-29.06482],[-50.85321,-29.06659],[-50.83832,-29.0592],[-50.83191,-29.06281],[-50.82288,-29.05432],[-50.81512,-29.02948],[-50.80121,-29.02539],[-50.78662,-29.00958],[-50.78271,-29],[-50.78522,-28.97882],[-50.80042,-28.96411],[-50.80359,-28.95319],[-50.79358,-28.93512],[-50.81091,-28.92902],[-50.80579,-28.90918],[-50.82019,-28.89362],[-50.79468,-28.87512],[-50.80481,-28.86841],[-50.82129,-28.86731],[-50.82709,-28.85571],[-50.82013,-28.84961],[-50.81958,-28.83752],[-50.84979,-28.83289],[-50.87909,-28.84088],[-50.88391,-28.84003],[-50.88531,-28.81409],[-50.89062,-28.80658],[-50.91418,-28.8017],[-50.9314,-28.8075],[-50.961,-28.79321],[-50.97601,-28.8139],[-50.99719,-28.81738],[-51.0199,-28.84131],[-51.03381,-28.83258],[-51.04102,-28.83459],[-51.04749,-28.8465],[-51.04773,-28.86121],[-51.06201,-28.86481],[-51.0752,-28.86102],[-51.09509,-28.84113],[-51.10522,-28.84521],[-51.11462,-28.85638],[-51.10919,-28.8645],[-51.11322,-28.87262],[-51.12299,-28.87732]]]]}}