{"type":"Feature","properties":{"id":"BRA.15.385","name":"Rio Azul","level":2,"country":"BRA"},"geometry":{"type":"Polygon","coordinates":[[[-50.95648,-25.68591],[-50.83081,-25.78259],[-50.8288,-25.78638],[-50.80609,-25.79449],[-50.7923,-25.79449],[-50.7644,-25.83142],[-50.74921,-25.82861],[-50.73779,-25.83191],[-50.73572,-25.84601],[-50.72418,-25.84918],[-50.71521,-25.85883],[-50.7085,-25.85522],[-50.6759,-25.87268],[-50.66449,-25.87219],[-50.64319,-25.8623],[-50.62762,-25.84851],[-50.61292,-25.86798],[-50.60773,-25.85828],[-50.60822,-25.84491],[-50.6189,-25.83459],[-50.63269,-25.8288],[-50.61871,-25.81299],[-50.61279,-25.81769],[-50.60089,-25.8064],[-50.60901,-25.79779],[-50.59961,-25.79181],[-50.60162,-25.7843],[-50.61041,-25.77942],[-50.61871,-25.7655],[-50.63519,-25.77661],[-50.64069,-25.76392],[-50.66821,-25.7522],[-50.67187,-25.73383],[-50.67749,-25.72913],[-50.66809,-25.71191],[-50.66962,-25.69928],[-50.70612,-25.68439],[-50.70099,-25.66571],[-50.73181,-25.66431],[-50.74042,-25.67072],[-50.75098,-25.65808],[-50.77722,-25.6557],[-50.7879,-25.6001],[-50.80298,-25.60718],[-50.79968,-25.61932],[-50.82861,-25.61432],[-50.8302,-25.604],[-50.84637,-25.59778],[-50.85999,-25.60321],[-50.86902,-25.59631],[-50.89471,-25.6062],[-50.90552,-25.58551],[-50.9129,-25.59473],[-50.92578,-25.60291],[-50.93512,-25.60022],[-50.94568,-25.60431],[-50.95959,-25.59552],[-50.97101,-25.5965],[-50.97559,-25.59039],[-50.99823,-25.58868],[-51.00677,-25.60388],[-50.995,-25.61761],[-50.9826,-25.61938],[-50.98022,-25.62903],[-50.98981,-25.64203],[-50.97778,-25.64899],[-50.97229,-25.67023],[-50.96429,-25.6828],[-50.95648,-25.68591]]]}}