{"type":"Feature","properties":{"id":"BRA.14.212","name":"Getúlio Vargas","level":2,"country":"BRA"},"geometry":{"type":"Polygon","coordinates":[[[-52.14899,-27.73401],[-52.17151,-27.75043],[-52.18329,-27.74658],[-52.19952,-27.75153],[-52.23602,-27.78412],[-52.24341,-27.80151],[-52.25153,-27.79962],[-52.26239,-27.81927],[-52.25928,-27.82892],[-52.26709,-27.83582],[-52.26868,-27.84711],[-52.2594,-27.85828],[-52.2782,-27.87579],[-52.23181,-27.91571],[-52.22131,-27.9126],[-52.21661,-27.92932],[-52.2182,-27.94891],[-52.22742,-27.9632],[-52.22711,-27.97119],[-52.21393,-27.97101],[-52.19983,-27.96143],[-52.18939,-27.95959],[-52.17041,-27.94348],[-52.14362,-27.95251],[-52.13171,-27.94897],[-52.10962,-27.94843],[-52.10419,-27.94171],[-52.09113,-27.93628],[-52.07019,-27.93213],[-52.07068,-27.92371],[-52.08191,-27.92102],[-52.08441,-27.90662],[-52.12122,-27.90973],[-52.13361,-27.8988],[-52.14941,-27.8924],[-52.15179,-27.88092],[-52.1416,-27.86279],[-52.13177,-27.85889],[-52.14618,-27.8457],[-52.09161,-27.79358],[-52.10101,-27.77661],[-52.1142,-27.7627],[-52.14899,-27.73401]]]}}