{"type":"Feature","properties":{"id":"EGY.22.13","name":"Naqada","level":2,"country":"EGY"},"geometry":{"type":"Polygon","coordinates":[[[32.73109,25.78475],[32.75667,25.79504],[32.7696,25.80364],[32.77562,25.81659],[32.76305,25.83292],[32.75377,25.84004],[32.72791,25.86844],[32.7209,25.88531],[32.73661,25.922],[32.76086,25.94207],[32.77212,25.96038],[32.77841,25.98474],[32.76311,25.98364],[32.73908,25.99403],[32.73543,25.98787],[32.72777,25.9815],[32.72712,25.96772],[32.71263,25.94173],[32.69939,25.90391],[32.69996,25.87875],[32.69368,25.83444],[32.69979,25.81758],[32.71534,25.8152],[32.71843,25.8062],[32.72721,25.80257],[32.73109,25.78475]]]}}