{"type":"Feature","properties":{"id":"EGY.16.8","name":"Zemam Out","level":2,"country":"EGY"},"geometry":{"type":"MultiPolygon","coordinates":[[[[30.53004,27.60143],[30.67609,27.60762],[30.67613,27.62243],[30.68233,27.64143],[30.67858,27.64687],[30.68802,27.66042],[30.68618,27.67188],[30.69775,27.68271],[30.7011,27.69291],[30.71091,27.6922],[30.71884,27.70434],[30.70946,27.70827],[30.71218,27.72306],[30.71933,27.72506],[30.72224,27.75272],[30.7123,27.75849],[30.72447,27.78636],[30.72085,27.80699],[30.71127,27.81829],[30.70088,27.84108],[30.70323,27.84987],[30.69764,27.88586],[30.6869,27.88265],[30.6816,27.8876],[30.67922,27.89997],[30.68469,27.90791],[30.67986,27.91701],[30.68156,27.92857],[30.66942,27.9582],[30.66866,27.98466],[30.66148,27.98784],[30.6646,27.9979],[30.64976,27.99827],[30.6437,28.01241],[30.6426,28.03448],[30.64934,28.0337],[30.65217,28.04389],[30.64344,28.06118],[30.62903,28.05857],[30.62794,28.07972],[30.64707,28.08013],[30.64172,28.08692],[30.63042,28.08391],[30.62347,28.09205],[30.60029,28.08724],[30.58799,28.0877],[30.56631,28.09482],[30.54419,28.12168],[30.54993,28.13949],[30.54636,28.16123],[30.53686,28.17333],[30.5271,28.19632],[30.52622,28.23446],[30.51814,28.25135],[30.52231,28.2705],[30.521,28.29237],[30.52607,28.29704],[30.54071,28.30083],[30.58951,28.3091],[30.60213,28.30651],[30.60961,28.31726],[30.5851,28.37932],[30.59477,28.40485],[30.60567,28.41938],[30.5895,28.42307],[30.58384,28.43769],[30.59627,28.44577],[30.62429,28.44507],[30.62911,28.45898],[30.62311,28.46944],[30.62484,28.48236],[30.64045,28.50019],[30.63348,28.50833],[30.64109,28.51493],[30.64598,28.52608],[30.65423,28.52856],[30.65777,28.53893],[30.64911,28.54686],[30.65776,28.55426],[30.65318,28.57035],[30.64737,28.56681],[30.63412,28.56775],[30.63147,28.58489],[30.64609,28.59215],[30.64612,28.62672],[30.63928,28.63897],[30.63587,28.65304],[30.6504,28.66941],[30.65225,28.6749],[30.64513,28.69138],[30.6489,28.69913],[30.65752,28.7035],[30.66854,28.70071],[30.67907,28.70629],[30.68754,28.7217],[30.69786,28.73444],[30.71401,28.74499],[30.71282,28.74928],[30.72063,28.76771],[29.77497,28.7792],[29.74033,28.60411],[29.66097,28.45673],[29.59452,28.32146],[29.25751,28.10275],[28.78998,27.91937],[28.46664,27.67461],[28.53467,27.67273],[30.53004,27.60143]]],[[[30.90137,28.70957],[30.90119,28.70807],[30.90335,28.69855],[30.89687,28.69584],[30.89758,28.68513],[30.88205,28.67125],[30.88023,28.66012],[30.8715,28.63619],[30.88973,28.60333],[30.8644,28.59777],[30.85522,28.59115],[30.85338,28.57892],[30.87076,28.53025],[30.8733,28.51189],[30.8625,28.50753],[30.86546,28.48835],[30.8644,28.4648],[30.86163,28.45674],[30.85063,28.44128],[30.84619,28.42641],[30.84078,28.42859],[30.82254,28.409],[30.82433,28.39654],[30.81286,28.39747],[30.80057,28.3854],[30.78234,28.37406],[30.77042,28.35091],[30.77425,28.32907],[30.75932,28.32245],[30.74518,28.29643],[30.75137,28.28471],[30.76,28.25637],[30.75762,28.24213],[30.76927,28.20948],[30.77415,28.19287],[30.77078,28.17756],[30.7745,28.15371],[30.76967,28.14026],[30.76816,28.11695],[30.77098,28.109],[30.79367,28.08199],[30.82228,28.06404],[30.83144,28.04566],[30.84546,28.03714],[30.85127,28.03051],[30.85325,28.01692],[30.86223,27.98864],[30.87652,27.96476],[30.87684,27.94822],[30.87248,27.92166],[30.86611,27.91072],[30.86104,27.88873],[30.84421,27.87286],[30.84488,27.85805],[30.83938,27.858],[30.84282,27.84865],[30.85279,27.84024],[30.86014,27.82537],[30.8793,27.82146],[30.87665,27.81212],[30.88984,27.80819],[30.89544,27.80262],[30.90864,27.79844],[30.90603,27.78718],[30.91427,27.77715],[30.90332,27.77301],[30.89349,27.75014],[30.88454,27.71675],[30.89017,27.69348],[30.90082,27.68308],[30.90141,27.67066],[30.90666,27.66692],[30.90368,27.65189],[30.89093,27.63861],[30.89254,27.62737],[30.87734,27.60773],[31.15638,27.63407],[31.3366,27.65216],[31.55416,27.65026],[31.7118,27.68171],[31.85905,27.74409],[32.01435,27.79778],[32.20924,27.84432],[32.33794,27.85414],[32.39349,27.88],[32.56866,27.85326],[32.54668,27.9087],[32.5342,27.96303],[32.47193,28.16578],[32.34451,28.25584],[32.19013,28.34474],[32.06612,28.32453],[31.88588,28.29896],[31.71385,28.24773],[31.55711,28.26666],[31.35891,28.32979],[31.22827,28.40025],[31.16684,28.49149],[31.10991,28.6087],[31.03415,28.69889],[30.90153,28.70956],[30.90137,28.70957]],[[30.80306,28.07876],[30.77084,28.11334],[30.77272,28.14195],[30.79633,28.1372],[30.80338,28.10595],[30.81314,28.0894],[30.80306,28.07876]]]]}}