{"type":"Feature","properties":{"id":"EGY.23.2","name":"Saqulta","level":2,"country":"EGY"},"geometry":{"type":"Polygon","coordinates":[[[31.70565,26.67123],[31.69324,26.67792],[31.67851,26.70016],[31.66353,26.71606],[31.64624,26.71864],[31.63875,26.72566],[31.63793,26.73439],[31.61055,26.75671],[31.60189,26.75821],[31.57654,26.75582],[31.59121,26.73465],[31.60774,26.72032],[31.6253,26.71685],[31.64342,26.70158],[31.64515,26.69026],[31.63769,26.66606],[31.65005,26.64581],[31.65631,26.64385],[31.68126,26.6448],[31.70964,26.63575],[31.71369,26.62662],[31.72399,26.63608],[31.71653,26.64401],[31.71976,26.65085],[31.70428,26.66488],[31.70565,26.67123]]]}}