{"type":"Feature","properties":{"id":"EGY.12.20","name":"Shubra Khît","level":2,"country":"EGY"},"geometry":{"type":"Polygon","coordinates":[[[30.56876,31.04085],[30.57359,31.02487],[30.58495,31.02305],[30.60127,31.00643],[30.60349,30.99689],[30.58726,30.99155],[30.5785,30.98555],[30.57505,30.97265],[30.60811,30.97774],[30.62404,30.95213],[30.64165,30.95593],[30.66443,30.95704],[30.67246,30.94299],[30.68466,30.94886],[30.68921,30.9568],[30.70742,30.94032],[30.72082,30.94115],[30.72548,30.93401],[30.74209,30.92695],[30.76233,30.93551],[30.76564,30.92254],[30.77239,30.92227],[30.78375,30.93],[30.77946,30.94092],[30.76098,30.9503],[30.74746,30.96643],[30.74769,30.9721],[30.75673,30.97931],[30.76073,30.9926],[30.75398,31.00365],[30.7456,31.00814],[30.72421,31.0133],[30.71672,31.0206],[30.72341,31.04048],[30.72488,31.06481],[30.71246,31.07643],[30.69863,31.08418],[30.68319,31.08153],[30.67352,31.07621],[30.67003,31.0671],[30.65193,31.05905],[30.64197,31.06959],[30.62819,31.06508],[30.62921,31.05823],[30.61708,31.05471],[30.60544,31.0413],[30.56876,31.04085]]]}}