{"type":"Feature","properties":{"id":"EGY.8.15","name":"Gamaliyya","level":2,"country":"EGY"},"geometry":{"type":"Polygon","coordinates":[[[31.89501,31.23327],[31.8624,31.23363],[31.8676,31.24147],[31.86889,31.2545],[31.86707,31.27339],[31.85402,31.28022],[31.84215,31.27161],[31.82184,31.25259],[31.8178,31.24097],[31.81958,31.2152],[31.82536,31.1966],[31.82446,31.18357],[31.8279,31.16877],[31.81801,31.16579],[31.8231,31.15458],[31.83946,31.13226],[31.84902,31.14349],[31.86293,31.15433],[31.86066,31.16705],[31.8616,31.18489],[31.86878,31.1934],[31.87987,31.19774],[31.88318,31.21555],[31.89501,31.23327]]]}}