{"type":"Feature","properties":{"id":"EGY.5.10","name":"Kafr Shukr","level":2,"country":"EGY"},"geometry":{"type":"Polygon","coordinates":[[[31.26922,30.49357],[31.27236,30.50175],[31.28351,30.50812],[31.29032,30.52065],[31.28443,30.53101],[31.28844,30.54061],[31.30208,30.54563],[31.29734,30.55498],[31.29575,30.5702],[31.30891,30.57692],[31.3142,30.5722],[31.32872,30.57176],[31.33422,30.58583],[31.34703,30.59803],[31.34172,30.60805],[31.32992,30.61092],[31.32057,30.59432],[31.30428,30.592],[31.29656,30.58759],[31.28381,30.59086],[31.28362,30.60516],[31.27511,30.60662],[31.26589,30.61506],[31.26493,30.58639],[31.26107,30.58089],[31.24669,30.57225],[31.2445,30.56385],[31.25994,30.54895],[31.25026,30.54035],[31.22663,30.54753],[31.2234,30.53994],[31.22754,30.5223],[31.22398,30.51143],[31.23498,30.50904],[31.24088,30.51567],[31.25243,30.51132],[31.25421,30.49906],[31.26922,30.49357]]]}}