{"type":"Feature","properties":{"id":"MKD.69","name":"Strumitsa","level":1,"country":"MKD"},"geometry":{"type":"Polygon","coordinates":[[[22.79682,41.33704],[22.79296,41.39063],[22.78624,41.39727],[22.75875,41.39158],[22.73301,41.40347],[22.72588,41.42008],[22.68599,41.42057],[22.69405,41.44385],[22.67431,41.47287],[22.63018,41.4567],[22.60113,41.45716],[22.58067,41.47711],[22.53271,41.48995],[22.50894,41.46664],[22.44579,41.446],[22.46068,41.42863],[22.49303,41.40915],[22.53199,41.39964],[22.5168,41.36923],[22.53623,41.32978],[22.58429,41.33262],[22.60992,41.31125],[22.66128,41.31598],[22.68175,41.34358],[22.70738,41.34595],[22.76229,41.3225],[22.79682,41.33704]]]}}