{"type":"Feature","properties":{"id":"RUS.2.19","name":"Alexandrovsky District","level":2,"country":"RUS"},"geometry":{"type":"Polygon","coordinates":[[[81.45874,60.60714],[81.29059,60.62481],[81.10419,60.64205],[81.09844,60.66333],[81.0823,60.66997],[81.06886,60.69316],[81.05245,60.75573],[80.98408,60.77452],[80.70484,60.80278],[80.63906,60.77074],[80.40497,60.7502],[80.201,60.67532],[79.99238,60.67348],[79.93995,60.67023],[79.75608,60.67699],[79.67938,60.68114],[79.65336,60.68655],[79.63168,60.68225],[79.61564,60.67276],[79.58696,60.67628],[79.57758,60.67043],[79.55218,60.66657],[79.51054,60.66809],[79.46269,60.65029],[79.44614,60.64922],[79.4268,60.63925],[79.39887,60.63584],[79.3758,60.64566],[79.37071,60.658],[79.35774,60.6623],[79.34488,60.68208],[79.32045,60.69101],[79.28848,60.72073],[79.29938,60.72942],[79.29922,60.75139],[79.29131,60.75209],[79.28915,60.76687],[79.31634,60.77411],[79.29472,60.80201],[79.26143,60.80586],[79.23129,60.81684],[79.22192,60.82389],[79.20454,60.82291],[79.16558,60.82572],[79.15324,60.82053],[79.15363,60.81188],[79.11079,60.81765],[79.08723,60.80373],[79.07384,60.80588],[79.06265,60.81503],[79.03664,60.81479],[79.035,60.8014],[79.01039,60.81044],[78.9955,60.80471],[78.98147,60.81113],[78.96133,60.80347],[78.94896,60.78855],[78.91907,60.7939],[78.90441,60.78366],[78.88663,60.77979],[78.86867,60.76858],[78.84626,60.76987],[78.83497,60.76378],[78.81896,60.7674],[78.80031,60.75364],[78.78459,60.75044],[78.76554,60.75208],[78.75969,60.76541],[78.77747,60.7653],[78.75985,60.78611],[78.74591,60.78571],[78.71889,60.79739],[78.71915,60.81057],[78.69795,60.82522],[78.64361,60.81643],[78.48727,60.76388],[78.33366,60.78887],[78.19437,60.80235],[78.08835,60.79678],[78.01049,60.75999],[77.99221,60.74791],[77.96996,60.7407],[77.91946,60.76177],[77.88936,60.77887],[77.77644,60.80588],[77.70432,60.81999],[77.58263,60.82118],[77.55294,60.8186],[77.50411,60.81706],[77.44924,60.81002],[77.39536,60.81414],[77.3553,60.82395],[77.32792,60.83685],[77.31083,60.83965],[77.25987,60.83876],[77.24892,60.83186],[77.28821,60.81625],[77.30851,60.82448],[77.3484,60.81277],[77.32408,60.79368],[77.37657,60.7783],[77.3942,60.77776],[77.44974,60.76656],[77.4881,60.76411],[77.50469,60.7685],[77.50433,60.7921],[77.48056,60.79319],[77.48243,60.80257],[77.69035,60.80356],[77.68846,60.74908],[77.76214,60.74953],[77.75936,60.67685],[77.71642,60.67646],[77.67545,60.69037],[77.65238,60.70416],[77.63265,60.70848],[77.60577,60.72147],[77.59118,60.72302],[77.55623,60.71174],[77.53833,60.69422],[77.51774,60.68382],[77.52845,60.67809],[77.46139,60.66071],[77.47117,60.67522],[77.43853,60.69902],[77.43059,60.71602],[77.4514,60.72448],[77.47588,60.73022],[77.5003,60.74261],[77.49371,60.75628],[77.46109,60.75963],[77.41738,60.7518],[77.39168,60.74447],[77.37741,60.74727],[77.38475,60.75537],[77.33903,60.7669],[77.32108,60.77494],[77.32029,60.78071],[77.29637,60.79441],[77.27355,60.79784],[77.26121,60.80447],[77.24266,60.80306],[77.21438,60.81331],[77.2111,60.82858],[77.18212,60.82991],[77.20152,60.83921],[77.22131,60.83746],[77.24359,60.84232],[77.19663,60.85615],[77.11048,60.85852],[77.07917,60.84477],[77.07446,60.83869],[77.09687,60.82323],[77.09043,60.80204],[77.06761,60.79555],[77.07945,60.78658],[77.08087,60.76842],[77.08868,60.76855],[77.09824,60.75354],[77.11406,60.7432],[77.10688,60.7322],[77.09755,60.70529],[77.04103,60.69339],[77.02562,60.68773],[77.02574,60.67908],[77.00472,60.66733],[77.01142,60.65873],[76.99105,60.65712],[76.96454,60.65129],[76.96108,60.64443],[76.97221,60.63608],[76.9571,60.62698],[77.00675,60.622],[77.01816,60.61522],[77.05264,60.61884],[77.06149,60.59826],[77.04565,60.59351],[77.04185,60.58271],[77.06342,60.57635],[77.05822,60.56693],[77.05767,60.54651],[77.06889,60.52603],[77.0516,60.51995],[77.0435,60.50756],[77.02446,60.50549],[76.98219,60.50763],[76.96939,60.49694],[76.95089,60.49732],[76.91527,60.4848],[76.87008,60.47495],[76.8469,60.47478],[76.82916,60.46695],[76.80084,60.46921],[76.81426,60.44858],[76.80072,60.43856],[76.81408,60.42446],[76.78415,60.40709],[76.77286,60.40512],[76.76734,60.39293],[76.77693,60.38835],[76.76246,60.3726],[76.76876,60.36433],[76.75473,60.35144],[76.76826,60.34538],[76.76241,60.33236],[76.77307,60.32581],[76.7896,60.32679],[76.83602,60.30108],[76.85025,60.28921],[76.84999,60.28276],[76.86635,60.27104],[76.85031,60.26468],[76.85693,60.25936],[76.85461,60.23646],[76.84543,60.22381],[76.8317,60.21925],[76.84184,60.20766],[76.83353,60.20295],[76.82796,60.17973],[76.80648,60.17054],[76.79063,60.1546],[76.79006,60.14821],[76.7693,60.14251],[76.74972,60.12681],[76.72783,60.12233],[76.71402,60.11556],[76.77243,60.06567],[76.75775,60.0017],[76.77289,59.99118],[76.74055,59.71121],[76.66836,59.68504],[76.6523,59.6068],[76.67499,59.58806],[76.66489,59.57117],[76.81613,59.53138],[77.13245,59.56177],[77.19341,59.57149],[77.24642,59.57358],[77.34831,59.59171],[77.4141,59.59315],[77.48487,59.57574],[77.49538,59.57538],[77.62782,59.54932],[77.79962,59.53585],[77.90535,59.52518],[78.20831,59.4874],[78.29698,59.45419],[78.38338,59.425],[78.46466,59.45679],[78.61245,59.52288],[78.81878,59.42269],[78.79263,59.3338],[78.87448,59.31438],[78.966,59.26096],[79.0001,59.27694],[79.10242,59.29813],[79.36673,59.27606],[79.41731,59.33149],[79.43891,59.35177],[79.48496,59.38711],[79.50485,59.40649],[79.58443,59.49317],[79.70321,59.66458],[79.72339,59.66868],[79.74158,59.68265],[79.76705,59.67291],[79.81355,59.68562],[79.83094,59.69465],[79.83992,59.71836],[79.83042,59.72986],[79.84162,59.74616],[79.86506,59.74125],[79.89436,59.75103],[79.90718,59.76129],[79.92266,59.76696],[79.93372,59.77817],[79.96479,59.77866],[79.97308,59.78723],[80.02392,59.80016],[80.04286,59.79734],[80.09609,59.81169],[80.13711,59.81865],[80.15217,59.81541],[80.17797,59.8199],[80.21097,59.8219],[80.3933,59.9182],[80.44892,59.96463],[80.55192,60.00002],[80.69982,60.06616],[80.92298,60.18194],[80.9628,60.31245],[81.45874,60.60714]]]}}