{"type":"Feature","properties":{"id":"RUS.58.16","name":"Saratov","level":2,"country":"RUS"},"geometry":{"type":"Polygon","coordinates":[[[45.9732,51.39247],[45.98345,51.41059],[45.98134,51.44897],[46.0035,51.47299],[46.02233,51.49977],[46.04275,51.50787],[46.07751,51.51484],[46.09125,51.51131],[46.11245,51.51147],[46.14609,51.51814],[46.17359,51.52567],[46.19008,51.5371],[46.20972,51.57276],[46.17727,51.59055],[46.1591,51.58786],[46.13395,51.59969],[46.10365,51.60037],[46.09591,51.60526],[46.10853,51.61972],[46.07415,51.63863],[46.06412,51.62049],[46.05354,51.61656],[46.02808,51.61328],[45.95911,51.61501],[45.94698,51.61957],[45.93521,51.63546],[45.95041,51.64366],[45.9496,51.65575],[45.92899,51.64582],[45.92377,51.65422],[45.9406,51.66247],[45.93366,51.66771],[45.95075,51.67631],[45.94219,51.68206],[45.923,51.68559],[45.9115,51.68175],[45.90498,51.66948],[45.88772,51.66613],[45.86094,51.65663],[45.84543,51.659],[45.83062,51.64965],[45.8314,51.64214],[45.81429,51.63547],[45.82252,51.62899],[45.81976,51.62079],[45.83664,51.62082],[45.8461,51.61112],[45.82897,51.60335],[45.82935,51.59018],[45.83632,51.5816],[45.85497,51.58214],[45.87368,51.56052],[45.87659,51.53123],[45.86159,51.52136],[45.86418,51.5048],[45.88459,51.48864],[45.88229,51.48455],[45.84938,51.4974],[45.83709,51.4922],[45.81289,51.48763],[45.8806,51.48263],[45.8947,51.4712],[45.88416,51.46083],[45.86486,51.45462],[45.86575,51.43722],[45.88371,51.4228],[45.90047,51.41741],[45.9226,51.42055],[45.92314,51.40929],[45.94736,51.39211],[45.9732,51.39247]]]}}