{"type":"Feature","properties":{"id":"RUS.2.7","name":"Krivosheinsky District","level":2,"country":"RUS"},"geometry":{"type":"Polygon","coordinates":[[[84.9438,57.25281],[84.94285,57.27226],[84.9517,57.30459],[84.95411,57.34778],[84.94861,57.37944],[84.95136,57.40848],[84.88029,57.44379],[84.76185,57.44416],[84.63311,57.44236],[84.49989,57.44416],[84.32205,57.44416],[84.22007,57.45406],[84.13974,57.47112],[83.98388,57.48792],[83.96911,57.49142],[83.92482,57.48441],[83.87504,57.46484],[83.84998,57.4582],[83.83556,57.45967],[83.81771,57.4702],[83.79676,57.46872],[83.77033,57.46115],[83.71814,57.46263],[83.6948,57.46078],[83.67866,57.45413],[83.67901,57.44157],[83.66733,57.42956],[83.64845,57.42272],[83.61343,57.41995],[83.62133,57.40996],[83.54717,57.39998],[83.5403,57.41237],[83.54339,57.42753],[83.484,57.45007],[83.45894,57.47352],[83.41259,57.46207],[83.43078,57.44915],[83.44314,57.44582],[83.37173,57.43418],[83.3683,57.41921],[83.3144,57.40127],[83.27663,57.39572],[83.25603,57.40109],[83.15853,57.35352],[83.11733,57.32146],[83.20532,57.19965],[83.20608,57.19008],[83.19956,57.17622],[83.1726,57.1778],[83.16625,57.16868],[83.16024,57.14345],[83.16986,57.11215],[83.16745,57.09369],[83.50175,57.05277],[83.52431,57.0407],[83.55621,57.03218],[83.5909,57.03114],[83.61006,57.02402],[83.62395,57.0519],[83.68889,57.05457],[83.70767,57.07251],[83.74029,57.07288],[83.76243,57.06635],[83.79385,57.04581],[83.77634,57.04619],[83.76947,57.03003],[83.77874,57.0091],[83.77376,57.00134],[83.86498,57.00679],[83.88824,57.00524],[83.89156,56.99211],[83.96607,57.00993],[83.97684,57.03882],[83.9837,57.04545],[84.01891,57.05492],[84.05615,57.05749],[84.1193,57.05316],[84.13699,57.08065],[84.17553,57.08134],[84.21035,57.05435],[84.22913,57.04905],[84.32096,57.07292],[84.33819,57.03839],[84.36891,57.01947],[84.37664,57.03722],[84.40779,57.04889],[84.41783,57.04363],[84.44717,57.03653],[84.44364,57.04684],[84.4536,57.05123],[84.45051,57.06309],[84.46538,57.07102],[84.51035,57.08511],[84.54486,57.08296],[84.54777,57.07634],[84.57919,57.08119],[84.58897,57.07867],[84.61335,57.09024],[84.62142,57.09975],[84.63412,57.10105],[84.64888,57.10842],[84.66536,57.10767],[84.68836,57.11215],[84.7917,57.11243],[84.79136,57.13358],[84.9438,57.25281]]]}}