{"type":"Feature","properties":{"id":"RUS.72.29","name":"Achinsky Rayon","level":2,"country":"RUS"},"geometry":{"type":"Polygon","coordinates":[[[90.04484,56.10016],[90.06683,56.10198],[90.08562,56.09599],[90.09396,56.08964],[90.11861,56.09166],[90.16583,56.08534],[90.16879,56.06926],[90.18501,56.08202],[90.22539,56.07533],[90.23203,56.06733],[90.25409,56.06536],[90.29538,56.07365],[90.31781,56.07171],[90.33173,56.06598],[90.3564,56.06666],[90.37367,56.06321],[90.38806,56.07268],[90.38646,56.07663],[90.40312,56.07593],[90.41515,56.08359],[90.41589,56.09739],[90.45443,56.09513],[90.45909,56.10981],[90.4696,56.11763],[90.49566,56.10782],[90.50811,56.11101],[90.52082,56.10625],[90.53434,56.10783],[90.53204,56.07864],[90.57682,56.07654],[90.58748,56.05625],[90.5742,56.04391],[90.57234,56.03282],[90.5859,56.02851],[90.59689,56.03752],[90.60496,56.02342],[90.62144,56.02246],[90.62435,56.0123],[90.64515,56.02202],[90.66156,56.02325],[90.69109,56.03107],[90.69678,56.02502],[90.71403,56.02813],[90.73403,56.02787],[90.741,56.02276],[90.76504,56.03377],[90.78132,56.03089],[90.80875,56.03517],[90.80717,56.02851],[90.82588,56.02563],[90.82159,56.03685],[90.83138,56.0405],[90.86193,56.03484],[90.89163,56.02592],[90.88597,56.01776],[90.88923,56.00807],[90.91223,56.00797],[90.92116,56.00087],[90.94519,56.00538],[90.9409,56.01431],[90.95954,56.01711],[90.96167,56.0098],[90.98895,56.01098],[90.99854,56.02661],[91.0096,56.03671],[90.99747,56.0416],[91.01561,56.05117],[91.01293,56.05527],[90.96918,56.06633],[90.95876,56.06663],[90.95909,56.07832],[90.93278,56.09051],[90.93171,56.09955],[90.96472,56.1226],[90.96842,56.1311],[90.97267,56.2083],[90.95815,56.21076],[90.9565,56.235],[90.93902,56.23488],[90.91305,56.24472],[90.93267,56.26316],[90.96133,56.27072],[90.94273,56.28336],[90.91862,56.28153],[90.90464,56.28578],[90.89663,56.30505],[90.90745,56.31348],[90.92896,56.31344],[90.95289,56.31847],[91.00031,56.31652],[91.02277,56.31938],[91.0356,56.32884],[91.04068,56.34594],[91.08586,56.35165],[91.10218,56.35093],[91.12729,56.33865],[91.14611,56.35948],[91.14181,56.40815],[91.1218,56.40632],[91.10049,56.43119],[91.09931,56.45655],[91.1247,56.45565],[91.13665,56.46597],[91.24731,56.46821],[91.24584,56.52302],[91.09656,56.52767],[91.02141,56.53429],[90.95199,56.5349],[90.95188,56.52828],[90.93,56.52745],[90.91542,56.53896],[90.85933,56.54273],[90.85158,56.53889],[90.86952,56.52587],[90.84121,56.52057],[90.84027,56.50589],[90.82735,56.50583],[90.81155,56.49806],[90.78904,56.4961],[90.76611,56.49754],[90.72336,56.49182],[90.71971,56.4672],[90.73332,56.45708],[90.70588,56.45037],[90.69619,56.44283],[90.68071,56.43823],[90.68316,56.42529],[90.67675,56.4183],[90.60836,56.40478],[90.58292,56.40554],[90.53763,56.38946],[90.52513,56.38084],[90.49424,56.37658],[90.47937,56.36103],[90.46358,56.36485],[90.45412,56.38305],[90.43884,56.38857],[90.44725,56.39493],[90.42352,56.41024],[90.4036,56.41959],[90.40016,56.42985],[90.40995,56.44589],[90.42334,56.45452],[90.43621,56.45272],[90.43656,56.42994],[90.48222,56.44513],[90.44926,56.46808],[90.47432,56.48894],[90.45269,56.50789],[90.45592,56.52026],[90.44466,56.52766],[90.43297,56.52161],[90.4091,56.51539],[90.41351,56.50674],[90.40726,56.49218],[90.39285,56.48543],[90.39329,56.47814],[90.35977,56.4652],[90.35846,56.45685],[90.32467,56.45458],[90.30108,56.45035],[90.26158,56.48469],[90.24186,56.48],[90.21597,56.47962],[90.2063,56.48679],[90.18701,56.48456],[90.17509,56.48825],[90.15125,56.4876],[90.10858,56.47224],[90.07113,56.50445],[90.03192,56.49039],[90.02181,56.49862],[89.97797,56.49312],[89.98454,56.46587],[90.02063,56.43891],[90.03905,56.42036],[90.05151,56.41937],[90.06034,56.39414],[90.07284,56.39774],[90.14542,56.39473],[90.18054,56.36534],[90.15474,56.34186],[90.14311,56.33793],[90.17624,56.29785],[90.2019,56.27316],[90.21168,56.2589],[90.20799,56.24977],[90.19487,56.24344],[90.18457,56.21468],[90.20148,56.20953],[90.20784,56.17943],[90.07364,56.1513],[90.04484,56.10016]],[[90.30713,56.21414],[90.31137,56.22327],[90.33226,56.22911],[90.35595,56.21891],[90.35995,56.22325],[90.38777,56.21884],[90.39626,56.23201],[90.37748,56.23611],[90.38417,56.24283],[90.3745,56.25358],[90.38759,56.26078],[90.41578,56.25584],[90.41822,56.24732],[90.43953,56.24405],[90.43663,56.25955],[90.4114,56.26431],[90.40085,56.26273],[90.373,56.26544],[90.36159,56.27727],[90.37882,56.28568],[90.38754,56.28128],[90.41508,56.28027],[90.43077,56.27274],[90.45263,56.28312],[90.4542,56.29453],[90.46813,56.29788],[90.47484,56.30817],[90.47146,56.31571],[90.45652,56.32723],[90.49249,56.3208],[90.49715,56.31247],[90.51241,56.3058],[90.5386,56.31084],[90.54587,56.30563],[90.54331,56.27599],[90.55586,56.26729],[90.56007,56.25829],[90.54325,56.25774],[90.53889,56.23468],[90.51402,56.2321],[90.50967,56.2207],[90.49582,56.21231],[90.4967,56.20263],[90.4612,56.21082],[90.43507,56.21499],[90.42192,56.22268],[90.40155,56.21515],[90.37416,56.22006],[90.37692,56.197],[90.34196,56.19138],[90.31004,56.19723],[90.30713,56.21414]]]}}