{"type":"Feature","properties":{"id":"RUS.59.38","name":"Chistopolsky District","level":2,"country":"RUS"},"geometry":{"type":"MultiPolygon","coordinates":[[[[50.29732,55.40753],[50.30913,55.38953],[50.33163,55.3746],[50.33242,55.35638],[50.31361,55.3335],[50.31203,55.32515],[50.33628,55.31494],[50.33718,55.30677],[50.38747,55.29044],[50.35822,55.26931],[50.34416,55.2692],[50.33448,55.261],[50.29579,55.24155],[50.30606,55.23046],[50.29193,55.22516],[50.29466,55.21446],[50.33188,55.22542],[50.33822,55.21528],[50.30382,55.20594],[50.30424,55.19984],[50.27593,55.18156],[50.29675,55.17955],[50.32502,55.18041],[50.34908,55.18365],[50.34771,55.17497],[50.3231,55.15738],[50.3471,55.15127],[50.35862,55.14077],[50.37697,55.13461],[50.38413,55.11868],[50.41419,55.11812],[50.41258,55.11048],[50.42806,55.10391],[50.46089,55.11938],[50.47303,55.1083],[50.49548,55.10515],[50.50938,55.08568],[50.52465,55.08179],[50.52604,55.0689],[50.55022,55.05111],[50.55937,55.0586],[50.59533,55.04519],[50.62032,55.05407],[50.64946,55.069],[50.68077,55.06736],[50.69835,55.06178],[50.70569,55.06454],[50.71618,55.04652],[50.72854,55.03358],[50.75081,55.03609],[50.75137,55.04384],[50.77051,55.04303],[50.77782,55.04866],[50.79502,55.0438],[50.83068,55.04337],[50.82118,55.05215],[50.81817,55.06294],[50.82994,55.07958],[50.82462,55.08354],[50.82592,55.09855],[50.83729,55.10322],[50.87932,55.10286],[50.88225,55.11322],[50.93803,55.12487],[50.93953,55.11576],[50.95181,55.11607],[50.93759,55.15154],[50.93882,55.16325],[50.96741,55.19515],[51.03252,55.20127],[51.03241,55.23896],[51.02478,55.2484],[51.02466,55.2655],[51.03634,55.27733],[51.03775,55.29301],[51.07845,55.29683],[51.07508,55.30913],[51.1187,55.32913],[51.12382,55.33836],[51.1081,55.34616],[51.10995,55.35756],[51.10747,55.37819],[51.14835,55.37498],[51.19791,55.37398],[51.23116,55.3844],[51.23566,55.39285],[51.2228,55.39584],[51.22016,55.40464],[51.20906,55.41692],[51.19528,55.41406],[51.19373,55.42878],[51.17997,55.42766],[51.17583,55.41391],[51.15683,55.41832],[51.19421,55.43959],[51.19464,55.44611],[51.17238,55.4472],[51.1557,55.45952],[51.14051,55.46193],[51.12909,55.45541],[51.10227,55.44949],[51.08194,55.45267],[51.06327,55.461],[51.04883,55.4562],[51.01184,55.45497],[50.99859,55.44199],[50.98123,55.45427],[50.99172,55.46055],[50.9861,55.47156],[50.95598,55.48129],[50.91172,55.49089],[50.8938,55.49329],[50.84895,55.49438],[50.83309,55.49232],[50.80853,55.48355],[50.77384,55.46304],[50.74387,55.45257],[50.7172,55.43792],[50.69371,55.42037],[50.64698,55.40272],[50.62228,55.38763],[50.5996,55.38087],[50.5859,55.3816],[50.55327,55.39101],[50.53187,55.3935],[50.53195,55.42095],[50.52018,55.42537],[50.4819,55.42823],[50.4665,55.41997],[50.46199,55.41276],[50.46366,55.39819],[50.43965,55.39539],[50.40493,55.40264],[50.38876,55.41052],[50.32431,55.41409],[50.29732,55.40753]]],[[[51.2447,55.46409],[51.22699,55.45499],[51.23258,55.44171],[51.24529,55.43917],[51.2447,55.46409]]]]}}