{"type":"Feature","properties":{"id":"RUS.78.14","name":"Verkhnekolymsky Ulus","level":2,"country":"RUS"},"geometry":{"type":"Polygon","coordinates":[[[147.84861,67.38684],[147.9699,67.35593],[148.05461,67.34016],[148.04738,67.30606],[148.02151,67.26618],[148.02899,67.23296],[148.09781,67.24062],[148.14826,67.23437],[148.22951,67.24851],[148.27363,67.24301],[148.35364,67.22221],[148.39613,67.18991],[148.3717,67.16065],[148.34714,67.13949],[148.38528,67.11043],[148.31331,67.07369],[148.29314,67.04929],[148.30624,67.0234],[148.32978,66.99349],[148.32193,66.97563],[148.26781,66.90974],[148.27645,66.89519],[148.29751,66.87906],[148.35516,66.88252],[148.41852,66.90949],[148.42708,66.89493],[148.44931,66.81394],[148.53451,66.75988],[148.55554,66.72752],[148.52129,66.6942],[148.36815,66.68154],[148.22302,66.6785],[148.11545,66.65444],[148.02787,66.64664],[147.91903,66.61189],[147.83128,66.61209],[147.73051,66.58699],[147.64123,66.54163],[147.46353,66.48564],[147.37965,66.4637],[147.37694,66.44652],[147.36415,66.43084],[147.375,66.41888],[147.34397,66.40332],[147.37102,66.37062],[147.36875,66.28571],[147.39831,66.26055],[147.40399,66.23765],[147.30838,66.20167],[147.26274,66.19385],[147.28083,66.16484],[147.24,66.11893],[147.20178,66.09414],[147.20053,66.05679],[147.22828,66.03198],[147.28193,66.00665],[147.31306,65.95995],[147.40777,65.91072],[147.49248,65.85729],[147.58233,65.81117],[147.66454,65.79007],[147.74207,65.78024],[147.78175,65.73762],[147.81825,65.71686],[147.87328,65.67759],[147.8778,65.67219],[147.91518,65.66415],[147.96223,65.66614],[148.03959,65.64806],[148.08134,65.63458],[148.21139,65.61758],[148.21224,65.59328],[148.19914,65.57619],[148.19656,65.5389],[148.23217,65.52616],[148.27095,65.53448],[148.33167,65.52914],[148.34556,65.52193],[148.39447,65.51812],[148.4438,65.49811],[148.43082,65.47294],[148.45868,65.45039],[148.47688,65.42374],[148.52842,65.38185],[148.54443,65.36086],[148.52957,65.33327],[148.50268,65.32344],[148.48373,65.30716],[148.51533,65.28139],[148.54462,65.26936],[148.60448,65.27203],[148.67598,65.27308],[148.69776,65.2432],[148.72517,65.22061],[148.73191,65.16316],[148.75921,65.14057],[148.79801,65.11639],[148.82699,65.10432],[148.82521,65.0938],[148.7467,65.08307],[148.73933,65.06524],[148.76077,65.04344],[148.7131,65.03116],[148.6885,65.01569],[148.69674,64.98496],[148.72003,64.96562],[148.66103,64.95489],[148.64803,64.93784],[148.61764,64.93125],[148.56985,64.93509],[148.50849,64.94615],[148.41561,64.92382],[148.39262,64.92693],[148.36047,64.91784],[148.36465,64.90653],[148.33882,64.88047],[148.37064,64.83855],[148.36413,64.8045],[148.33969,64.79707],[148.27643,64.81368],[148.24085,64.79967],[148.26099,64.71641],[148.27841,64.706],[148.30332,64.69725],[148.25618,64.69289],[148.27028,64.6695],[148.28586,64.65665],[148.2101,64.61321],[148.17338,64.58865],[148.19108,64.57016],[148.27653,64.55052],[148.32762,64.52808],[148.38541,64.52954],[148.40445,64.52096],[148.42434,64.51961],[148.44487,64.52355],[148.45954,64.50965],[148.5012,64.50981],[148.52076,64.50327],[148.52503,64.49605],[148.51189,64.4851],[148.53016,64.48035],[148.54971,64.46632],[148.55571,64.45036],[148.58286,64.4419],[148.60709,64.44368],[148.61865,64.43401],[148.6635,64.41622],[148.68175,64.41616],[148.70872,64.4022],[148.75872,64.40572],[148.77282,64.41252],[148.79451,64.41441],[148.81592,64.40918],[148.85167,64.41876],[148.86596,64.41106],[148.89311,64.41964],[148.92354,64.42125],[148.93473,64.43214],[148.96694,64.43046],[148.98424,64.42272],[149.0261,64.43083],[149.04114,64.43147],[149.08053,64.42344],[149.11534,64.41943],[149.13799,64.42651],[149.16427,64.42642],[149.19236,64.41919],[149.17861,64.40736],[149.19364,64.39907],[149.18902,64.39081],[149.19521,64.38182],[149.21633,64.37802],[149.23034,64.37993],[149.25862,64.37697],[149.29178,64.37942],[149.33949,64.37675],[149.36662,64.38022],[149.37043,64.38983],[149.34564,64.40276],[149.34383,64.41121],[149.36094,64.42002],[149.39554,64.41404],[149.42266,64.41268],[149.44513,64.41638],[149.47475,64.40408],[149.50114,64.40501],[149.51168,64.42588],[149.53023,64.4325],[149.56086,64.435],[149.56062,64.45003],[149.57824,64.46102],[149.58144,64.47173],[149.62188,64.48437],[149.64801,64.49044],[149.65443,64.49878],[149.67997,64.50073],[149.69919,64.51275],[149.73678,64.51905],[149.7433,64.53143],[149.76078,64.53651],[149.77279,64.547],[149.80483,64.54811],[149.83124,64.55373],[149.83937,64.56098],[149.87126,64.56237],[149.8969,64.55679],[149.91002,64.54946],[149.92443,64.55274],[149.96034,64.54772],[149.97822,64.54209],[149.97508,64.52681],[149.99889,64.50728],[149.99419,64.49608],[150.02807,64.49754],[150.08357,64.48492],[150.10145,64.48254],[150.10814,64.47531],[150.14116,64.46497],[150.14022,64.4476],[150.11969,64.43752],[150.13159,64.43288],[150.11927,64.42319],[150.10516,64.42149],[150.06628,64.40343],[150.07867,64.39667],[150.0777,64.38643],[150.04402,64.36776],[150.03121,64.36827],[150.01677,64.35093],[150.04205,64.34526],[150.04105,64.33198],[150.05017,64.32225],[150.0789,64.31866],[150.07928,64.30726],[150.09128,64.30251],[150.08369,64.2928],[150.0961,64.28015],[150.11247,64.28179],[150.2098,64.2589],[150.21038,64.24365],[150.19789,64.23896],[150.19625,64.22686],[150.21097,64.21883],[150.22298,64.22013],[150.237,64.21226],[150.25285,64.21469],[150.27043,64.20932],[150.28379,64.21349],[150.31251,64.20838],[150.33653,64.21666],[150.37515,64.21492],[150.41387,64.20635],[150.43229,64.20466],[150.45355,64.19285],[150.48069,64.18507],[150.49617,64.18718],[150.51863,64.18275],[150.54098,64.16881],[150.56603,64.16876],[150.57833,64.17597],[150.63691,64.17087],[150.65081,64.16754],[150.66168,64.17585],[150.65888,64.18643],[150.66829,64.1927],[150.64831,64.2099],[150.64261,64.2224],[150.66394,64.23147],[150.66184,64.24177],[150.67533,64.25178],[150.67533,64.268],[150.65132,64.2821],[150.62819,64.2904],[150.59521,64.2923],[150.58689,64.30457],[150.60299,64.31286],[150.63959,64.33774],[150.66366,64.33979],[150.71832,64.33139],[150.74035,64.33327],[150.79589,64.32705],[150.88629,64.33005],[150.91677,64.33428],[150.95556,64.33198],[151.00224,64.33393],[151.01046,64.33949],[151.04907,64.3517],[151.08373,64.34647],[151.15095,64.35791],[151.16718,64.35924],[151.22588,64.35461],[151.2517,64.34415],[151.27316,64.35669],[151.29766,64.35751],[151.31384,64.36232],[151.32648,64.37264],[151.3717,64.36641],[151.37839,64.34342],[151.38906,64.33033],[151.41022,64.33062],[151.41986,64.34837],[151.4184,64.35793],[151.43863,64.36945],[151.44823,64.38329],[151.47922,64.38857],[151.47718,64.40883],[151.48148,64.41951],[151.49687,64.42581],[151.53711,64.43091],[151.60523,64.43507],[151.81363,64.47006],[151.87924,64.47157],[151.88609,64.46891],[151.92094,64.47413],[151.95247,64.48618],[151.97258,64.48909],[151.99147,64.47529],[152.01758,64.47734],[152.04776,64.46792],[152.07344,64.43669],[152.09088,64.43294],[152.08272,64.4222],[152.10185,64.41668],[152.09949,64.40907],[152.11516,64.39545],[152.14417,64.38458],[152.12471,64.37135],[152.13162,64.35661],[152.15042,64.35114],[152.17382,64.35638],[152.2162,64.35952],[152.23721,64.3525],[152.2555,64.35515],[152.26847,64.37225],[152.28536,64.37625],[152.31723,64.37362],[152.33217,64.36804],[152.36565,64.38404],[152.41638,64.38407],[152.4448,64.38941],[152.44742,64.39553],[152.42781,64.40816],[152.44504,64.41844],[152.44951,64.42807],[152.44429,64.44176],[152.42328,64.45397],[152.43551,64.46778],[152.40307,64.49211],[152.38104,64.49831],[152.37284,64.50783],[152.35891,64.50825],[152.37681,64.5329],[152.39884,64.52818],[152.44235,64.53732],[152.48071,64.55022],[152.48794,64.56229],[152.53846,64.56169],[152.56672,64.57264],[152.59848,64.58175],[152.60763,64.59845],[152.62377,64.61031],[152.65471,64.61305],[152.67148,64.62104],[152.72706,64.62318],[152.73521,64.63886],[152.76366,64.64562],[152.78372,64.66464],[152.80701,64.66906],[152.82842,64.67822],[152.82878,64.68754],[152.84728,64.70139],[152.83183,64.7098],[152.81084,64.73572],[152.77714,64.74582],[152.75939,64.75737],[152.74979,64.77308],[152.71492,64.78287],[152.69727,64.79281],[152.65378,64.80885],[152.63699,64.80389],[152.61177,64.8056],[152.58592,64.81129],[152.58484,64.83574],[152.56107,64.84903],[152.56132,64.85912],[152.54895,64.8646],[152.54984,64.88615],[152.51871,64.91638],[152.52249,64.92435],[152.54104,64.93539],[152.52796,64.94746],[152.51931,64.97663],[152.52574,64.99386],[152.5677,65.00046],[152.57862,65.01615],[152.56866,65.02509],[152.59001,65.03334],[152.60715,65.05202],[152.63022,65.06051],[152.6468,65.08281],[152.64992,65.10258],[152.64496,65.11503],[152.65632,65.13043],[152.656,65.1442],[152.66272,65.1705],[152.67615,65.18039],[152.70511,65.17896],[152.71609,65.18242],[152.72738,65.19705],[152.71277,65.21518],[152.73301,65.22709],[152.7654,65.22862],[152.79782,65.20683],[152.85118,65.2212],[152.87563,65.22448],[152.87644,65.23321],[152.90555,65.24439],[152.90878,65.25068],[152.94148,65.25544],[152.9735,65.24299],[153.00946,65.24821],[153.04501,65.25664],[153.11926,65.26419],[153.153,65.24386],[153.17034,65.25441],[153.18347,65.27024],[153.19246,65.29741],[153.23554,65.30827],[153.28299,65.31353],[153.3391,65.3279],[153.3842,65.33384],[153.40547,65.34602],[153.43992,65.35809],[153.45839,65.35727],[153.50053,65.34574],[153.51181,65.36279],[153.53079,65.36605],[153.55989,65.38381],[153.56672,65.39654],[153.58829,65.39967],[153.59007,65.40945],[153.58232,65.41939],[153.55887,65.42939],[153.5619,65.43745],[153.54996,65.44646],[153.50034,65.46272],[153.46189,65.45987],[153.44131,65.48349],[153.46103,65.49987],[153.47055,65.52857],[153.46947,65.54032],[153.48728,65.55054],[153.49286,65.56553],[153.49022,65.58501],[153.50729,65.6002],[153.5406,65.63558],[153.5105,65.65396],[153.51493,65.667],[153.54829,65.67666],[153.57708,65.68984],[153.58058,65.69796],[153.57181,65.71212],[153.55677,65.71615],[153.54824,65.72876],[153.52368,65.73342],[153.48671,65.7463],[153.48379,65.75236],[153.50934,65.77424],[153.52239,65.79099],[153.53367,65.79825],[153.53116,65.80959],[153.54652,65.81755],[153.57365,65.82095],[153.59308,65.83489],[153.63592,65.84581],[153.67117,65.84192],[153.68484,65.84388],[153.69116,65.90788],[153.66729,65.9175],[153.62136,65.92536],[153.61252,65.93569],[153.62657,65.95571],[153.58193,65.97521],[153.59871,65.98686],[153.60312,66.00062],[153.57574,66.02441],[153.52955,66.03622],[153.48631,66.03828],[153.45928,66.04352],[153.35936,66.07421],[153.32384,66.09665],[153.29239,66.1072],[153.1371,66.13969],[153.10811,66.16885],[153.07241,66.1866],[153.01393,66.19955],[152.9895,66.19305],[152.95511,66.19279],[152.91918,66.20395],[152.86336,66.18878],[152.82457,66.1971],[152.8185,66.20729],[152.74854,66.20555],[152.71163,66.2109],[152.65842,66.19655],[152.64197,66.24057],[152.66304,66.26014],[152.65889,66.2838],[152.60948,66.2898],[152.56817,66.30564],[152.55718,66.32579],[152.48025,66.35846],[152.43941,66.35842],[152.35933,66.36658],[152.34643,66.3883],[152.29196,66.39103],[152.24668,66.40147],[152.21813,66.40401],[152.1631,66.40284],[152.13608,66.41364],[152.1351,66.421],[152.15417,66.44551],[152.14049,66.45159],[152.08404,66.45911],[152.07273,66.47267],[152.03492,66.47922],[152.01441,66.49682],[152.01356,66.50939],[151.99815,66.51375],[151.95699,66.54893],[151.77529,66.72407],[151.71288,66.77968],[151.60067,66.81758],[151.22506,66.91673],[150.97765,66.99209],[150.92347,67.00517],[150.91957,67.02919],[150.87527,67.03169],[150.85218,67.06367],[150.79467,67.06284],[150.76617,67.10338],[150.71347,67.11483],[150.7241,67.13674],[150.66209,67.13127],[150.60365,67.14738],[150.57603,67.16431],[150.53144,67.15241],[150.5102,67.17622],[150.44914,67.18612],[150.41073,67.17722],[150.39182,67.19287],[150.35045,67.18437],[150.34134,67.21423],[150.27113,67.20713],[150.24577,67.23403],[150.24813,67.2402],[150.19442,67.24375],[150.22378,67.26826],[150.17809,67.27328],[150.20277,67.28545],[150.17597,67.28916],[150.18279,67.3038],[150.13099,67.32787],[150.11416,67.34961],[150.11007,67.36705],[150.08742,67.37535],[150.08544,67.39509],[150.04806,67.39112],[150.00034,67.40153],[149.99935,67.42243],[149.96387,67.41688],[149.93866,67.43717],[149.88588,67.42746],[149.79274,67.41412],[149.67255,67.40047],[149.5177,67.40042],[149.35884,67.49389],[149.29332,67.49989],[149.23098,67.51709],[149.06931,67.52515],[149.04821,67.5395],[149.08381,67.55687],[149.03645,67.58364],[148.99595,67.59143],[148.99311,67.61892],[148.98017,67.65804],[148.9325,67.6848],[148.8551,67.68948],[148.8113,67.67826],[148.77263,67.66508],[148.72681,67.67087],[148.6892,67.65884],[148.60564,67.67192],[148.57434,67.64748],[148.5368,67.63928],[148.52573,67.63035],[148.49129,67.62177],[148.44647,67.62864],[148.36615,67.62959],[148.2191,67.61555],[148.15421,67.61064],[148.0618,67.60906],[148.01282,67.61502],[147.93984,67.63672],[147.94849,67.64071],[147.82269,67.6455],[147.80174,67.63725],[147.80317,67.60481],[147.86764,67.58898],[147.9,67.577],[147.93124,67.53824],[147.95165,67.50347],[147.89044,67.44632],[147.88272,67.42843],[147.84861,67.38684]]]}}