{"type":"Feature","properties":{"id":"RUS.47.5","name":"городской округ Муравленко","level":2,"country":"RUS"},"geometry":{"type":"Polygon","coordinates":[[[74.39546,63.86562],[74.41063,63.82795],[74.41051,63.79828],[74.43449,63.7776],[74.4784,63.77346],[74.53243,63.76397],[74.52713,63.73697],[74.56709,63.71317],[74.60079,63.71433],[74.64626,63.77439],[74.65834,63.77886],[74.65871,63.80853],[74.66366,63.83307],[74.61772,63.82745],[74.57423,63.83409],[74.54547,63.83025],[74.48212,63.84998],[74.45112,63.86352],[74.40055,63.86295],[74.39546,63.86562]]]}}