{"type":"Feature","properties":{"id":"RUS.84.12","name":"Askinsky District","level":2,"country":"RUS"},"geometry":{"type":"Polygon","coordinates":[[[56.15439,56.16901],[56.15817,56.16563],[56.13675,56.12537],[56.13757,56.11277],[56.21592,56.10385],[56.21687,56.11392],[56.24236,56.1176],[56.25394,56.10593],[56.21532,56.10029],[56.21878,56.08859],[56.23376,56.08027],[56.24284,56.06911],[56.25271,56.06881],[56.27928,56.05105],[56.30603,56.03704],[56.28163,56.02861],[56.2847,56.01787],[56.26586,56.02127],[56.24551,56.00662],[56.24528,55.9884],[56.2674,55.99335],[56.2849,55.97999],[56.28118,55.9744],[56.31455,55.96938],[56.31689,55.95564],[56.34282,55.95264],[56.33278,55.93587],[56.34744,55.9242],[56.35306,55.9152],[56.38967,55.88597],[56.38648,55.87908],[56.419,55.90101],[56.42638,55.92174],[56.53301,55.90737],[56.56053,55.91492],[56.55616,55.92596],[56.57681,55.93353],[56.60657,55.92574],[56.64807,55.93195],[56.66003,55.94523],[56.68426,55.9602],[56.71208,55.95944],[56.72739,55.96827],[56.74715,55.95135],[56.75994,55.94971],[56.79004,55.98028],[56.83374,55.96575],[56.86382,55.9695],[56.87218,55.96488],[56.93918,55.95591],[56.95121,55.95244],[56.95903,55.96656],[56.97174,55.97137],[56.98722,55.94207],[56.97797,55.9247],[56.98704,55.91581],[57.00012,55.91321],[56.99068,55.89461],[57.01104,55.89669],[57.01774,55.90642],[57.0408,55.92098],[57.04724,55.93868],[57.06176,55.94504],[57.08641,55.94551],[57.09801,55.95512],[57.1218,55.95077],[57.11585,55.94488],[57.15166,55.93626],[57.1759,55.94311],[57.19714,55.95799],[57.18099,55.96986],[57.17383,55.98733],[57.18119,56.00633],[57.20224,56.00915],[57.20325,56.01918],[57.25244,56.03116],[57.26613,56.03666],[57.27142,56.05831],[57.29469,56.06177],[57.32813,56.0455],[57.33078,56.03776],[57.30174,56.02598],[57.29562,56.01015],[57.32339,55.99932],[57.3374,55.98756],[57.35161,55.98194],[57.37161,55.98508],[57.38228,56.00315],[57.424,56.01453],[57.43852,56.02177],[57.43024,56.03877],[57.44408,56.06448],[57.46572,56.07021],[57.47172,56.05127],[57.49573,56.04217],[57.51509,56.0555],[57.54138,56.05348],[57.55587,56.06854],[57.56873,56.06958],[57.58297,56.08132],[57.56099,56.09355],[57.54044,56.0953],[57.5161,56.09724],[57.51541,56.10667],[57.50413,56.10875],[57.48933,56.11977],[57.46648,56.12697],[57.46707,56.13422],[57.4792,56.13969],[57.4908,56.16516],[57.48683,56.18786],[57.50583,56.19232],[57.49838,56.2102],[57.46117,56.21527],[57.45198,56.22176],[57.45168,56.23582],[57.42001,56.25475],[57.40675,56.27208],[57.41284,56.29393],[57.4325,56.31309],[57.40624,56.34266],[57.39073,56.3315],[57.37449,56.33561],[57.34909,56.33134],[57.35318,56.32081],[57.34411,56.31528],[57.32494,56.31489],[57.31466,56.321],[57.29882,56.32084],[57.30664,56.31039],[57.28504,56.30474],[57.29364,56.29358],[57.28767,56.2883],[57.29804,56.27228],[57.24817,56.27126],[57.21929,56.24938],[57.19529,56.2506],[57.19671,56.24058],[57.20547,56.23778],[57.20649,56.21484],[57.21617,56.20855],[57.20048,56.19639],[57.2098,56.17788],[57.20379,56.16934],[57.18566,56.17175],[57.16778,56.16231],[57.14484,56.16579],[57.11419,56.15944],[57.08186,56.16157],[57.04467,56.15096],[57.04012,56.1401],[57.04596,56.12674],[57.0193,56.13173],[57.0072,56.13661],[56.98601,56.12529],[56.97006,56.12503],[56.92133,56.10388],[56.91045,56.11059],[56.88402,56.11049],[56.87335,56.12209],[56.86575,56.14978],[56.84996,56.1663],[56.83391,56.16886],[56.82254,56.16451],[56.783,56.16435],[56.7678,56.18424],[56.76838,56.19354],[56.74697,56.20961],[56.75899,56.21398],[56.74539,56.22439],[56.73142,56.22222],[56.72513,56.23084],[56.66671,56.23258],[56.6494,56.23851],[56.64118,56.24763],[56.64529,56.25829],[56.6209,56.2645],[56.59475,56.26298],[56.59713,56.27422],[56.57868,56.2905],[56.53858,56.31304],[56.52854,56.32036],[56.50625,56.34404],[56.53503,56.35019],[56.53262,56.36149],[56.57224,56.38902],[56.53263,56.39703],[56.50824,56.37848],[56.48973,56.38366],[56.47134,56.36981],[56.43148,56.38659],[56.40561,56.40535],[56.36207,56.3886],[56.37783,56.36522],[56.34722,56.36283],[56.32468,56.36521],[56.31884,56.3477],[56.32192,56.34138],[56.3016,56.33275],[56.28248,56.31562],[56.28013,56.30807],[56.26741,56.30574],[56.24285,56.31479],[56.22424,56.32503],[56.21842,56.3164],[56.202,56.31671],[56.19477,56.30255],[56.20443,56.29662],[56.19102,56.29098],[56.20139,56.28534],[56.19524,56.26463],[56.18529,56.25796],[56.16939,56.23623],[56.18129,56.22585],[56.16863,56.22026],[56.17735,56.21049],[56.17139,56.2026],[56.14972,56.19247],[56.14895,56.17795],[56.15439,56.16901]],[[57.18238,56.04496],[57.19016,56.0501],[57.20545,56.04717],[57.22952,56.04902],[57.22731,56.03976],[57.2038,56.03956],[57.18591,56.03519],[57.18238,56.04496]]]}}