{"type":"Feature","properties":{"id":"RUS.39.15","name":"Zakharovsky District","level":2,"country":"RUS"},"geometry":{"type":"Polygon","coordinates":[[[38.85041,54.54124],[38.85187,54.53341],[38.83824,54.52585],[38.81882,54.52849],[38.80822,54.52436],[38.80126,54.51496],[38.80353,54.49797],[38.78804,54.49354],[38.78194,54.47863],[38.79951,54.47006],[38.80095,54.45343],[38.82518,54.46282],[38.84122,54.4571],[38.85348,54.45735],[38.86384,54.44755],[38.87714,54.44911],[38.88035,54.44129],[38.8925,54.43931],[38.93067,54.43928],[38.9316,54.42339],[38.94065,54.40799],[38.97862,54.40817],[38.9788,54.42544],[38.99118,54.42745],[39.02177,54.4122],[39.03615,54.39545],[39.05709,54.38644],[39.06274,54.38071],[39.10342,54.36663],[39.08729,54.35218],[39.11415,54.34377],[39.12931,54.32977],[39.1463,54.3195],[39.17766,54.3136],[39.18672,54.30364],[39.2053,54.30461],[39.22422,54.29875],[39.25725,54.30254],[39.26446,54.28585],[39.27193,54.27893],[39.31736,54.28485],[39.32456,54.27114],[39.36212,54.25774],[39.36685,54.24711],[39.37739,54.2394],[39.40168,54.23891],[39.40602,54.23459],[39.42746,54.24738],[39.43208,54.26442],[39.43848,54.2667],[39.46657,54.2638],[39.48258,54.26899],[39.48827,54.27522],[39.51103,54.2746],[39.51031,54.28954],[39.52632,54.29017],[39.52489,54.29826],[39.56842,54.31778],[39.54793,54.34014],[39.53377,54.35114],[39.56224,54.37176],[39.51082,54.37719],[39.50922,54.38117],[39.52175,54.39983],[39.53294,54.42489],[39.55697,54.4191],[39.55265,54.41335],[39.5528,54.39865],[39.57549,54.39652],[39.58977,54.39839],[39.6004,54.40602],[39.63036,54.40596],[39.62866,54.42451],[39.60849,54.42501],[39.60068,54.43425],[39.56948,54.44097],[39.55706,54.4595],[39.53908,54.46744],[39.53136,54.45974],[39.51009,54.46101],[39.48752,54.45449],[39.47878,54.46253],[39.45955,54.46456],[39.44338,54.47556],[39.44353,54.4875],[39.43785,54.4957],[39.40202,54.4875],[39.37886,54.48479],[39.36152,54.48631],[39.34902,54.4917],[39.34346,54.50306],[39.33108,54.50966],[39.35133,54.51634],[39.32278,54.53232],[39.33953,54.53688],[39.33807,54.55758],[39.35759,54.56738],[39.34856,54.57084],[39.35226,54.58174],[39.3373,54.58029],[39.32691,54.58852],[39.31642,54.58122],[39.30045,54.58067],[39.28864,54.56573],[39.26936,54.56967],[39.24295,54.579],[39.2139,54.57235],[39.21232,54.55786],[39.16916,54.55332],[39.17959,54.53672],[39.20162,54.52386],[39.20464,54.50662],[39.22541,54.51424],[39.23945,54.50818],[39.23667,54.49683],[39.21205,54.47678],[39.19627,54.47274],[39.18143,54.48173],[39.16925,54.47476],[39.14529,54.47096],[39.13577,54.48454],[39.12082,54.48452],[39.11386,54.50207],[39.09667,54.51178],[39.09289,54.53185],[39.06976,54.53355],[39.0689,54.5263],[39.0215,54.52604],[39.02179,54.53539],[38.99083,54.54223],[38.97142,54.55308],[38.9489,54.55607],[38.94107,54.55264],[38.92656,54.55699],[38.8962,54.53884],[38.86762,54.53175],[38.864,54.54173],[38.85041,54.54124]]]}}