{"type":"Feature","properties":{"id":"RUS.15.10","name":"Kurortny","level":2,"country":"RUS"},"geometry":{"type":"Polygon","coordinates":[[[29.75802,60.2427],[29.71186,60.24078],[29.7199,60.22592],[29.69525,60.23474],[29.64396,60.24219],[29.63704,60.23368],[29.60267,60.23379],[29.58242,60.2213],[29.53366,60.22171],[29.52124,60.22572],[29.52151,60.23347],[29.4822,60.22101],[29.42718,60.19244],[29.46865,60.18524],[29.44101,60.17734],[29.4499,60.17109],[29.52455,60.18294],[29.54226,60.19395],[29.59331,60.19715],[29.77019,60.18036],[29.90979,60.15071],[29.92783,60.1427],[29.94513,60.11172],[29.94395,60.09925],[29.92258,60.09095],[29.94569,60.07136],[29.93737,60.05716],[29.95064,60.04002],[29.97456,60.04398],[29.98006,60.03566],[30.00958,60.02168],[30.04645,60.01082],[30.04248,60.00696],[30.07,60.00287],[30.08,60.00758],[30.0791,60.02717],[30.14619,60.03472],[30.13125,60.05112],[30.13322,60.07264],[30.11913,60.07001],[30.07078,60.09625],[30.08796,60.1076],[30.10819,60.10657],[30.11145,60.11331],[30.13373,60.11218],[30.13867,60.11853],[30.17336,60.11324],[30.19387,60.1173],[30.18961,60.11823],[30.19326,60.12777],[30.17159,60.12877],[30.16395,60.13001],[30.05955,60.13602],[30.01802,60.14429],[30.02062,60.15101],[30.0039,60.16551],[29.99268,60.16296],[29.98062,60.17269],[29.89263,60.18909],[29.89265,60.19508],[29.84912,60.19729],[29.80188,60.22125],[29.77774,60.22575],[29.75802,60.2427]]]}}