{"type":"Feature","properties":{"id":"RUS.26.5","name":"Ulyanovsky District","level":2,"country":"RUS"},"geometry":{"type":"Polygon","coordinates":[[[35.91753,53.77708],[35.92564,53.79155],[35.91546,53.81446],[35.89305,53.80967],[35.87108,53.81297],[35.85651,53.81149],[35.83323,53.81421],[35.82476,53.80426],[35.80089,53.80285],[35.80568,53.79505],[35.80045,53.7854],[35.76607,53.7976],[35.76296,53.80773],[35.74139,53.81728],[35.73425,53.8153],[35.7059,53.83059],[35.70874,53.846],[35.66745,53.86621],[35.66382,53.85952],[35.64012,53.85724],[35.62975,53.87234],[35.62805,53.8874],[35.61531,53.88573],[35.58085,53.89813],[35.56257,53.89809],[35.54698,53.89321],[35.53818,53.89558],[35.51982,53.88566],[35.50267,53.885],[35.48726,53.89001],[35.48821,53.90277],[35.47592,53.89228],[35.48481,53.8813],[35.41519,53.87336],[35.40731,53.86384],[35.39561,53.86253],[35.38924,53.87333],[35.37064,53.88442],[35.35093,53.88373],[35.33964,53.86905],[35.33108,53.85844],[35.30581,53.83441],[35.29065,53.82897],[35.2816,53.83471],[35.24898,53.82633],[35.25647,53.8231],[35.25489,53.81327],[35.26228,53.79637],[35.25095,53.769],[35.24047,53.75365],[35.24267,53.7468],[35.23051,53.74044],[35.19937,53.7352],[35.18151,53.72587],[35.16442,53.72664],[35.15973,53.71946],[35.16494,53.6931],[35.17646,53.67881],[35.19722,53.67091],[35.20559,53.66189],[35.22276,53.65608],[35.24664,53.65504],[35.25923,53.64915],[35.25529,53.64017],[35.26923,53.63694],[35.29155,53.64051],[35.30706,53.64635],[35.32015,53.64566],[35.33075,53.62738],[35.33194,53.61626],[35.31977,53.60514],[35.33406,53.59819],[35.33916,53.58946],[35.33705,53.5723],[35.32249,53.56281],[35.33018,53.55614],[35.34148,53.53756],[35.35976,53.53696],[35.43366,53.57697],[35.43654,53.5882],[35.46471,53.58878],[35.47349,53.582],[35.49122,53.57981],[35.47704,53.56885],[35.46434,53.57212],[35.45328,53.56256],[35.46172,53.55245],[35.44466,53.54335],[35.44845,53.53324],[35.4618,53.53903],[35.47848,53.53006],[35.51074,53.52354],[35.50854,53.53822],[35.48152,53.54494],[35.48922,53.55624],[35.51565,53.55205],[35.52761,53.55627],[35.54869,53.55441],[35.54428,53.54595],[35.55726,53.53495],[35.55112,53.52319],[35.53399,53.52115],[35.54028,53.51187],[35.56305,53.51693],[35.58389,53.51336],[35.59802,53.51956],[35.62327,53.52386],[35.61404,53.53242],[35.62967,53.54159],[35.68512,53.54541],[35.70012,53.53013],[35.69842,53.52085],[35.71122,53.51878],[35.72387,53.5224],[35.75828,53.52033],[35.77206,53.50595],[35.79496,53.52476],[35.79439,53.5399],[35.80917,53.55066],[35.80913,53.56428],[35.82359,53.57344],[35.82252,53.58765],[35.8459,53.58931],[35.87414,53.59819],[35.878,53.60729],[35.89064,53.616],[35.90911,53.64065],[35.92783,53.64038],[35.94233,53.65108],[35.95448,53.64713],[35.94939,53.63854],[35.96064,53.62516],[35.99119,53.62627],[35.99633,53.63298],[35.99254,53.64142],[36.00327,53.65976],[36.03371,53.67498],[36.04889,53.67966],[36.074,53.68186],[36.07074,53.6995],[36.05242,53.71576],[36.04101,53.70951],[36.03043,53.71204],[36.02875,53.72616],[35.99969,53.721],[35.97458,53.72378],[35.95741,53.71956],[35.95403,53.74733],[35.93345,53.75278],[35.92295,53.76314],[35.91753,53.77708]]]}}