{"type":"Feature","properties":{"id":"RUS.80.3","name":"Verkhnebureinsky District","level":2,"country":"RUS"},"geometry":{"type":"Polygon","coordinates":[[[134.59357,52.4234],[134.58502,52.42898],[134.56394,52.42706],[134.55247,52.4304],[134.54386,52.4239],[134.52215,52.42474],[134.50472,52.43252],[134.5019,52.44664],[134.49314,52.45765],[134.46798,52.46453],[134.45614,52.46496],[134.44297,52.45802],[134.43736,52.46762],[134.39906,52.4661],[134.38556,52.47285],[134.37209,52.4696],[134.34757,52.47238],[134.33609,52.45885],[134.30573,52.45766],[134.29133,52.46188],[134.28407,52.47208],[134.26529,52.47072],[134.22894,52.49538],[134.21167,52.49703],[134.20549,52.50248],[134.16719,52.51357],[134.14706,52.49671],[134.11796,52.49131],[134.11307,52.48283],[134.09338,52.48458],[134.08027,52.5011],[134.0693,52.5024],[134.0538,52.49818],[134.0432,52.50358],[134.04059,52.51571],[134.00913,52.52902],[134.00784,52.53741],[133.99851,52.54036],[133.96725,52.53072],[133.95438,52.53079],[133.94101,52.5126],[133.90183,52.51995],[133.8697,52.51449],[133.85485,52.54344],[133.83747,52.55665],[133.81914,52.56674],[133.79387,52.56158],[133.78652,52.55509],[133.77593,52.55832],[133.76521,52.56845],[133.73624,52.56694],[133.70848,52.55865],[133.69563,52.56535],[133.68977,52.57546],[133.65965,52.58153],[133.64546,52.58132],[133.63208,52.59065],[133.61678,52.59107],[133.61561,52.5985],[133.60083,52.60389],[133.58651,52.61558],[133.56575,52.61341],[133.55585,52.6179],[133.53375,52.61696],[133.50934,52.62111],[133.50334,52.62836],[133.5011,52.64178],[133.48565,52.63938],[133.47183,52.64606],[133.45752,52.64052],[133.42549,52.65252],[133.41112,52.64758],[133.39291,52.66293],[133.37975,52.6676],[133.36315,52.66289],[133.3536,52.67244],[133.31719,52.68107],[133.29007,52.67621],[133.27899,52.68436],[133.26214,52.68223],[133.25122,52.66894],[133.23657,52.63906],[133.22928,52.61667],[133.233,52.60856],[133.24733,52.60318],[133.24523,52.58919],[133.25264,52.58064],[133.24532,52.55787],[133.25475,52.55092],[133.28492,52.54701],[133.30075,52.52918],[133.29596,52.50944],[133.27703,52.50063],[133.28722,52.49007],[133.27497,52.48831],[133.27022,52.4805],[133.23898,52.46764],[133.23717,52.45014],[133.26019,52.43343],[133.26098,52.42481],[133.2902,52.42352],[133.30467,52.41129],[133.31427,52.39764],[133.31469,52.38151],[133.30698,52.36111],[133.32626,52.34619],[133.33766,52.32188],[133.36787,52.30708],[133.3778,52.30933],[133.40087,52.30014],[133.40225,52.28277],[133.41406,52.27078],[133.43142,52.25817],[133.41938,52.24927],[133.4242,52.24219],[133.42045,52.2337],[133.39424,52.22546],[133.37925,52.23262],[133.37079,52.2255],[133.35918,52.22367],[133.34746,52.21285],[133.32669,52.20856],[133.32436,52.19049],[133.3007,52.19023],[133.28856,52.18478],[133.27746,52.18613],[133.2322,52.17652],[133.20603,52.18948],[133.19316,52.18333],[133.17135,52.16245],[133.1477,52.16822],[133.13814,52.17885],[133.12185,52.16705],[133.10595,52.16254],[133.0927,52.15313],[133.05783,52.17504],[133.04213,52.17481],[133.03825,52.16506],[133.02612,52.16042],[133.0049,52.1612],[132.98804,52.16737],[132.95925,52.16679],[132.96285,52.15941],[132.95045,52.14947],[132.93647,52.14774],[132.9059,52.1587],[132.89168,52.15762],[132.88323,52.16391],[132.86341,52.16754],[132.85442,52.18104],[132.83132,52.18483],[132.81813,52.18341],[132.80799,52.17571],[132.819,52.17208],[132.81821,52.16282],[132.80463,52.15231],[132.7858,52.14358],[132.75933,52.12205],[132.73665,52.11671],[132.72625,52.12185],[132.71387,52.11945],[132.70248,52.12784],[132.68249,52.11395],[132.64913,52.11499],[132.63114,52.09936],[132.62138,52.07907],[132.597,52.08208],[132.57285,52.08079],[132.56584,52.05959],[132.53614,52.04775],[132.53488,52.03059],[132.52142,52.01642],[132.5283,52.01193],[132.52919,51.9964],[132.52569,51.98984],[132.53529,51.98211],[132.52418,51.96942],[132.52146,51.95814],[132.50708,51.95404],[132.48874,51.96339],[132.48403,51.97466],[132.47151,51.97973],[132.45872,51.97749],[132.4439,51.98399],[132.42448,51.98087],[132.41204,51.9857],[132.39471,51.97828],[132.38915,51.9697],[132.41113,51.94973],[132.41781,51.94763],[132.42199,51.92418],[132.42774,51.91634],[132.41903,51.90547],[132.44293,51.89596],[132.4506,51.88568],[132.42851,51.87336],[132.41944,51.86155],[132.38566,51.84682],[132.36112,51.84877],[132.3427,51.84781],[132.31646,51.83064],[132.31764,51.82454],[132.29565,51.80743],[132.26422,51.8001],[132.25125,51.81587],[132.24846,51.8332],[132.21888,51.83978],[132.20329,51.82998],[132.18672,51.82644],[132.18083,51.81916],[132.16351,51.81184],[132.14671,51.81592],[132.13004,51.81077],[132.11666,51.78941],[132.11793,51.77855],[132.09759,51.77016],[132.08751,51.78679],[132.06571,51.80051],[132.04398,51.7928],[132.03374,51.78605],[132.00115,51.77927],[131.97778,51.76601],[131.97801,51.75494],[131.95629,51.74531],[131.93776,51.74768],[131.92099,51.74334],[131.90172,51.74917],[131.87992,51.75155],[131.87317,51.75838],[131.85849,51.75827],[131.84442,51.75099],[131.83691,51.73666],[131.80945,51.72958],[131.77988,51.70042],[131.75736,51.69863],[131.73593,51.68771],[131.71943,51.68863],[131.70223,51.69391],[131.68029,51.68234],[131.65477,51.68446],[131.6221,51.68389],[131.61368,51.67057],[131.60432,51.66596],[131.57264,51.66898],[131.54439,51.6737],[131.54037,51.68051],[131.51796,51.68182],[131.501,51.67969],[131.46287,51.68894],[131.45009,51.68629],[131.43173,51.68834],[131.41118,51.69602],[131.40091,51.69195],[131.41032,51.68349],[131.43551,51.67678],[131.43274,51.66785],[131.42157,51.66119],[131.41532,51.64971],[131.39143,51.65014],[131.3987,51.64113],[131.38653,51.62597],[131.39193,51.6142],[131.39014,51.59467],[131.40086,51.58243],[131.40119,51.57231],[131.40966,51.57006],[131.41968,51.55028],[131.42777,51.54625],[131.43042,51.53162],[131.42321,51.52689],[131.4258,51.51464],[131.43308,51.50628],[131.44667,51.50373],[131.45354,51.4933],[131.46765,51.48622],[131.47105,51.47699],[131.46688,51.46851],[131.46699,51.44769],[131.47502,51.43229],[131.47947,51.4109],[131.49614,51.38865],[131.49615,51.37996],[131.4875,51.35195],[131.49044,51.34671],[131.4774,51.34092],[131.4653,51.34373],[131.45214,51.33925],[131.43472,51.33854],[131.42966,51.34329],[131.40886,51.34527],[131.39416,51.36573],[131.38145,51.36808],[131.3756,51.37807],[131.3606,51.38938],[131.34021,51.38497],[131.31866,51.38373],[131.29876,51.37544],[131.25311,51.3633],[131.25585,51.35325],[131.24435,51.34354],[131.24361,51.33612],[131.22866,51.33228],[131.22003,51.3149],[131.2244,51.28757],[131.20567,51.28864],[131.18905,51.27431],[131.17689,51.25771],[131.16166,51.25049],[131.12419,51.26421],[131.1101,51.2672],[131.08003,51.26072],[131.05766,51.24374],[131.04286,51.23912],[131.04543,51.22016],[131.03487,51.20411],[131.02689,51.17331],[131.00677,51.17199],[130.99717,51.16448],[131.00137,51.14995],[130.98656,51.15104],[130.97155,51.14267],[130.97121,51.1303],[130.96267,51.12509],[130.95809,51.11511],[130.96783,51.09966],[130.9565,51.09087],[130.95995,51.06981],[130.95291,51.06618],[130.94553,51.05012],[130.94899,51.04269],[130.93785,51.03794],[130.92875,51.02786],[130.91901,51.032],[130.89496,51.02978],[130.88341,51.03115],[130.86156,51.02264],[130.85037,51.02347],[130.83689,51.01881],[130.80683,51.02695],[130.7955,51.02409],[130.78554,51.01294],[130.78363,51.00244],[130.76543,50.99279],[130.76922,50.97602],[130.75698,50.95627],[130.77479,50.9491],[130.7859,50.95137],[130.80116,50.94894],[130.81301,50.9293],[130.83187,50.92282],[130.83139,50.91063],[130.84328,50.90194],[130.84382,50.88962],[130.86036,50.89399],[130.88374,50.89279],[130.86778,50.87954],[130.84538,50.87912],[130.83192,50.86916],[130.81174,50.87477],[130.78739,50.86491],[130.78017,50.85063],[130.78317,50.84309],[130.77566,50.82851],[130.74059,50.8072],[130.74043,50.79543],[130.71727,50.79101],[130.7164,50.77222],[130.70744,50.7632],[130.68432,50.75413],[130.67417,50.74559],[130.68226,50.72822],[130.70307,50.72822],[130.71174,50.72167],[130.70201,50.71199],[130.70383,50.69478],[130.68878,50.68786],[130.67653,50.69107],[130.64673,50.67989],[130.64475,50.662],[130.65927,50.65424],[130.66103,50.64856],[130.67586,50.63413],[130.68532,50.63174],[130.72347,50.60595],[130.744,50.60981],[130.74223,50.62769],[130.75627,50.64312],[130.76397,50.65639],[130.79145,50.66037],[130.81681,50.65058],[130.83815,50.65542],[130.85249,50.65365],[130.86941,50.66516],[130.87925,50.66298],[130.90741,50.66954],[130.9242,50.66593],[130.93507,50.65695],[130.95659,50.65236],[130.98452,50.63797],[130.99933,50.6166],[130.99823,50.5993],[131.00559,50.59442],[131.02039,50.59303],[131.02764,50.57904],[130.99215,50.55491],[130.9843,50.55266],[130.97479,50.5395],[130.97188,50.52806],[130.94139,50.50823],[130.9332,50.4951],[130.91827,50.49041],[130.89344,50.48968],[130.88018,50.48222],[130.88391,50.47056],[130.87713,50.46169],[130.87594,50.45052],[130.89911,50.43807],[130.91065,50.44014],[130.92183,50.43323],[130.93101,50.41857],[130.92683,50.40501],[130.93069,50.39001],[130.93985,50.37273],[130.9637,50.37578],[131.006,50.39836],[131.0127,50.40937],[131.02201,50.41587],[131.01748,50.42987],[131.02719,50.43476],[131.04707,50.43346],[131.07272,50.41938],[131.08927,50.41879],[131.10601,50.42253],[131.11669,50.43216],[131.13055,50.43184],[131.14133,50.39625],[131.14903,50.38545],[131.16998,50.37126],[131.17049,50.35798],[131.17863,50.35498],[131.19843,50.35889],[131.24035,50.34845],[131.26389,50.35864],[131.2863,50.36249],[131.30484,50.37646],[131.32114,50.36346],[131.32433,50.35459],[131.31637,50.34589],[131.31005,50.32281],[131.32867,50.29685],[131.32393,50.28933],[131.34413,50.27518],[131.36101,50.27663],[131.38412,50.26538],[131.39381,50.27161],[131.41071,50.26073],[131.42151,50.25771],[131.42767,50.24009],[131.41639,50.22979],[131.41331,50.21843],[131.43201,50.20507],[131.44373,50.20221],[131.45502,50.18923],[131.4583,50.17732],[131.43381,50.1729],[131.41565,50.17483],[131.40439,50.16638],[131.39157,50.16563],[131.38882,50.15878],[131.39565,50.13234],[131.37991,50.11565],[131.37555,50.0986],[131.38236,50.08853],[131.40247,50.08193],[131.40089,50.06322],[131.42796,50.06301],[131.43007,50.05166],[131.42172,50.03648],[131.42772,50.01982],[131.42092,50.00032],[131.42405,49.99103],[131.39857,49.9815],[131.38668,49.97425],[131.40359,49.96373],[131.4189,49.96198],[131.42457,49.95359],[131.44806,49.93858],[131.47914,49.93863],[131.49186,49.92973],[131.4912,49.92225],[131.52388,49.90214],[131.51345,49.89112],[131.50248,49.86964],[131.50756,49.85924],[131.5024,49.85388],[131.50418,49.83849],[131.49399,49.82817],[131.48521,49.80754],[131.46771,49.80511],[131.46643,49.79812],[131.47874,49.79613],[131.47865,49.77995],[131.50308,49.77442],[131.51234,49.76869],[131.51486,49.76048],[131.50646,49.73835],[131.4894,49.72438],[131.471,49.72894],[131.46589,49.735],[131.44674,49.73564],[131.43777,49.72899],[131.41683,49.72133],[131.38351,49.72316],[131.36994,49.71951],[131.36012,49.70263],[131.35241,49.6988],[131.35457,49.68448],[131.36341,49.67013],[131.37551,49.66114],[131.41227,49.66496],[131.42651,49.67109],[131.44066,49.67175],[131.44915,49.66544],[131.46214,49.64868],[131.46043,49.63658],[131.48245,49.62808],[131.49388,49.62777],[131.51035,49.61486],[131.51118,49.59901],[131.5198,49.59026],[131.52409,49.57231],[131.51166,49.56205],[131.50557,49.54838],[131.51118,49.54189],[131.50878,49.52188],[131.51888,49.51203],[131.51405,49.49101],[131.50776,49.48942],[131.50352,49.47618],[131.50853,49.4706],[131.50381,49.4604],[131.51936,49.43424],[131.52788,49.42787],[131.51491,49.41327],[131.50184,49.40546],[131.48944,49.39115],[131.49082,49.38053],[131.48461,49.36579],[131.47302,49.35276],[131.47099,49.34507],[131.45365,49.33158],[131.45477,49.31364],[131.44521,49.3045],[131.44338,49.29514],[131.43578,49.28863],[131.42745,49.26524],[131.42003,49.25545],[131.43793,49.24786],[131.45832,49.24403],[131.46838,49.22967],[131.46421,49.22485],[131.47324,49.21113],[131.48737,49.20979],[131.491,49.22372],[131.50662,49.23236],[131.50487,49.24296],[131.51431,49.24904],[131.53166,49.24544],[131.55717,49.24806],[131.57319,49.25688],[131.5706,49.26659],[131.58258,49.26957],[131.60138,49.26554],[131.61713,49.27616],[131.61808,49.28858],[131.63694,49.29203],[131.65198,49.30606],[131.66849,49.31217],[131.70287,49.30374],[131.71161,49.30853],[131.72171,49.30593],[131.73716,49.31207],[131.74525,49.30816],[131.78081,49.31873],[131.80155,49.33883],[131.81878,49.3338],[131.81954,49.328],[131.83404,49.32307],[131.86183,49.29578],[131.87309,49.29222],[131.87969,49.27924],[131.89162,49.27162],[131.89804,49.27863],[131.91853,49.27358],[131.9404,49.27854],[131.95698,49.27403],[131.96647,49.26241],[131.98863,49.25589],[132.00431,49.26884],[132.00315,49.28482],[131.98178,49.28739],[131.97421,49.30828],[131.98503,49.31946],[131.99789,49.32608],[132.02277,49.32922],[132.02356,49.33792],[132.00556,49.349],[131.99888,49.35906],[132.00135,49.36705],[131.99318,49.37686],[132.00895,49.38116],[132.0187,49.37467],[132.03016,49.378],[132.05328,49.37745],[132.05998,49.38402],[132.09288,49.38366],[132.09454,49.38961],[132.06325,49.41094],[132.06214,49.42646],[132.07475,49.44095],[132.06818,49.44884],[132.06661,49.46371],[132.08203,49.47065],[132.08364,49.47874],[132.11137,49.4941],[132.1186,49.48948],[132.14115,49.49386],[132.15695,49.4858],[132.17038,49.48932],[132.19108,49.47342],[132.19864,49.47566],[132.22474,49.47333],[132.23619,49.48243],[132.25947,49.47995],[132.2738,49.46363],[132.27487,49.44974],[132.27038,49.44329],[132.27745,49.43476],[132.2901,49.43314],[132.30496,49.42052],[132.32839,49.41392],[132.34524,49.41515],[132.35466,49.40988],[132.38463,49.41391],[132.39276,49.40261],[132.39196,49.39468],[132.40483,49.37927],[132.40759,49.36909],[132.39941,49.35883],[132.40013,49.34692],[132.37621,49.34295],[132.36653,49.33425],[132.37117,49.32296],[132.37125,49.30849],[132.38501,49.29599],[132.40042,49.30163],[132.42448,49.29436],[132.44592,49.28269],[132.46721,49.28351],[132.47294,49.27278],[132.48776,49.26492],[132.50595,49.26777],[132.50542,49.27519],[132.51981,49.2772],[132.53,49.28333],[132.52753,49.2925],[132.55818,49.30149],[132.56369,49.30962],[132.5771,49.30656],[132.59577,49.31147],[132.63318,49.28649],[132.65057,49.28842],[132.65893,49.28251],[132.67461,49.29213],[132.6736,49.30156],[132.69653,49.30706],[132.71293,49.29982],[132.71675,49.30797],[132.70662,49.32046],[132.71175,49.32674],[132.73435,49.33157],[132.75209,49.32606],[132.77341,49.33482],[132.78067,49.34357],[132.75415,49.3672],[132.75493,49.386],[132.77131,49.39108],[132.77911,49.40098],[132.80018,49.40707],[132.79081,49.43219],[132.80099,49.44224],[132.79637,49.4631],[132.7835,49.4677],[132.78003,49.47766],[132.79042,49.49557],[132.81305,49.50545],[132.81812,49.51305],[132.83762,49.51862],[132.84364,49.53324],[132.86532,49.55305],[132.86961,49.58037],[132.85791,49.60566],[132.83489,49.61931],[132.83402,49.63836],[132.82782,49.64926],[132.81913,49.65462],[132.783,49.66792],[132.77803,49.67434],[132.78134,49.68826],[132.81775,49.71939],[132.81761,49.72974],[132.82451,49.73633],[132.83485,49.73134],[132.86354,49.73098],[132.86657,49.72011],[132.88933,49.71511],[132.91705,49.71859],[132.92946,49.72448],[132.95139,49.72644],[132.95387,49.735],[132.9427,49.75032],[132.9478,49.7652],[132.96242,49.76966],[132.97139,49.79584],[132.98808,49.79984],[132.9969,49.80812],[133.00201,49.82663],[133.01,49.83348],[133.02269,49.83651],[133.04945,49.83757],[133.05814,49.87554],[133.07441,49.8886],[133.08875,49.88256],[133.10613,49.88256],[133.10861,49.89971],[133.11496,49.90868],[133.12806,49.91037],[133.14406,49.90024],[133.16778,49.899],[133.1755,49.90975],[133.20405,49.91765],[133.20019,49.93559],[133.20612,49.94419],[133.1824,49.95804],[133.16006,49.9623],[133.15633,49.97835],[133.16447,49.98359],[133.15095,50.00123],[133.15895,50.01647],[133.16971,50.02223],[133.18212,50.02259],[133.19095,50.03358],[133.20791,50.04137],[133.21357,50.04961],[133.23881,50.05855],[133.25715,50.05705],[133.26639,50.0674],[133.28128,50.07174],[133.29811,50.06776],[133.31149,50.0597],[133.32045,50.06289],[133.32142,50.08174],[133.32721,50.09351],[133.32073,50.10094],[133.33893,50.10289],[133.34307,50.10802],[133.36114,50.10484],[133.36293,50.11952],[133.37258,50.12977],[133.37378,50.14041],[133.36786,50.15132],[133.36749,50.16234],[133.39266,50.1742],[133.41382,50.1776],[133.43103,50.19426],[133.42831,50.20087],[133.47593,50.21309],[133.48345,50.20578],[133.51821,50.20127],[133.53176,50.20928],[133.5412,50.19943],[133.55619,50.19956],[133.56255,50.18221],[133.5763,50.1625],[133.57322,50.14027],[133.58246,50.12435],[133.62791,50.12902],[133.66215,50.14266],[133.68898,50.14921],[133.69411,50.15842],[133.71136,50.16697],[133.72305,50.17919],[133.74748,50.18011],[133.74994,50.18392],[133.77821,50.19473],[133.79305,50.19575],[133.80485,50.20278],[133.8382,50.19575],[133.84415,50.188],[133.85667,50.18274],[133.87925,50.1968],[133.885,50.21007],[133.8969,50.21322],[133.90634,50.20915],[133.91599,50.21427],[133.93857,50.20376],[133.97859,50.20442],[134.0061,50.21769],[134.00528,50.2236],[134.01821,50.2341],[134.00076,50.24985],[133.98249,50.25878],[133.97654,50.26731],[133.98106,50.27465],[133.97695,50.28344],[133.98721,50.28961],[133.99932,50.28331],[134.02046,50.28082],[134.02765,50.29],[134.04858,50.29695],[134.05679,50.29446],[134.07527,50.29826],[134.08122,50.30521],[134.11467,50.3056],[134.13007,50.30888],[134.17091,50.3115],[134.18323,50.30717],[134.2056,50.31753],[134.21853,50.32028],[134.22182,50.32644],[134.24255,50.32618],[134.25076,50.32932],[134.27416,50.3233],[134.27108,50.3098],[134.28442,50.30744],[134.29099,50.31399],[134.32571,50.3183],[134.33614,50.33797],[134.35933,50.34819],[134.36508,50.3656],[134.38007,50.37621],[134.40223,50.3787],[134.41824,50.38511],[134.42789,50.38406],[134.45601,50.39636],[134.47243,50.39204],[134.48946,50.4029],[134.48105,50.41533],[134.49665,50.42108],[134.50342,50.44266],[134.49501,50.45442],[134.50465,50.45965],[134.49952,50.47428],[134.49152,50.47585],[134.50322,50.50484],[134.54139,50.51854],[134.55083,50.51123],[134.56438,50.51254],[134.56747,50.51996],[134.59106,50.53511],[134.59989,50.53524],[134.60892,50.55259],[134.63211,50.55168],[134.64977,50.55872],[134.66963,50.557],[134.67647,50.54971],[134.70255,50.56668],[134.72361,50.56708],[134.72192,50.58052],[134.74098,50.58982],[134.73655,50.59423],[134.7335,50.62182],[134.72024,50.63057],[134.70539,50.63471],[134.69592,50.64719],[134.71203,50.67029],[134.70518,50.68116],[134.71718,50.6889],[134.71116,50.70348],[134.70087,50.70677],[134.68413,50.70484],[134.66054,50.7149],[134.64528,50.70904],[134.63159,50.71037],[134.61338,50.70764],[134.60285,50.7167],[134.5818,50.72517],[134.56843,50.72583],[134.55738,50.72027],[134.54642,50.72609],[134.53193,50.72609],[134.50872,50.73107],[134.47207,50.74381],[134.42342,50.74095],[134.40555,50.7335],[134.38858,50.73622],[134.39876,50.83507],[134.40328,50.8525],[134.38428,50.89462],[134.3612,50.93014],[134.33812,50.93242],[134.32794,50.92457],[134.33156,50.91744],[134.31844,50.90717],[134.30464,50.90218],[134.28473,50.90674],[134.27635,50.90189],[134.23857,50.92087],[134.21888,50.95537],[134.21205,50.99656],[134.2809,51.04366],[134.35597,51.06605],[134.39694,51.08987],[134.40209,51.10467],[134.38202,51.14873],[134.42516,51.17616],[134.40487,51.24033],[134.40572,51.25679],[134.3879,51.27148],[134.38875,51.28545],[134.35792,51.30544],[134.31239,51.32877],[134.35877,51.34273],[134.37545,51.35686],[134.44559,51.37081],[134.50244,51.37346],[134.59125,51.42093],[134.61246,51.45724],[134.69303,51.47079],[134.69135,51.48101],[134.72235,51.48846],[134.73636,51.50353],[134.75705,51.49968],[134.76935,51.5066],[134.78906,51.5087],[134.78636,51.51646],[134.79909,51.52171],[134.793,51.54469],[134.81186,51.54489],[134.82216,51.54168],[134.83725,51.57088],[134.84994,51.57526],[134.87877,51.59044],[134.89251,51.59172],[134.90314,51.5836],[134.91481,51.58435],[134.92339,51.59507],[134.95632,51.59411],[134.98274,51.60266],[134.98737,51.61388],[134.9956,51.61922],[135.00467,51.63343],[134.99962,51.65047],[134.99699,51.65991],[134.98464,51.67261],[134.98893,51.67688],[134.98207,51.69234],[134.99614,51.69661],[134.98465,51.72188],[134.96749,51.73179],[134.95805,51.74629],[134.95496,51.76003],[134.96131,51.77664],[134.95393,51.7859],[134.97503,51.79101],[134.9704,51.80537],[134.98224,51.8092],[134.99476,51.80484],[135.00746,51.80739],[135.01467,51.81994],[135.01124,51.83377],[135.02324,51.84248],[135.038,51.85864],[135.02993,51.86586],[135.03456,51.88455],[135.05396,51.89422],[135.05928,51.91025],[135.05464,51.92277],[135.04194,51.9268],[135.05481,51.94621],[135.05515,51.96668],[135.06663,51.98194],[135.10113,51.99338],[135.09787,52.00567],[135.08139,52.00991],[135.09854,52.03955],[135.08601,52.04695],[135.06027,52.04642],[135.04088,52.05584],[135.028,52.06811],[135.0232,52.08451],[135.03247,52.09994],[135.02853,52.1141],[134.99523,52.12361],[134.97429,52.13818],[134.95644,52.13132],[134.93928,52.13692],[134.92521,52.13639],[134.91268,52.14114],[134.89844,52.13745],[134.85949,52.14959],[134.83615,52.1479],[134.81675,52.15856],[134.79753,52.15413],[134.78603,52.1385],[134.75806,52.14051],[134.75344,52.13164],[134.76356,52.12562],[134.7646,52.11495],[134.75224,52.11484],[134.74504,52.10629],[134.72564,52.10629],[134.72547,52.09572],[134.74882,52.08726],[134.75311,52.08018],[134.71089,52.07225],[134.68222,52.07309],[134.66541,52.06008],[134.63743,52.05606],[134.61306,52.06875],[134.60586,52.0825],[134.58853,52.08483],[134.57394,52.09761],[134.57327,52.10543],[134.55233,52.11769],[134.54907,52.12899],[134.56795,52.14768],[134.57017,52.16563],[134.5755,52.18114],[134.55542,52.18968],[134.53682,52.20264],[134.5391,52.20848],[134.52483,52.21196],[134.52162,52.22236],[134.52882,52.22878],[134.51785,52.23501],[134.51439,52.25043],[134.52192,52.26227],[134.51426,52.27271],[134.49392,52.28338],[134.49965,52.29212],[134.50037,52.30709],[134.49119,52.3119],[134.49925,52.31908],[134.49987,52.33258],[134.51975,52.34057],[134.52614,52.36102],[134.53944,52.36374],[134.55043,52.38],[134.56601,52.38708],[134.59636,52.38836],[134.59187,52.39696],[134.59899,52.40177],[134.5904,52.41824],[134.59357,52.4234]]]}}