{"type":"Feature","properties":{"id":"RUS.25.6","name":"Nekrasovsky District","level":2,"country":"RUS"},"geometry":{"type":"Polygon","coordinates":[[[40.09959,57.41102],[40.09962,57.40352],[40.11617,57.39377],[40.11994,57.38604],[40.13636,57.38465],[40.13278,57.37623],[40.09885,57.37265],[40.08272,57.38158],[40.06783,57.37834],[40.05439,57.35981],[40.08034,57.34991],[40.10121,57.3606],[40.11375,57.35164],[40.13736,57.34125],[40.14864,57.35044],[40.13224,57.35943],[40.17869,57.37065],[40.20202,57.37903],[40.23452,57.36921],[40.26098,57.36655],[40.30478,57.37986],[40.32447,57.38276],[40.33274,57.37027],[40.34605,57.35958],[40.33365,57.3425],[40.35256,57.34121],[40.36105,57.32976],[40.37205,57.32919],[40.40784,57.31807],[40.43783,57.31468],[40.42529,57.32786],[40.43465,57.33758],[40.43912,57.37438],[40.4469,57.3788],[40.41378,57.38287],[40.39466,57.39209],[40.39333,57.40693],[40.43225,57.40895],[40.44398,57.41748],[40.4335,57.43451],[40.43993,57.44953],[40.41998,57.45675],[40.41553,57.46643],[40.42616,57.47163],[40.42665,57.48593],[40.40563,57.49345],[40.4294,57.51258],[40.44298,57.50359],[40.47059,57.51091],[40.49949,57.50231],[40.50698,57.50962],[40.50458,57.51785],[40.48284,57.52053],[40.47527,57.52947],[40.44756,57.53533],[40.44086,57.54314],[40.465,57.56586],[40.49019,57.55952],[40.50724,57.56807],[40.49831,57.58188],[40.51736,57.58685],[40.5248,57.59297],[40.54898,57.58261],[40.56813,57.5909],[40.59182,57.59752],[40.61535,57.59329],[40.60413,57.58452],[40.59872,57.57221],[40.63198,57.56882],[40.65035,57.58533],[40.67346,57.59351],[40.69591,57.62116],[40.70732,57.62578],[40.70269,57.63306],[40.71043,57.64269],[40.70805,57.65263],[40.71809,57.6621],[40.67341,57.69748],[40.65576,57.69701],[40.66173,57.71562],[40.67073,57.72602],[40.64708,57.72752],[40.65747,57.75931],[40.62453,57.7685],[40.61331,57.78121],[40.63616,57.78583],[40.6508,57.79798],[40.65082,57.81923],[40.63174,57.83413],[40.62247,57.84794],[40.6389,57.85798],[40.63971,57.86308],[40.61308,57.87948],[40.59767,57.89711],[40.59126,57.89339],[40.56237,57.89951],[40.55169,57.90889],[40.54082,57.90728],[40.51047,57.91348],[40.49277,57.92298],[40.48754,57.90966],[40.47767,57.90255],[40.44619,57.90139],[40.4347,57.8973],[40.43529,57.88564],[40.42934,57.88021],[40.40852,57.8798],[40.37526,57.88254],[40.34703,57.89572],[40.34306,57.87854],[40.3171,57.88282],[40.30281,57.88241],[40.25538,57.89299],[40.2424,57.89247],[40.21148,57.88126],[40.22732,57.87003],[40.22827,57.85597],[40.23995,57.85023],[40.23763,57.84342],[40.22054,57.83931],[40.21748,57.82983],[40.2679,57.81339],[40.26147,57.80505],[40.27343,57.79802],[40.25484,57.78764],[40.25529,57.77348],[40.23484,57.77449],[40.19646,57.76927],[40.18581,57.77063],[40.16894,57.78078],[40.15906,57.77495],[40.13597,57.78224],[40.1229,57.7751],[40.10109,57.7766],[40.07072,57.77235],[40.07136,57.762],[40.09199,57.7457],[40.08533,57.73499],[40.06992,57.72504],[40.08823,57.70731],[40.08242,57.69283],[40.10836,57.68308],[40.12839,57.68219],[40.14446,57.66743],[40.15168,57.64934],[40.148,57.64019],[40.13382,57.62737],[40.13013,57.60632],[40.15402,57.60882],[40.17923,57.61554],[40.22099,57.61738],[40.23883,57.61226],[40.25015,57.6019],[40.23834,57.59389],[40.25241,57.57822],[40.27795,57.5802],[40.31832,57.59389],[40.34057,57.59593],[40.34849,57.609],[40.38504,57.60623],[40.39749,57.59099],[40.39624,57.58358],[40.40197,57.56298],[40.39038,57.56277],[40.37321,57.55015],[40.35768,57.55339],[40.34254,57.55041],[40.32885,57.55737],[40.33482,57.56355],[40.32644,57.57421],[40.31294,57.56778],[40.29449,57.57073],[40.27268,57.55689],[40.23284,57.56124],[40.22234,57.55789],[40.20005,57.49822],[40.20516,57.488],[40.21971,57.47744],[40.21411,57.46579],[40.20019,57.46001],[40.20239,57.45283],[40.18596,57.44743],[40.19485,57.44025],[40.19588,57.43133],[40.17812,57.43019],[40.18565,57.41617],[40.17888,57.40019],[40.16161,57.41564],[40.12521,57.4137],[40.11111,57.42268],[40.09959,57.41102]]]}}