{"type":"Feature","properties":{"id":"RUS.2.12","name":"ЗАТО Северск","level":2,"country":"RUS"},"geometry":{"type":"Polygon","coordinates":[[[84.91106,56.57059],[84.92681,56.56867],[84.95961,56.55481],[84.98452,56.55703],[84.96657,56.56893],[84.97616,56.5745],[84.99254,56.57522],[84.99851,56.59692],[84.98656,56.60947],[84.97499,56.64386],[84.9834,56.64436],[85.00904,56.69337],[85.01206,56.6988],[84.98247,56.71411],[84.97813,56.73322],[84.94539,56.74221],[84.91473,56.74643],[84.91131,56.7547],[84.92896,56.76039],[84.90484,56.77314],[84.85579,56.78585],[84.82694,56.78204],[84.81204,56.8044],[84.82371,56.80684],[84.81028,56.82668],[84.83162,56.83162],[84.81371,56.8427],[84.82634,56.85107],[84.83827,56.86561],[84.89096,56.88495],[84.85923,56.90812],[84.89026,56.90956],[84.8881,56.91908],[84.92535,56.94039],[84.87262,56.95299],[84.8603,56.96157],[84.8341,56.95271],[84.81608,56.94373],[84.79535,56.93944],[84.80108,56.91981],[84.82054,56.92663],[84.83418,56.92349],[84.80654,56.90124],[84.81098,56.885],[84.78248,56.87502],[84.78632,56.86637],[84.78341,56.8512],[84.77534,56.8474],[84.78055,56.83318],[84.77704,56.81326],[84.73359,56.81048],[84.71171,56.8204],[84.66829,56.84971],[84.65008,56.85358],[84.63502,56.85051],[84.61869,56.84176],[84.62074,56.82035],[84.63856,56.81455],[84.62545,56.80484],[84.62621,56.7968],[84.64398,56.78885],[84.65169,56.76342],[84.64235,56.76442],[84.64471,56.74069],[84.6559,56.74001],[84.66312,56.74758],[84.67663,56.74849],[84.6867,56.73476],[84.68961,56.71828],[84.71442,56.67763],[84.70592,56.66869],[84.71665,56.65353],[84.73553,56.63474],[84.76038,56.62993],[84.7836,56.60136],[84.80415,56.59396],[84.82578,56.59283],[84.8717,56.59864],[84.88986,56.59401],[84.90346,56.58434],[84.91106,56.57059]]]}}