{"type":"Feature","properties":{"id":"RUS.28.11","name":"Zadonsky District","level":2,"country":"RUS"},"geometry":{"type":"Polygon","coordinates":[[[38.65452,52.39183],[38.65379,52.38657],[38.63217,52.36868],[38.67011,52.34445],[38.66639,52.32809],[38.67073,52.32053],[38.68681,52.32024],[38.69536,52.31287],[38.70372,52.29181],[38.69382,52.28875],[38.67866,52.2673],[38.69427,52.2626],[38.71013,52.26322],[38.69957,52.24223],[38.67965,52.24183],[38.67557,52.22614],[38.65073,52.22801],[38.66222,52.21646],[38.65504,52.21047],[38.65955,52.20158],[38.65685,52.18608],[38.70067,52.19481],[38.74594,52.19039],[38.7365,52.18439],[38.75328,52.17655],[38.75588,52.16888],[38.74206,52.16366],[38.73717,52.15434],[38.74753,52.13767],[38.78586,52.13735],[38.79944,52.14599],[38.85287,52.168],[38.88502,52.19774],[38.91922,52.20824],[38.93563,52.22655],[38.97132,52.22739],[38.99885,52.23532],[38.99367,52.24206],[38.97724,52.24905],[38.96621,52.25851],[38.96324,52.27305],[38.9538,52.28147],[38.95718,52.28964],[38.97206,52.29744],[38.98514,52.29653],[38.99622,52.28977],[39.01809,52.2847],[39.0233,52.28693],[39.0358,52.30849],[39.05896,52.31076],[39.05907,52.30343],[39.0872,52.30265],[39.08773,52.31373],[39.10847,52.31133],[39.14932,52.31517],[39.18543,52.34135],[39.19079,52.3478],[39.16026,52.36543],[39.17716,52.37792],[39.15502,52.38025],[39.13497,52.40962],[39.13231,52.41906],[39.1456,52.42047],[39.13854,52.45415],[39.16099,52.45818],[39.17201,52.46777],[39.16937,52.48024],[39.17127,52.49517],[39.18124,52.50142],[39.15945,52.50881],[39.14939,52.50472],[39.12939,52.50418],[39.12027,52.51135],[39.13132,52.52742],[39.10706,52.54482],[39.12505,52.55214],[39.13431,52.56025],[39.13281,52.56752],[39.20306,52.58511],[39.21047,52.57419],[39.24313,52.58629],[39.20398,52.62327],[39.19069,52.62278],[39.15488,52.6094],[39.14297,52.61101],[39.11887,52.60601],[39.106,52.60836],[39.13705,52.62896],[39.11987,52.65319],[39.08956,52.64651],[39.05936,52.6558],[39.0436,52.66602],[39.02829,52.66432],[39.01227,52.66933],[39.04145,52.68682],[39.03692,52.6986],[39.05176,52.69955],[39.06293,52.70497],[39.07626,52.72593],[39.07219,52.74232],[39.04945,52.74473],[39.04146,52.75237],[39.04611,52.75774],[39.07322,52.76575],[39.07929,52.76998],[39.06058,52.77535],[39.00669,52.78562],[39.00803,52.79097],[38.98024,52.79857],[38.96953,52.79648],[38.95814,52.77366],[38.9459,52.74202],[38.93171,52.73789],[38.91057,52.73745],[38.90901,52.71623],[38.90352,52.70206],[38.90907,52.68056],[38.9162,52.66379],[38.94311,52.64457],[38.92806,52.6362],[38.90256,52.63615],[38.89581,52.63172],[38.87178,52.63133],[38.85252,52.6244],[38.79712,52.61782],[38.80384,52.60881],[38.83146,52.588],[38.78569,52.57247],[38.81415,52.57057],[38.83634,52.55727],[38.81739,52.54931],[38.82537,52.54445],[38.81194,52.52757],[38.81241,52.52136],[38.83414,52.5104],[38.81795,52.50278],[38.76656,52.52824],[38.72968,52.5394],[38.71271,52.54824],[38.68076,52.56037],[38.66183,52.52897],[38.67874,52.53884],[38.7185,52.52388],[38.7152,52.50681],[38.69271,52.50879],[38.6917,52.50365],[38.69943,52.48285],[38.69123,52.48218],[38.69844,52.45382],[38.70913,52.43582],[38.66687,52.42654],[38.65792,52.4223],[38.66445,52.39323],[38.65452,52.39183]]]}}