{"type":"Feature","properties":{"id":"RUS.16.8","name":"Novozybkovsky District","level":2,"country":"RUS"},"geometry":{"type":"Polygon","coordinates":[[[31.68484,52.75667],[31.67828,52.75878],[31.63937,52.75777],[31.63877,52.76116],[31.60941,52.76477],[31.59843,52.75464],[31.60063,52.74605],[31.59285,52.73448],[31.57507,52.72759],[31.57136,52.7166],[31.55891,52.70622],[31.50312,52.6985],[31.49995,52.69343],[31.51428,52.68648],[31.51523,52.67704],[31.55734,52.64994],[31.55867,52.64254],[31.56974,52.6351],[31.56418,52.62145],[31.56805,52.60948],[31.56419,52.59425],[31.57972,52.59441],[31.59337,52.5828],[31.61706,52.5763],[31.63042,52.56276],[31.66839,52.56233],[31.64703,52.54292],[31.65286,52.5352],[31.68446,52.52848],[31.67737,52.51949],[31.66761,52.49819],[31.68903,52.49739],[31.70311,52.50313],[31.72441,52.50195],[31.71547,52.48571],[31.72651,52.4795],[31.75212,52.48014],[31.78662,52.48365],[31.79243,52.4824],[31.83169,52.48524],[31.84136,52.47719],[31.82277,52.46251],[31.83979,52.45884],[31.8307,52.44517],[31.852,52.4507],[31.87995,52.44919],[31.90796,52.43621],[31.91997,52.42803],[31.94555,52.43291],[31.98194,52.4258],[32.00438,52.42354],[32.03091,52.41056],[32.04355,52.41391],[32.01882,52.4258],[32.03035,52.4331],[32.06904,52.43087],[32.09011,52.44761],[32.08436,52.45692],[32.10336,52.48124],[32.10628,52.49344],[32.12573,52.49701],[32.12562,52.51053],[32.13901,52.52001],[32.15467,52.52124],[32.16799,52.50295],[32.21684,52.50619],[32.23663,52.51665],[32.23722,52.5245],[32.26944,52.53136],[32.26731,52.54002],[32.256,52.54165],[32.25332,52.55009],[32.23018,52.56395],[32.25318,52.57624],[32.23868,52.58967],[32.21527,52.58559],[32.20328,52.59968],[32.20864,52.61281],[32.19421,52.61624],[32.19004,52.62444],[32.16151,52.63232],[32.14207,52.63397],[32.15399,52.64975],[32.14429,52.652],[32.13175,52.6465],[32.11661,52.63047],[32.09661,52.63243],[32.06922,52.63165],[32.07654,52.64292],[32.05903,52.6527],[32.04739,52.6521],[32.0284,52.65927],[32.00295,52.66072],[31.98768,52.665],[31.97439,52.66408],[31.96678,52.67041],[31.94938,52.66408],[31.92601,52.64947],[31.91907,52.65537],[31.92453,52.66685],[31.9125,52.66651],[31.91251,52.68787],[31.89419,52.68857],[31.86671,52.68386],[31.83918,52.68157],[31.82592,52.67476],[31.80199,52.68066],[31.80581,52.68887],[31.80975,52.71677],[31.7947,52.73438],[31.75673,52.71941],[31.75441,52.70538],[31.72133,52.70746],[31.72739,52.72457],[31.71044,52.72806],[31.70013,52.73453],[31.69682,52.74846],[31.68484,52.75667]],[[31.8752,52.5737],[31.87522,52.57687],[31.91303,52.57707],[31.91451,52.56519],[31.92784,52.56537],[31.93701,52.57724],[31.96229,52.57864],[31.9689,52.56873],[31.94991,52.56659],[31.9375,52.55624],[31.95823,52.55352],[31.96195,52.54037],[31.98259,52.53119],[31.97561,52.52068],[31.9936,52.51191],[31.98132,52.50171],[31.96148,52.49942],[31.95629,52.50758],[31.92997,52.51055],[31.92345,52.51996],[31.90879,52.52632],[31.91261,52.5353],[31.88799,52.54658],[31.8901,52.55361],[31.87856,52.56008],[31.8752,52.5737]]]}}