{"type":"Feature","properties":{"id":"RUS.68.12","name":"Barabinsky District","level":2,"country":"RUS"},"geometry":{"type":"Polygon","coordinates":[[[77.8287,55.35415],[77.81634,55.35564],[77.69391,55.35657],[77.67505,55.3593],[77.60842,55.35231],[77.57194,55.35117],[77.60051,55.31759],[77.58278,55.31081],[77.59171,55.29424],[77.61028,55.29141],[77.58712,55.27268],[77.61668,55.26425],[77.65765,55.2707],[77.6675,55.26113],[77.68719,55.25459],[77.68501,55.2424],[77.65586,55.22854],[77.53938,55.21443],[77.5142,55.21044],[77.44379,55.19403],[77.40706,55.15896],[77.41815,55.08418],[77.44591,55.02073],[77.42721,55.01961],[77.43431,55.00509],[77.45865,55.00805],[77.47379,55.01657],[77.48699,54.99409],[77.50384,54.98268],[77.47495,54.95353],[77.50374,54.86959],[77.62898,54.87841],[77.616,54.77772],[77.57672,54.77076],[77.56675,54.76413],[77.57192,54.75647],[77.61214,54.76373],[77.62278,54.73797],[77.63855,54.73585],[77.76129,54.68309],[77.72596,54.66117],[77.72006,54.64371],[77.73936,54.64617],[77.73797,54.65326],[77.77043,54.66297],[77.78208,54.66226],[77.8116,54.67014],[77.8287,54.67882],[77.88401,54.69439],[77.90885,54.6761],[77.94138,54.66092],[77.98069,54.67934],[77.96073,54.70827],[77.94769,54.7194],[77.95651,54.73843],[77.99834,54.75436],[78.00114,54.76376],[78.06932,54.77918],[78.08788,54.79583],[78.15839,54.81288],[78.1894,54.81668],[78.18798,54.82584],[78.23431,54.83971],[78.24302,54.82898],[78.28654,54.84019],[78.34166,54.85753],[78.3509,54.84918],[78.37034,54.85519],[78.39472,54.90234],[78.42952,54.90796],[78.47456,54.92532],[78.48765,54.92768],[78.71892,55.01398],[78.73046,55.00729],[78.78201,55.02999],[78.79603,55.02956],[78.80619,55.03796],[78.81937,55.02208],[78.84765,55.00869],[78.86197,55.00438],[78.92079,54.99837],[78.97097,55.0009],[78.99439,55.00543],[78.98001,55.04027],[78.98757,55.05121],[78.99028,55.06524],[78.99873,55.06824],[78.93699,55.13153],[78.93544,55.15175],[78.91706,55.18169],[78.94826,55.20656],[78.94781,55.23975],[78.90433,55.27976],[78.89945,55.30156],[78.92463,55.34571],[78.89513,55.34262],[78.76791,55.34243],[78.74413,55.34438],[78.73035,55.34239],[78.68687,55.34609],[78.687,55.3708],[78.65151,55.39979],[78.6526,55.41183],[78.62296,55.41543],[78.61022,55.42627],[78.56249,55.42216],[78.53098,55.42251],[78.49352,55.41382],[78.4674,55.41301],[78.4241,55.39758],[78.37865,55.40903],[78.34926,55.41962],[78.32834,55.4123],[78.33385,55.39341],[78.30584,55.38536],[78.24753,55.36486],[78.2539,55.35143],[78.21886,55.3468],[78.19733,55.3467],[78.16521,55.33786],[78.12222,55.33308],[78.07686,55.3365],[77.97622,55.33941],[77.96021,55.34306],[77.92043,55.34484],[77.90218,55.34238],[77.8287,55.35415]]]}}