{"type":"Feature","properties":{"id":"RUS.24.18","name":"Babushkinsky District","level":2,"country":"RUS"},"geometry":{"type":"Polygon","coordinates":[[[43.75303,60.10931],[43.72069,60.07914],[43.70857,60.07255],[43.69371,60.07255],[43.6882,60.0426],[43.65076,60.04287],[43.637,60.01454],[43.61993,59.99637],[43.63645,59.98977],[43.62654,59.98178],[43.64196,59.97379],[43.62984,59.95588],[43.54065,59.96001],[43.53074,59.9454],[43.45862,59.94899],[43.47018,59.98316],[43.38319,59.98564],[43.39145,59.99803],[43.37493,60.00243],[43.26041,60.01041],[43.22242,60.01537],[43.20811,60.00931],[43.18498,60.02142],[43.1558,60.02389],[43.13268,60.02224],[43.12222,60.03022],[43.04018,60.0177],[43.03963,60.00405],[43.0735,59.98869],[43.07236,59.98346],[43.0523,59.9742],[43.02805,59.97425],[43.0298,59.96833],[43.01265,59.95852],[42.98995,59.9579],[42.9873,59.93916],[42.86906,59.94331],[42.85795,59.85843],[42.87185,59.85249],[42.87001,59.83492],[42.89098,59.83631],[42.89594,59.8269],[42.92181,59.82026],[42.93558,59.80752],[42.91961,59.80365],[42.93998,59.79063],[42.9119,59.774],[42.91576,59.6902],[42.92071,59.67658],[42.95705,59.63374],[42.98072,59.60841],[42.99614,59.5981],[42.99667,59.57095],[43.26316,59.56995],[43.20591,59.54149],[43.25105,59.53507],[43.24279,59.50267],[43.25491,59.49178],[43.22903,59.47584],[43.27418,59.46214],[43.26922,59.42995],[43.19655,59.43163],[43.18223,59.4067],[43.17948,59.39409],[43.10735,59.39773],[43.09194,59.36212],[42.9543,59.36717],[42.93172,59.277],[42.91752,59.192],[42.92863,59.19473],[42.95978,59.19536],[43.00133,59.21278],[43.02818,59.2029],[43.05219,59.2112],[43.04973,59.2164],[43.06567,59.22771],[43.07659,59.22914],[43.07537,59.24138],[43.08448,59.25014],[43.11077,59.25148],[43.12275,59.25523],[43.14085,59.24915],[43.15149,59.25451],[43.1491,59.26325],[43.17521,59.263],[43.21778,59.23427],[43.24631,59.23511],[43.26392,59.24694],[43.28423,59.24302],[43.29795,59.23341],[43.29415,59.22764],[43.32744,59.21157],[43.33457,59.19814],[43.38257,59.20441],[43.36945,59.23083],[43.34376,59.24626],[43.33743,59.26616],[43.3619,59.2799],[43.42069,59.2913],[43.45583,59.28932],[43.50405,59.30589],[43.5139,59.29775],[43.50845,59.25955],[43.5443,59.25731],[43.54328,59.24967],[43.53088,59.24026],[43.55707,59.21769],[43.52539,59.20758],[43.52061,59.1918],[43.53496,59.1785],[43.55925,59.17942],[43.58123,59.18317],[43.59467,59.189],[43.6109,59.1898],[43.61603,59.20793],[43.63605,59.21115],[43.63367,59.22187],[43.60926,59.23455],[43.62525,59.2391],[43.63852,59.23213],[43.67454,59.23359],[43.67175,59.24439],[43.69473,59.26028],[43.71575,59.26137],[43.74535,59.25931],[43.75697,59.2693],[43.77638,59.26837],[43.80635,59.24256],[43.84446,59.2376],[43.86861,59.23985],[43.90083,59.23943],[43.92729,59.22838],[43.94817,59.20809],[43.981,59.20815],[43.98809,59.21326],[44.09068,59.23409],[44.17111,59.23733],[44.20777,59.2257],[44.22325,59.23834],[44.25023,59.29996],[44.26564,59.34294],[44.28381,59.3362],[44.30033,59.3421],[44.29317,59.36062],[44.27996,59.36315],[44.26289,59.36034],[44.26785,59.38474],[44.39833,59.37689],[44.4154,59.44973],[44.43746,59.46488],[44.42368,59.47689],[44.42555,59.49574],[44.43465,59.5151],[44.46662,59.52461],[44.47761,59.59661],[44.49303,59.64061],[44.50569,59.66314],[44.50404,59.67454],[44.48092,59.67537],[44.47926,59.69538],[44.49028,59.70205],[44.49248,59.71066],[44.50349,59.71482],[44.48642,59.72287],[44.49303,59.74479],[44.53157,59.74313],[44.53487,59.75006],[44.5635,59.74951],[44.56625,59.7373],[44.59323,59.73675],[44.59048,59.74563],[44.57341,59.75034],[44.59488,59.75617],[44.62076,59.7398],[44.63012,59.74368],[44.64278,59.76698],[44.6582,59.76338],[44.67967,59.77086],[44.67967,59.78499],[44.68848,59.79386],[44.705,59.80023],[44.72812,59.79137],[44.73968,59.79608],[44.77106,59.78721],[44.7861,59.79178],[44.80905,59.82099],[44.82392,59.83179],[44.79033,59.85391],[44.78478,59.86989],[44.78085,59.89834],[44.7551,59.89674],[44.74794,59.9053],[44.76115,59.92959],[44.78062,59.93624],[44.81511,59.96433],[44.83713,59.97948],[44.82392,59.99463],[44.84484,60.00179],[44.85449,60.04165],[44.63661,60.06512],[44.384,60.02995],[44.35231,60.01272],[44.34838,59.98749],[44.2138,60.03406],[44.17239,60.06478],[44.16559,60.08967],[44.15168,60.10935],[44.13415,60.1139],[44.15058,60.13173],[44.07152,60.13734],[44.06163,60.09569],[44.01312,60.10389],[44.0117,60.1185],[43.94483,60.12105],[43.9456,60.13256],[43.90934,60.13232],[43.90614,60.10572],[43.82068,60.10871],[43.75303,60.10931]]]}}