{"type":"Feature","properties":{"id":"RUS.20.24","name":"Yuryevetsky District","level":2,"country":"RUS"},"geometry":{"type":"Polygon","coordinates":[[[43.20354,57.54474],[43.19717,57.56586],[43.18325,57.56275],[43.19307,57.55333],[43.18299,57.54216],[43.19946,57.53222],[43.20864,57.50969],[43.19975,57.49225],[43.183,57.476],[43.18745,57.46329],[43.1705,57.449],[43.1775,57.44525],[43.1845,57.4305],[43.17175,57.421],[43.1741,57.4127],[43.15625,57.40425],[43.114,57.39775],[43.10487,57.40387],[43.08654,57.40205],[43.08213,57.3938],[43.0535,57.394],[43.0386,57.39161],[43.02375,57.3845],[42.99679,57.37986],[42.93529,57.37661],[42.92404,57.37161],[42.89554,57.37111],[42.87479,57.38111],[42.84754,57.40561],[42.82754,57.41761],[42.81379,57.43081],[42.80934,57.41099],[42.78968,57.41836],[42.7384,57.42921],[42.71337,57.43024],[42.65125,57.41942],[42.65838,57.40801],[42.65201,57.39823],[42.65841,57.38943],[42.65249,57.37753],[42.65329,57.362],[42.64737,57.35588],[42.64743,57.32931],[42.64113,57.32436],[42.63521,57.30838],[42.61585,57.30276],[42.61409,57.29222],[42.6057,57.29026],[42.5988,57.27849],[42.62231,57.27442],[42.63607,57.26351],[42.63339,57.25695],[42.64,57.23392],[42.66343,57.23166],[42.66706,57.21027],[42.65981,57.19917],[42.67662,57.18184],[42.67609,57.16441],[42.70062,57.16347],[42.71775,57.15902],[42.73448,57.15042],[42.759,57.14892],[42.77156,57.14136],[42.77313,57.12753],[42.80106,57.12431],[42.80863,57.11709],[42.88093,57.1133],[42.89679,57.12072],[42.9087,57.13181],[42.93317,57.13053],[42.95443,57.12061],[42.98985,57.12073],[42.99002,57.13006],[43.01402,57.12821],[43.02374,57.13126],[43.08667,57.13629],[43.08677,57.16677],[43.10181,57.19874],[43.12106,57.2174],[43.13679,57.22775],[43.16374,57.24046],[43.18438,57.25555],[43.19653,57.27612],[43.19517,57.29296],[43.20306,57.31501],[43.22594,57.33646],[43.32336,57.41414],[43.32461,57.4189],[43.30331,57.42874],[43.29709,57.42309],[43.26603,57.41378],[43.24285,57.41253],[43.22568,57.41687],[43.20803,57.44666],[43.19763,57.45322],[43.20488,57.46051],[43.2275,57.46341],[43.21835,57.47247],[43.21433,57.48663],[43.22576,57.50128],[43.22182,57.50699],[43.22842,57.51898],[43.19862,57.53834],[43.20354,57.54474]]]}}