{"type":"Feature","properties":{"id":"RUS.34.3","name":"городской округ Урюпинск","level":2,"country":"RUS"},"geometry":{"type":"Polygon","coordinates":[[[41.94873,50.77499],[41.98617,50.76658],[41.99274,50.76091],[42.00934,50.76309],[42.05111,50.78691],[42.07096,50.77349],[42.08369,50.77025],[42.09432,50.7752],[42.0844,50.78352],[42.08091,50.80633],[42.0892,50.8061],[42.08962,50.81811],[42.06435,50.81524],[42.04703,50.81801],[42.0302,50.81569],[42.01101,50.81771],[42.00743,50.82292],[41.97994,50.81805],[41.97693,50.81071],[41.98238,50.80095],[41.968,50.78165],[41.94873,50.77499]]]}}