{"type":"Feature","properties":{"id":"RUS.43.31","name":"Blagovarsky District","level":2,"country":"RUS"},"geometry":{"type":"Polygon","coordinates":[[[55.22871,54.79239],[55.24415,54.79865],[55.25362,54.79783],[55.27846,54.81496],[55.28225,54.82486],[55.27297,54.83396],[55.24983,54.82196],[55.25141,54.85174],[55.25735,54.85943],[55.25617,54.87504],[55.2365,54.89439],[55.22157,54.90427],[55.18605,54.91682],[55.20939,54.93637],[55.16606,54.92876],[55.12787,54.94807],[55.05094,54.94809],[55.05097,54.95784],[55.0241,54.9562],[55.01051,54.9513],[54.99768,54.92741],[54.9825,54.92808],[54.94432,54.91563],[54.94156,54.94452],[54.94248,54.9651],[54.93174,54.96437],[54.89566,54.96073],[54.88596,54.95258],[54.82699,54.94728],[54.79756,54.93555],[54.8006,54.92331],[54.76068,54.92311],[54.76148,54.92901],[54.71306,54.92737],[54.70497,54.9213],[54.70519,54.90672],[54.68618,54.90489],[54.69606,54.88573],[54.71043,54.8919],[54.72499,54.88931],[54.72012,54.87272],[54.74075,54.86804],[54.74357,54.86071],[54.73499,54.85058],[54.74165,54.84285],[54.73294,54.81822],[54.69137,54.82618],[54.68441,54.81499],[54.63518,54.82472],[54.63789,54.82854],[54.57713,54.86374],[54.54384,54.85038],[54.62027,54.80265],[54.61969,54.79884],[54.67831,54.78793],[54.68137,54.77957],[54.66298,54.77725],[54.65938,54.7527],[54.6459,54.75608],[54.62168,54.74996],[54.60209,54.75244],[54.59657,54.7447],[54.58023,54.75177],[54.55223,54.74109],[54.55751,54.73591],[54.52554,54.72329],[54.53684,54.713],[54.61009,54.69996],[54.65888,54.70483],[54.66259,54.69609],[54.67351,54.69679],[54.68326,54.6873],[54.65022,54.67971],[54.65522,54.65451],[54.67587,54.65522],[54.7218,54.65269],[54.72077,54.63231],[54.7094,54.59849],[54.69881,54.58862],[54.68687,54.58396],[54.67092,54.57024],[54.65532,54.56708],[54.65795,54.55528],[54.67982,54.56145],[54.68364,54.55309],[54.7745,54.54194],[54.7646,54.5266],[54.76299,54.51022],[54.79305,54.49205],[54.77758,54.47266],[54.76935,54.4731],[54.75577,54.44764],[54.76963,54.44509],[54.78842,54.45806],[54.81456,54.48326],[54.84307,54.47337],[54.84251,54.45651],[54.85887,54.45946],[54.91057,54.45975],[54.90852,54.46273],[55.01394,54.46182],[55.01475,54.49714],[55.05274,54.49896],[55.0588,54.5025],[55.07765,54.50143],[55.0859,54.49474],[55.08975,54.47964],[55.07644,54.4783],[55.07539,54.47035],[55.12129,54.46944],[55.12187,54.48707],[55.13733,54.48709],[55.13878,54.49779],[55.12455,54.50154],[55.11461,54.51659],[55.12621,54.52681],[55.11835,54.52998],[55.11975,54.55611],[55.09969,54.57177],[55.09013,54.57474],[55.06222,54.59357],[55.08285,54.59842],[55.09863,54.58845],[55.11279,54.5915],[55.10222,54.60191],[55.13963,54.61289],[55.14058,54.62449],[55.12673,54.6308],[55.11263,54.63109],[55.10708,54.64503],[55.1556,54.65003],[55.16595,54.65939],[55.171,54.67953],[55.22971,54.6862],[55.20952,54.71207],[55.21461,54.72717],[55.2254,54.72854],[55.23102,54.73745],[55.26029,54.74014],[55.25649,54.76712],[55.23229,54.7736],[55.23902,54.78082],[55.21782,54.78796],[55.22871,54.79239]]]}}