{"type":"Feature","properties":{"id":"RUS.57.22","name":"Tolyatti","level":2,"country":"RUS"},"geometry":{"type":"Polygon","coordinates":[[[49.49948,53.46214],[49.49973,53.46045],[49.50691,53.46005],[49.52542,53.44966],[49.55451,53.44636],[49.57811,53.44844],[49.62315,53.4557],[49.61851,53.4603],[49.55971,53.4586],[49.54968,53.45623],[49.51008,53.4613],[49.51,53.46722],[49.53747,53.46157],[49.55343,53.46077],[49.62636,53.46304],[49.6577,53.46214],[49.64592,53.47635],[49.60586,53.4816],[49.54641,53.48278],[49.54629,53.50181],[49.57415,53.51339],[49.5527,53.51629],[49.55582,53.53215],[49.56872,53.53975],[49.59874,53.5483],[49.62095,53.53387],[49.63407,53.54049],[49.62148,53.55231],[49.62627,53.55307],[49.64113,53.55804],[49.65449,53.56416],[49.68406,53.57425],[49.69131,53.57256],[49.70241,53.58218],[49.7343,53.58852],[49.74649,53.5866],[49.75518,53.58689],[49.76913,53.5816],[49.77655,53.58533],[49.76231,53.59619],[49.75271,53.59116],[49.74988,53.58688],[49.73462,53.58927],[49.70247,53.58287],[49.69111,53.57334],[49.68411,53.5745],[49.66688,53.56917],[49.62627,53.5536],[49.61952,53.55777],[49.58558,53.54798],[49.55356,53.54904],[49.53489,53.54519],[49.52017,53.53564],[49.50755,53.55214],[49.48581,53.5694],[49.49039,53.58611],[49.40713,53.59451],[49.40431,53.58873],[49.32595,53.59726],[49.3416,53.57237],[49.33121,53.56456],[49.30412,53.567],[49.30365,53.57755],[49.29222,53.58221],[49.26058,53.58572],[49.25905,53.59215],[49.23086,53.591],[49.22,53.58574],[49.21383,53.56024],[49.2057,53.5609],[49.19282,53.50891],[49.20108,53.51478],[49.2229,53.51998],[49.24514,53.51384],[49.24468,53.50271],[49.2776,53.49039],[49.29346,53.48767],[49.30423,53.47016],[49.32684,53.47202],[49.36273,53.47179],[49.3581,53.4586],[49.37226,53.45642],[49.39392,53.4673],[49.43236,53.47332],[49.47548,53.47078],[49.48943,53.47507],[49.49948,53.46214]],[[49.36344,53.56235],[49.4022,53.57799],[49.4164,53.5781],[49.40783,53.54874],[49.38351,53.55133],[49.38828,53.55983],[49.36344,53.56235]]]}}