{"type":"Feature","properties":{"id":"RUS.70.24","name":"городской округ Кизилюрт","level":2,"country":"RUS"},"geometry":{"type":"Polygon","coordinates":[[[46.80862,43.2101],[46.82844,43.20572],[46.83304,43.18529],[46.82823,43.16618],[46.8398,43.15053],[46.85278,43.15393],[46.85365,43.1642],[46.84856,43.16955],[46.84466,43.18424],[46.86031,43.18442],[46.86226,43.1908],[46.88419,43.19053],[46.89525,43.2039],[46.91143,43.20745],[46.88592,43.21843],[46.87258,43.21321],[46.85581,43.21119],[46.84648,43.21439],[46.83545,43.2099],[46.82755,43.21726],[46.80954,43.21459],[46.80862,43.2101]]]}}