{"type":"Feature","properties":{"id":"RUS.32.40","name":"Volgodonsk","level":2,"country":"RUS"},"geometry":{"type":"Polygon","coordinates":[[[42.29251,47.5483],[42.312,47.55948],[42.33414,47.56936],[42.3416,47.56854],[42.36644,47.58666],[42.38452,47.60752],[42.37529,47.61612],[42.34988,47.61946],[42.33929,47.61638],[42.31143,47.59992],[42.28278,47.58288],[42.27937,47.57565],[42.26241,47.57752],[42.23391,47.56918],[42.22121,47.56848],[42.20585,47.56235],[42.20124,47.55239],[42.18434,47.54218],[42.17239,47.5389],[42.16193,47.55807],[42.15621,47.55506],[42.13671,47.55516],[42.13677,47.58704],[42.12746,47.60093],[42.1089,47.60821],[42.09481,47.5887],[42.07602,47.5713],[42.04998,47.5765],[42.02956,47.57237],[42.03912,47.55875],[42.04588,47.55313],[42.08566,47.55515],[42.09699,47.55152],[42.10196,47.54402],[42.08541,47.53143],[42.07354,47.52961],[42.07383,47.51667],[42.091,47.52551],[42.10622,47.51617],[42.08713,47.50015],[42.12299,47.48889],[42.19777,47.48749],[42.21233,47.48224],[42.24539,47.46351],[42.26514,47.46308],[42.26708,47.4876],[42.30291,47.48746],[42.30623,47.5231],[42.29201,47.52318],[42.29189,47.51406],[42.27022,47.5171],[42.25743,47.52974],[42.29251,47.5483]]]}}