{"type":"Feature","properties":{"id":"RUS.36.4","name":"Ust-Labinsky District","level":2,"country":"RUS"},"geometry":{"type":"Polygon","coordinates":[[[40.12543,45.1843],[40.08758,45.1974],[40.12137,45.24568],[40.11406,45.24828],[40.11815,45.26145],[40.11386,45.26996],[40.10354,45.2705],[40.08463,45.25603],[40.07111,45.2555],[40.06104,45.26097],[40.06029,45.30558],[40.06692,45.30773],[40.06627,45.35984],[40.05355,45.3587],[40.05309,45.41353],[40.04042,45.42403],[40.04019,45.45155],[40.03392,45.45871],[40.01174,45.45442],[39.99471,45.45117],[39.97706,45.45187],[39.97202,45.43804],[39.97476,45.43296],[39.88477,45.43294],[39.88481,45.41967],[39.85932,45.41939],[39.85917,45.43302],[39.78243,45.43267],[39.7823,45.44182],[39.66708,45.44142],[39.61601,45.44147],[39.61652,45.37712],[39.59962,45.38242],[39.57966,45.37243],[39.58028,45.36538],[39.59045,45.36025],[39.51472,45.36015],[39.51511,45.31495],[39.47658,45.31315],[39.47669,45.30582],[39.43845,45.30569],[39.43843,45.33253],[39.42077,45.33267],[39.42069,45.30905],[39.41188,45.30546],[39.37505,45.30514],[39.37539,45.25481],[39.3798,45.24624],[39.50304,45.24555],[39.50352,45.18202],[39.49068,45.17502],[39.50569,45.16122],[39.49583,45.15542],[39.4966,45.13933],[39.51331,45.16118],[39.54026,45.16255],[39.54561,45.18859],[39.57084,45.20043],[39.58285,45.20094],[39.59505,45.21062],[39.62509,45.21698],[39.67046,45.20395],[39.68812,45.19277],[39.68596,45.16932],[39.69156,45.15395],[39.70373,45.14772],[39.73058,45.14961],[39.7406,45.13609],[39.75377,45.13228],[39.76099,45.13719],[39.7809,45.13325],[39.79043,45.12707],[39.80066,45.13063],[39.80845,45.12229],[39.8192,45.12191],[39.82238,45.11533],[39.84952,45.10953],[39.87059,45.11259],[39.87373,45.10541],[39.88416,45.10397],[39.90015,45.09668],[39.94842,45.09451],[39.95003,45.08513],[39.96366,45.08572],[39.97649,45.09137],[39.9848,45.08685],[39.99449,45.09531],[40.00974,45.09108],[40.01525,45.09638],[40.02654,45.09268],[40.04039,45.10319],[40.06758,45.09552],[40.08829,45.10928],[40.1031,45.13184],[40.09166,45.13579],[40.12543,45.1843]]]}}