{"type":"Feature","properties":{"id":"RUS.64.21","name":"Tabunsky District","level":2,"country":"RUS"},"geometry":{"type":"Polygon","coordinates":[[[78.3786,52.80764],[78.53619,52.6343],[78.6145,52.6611],[78.64387,52.62945],[78.74689,52.66443],[78.73231,52.67992],[78.75908,52.69148],[78.79575,52.68579],[78.83465,52.67492],[78.83396,52.68368],[78.86284,52.69134],[78.8817,52.69877],[78.93961,52.71713],[78.92453,52.73932],[79.00381,52.76454],[78.98556,52.7888],[79.02426,52.80023],[79.03796,52.78367],[79.10298,52.80304],[79.14146,52.77244],[79.15587,52.77633],[79.17542,52.75266],[79.24037,52.77223],[79.26009,52.74761],[79.28791,52.75579],[79.29401,52.74721],[79.34834,52.76266],[79.37842,52.72166],[79.40532,52.72876],[79.44279,52.73922],[79.4384,52.74688],[79.4462,52.76899],[79.42376,52.76841],[79.42476,52.79404],[79.41745,52.80111],[79.42379,52.83232],[79.5005,52.85495],[79.48127,52.86115],[79.43256,52.88997],[79.4004,52.91641],[79.37848,52.93961],[79.36776,52.96162],[79.36543,52.98885],[79.3665,53.00287],[79.2808,52.97748],[79.25159,53.01237],[79.26501,53.01634],[79.21906,53.07272],[79.16716,53.05777],[79.17447,53.03853],[79.17215,53.02707],[79.1632,53.01835],[79.14802,53.01375],[79.11828,53.0136],[79.08818,53.02811],[79.07825,53.04],[79.08221,53.05871],[79.05633,53.05751],[78.99298,53.03833],[78.96325,53.03814],[78.95143,53.0357],[78.93833,53.04015],[78.92875,53.03079],[78.90741,53.02863],[78.88734,53.02173],[78.87167,53.01973],[78.85148,53.00279],[78.81688,53.00338],[78.79537,53.00886],[78.76832,53.00958],[78.76601,52.97421],[78.79959,52.9738],[78.81369,52.95135],[78.79623,52.9465],[78.81099,52.92852],[78.75675,52.91267],[78.77537,52.8886],[78.7239,52.87365],[78.74186,52.8392],[78.71571,52.8333],[78.72226,52.82279],[78.67455,52.80753],[78.6585,52.82525],[78.63425,52.82075],[78.6075,52.8245],[78.57675,52.83575],[78.56119,52.84859],[78.49705,52.82736],[78.47959,52.84258],[78.3786,52.80764]]]}}