{"type":"Feature","properties":{"id":"RUS.29.67","name":"Yegoryevsk Urban Okrug","level":2,"country":"RUS"},"geometry":{"type":"Polygon","coordinates":[[[39.62974,55.02525],[39.65561,55.07155],[39.68593,55.06602],[39.69685,55.0763],[39.6959,55.10244],[39.69158,55.12627],[39.70864,55.14477],[39.72521,55.14485],[39.72525,55.15783],[39.7068,55.16478],[39.69737,55.17573],[39.70173,55.18123],[39.6816,55.18859],[39.65887,55.22182],[39.65775,55.23247],[39.6397,55.23769],[39.59294,55.23636],[39.5657,55.23163],[39.55271,55.23606],[39.54675,55.24807],[39.47772,55.25458],[39.46098,55.26874],[39.48269,55.28422],[39.47925,55.29501],[39.46661,55.29855],[39.47636,55.31393],[39.4685,55.32604],[39.4791,55.33702],[39.51519,55.35322],[39.50687,55.36115],[39.513,55.36758],[39.55014,55.37558],[39.53769,55.39054],[39.55309,55.40302],[39.57524,55.40509],[39.57456,55.41253],[39.56239,55.41734],[39.56076,55.42453],[39.6086,55.42294],[39.61034,55.44125],[39.57743,55.44486],[39.58317,55.49137],[39.40346,55.49474],[39.37404,55.49268],[39.36227,55.50928],[39.37458,55.52499],[39.33996,55.52884],[39.31982,55.5272],[39.27664,55.53099],[39.25845,55.5253],[39.17598,55.52927],[39.16855,55.51545],[39.17054,55.50438],[39.15481,55.49145],[39.13168,55.49125],[39.13146,55.50234],[39.10485,55.50413],[39.07865,55.50057],[39.03799,55.50542],[39.0244,55.48044],[39.00415,55.47098],[39.02387,55.46759],[39.02635,55.44693],[38.99057,55.45078],[38.96253,55.44893],[38.96084,55.44134],[38.97222,55.42858],[38.95891,55.42344],[38.96354,55.41734],[38.96092,55.40178],[38.93778,55.4018],[38.93531,55.39629],[38.91186,55.39567],[38.89323,55.38857],[38.89661,55.37917],[38.90776,55.36886],[38.90146,55.35589],[38.90199,55.34273],[38.92055,55.33434],[38.93897,55.33077],[38.93624,55.32212],[38.90885,55.31027],[38.88784,55.31165],[38.87853,55.30262],[38.90807,55.29881],[38.91186,55.29174],[38.89218,55.28469],[38.89241,55.27571],[38.90026,55.26607],[38.93154,55.26492],[38.93173,55.24579],[38.96708,55.25748],[38.9795,55.25978],[38.98948,55.24657],[38.9777,55.24275],[38.95952,55.24384],[38.93248,55.23792],[38.92314,55.22642],[38.92744,55.22218],[38.92055,55.2089],[38.944,55.20589],[38.93896,55.19882],[38.95484,55.19343],[38.9717,55.17987],[38.98827,55.18594],[39.00692,55.18884],[39.01954,55.18364],[39.04343,55.18538],[39.04423,55.19211],[39.06652,55.19649],[39.09328,55.20626],[39.10497,55.20335],[39.09629,55.19334],[39.0975,55.18464],[39.1191,55.17805],[39.13151,55.16167],[39.14893,55.16174],[39.16465,55.14876],[39.19425,55.13739],[39.20454,55.13655],[39.223,55.14884],[39.23638,55.1415],[39.24412,55.14454],[39.26894,55.13639],[39.27069,55.14601],[39.32572,55.13748],[39.35692,55.13738],[39.3764,55.12962],[39.38596,55.13324],[39.41486,55.13434],[39.41906,55.11599],[39.44096,55.12542],[39.43658,55.13502],[39.44959,55.13563],[39.46693,55.12416],[39.46712,55.11367],[39.49334,55.0928],[39.49344,55.07988],[39.50357,55.0682],[39.52836,55.06549],[39.52914,55.04339],[39.61025,54.99368],[39.61758,55.00038],[39.62537,55.02508],[39.62974,55.02525]]]}}