{"type":"Feature","properties":{"id":"RUS.18.6","name":"Kostamus City District","level":2,"country":"RUS"},"geometry":{"type":"Polygon","coordinates":[[[31.3374,64.44066],[31.33347,64.44681],[31.35412,64.45529],[31.38362,64.45466],[31.40033,64.4642],[31.39886,64.46992],[31.38017,64.47479],[31.38017,64.48941],[31.35854,64.49428],[31.24743,64.49703],[31.24645,64.51459],[31.16041,64.51777],[31.16041,64.55581],[31.07584,64.55856],[31.08027,64.59022],[31.03208,64.59149],[31.03356,64.63512],[31.04831,64.70832],[31.05814,64.71546],[31.01832,64.71651],[31.01733,64.77356],[30.87967,64.77691],[30.87672,64.79576],[30.80494,64.79723],[30.80396,64.85307],[30.78331,64.85453],[30.78232,64.87249],[30.76069,64.87291],[30.7779,65.0587],[30.62696,65.04812],[30.54486,65.06263],[30.52273,65.06885],[30.49422,65.06989],[30.46668,65.07528],[30.44603,65.07072],[30.45292,65.11213],[30.01682,65.12186],[29.86816,65.11948],[29.89687,65.10515],[29.87186,65.10375],[29.83095,65.09193],[29.73269,65.0913],[29.71119,65.0839],[29.62697,65.0606],[29.61443,65.01279],[29.59933,64.99506],[29.61919,64.95966],[29.61104,64.92733],[29.64493,64.86648],[29.68148,64.84906],[29.6997,64.83722],[29.68752,64.8188],[29.73963,64.78978],[29.86884,64.78978],[29.89761,64.79354],[29.99579,64.79478],[30.00719,64.7915],[30.04294,64.79289],[30.08651,64.77399],[30.0856,64.76432],[30.0414,64.74119],[30.0537,64.71305],[30.13579,64.64898],[30.13015,64.63472],[30.11897,64.62591],[30.05434,64.61527],[29.98942,64.58758],[29.99744,64.57731],[29.98696,64.5339],[30.0146,64.50434],[30.0297,64.50063],[30.02441,64.48296],[30.04593,64.47212],[30.05833,64.45087],[30.05004,64.44163],[30.05722,64.43425],[30.04489,64.40201],[30.1099,64.36505],[30.13715,64.35796],[30.21015,64.35047],[30.28549,64.32983],[30.31686,64.32614],[30.48697,64.32338],[30.4855,64.36382],[30.49975,64.45726],[30.63053,64.44305],[30.6325,64.42884],[30.71952,64.42862],[30.72641,64.47082],[30.75296,64.46383],[30.77803,64.46955],[30.77951,64.46171],[30.79819,64.45641],[30.81195,64.44772],[30.83654,64.4386],[30.87292,64.43541],[30.87194,64.44347],[30.88865,64.45344],[30.92159,64.4492],[30.94618,64.44962],[30.93487,64.46001],[30.98059,64.46955],[30.99387,64.46213],[31.0096,64.43966],[31.03222,64.43393],[31.07155,64.43011],[31.16398,64.41589],[31.19397,64.40867],[31.17922,64.4006],[31.21167,64.39805],[31.21757,64.39146],[31.26526,64.38934],[31.26821,64.39571],[31.3336,64.39528],[31.30951,64.40782],[31.33458,64.40994],[31.34343,64.42756],[31.3374,64.44066]]]}}