{"type":"Feature","properties":{"id":"RUS.71.40","name":"Ust-Ilimsky","level":2,"country":"RUS"},"geometry":{"type":"Polygon","coordinates":[[[100.76527,57.40011],[100.77923,57.38103],[100.76569,57.37482],[100.76897,57.3648],[100.76285,57.34487],[100.74416,57.33613],[100.72296,57.33215],[100.73309,57.27693],[100.72396,57.2667],[100.73882,57.26379],[100.7505,57.25352],[100.74651,57.24465],[100.76914,57.24124],[100.76479,57.22628],[100.78385,57.21615],[100.76168,57.21105],[100.75997,57.20565],[100.77774,57.19514],[100.77315,57.18495],[100.73363,57.18045],[100.73578,57.16551],[100.75717,57.15745],[100.73673,57.1453],[100.73355,57.13462],[100.71224,57.13664],[100.70673,57.1205],[100.71609,57.12022],[100.73378,57.10589],[100.75706,57.10868],[100.76689,57.1028],[100.78502,57.08472],[100.80301,57.07163],[100.82566,57.06157],[100.83837,57.05283],[100.83406,57.04272],[100.84687,57.03865],[100.84398,57.01425],[100.85776,57.00353],[100.81829,56.99271],[100.81448,56.98085],[100.59005,56.85859],[100.62217,56.85042],[100.65005,56.83613],[100.66363,56.83294],[100.68493,56.83591],[100.69752,56.84445],[100.71721,56.85184],[100.77466,56.83813],[100.84579,56.83724],[100.89751,56.84592],[100.91326,56.846],[100.92882,56.8546],[100.98221,56.8563],[100.99928,56.86055],[101.01229,56.87209],[101.03299,56.87271],[101.05469,56.86639],[101.09383,56.85039],[101.14066,56.84062],[101.16187,56.82825],[101.18095,56.83185],[101.20013,56.83115],[101.22937,56.84428],[101.24696,56.84452],[101.26243,56.85836],[101.28697,56.8546],[101.28297,56.84296],[101.27357,56.83831],[101.29951,56.81991],[101.31596,56.81525],[101.34468,56.81359],[101.3728,56.81988],[101.39786,56.83481],[101.41231,56.83556],[101.42037,56.84691],[101.43991,56.85607],[101.48521,56.87],[101.50018,56.8668],[101.51125,56.88485],[101.53346,56.89269],[101.56143,56.8959],[101.58661,56.88597],[101.61758,56.881],[101.62987,56.87081],[101.67961,56.85699],[101.69513,56.84752],[101.73936,56.84269],[101.74451,56.83442],[101.76291,56.83187],[101.76647,56.83988],[101.79432,56.82996],[101.82046,56.83034],[101.82965,56.82557],[101.85894,56.82535],[101.87213,56.83496],[101.87419,56.84254],[101.8903,56.84188],[101.89936,56.84667],[101.92673,56.84512],[101.95229,56.84978],[101.96775,56.8237],[101.99765,56.81974],[102.01468,56.79813],[102.02079,56.78604],[102.03806,56.78102],[102.06415,56.77789],[102.08274,56.76889],[102.09547,56.75774],[102.11288,56.75668],[102.10781,56.74695],[102.1124,56.74058],[102.13631,56.72514],[102.14165,56.71751],[102.17681,56.71766],[102.19994,56.72004],[102.2145,56.71744],[102.2511,56.73637],[102.25798,56.74486],[102.28898,56.73156],[102.30195,56.73524],[102.32234,56.73493],[102.37505,56.74553],[102.39587,56.74099],[102.40097,56.73355],[102.4147,56.73284],[102.41415,56.74189],[102.42976,56.74666],[102.44039,56.75485],[102.47074,56.74766],[102.49273,56.74695],[102.511,56.7582],[102.52584,56.75155],[102.55634,56.74306],[102.58008,56.74907],[102.60074,56.7576],[102.60387,56.76564],[102.59208,56.7854],[102.60695,56.78829],[102.63726,56.78333],[102.65303,56.79201],[102.64023,56.802],[102.6352,56.8119],[102.6084,56.82583],[102.59947,56.84313],[102.59526,56.86739],[102.62528,56.88059],[102.63964,56.88986],[102.62168,56.9118],[102.64215,56.91675],[102.64602,56.92274],[102.63348,56.93302],[102.65439,56.9425],[102.66924,56.95497],[102.69526,56.96238],[102.71331,56.96229],[102.72594,56.95631],[102.74868,56.96107],[102.77311,56.97876],[102.79327,56.98367],[102.79734,56.99076],[102.78824,57.00681],[102.7754,57.01272],[102.77712,57.01855],[102.76399,57.02519],[102.73885,57.0252],[102.72652,57.02045],[102.69718,57.02477],[102.69981,57.03404],[102.69148,57.04583],[102.70762,57.04863],[102.72313,57.06106],[102.70535,57.07015],[102.68288,57.09759],[102.65712,57.11435],[102.6555,57.12103],[102.63475,57.13253],[102.61867,57.15015],[102.6371,57.16029],[102.6398,57.16932],[102.67736,57.17377],[102.68812,57.18041],[102.68414,57.18955],[102.66125,57.20805],[102.66195,57.214],[102.63722,57.22046],[102.63837,57.22951],[102.621,57.24048],[102.62051,57.25193],[102.5973,57.25775],[102.59793,57.26428],[102.61355,57.2763],[102.64043,57.27622],[102.67401,57.29291],[102.67424,57.30081],[102.69392,57.31392],[102.71064,57.32015],[102.69965,57.33486],[102.69657,57.34715],[102.67729,57.36491],[102.6821,57.37383],[102.63549,57.38802],[102.64494,57.40894],[102.64695,57.42151],[102.63923,57.42895],[102.64505,57.44511],[102.63483,57.45487],[102.60737,57.4539],[102.60085,57.45782],[102.5807,57.45424],[102.57776,57.46193],[102.56211,57.4645],[102.57407,57.47565],[102.56891,57.48521],[102.55396,57.48873],[102.54061,57.50275],[102.54032,57.5153],[102.54993,57.52317],[102.5509,57.53362],[102.5678,57.53388],[102.58518,57.54874],[102.58093,57.55608],[102.59912,57.57268],[102.59293,57.57888],[102.60499,57.5863],[102.59097,57.59829],[102.60009,57.60677],[102.58159,57.61476],[102.59229,57.62393],[102.58197,57.62997],[102.58581,57.64086],[102.57314,57.64964],[102.57969,57.66297],[102.59618,57.65731],[102.64811,57.64557],[102.69312,57.61903],[102.71201,57.60295],[102.73602,57.59074],[102.76368,57.58199],[102.80738,57.5549],[102.81617,57.50674],[102.82257,57.49204],[102.81448,57.47825],[102.78349,57.46224],[102.77888,57.45084],[102.7952,57.42851],[102.8181,57.41529],[102.84906,57.39093],[102.86998,57.38214],[102.89058,57.37961],[102.9428,57.38235],[102.97606,57.3892],[103.01951,57.40353],[103.05667,57.42249],[103.10481,57.45713],[103.13608,57.47512],[103.17994,57.48558],[103.20695,57.49454],[103.22524,57.5036],[103.24329,57.51639],[103.26352,57.5391],[103.27999,57.54433],[103.30571,57.54053],[103.32989,57.51384],[103.36663,57.50605],[103.36786,57.54404],[103.37279,57.55528],[103.40074,57.56288],[103.41274,57.57216],[103.42932,57.57186],[103.45131,57.57894],[103.46206,57.58761],[103.47729,57.61013],[103.50033,57.61726],[103.5088,57.62857],[103.50673,57.63471],[103.51704,57.64691],[103.53604,57.65418],[103.57327,57.6473],[103.59847,57.6374],[103.62959,57.65387],[103.64461,57.67271],[103.65165,57.68916],[103.63056,57.69812],[103.63653,57.719],[103.65286,57.73814],[103.65028,57.74618],[103.68536,57.74526],[103.69138,57.73108],[103.70669,57.72683],[103.72991,57.71164],[103.78984,57.72608],[103.7874,57.74036],[103.80496,57.74747],[103.8104,57.76057],[103.79389,57.77502],[103.79863,57.78745],[103.78393,57.7946],[103.77491,57.80877],[103.77936,57.81484],[103.80949,57.82837],[103.82204,57.82952],[103.84146,57.82318],[103.85455,57.80835],[103.87685,57.8136],[103.88611,57.82019],[103.93102,57.82148],[103.96156,57.83148],[103.98366,57.82627],[104.00214,57.81622],[104.01706,57.8033],[104.06126,57.79543],[104.08809,57.78639],[104.11514,57.78199],[104.12766,57.77359],[104.12574,57.764],[104.09291,57.74162],[104.09122,57.72877],[104.10851,57.72611],[104.11774,57.71372],[104.13022,57.70744],[104.14858,57.71145],[104.16736,57.70179],[104.21602,57.68878],[104.25438,57.70324],[104.31496,57.68903],[104.33764,57.67302],[104.35012,57.67236],[104.36478,57.663],[104.39142,57.66032],[104.39818,57.67076],[104.42672,57.67251],[104.44936,57.66569],[104.46959,57.66832],[104.49252,57.66292],[104.5087,57.66291],[104.54029,57.6532],[104.55117,57.65988],[104.55146,57.66753],[104.56159,57.68319],[104.54659,57.69401],[104.54357,57.70221],[104.53098,57.7044],[104.51953,57.71485],[104.51322,57.73928],[104.52531,57.74654],[104.52654,57.76399],[104.51849,57.77303],[104.52465,57.78332],[104.51022,57.7923],[104.5282,57.81075],[104.548,57.81626],[104.54901,57.82458],[104.56189,57.83086],[104.56859,57.85151],[104.60978,57.86245],[104.63577,57.85198],[104.66492,57.86378],[104.66,57.88109],[104.68304,57.89181],[104.68341,57.89781],[104.69685,57.91299],[104.71994,57.91902],[104.71864,57.93526],[104.76015,57.942],[104.76028,57.96898],[104.75355,57.97933],[104.75758,57.98552],[104.75494,57.99907],[104.76383,58.01162],[104.76035,58.01678],[104.76546,58.03186],[104.76258,58.04968],[104.77014,58.05607],[104.76706,58.07281],[104.7569,58.08072],[104.76174,58.09183],[104.75936,58.10658],[104.7418,58.11794],[104.74114,58.13098],[104.73034,58.13851],[104.74072,58.15506],[104.71516,58.16527],[104.70353,58.17709],[104.68587,58.1789],[104.67023,58.18588],[104.68747,58.19163],[104.69531,58.20067],[104.71482,58.20991],[104.73157,58.20601],[104.74798,58.21324],[104.75907,58.2064],[104.78194,58.21141],[104.79835,58.21009],[104.80716,58.22588],[104.8189,58.22485],[104.85047,58.24926],[104.80924,58.26956],[104.79399,58.28212],[104.79591,58.29755],[104.79286,58.32124],[104.78116,58.33685],[104.80069,58.35078],[104.80469,58.36687],[104.79956,58.3769],[104.80089,58.38939],[104.79279,58.40187],[104.81425,58.41676],[104.81489,58.42241],[104.77737,58.44489],[104.77317,58.45982],[104.76151,58.47377],[104.73078,58.48216],[104.69307,58.50615],[104.70886,58.52416],[104.67875,58.56856],[104.65486,58.58432],[104.68788,58.60101],[104.70142,58.61752],[104.73552,58.61705],[104.7451,58.62763],[104.77409,58.63178],[104.79471,58.63224],[104.83056,58.64496],[104.81585,58.65831],[104.82317,58.66014],[104.82574,58.67535],[104.83612,58.69018],[104.85047,58.68866],[104.85912,58.70299],[104.87301,58.71028],[104.87433,58.72447],[104.84652,58.71216],[104.81727,58.69282],[104.81642,58.68082],[104.80835,58.67552],[104.75713,58.67721],[104.70941,58.66749],[104.69026,58.65414],[104.66659,58.64998],[104.65183,58.64418],[104.6358,58.65108],[104.61654,58.64105],[104.62522,58.62866],[104.60832,58.62201],[104.59077,58.62249],[104.58171,58.62787],[104.53429,58.63923],[104.52519,58.63837],[104.50055,58.62443],[104.49537,58.61306],[104.48179,58.61497],[104.4664,58.60878],[104.45562,58.61361],[104.43142,58.61749],[104.42893,58.62342],[104.40892,58.62808],[104.40908,58.64566],[104.37763,58.66465],[104.34669,58.67287],[104.34817,58.67917],[104.36579,58.68883],[104.38745,58.70931],[104.37974,58.71925],[104.38235,58.72699],[104.35872,58.72592],[104.33927,58.73355],[104.31594,58.72879],[104.29983,58.729],[104.29484,58.72155],[104.25418,58.71597],[104.23285,58.72559],[104.21276,58.75529],[104.19938,58.76044],[104.19837,58.77451],[104.18074,58.76537],[104.15879,58.7698],[104.14926,58.76653],[104.13388,58.7779],[104.11995,58.77685],[104.06326,58.7878],[104.05039,58.78527],[104.03497,58.78854],[104.0231,58.77497],[104.02737,58.76971],[103.99422,58.74913],[103.98907,58.73744],[103.96835,58.7273],[103.94999,58.7224],[103.92942,58.72645],[103.92426,58.73431],[103.89139,58.7367],[103.88653,58.74931],[103.89839,58.75025],[103.91683,58.76032],[103.94741,58.76242],[103.96511,58.77076],[103.9504,58.78835],[103.95482,58.80519],[103.94961,58.81086],[103.95869,58.82863],[103.94924,58.8342],[103.95741,58.84068],[103.97909,58.84799],[103.97588,58.85562],[103.98641,58.86438],[103.98597,58.87531],[103.94773,58.87649],[103.94923,58.88381],[103.94017,58.89122],[103.94621,58.9038],[103.91128,58.91575],[103.90168,58.92143],[103.85259,58.91911],[103.839,58.9131],[103.82334,58.91445],[103.78322,58.90885],[103.74956,58.91875],[103.72795,58.91598],[103.71323,58.92261],[103.70477,58.93381],[103.6694,58.93298],[103.6337,58.92316],[103.60996,58.93075],[103.59308,58.94453],[103.59238,58.95331],[103.60796,58.96329],[103.58872,58.96967],[103.59127,58.97778],[103.58303,58.98494],[103.57027,58.98462],[103.55937,58.99745],[103.51872,59.00561],[103.4931,59.01481],[103.47478,59.01489],[103.46077,59.00873],[103.43665,59.02252],[103.39371,59.02895],[103.38621,59.05143],[103.35933,59.06113],[103.36318,59.0676],[103.35344,59.08554],[103.33601,59.10213],[103.32271,59.10481],[103.32258,59.11467],[103.31307,59.13404],[103.27987,59.15754],[103.24402,59.16865],[103.23439,59.18028],[103.25265,59.19235],[103.24497,59.20211],[103.23069,59.20721],[103.23062,59.22188],[103.21614,59.2306],[103.21683,59.2375],[103.23817,59.24183],[103.26304,59.2408],[103.28509,59.24281],[103.30022,59.23707],[103.32902,59.24083],[103.3465,59.23672],[103.36388,59.23694],[103.35086,59.25222],[103.357,59.26198],[103.33126,59.2733],[103.30391,59.26789],[103.29935,59.27324],[103.27654,59.279],[103.26205,59.28754],[103.22939,59.28586],[103.2126,59.27838],[103.21843,59.26224],[103.19954,59.25532],[103.18634,59.25918],[103.16975,59.25687],[103.13694,59.25848],[103.11266,59.26336],[103.09698,59.27395],[103.07924,59.27559],[103.06183,59.28175],[103.06265,59.29584],[103.04648,59.31045],[103.01859,59.31841],[102.98946,59.31034],[102.98324,59.29568],[102.95745,59.29564],[102.93937,59.29874],[102.92482,59.28591],[102.92369,59.2796],[102.8971,59.27584],[102.88249,59.2551],[102.8633,59.2539],[102.84969,59.2434],[102.85913,59.23339],[102.85736,59.22647],[102.8668,59.2183],[102.85184,59.2092],[102.8316,59.20501],[102.82378,59.19305],[102.78461,59.20237],[102.7325,59.20028],[102.71785,59.20276],[102.69351,59.1996],[102.6635,59.20132],[102.64869,59.19767],[102.63212,59.21115],[102.61667,59.21158],[102.59028,59.20296],[102.56363,59.20941],[102.55259,59.20023],[102.55063,59.18866],[102.52983,59.18488],[102.49548,59.18467],[102.4834,59.16528],[102.45829,59.15055],[102.43929,59.14927],[102.43754,59.13642],[102.41966,59.12762],[102.43871,59.11576],[102.42379,59.09374],[102.40255,59.08348],[102.40965,59.07116],[102.4613,59.05089],[102.4621,59.0451],[102.44007,59.03938],[102.43414,59.02967],[102.43754,59.02215],[102.46786,59.0233],[102.47398,59.01535],[102.49184,59.01077],[102.48954,59.00054],[102.47961,58.99488],[102.45701,58.99579],[102.4355,58.99106],[102.4387,58.98286],[102.45598,58.98076],[102.44572,58.9703],[102.44852,58.95583],[102.4411,58.94767],[102.44987,58.93975],[102.4846,58.93669],[102.48111,58.9266],[102.51053,58.90854],[102.53891,58.90471],[102.55577,58.9059],[102.55009,58.88855],[102.55804,58.86497],[102.5424,58.84796],[102.55517,58.84047],[102.54666,58.82515],[102.56213,58.81204],[102.58149,58.79003],[102.5619,58.77771],[102.54839,58.76503],[102.56558,58.74051],[102.53206,58.72439],[102.52096,58.70827],[102.5003,58.71097],[102.46745,58.69631],[102.45483,58.69519],[102.45231,58.68128],[102.43554,58.67533],[102.40744,58.67317],[102.39497,58.67917],[102.39197,58.66348],[102.3585,58.65809],[102.33808,58.64858],[102.32986,58.63588],[102.31518,58.62764],[102.31268,58.61599],[102.29331,58.6104],[102.29542,58.6007],[102.27756,58.59091],[102.29875,58.58513],[102.27664,58.57503],[102.28574,58.56476],[102.2599,58.56112],[102.25368,58.55199],[102.2207,58.5385],[102.21187,58.52827],[102.18393,58.51915],[102.16494,58.51836],[102.13303,58.50356],[102.11325,58.50005],[102.10223,58.48896],[102.08276,58.49234],[102.05906,58.48702],[102.02873,58.49209],[102.00817,58.47558],[101.96902,58.47567],[101.95427,58.47952],[101.94378,58.47214],[101.92274,58.46558],[101.90488,58.46634],[101.89014,58.46091],[101.86592,58.463],[101.83087,58.45462],[101.8134,58.4559],[101.7913,58.45329],[101.77705,58.44225],[101.73962,58.42859],[101.69985,58.41115],[101.67798,58.39015],[101.68349,58.38076],[101.67295,58.37605],[101.67495,58.36667],[101.66474,58.34067],[101.64306,58.33952],[101.6386,58.32448],[101.62393,58.31866],[101.62485,58.31275],[101.60519,58.30804],[101.58907,58.29761],[101.58055,58.28602],[101.55607,58.27527],[101.56095,58.26787],[101.55375,58.25559],[101.51926,58.23672],[101.49815,58.2297],[101.46757,58.23238],[101.43637,58.23744],[101.39911,58.23303],[101.36381,58.23268],[101.34098,58.21955],[101.30801,58.20796],[101.28876,58.19048],[101.27115,58.19329],[101.2555,58.17176],[101.25949,58.16557],[101.24311,58.15373],[101.23072,58.15151],[101.22477,58.14092],[101.20727,58.13587],[101.19783,58.12855],[101.17187,58.12852],[101.14941,58.12302],[101.15521,58.11305],[101.14848,58.10764],[101.10766,58.10267],[101.10891,58.0897],[101.11886,58.07771],[101.12041,58.06211],[101.13908,58.05942],[101.14293,58.04872],[101.16687,58.04421],[101.16788,58.03136],[101.15137,58.01203],[101.16117,58.00372],[101.13784,57.99774],[101.13969,57.98791],[101.13098,57.97807],[101.13863,57.9682],[101.10406,57.96242],[101.10205,57.95388],[101.08404,57.94931],[101.06964,57.94091],[101.0395,57.93073],[101.04438,57.91869],[101.02204,57.91085],[101.03907,57.90275],[101.02242,57.88051],[100.97395,57.86419],[100.94276,57.8693],[100.93714,57.8618],[100.91986,57.86305],[100.89817,57.87527],[100.87311,57.87848],[100.84374,57.87441],[100.82938,57.86506],[100.83752,57.85681],[100.85523,57.85254],[100.85758,57.83543],[100.85106,57.82442],[100.86959,57.82076],[100.85402,57.81007],[100.86155,57.79473],[100.87962,57.79145],[100.88667,57.78271],[100.90736,57.77514],[100.90216,57.76057],[100.89302,57.75635],[100.89116,57.74053],[100.872,57.73564],[100.86157,57.71655],[100.8471,57.71085],[100.85749,57.70212],[100.84057,57.69559],[100.85205,57.6858],[100.84514,57.67912],[100.82833,57.67665],[100.81492,57.66695],[100.82686,57.65507],[100.83825,57.65681],[100.84802,57.64823],[100.81804,57.63404],[100.84443,57.61678],[100.85006,57.60559],[100.86656,57.59696],[100.8985,57.59191],[100.92068,57.58011],[100.95039,57.57086],[100.94622,57.56117],[100.94874,57.54836],[100.95718,57.54484],[100.94473,57.53321],[100.9629,57.52591],[100.9441,57.51919],[100.95434,57.51041],[100.94161,57.5014],[100.96025,57.49505],[100.97064,57.4871],[100.95649,57.48251],[100.9567,57.47401],[100.93772,57.45938],[100.93935,57.45258],[100.92721,57.44819],[100.91391,57.45315],[100.90234,57.44685],[100.88362,57.44725],[100.88968,57.45571],[100.8745,57.46289],[100.8577,57.46439],[100.84552,57.45476],[100.82376,57.44503],[100.80826,57.4414],[100.80892,57.43241],[100.78682,57.40854],[100.75949,57.40583],[100.76527,57.40011]],[[102.52041,57.93592],[102.5271,58.0162],[102.58947,58.01202],[102.60444,58.00585],[102.62692,58.00989],[102.63488,58.02407],[102.67534,58.04439],[102.69762,58.04264],[102.71226,58.03387],[102.74396,58.04229],[102.75228,58.06349],[102.77901,58.09807],[102.82001,58.09783],[102.81314,58.08095],[102.80443,58.07576],[102.81167,58.06258],[102.85587,58.05285],[102.88778,58.05231],[102.8592,58.03434],[102.84028,58.02546],[102.82571,57.98099],[102.81095,57.96804],[102.78995,57.95979],[102.78478,57.94088],[102.76628,57.91953],[102.75101,57.91583],[102.726,57.922],[102.70762,57.91603],[102.65215,57.93627],[102.60777,57.94872],[102.52041,57.93592]]]}}