{"type":"Feature","properties":{"id":"RUS.36.10","name":"Resort Town of Sochi (municipal formation)","level":2,"country":"RUS"},"geometry":{"type":"Polygon","coordinates":[[[39.80147,43.94026],[39.77648,43.93834],[39.75358,43.93223],[39.74312,43.9397],[39.71285,43.95027],[39.70015,43.95078],[39.6948,43.95939],[39.67717,43.9648],[39.68571,43.97261],[39.68729,43.98799],[39.67276,43.99255],[39.65194,44.00688],[39.62772,44.0109],[39.58589,44.02418],[39.58085,44.0302],[39.58277,44.04056],[39.57831,44.04552],[39.56096,44.05057],[39.55097,44.05893],[39.5292,44.06839],[39.50464,44.07299],[39.50024,44.0811],[39.49041,44.08287],[39.48259,44.09368],[39.4518,44.10781],[39.44906,44.11344],[39.43006,44.12734],[39.41353,44.1167],[39.40626,44.1002],[39.3893,44.10105],[39.38344,44.09331],[39.38511,44.08541],[39.38022,44.072],[39.39766,44.06249],[39.38794,44.04148],[39.36496,44.05136],[39.35821,44.0495],[39.33506,44.05637],[39.29849,44.05834],[39.27987,44.0688],[39.24765,44.07712],[39.23471,44.07544],[39.22844,44.06741],[39.21121,44.05904],[39.19267,44.05325],[39.17502,44.0532],[39.16428,44.04846],[39.16052,44.03151],[39.14937,44.02339],[39.18592,44.00143],[39.20857,43.99329],[39.22803,43.97963],[39.24258,43.97595],[39.26284,43.95684],[39.28228,43.94988],[39.29497,43.94245],[39.33434,43.8976],[39.35018,43.89375],[39.39518,43.85772],[39.40216,43.85432],[39.41901,43.83243],[39.43197,43.82429],[39.44384,43.81202],[39.46142,43.78801],[39.50099,43.76372],[39.53765,43.734],[39.56941,43.71354],[39.58274,43.70244],[39.6073,43.6671],[39.62887,43.65725],[39.64473,43.65412],[39.68055,43.6384],[39.69912,43.6211],[39.71366,43.58374],[39.73174,43.56844],[39.75358,43.56176],[39.77638,43.54792],[39.82501,43.53017],[39.84147,43.52103],[39.84985,43.51218],[39.86366,43.51139],[39.88435,43.49362],[39.90417,43.44173],[39.9144,43.42501],[39.92295,43.41602],[39.94241,43.4056],[39.9487,43.39911],[39.96799,43.39696],[39.99187,43.38525],[40.00353,43.38642],[40.00924,43.39618],[40.00841,43.40522],[40.01389,43.41198],[40.01015,43.42435],[40.03131,43.44015],[40.04207,43.45352],[40.04439,43.47507],[40.0635,43.50529],[40.07224,43.50965],[40.09506,43.52938],[40.09069,43.55558],[40.09788,43.56598],[40.10901,43.56961],[40.13067,43.56504],[40.15726,43.57456],[40.16303,43.57252],[40.21362,43.57467],[40.24197,43.5864],[40.2596,43.58619],[40.27074,43.57762],[40.28142,43.57868],[40.29944,43.57024],[40.3141,43.57837],[40.3287,43.56619],[40.34496,43.56239],[40.35465,43.56445],[40.38822,43.55446],[40.4097,43.55212],[40.43311,43.55768],[40.44683,43.55061],[40.46663,43.54608],[40.4796,43.54871],[40.50541,43.52488],[40.5233,43.5205],[40.5663,43.51916],[40.58745,43.53091],[40.59529,43.53166],[40.60888,43.54731],[40.63426,43.55003],[40.66178,43.56305],[40.65497,43.56949],[40.65905,43.5814],[40.6478,43.58596],[40.63962,43.58365],[40.60505,43.58761],[40.60237,43.59696],[40.57653,43.60796],[40.57047,43.6148],[40.55417,43.61774],[40.55304,43.62331],[40.53264,43.6258],[40.51374,43.63418],[40.5116,43.63914],[40.48862,43.65036],[40.47585,43.64794],[40.46107,43.65498],[40.45683,43.66683],[40.44941,43.67159],[40.45741,43.69737],[40.455,43.70502],[40.46518,43.71206],[40.45186,43.72527],[40.41592,43.72712],[40.40186,43.73026],[40.38212,43.73007],[40.37034,43.73385],[40.38644,43.74595],[40.38715,43.77012],[40.36567,43.77327],[40.34773,43.7722],[40.32355,43.77782],[40.31957,43.78188],[40.29853,43.77906],[40.29449,43.77056],[40.27626,43.76079],[40.24941,43.76212],[40.2331,43.77538],[40.21686,43.77912],[40.2144,43.79225],[40.20548,43.80151],[40.20812,43.81878],[40.20047,43.82372],[40.19965,43.83501],[40.18884,43.84581],[40.19714,43.86091],[40.18994,43.87242],[40.16844,43.87166],[40.1509,43.85769],[40.11267,43.86813],[40.10436,43.86197],[40.09335,43.84523],[40.07579,43.85604],[40.06806,43.86768],[40.04348,43.88065],[40.02691,43.87966],[40.0136,43.88594],[40.00281,43.89879],[39.97807,43.91262],[39.95348,43.9333],[39.94264,43.94808],[39.94213,43.95633],[39.92548,43.96448],[39.92299,43.97254],[39.90892,43.97388],[39.90275,43.95374],[39.91268,43.9395],[39.87668,43.93035],[39.87005,43.93111],[39.8466,43.9241],[39.8244,43.93095],[39.80774,43.93364],[39.80147,43.94026]]]}}