{"type":"Feature","properties":{"id":"RUS.43.47","name":"Burzyansky District","level":2,"country":"RUS"},"geometry":{"type":"Polygon","coordinates":[[[56.84782,53.22086],[56.86302,53.21588],[56.86745,53.20971],[56.88412,53.2015],[56.88904,53.19033],[56.88418,53.17651],[56.86905,53.1668],[56.86568,53.14798],[56.86285,53.11388],[56.85947,53.10388],[56.8654,53.07979],[56.87572,53.05569],[56.87479,53.04041],[56.8788,53.00337],[56.87542,52.99338],[56.86082,52.98777],[56.8774,52.98221],[56.88084,52.96928],[56.87698,52.95898],[56.86336,52.95368],[56.86197,52.93281],[56.88387,52.92813],[56.88827,52.9199],[56.86564,52.90549],[56.8876,52.89033],[56.89259,52.85779],[56.95909,52.85904],[56.95911,52.86291],[57.09898,52.86926],[57.09746,52.94255],[57.12422,52.94223],[57.11508,52.9831],[57.14674,52.98394],[57.14959,52.96278],[57.18562,52.96361],[57.1918,52.93009],[57.22342,52.92974],[57.34025,52.93887],[57.35199,52.88739],[57.38664,52.90286],[57.45811,52.90319],[57.47978,52.92868],[57.5107,52.95207],[57.52384,52.95143],[57.52501,52.96759],[57.55774,52.97626],[57.5684,52.97209],[57.58739,52.972],[57.64128,52.99406],[57.67073,52.97685],[57.71651,52.97658],[57.71936,52.97275],[57.76747,52.95501],[57.78995,52.9624],[57.80389,52.97128],[57.81785,52.9695],[57.82914,53.00192],[57.83282,53.02056],[57.82075,53.0213],[57.81701,53.04386],[57.83397,53.05586],[57.81963,53.06474],[57.8196,53.07031],[57.83695,53.07651],[57.8468,53.08644],[57.88523,53.10222],[57.89132,53.10968],[57.90641,53.11185],[57.91801,53.12324],[57.95582,53.12293],[57.97749,53.12077],[57.99953,53.11016],[58.04016,53.07549],[58.05746,53.06695],[58.06906,53.095],[58.11219,53.13358],[58.14165,53.15604],[58.13169,53.19424],[58.1186,53.2252],[58.07726,53.228],[58.03962,53.24725],[58.03988,53.2578],[58.06062,53.26597],[58.06699,53.28636],[58.09722,53.29202],[58.10079,53.30232],[58.04552,53.30876],[58.06492,53.33585],[58.07877,53.34606],[58.10204,53.33661],[58.11595,53.35969],[58.13002,53.35609],[58.13057,53.3458],[58.17106,53.34871],[58.17929,53.35498],[58.17932,53.36906],[58.19419,53.38332],[58.18369,53.39672],[58.19128,53.41874],[58.1797,53.42313],[58.18415,53.43405],[58.18315,53.45324],[58.20143,53.48024],[58.18053,53.49044],[58.16752,53.48535],[58.06888,53.4976],[58.05333,53.47355],[58.02066,53.46655],[58.01467,53.46793],[57.99435,53.46046],[57.97304,53.46284],[57.94851,53.46963],[57.90069,53.47374],[57.84505,53.4737],[57.84422,53.48756],[57.81185,53.48891],[57.79842,53.48195],[57.78114,53.4803],[57.76794,53.48627],[57.75164,53.48402],[57.76079,53.4722],[57.72905,53.46005],[57.73522,53.4465],[57.72452,53.4251],[57.72289,53.416],[57.73613,53.41386],[57.73869,53.39121],[57.63804,53.4012],[57.62864,53.43094],[57.60944,53.43074],[57.58434,53.39471],[57.54475,53.37491],[57.52097,53.35973],[57.51323,53.36976],[57.46107,53.3641],[57.44442,53.36974],[57.42664,53.3607],[57.39863,53.36109],[57.39271,53.35758],[57.34877,53.39181],[57.3552,53.39738],[57.35484,53.41296],[57.33879,53.43534],[57.36191,53.43381],[57.37852,53.47579],[57.35504,53.49555],[57.31022,53.50067],[57.28671,53.52395],[57.30319,53.55125],[57.26867,53.55633],[57.25876,53.55047],[57.23855,53.55433],[57.2381,53.56286],[57.20156,53.56234],[57.19999,53.54353],[57.17678,53.53857],[57.16094,53.52419],[57.15744,53.51185],[57.14558,53.5054],[57.13963,53.49335],[57.12085,53.47691],[57.09621,53.47341],[57.09123,53.45137],[57.10942,53.43783],[57.10643,53.42578],[57.09463,53.42815],[57.0828,53.42198],[57.0587,53.42993],[57.05427,53.42494],[57.06213,53.41406],[57.01932,53.41319],[57.01735,53.40232],[56.99817,53.40261],[56.99817,53.36998],[56.94853,53.36968],[56.94609,53.35674],[56.91072,53.35614],[56.90879,53.33644],[56.91519,53.33145],[56.90688,53.31292],[56.87107,53.30731],[56.8628,53.28525],[56.83827,53.28581],[56.84782,53.22086]],[[58.13322,53.42095],[58.13511,53.42193],[58.138,53.42088],[58.1351,53.41959],[58.13322,53.42095]]]}}