{"type":"Feature","properties":{"id":"RUS.18.3","name":"Louhi District","level":2,"country":"RUS"},"geometry":{"type":"MultiPolygon","coordinates":[[[[34.25862,66.16084],[34.25156,66.17125],[34.22236,66.18197],[34.20605,66.17826],[34.25862,66.16084]]],[[[33.89795,66.2137],[33.92959,66.22376],[33.92011,66.22806],[33.90121,66.22406],[33.89795,66.2137]]],[[[33.91053,66.25252],[33.921,66.26129],[33.96104,66.26295],[33.93039,66.2749],[33.87987,66.28261],[33.81103,66.28293],[33.78695,66.27608],[33.80577,66.26882],[33.831,66.26409],[33.85229,66.25579],[33.91053,66.25252]]],[[[33.63964,66.29012],[33.62679,66.28609],[33.69804,66.28115],[33.68488,66.29044],[33.66822,66.28963],[33.65877,66.29764],[33.63964,66.29012]]],[[[34.56674,66.04548],[34.53809,66.067],[34.51288,66.07934],[34.45516,66.09042],[34.44739,66.09707],[34.38584,66.1115],[34.3801,66.12018],[34.34875,66.12863],[34.3179,66.14406],[34.29618,66.14849],[34.25537,66.15143],[34.20227,66.16367],[34.20062,66.173],[34.15593,66.16899],[34.14731,66.17232],[34.18187,66.18857],[34.15253,66.20183],[34.1396,66.21326],[34.11173,66.21737],[34.10943,66.22671],[34.07187,66.22837],[34.02588,66.21885],[33.98728,66.2207],[33.97371,66.22479],[33.94918,66.2246],[33.92031,66.20628],[33.90191,66.20773],[33.89226,66.21746],[33.89156,66.22407],[33.91069,66.23446],[33.88197,66.2391],[33.86747,66.2366],[33.83147,66.24978],[33.7974,66.25607],[33.80256,66.26027],[33.7513,66.27638],[33.63352,66.28381],[33.57467,66.27932],[33.57651,66.28314],[33.61065,66.29199],[33.61335,66.29981],[33.63192,66.30585],[33.59865,66.31315],[33.51953,66.31394],[33.50972,66.30222],[33.46195,66.29869],[33.43426,66.3054],[33.37732,66.29751],[33.34742,66.3053],[33.31234,66.29566],[33.30777,66.28569],[33.26142,66.28118],[33.2467,66.27506],[33.20478,66.27205],[33.19968,66.26899],[33.08175,66.26341],[33.0675,66.25721],[33.02162,66.25242],[33.0255,66.26155],[33.06157,66.26192],[33.07816,66.2757],[33.15083,66.27391],[33.19847,66.27654],[33.278,66.29214],[33.28827,66.30184],[33.31093,66.30972],[33.38636,66.31684],[33.41001,66.32432],[33.44693,66.32614],[33.48965,66.33069],[33.64591,66.3355],[33.66755,66.34619],[33.63788,66.35107],[33.58874,66.35162],[33.58526,66.36621],[33.53578,66.3761],[33.50642,66.37351],[33.47458,66.37553],[33.50151,66.38363],[33.49943,66.39105],[33.53104,66.39299],[33.54142,66.40114],[33.56937,66.39592],[33.64238,66.40715],[33.65244,66.40161],[33.69864,66.41087],[33.68155,66.41618],[33.64783,66.42055],[33.61679,66.43039],[33.59822,66.42854],[33.58821,66.43753],[33.55766,66.44301],[33.55791,66.45426],[33.58031,66.45507],[33.60159,66.46254],[33.62854,66.46627],[33.6089,66.47401],[33.56023,66.47215],[33.54687,66.47552],[33.52938,66.46535],[33.53988,66.44793],[33.52251,66.44262],[33.46896,66.44969],[33.45624,66.45318],[33.37256,66.45917],[33.3414,66.47099],[33.30369,66.47337],[33.29614,66.48438],[33.27889,66.48761],[33.27199,66.49965],[33.25151,66.50184],[33.25804,66.51359],[33.23823,66.51951],[33.20679,66.51648],[33.17283,66.51652],[33.16635,66.50706],[33.14391,66.50402],[33.08225,66.50429],[33.04269,66.5007],[33.00582,66.50815],[32.97495,66.51739],[32.97099,66.52401],[33.03073,66.52825],[33.09837,66.52597],[33.0869,66.53659],[33.12551,66.5383],[33.15628,66.53687],[33.14287,66.54698],[33.1002,66.55498],[33.06895,66.55466],[33.04201,66.55027],[33.02685,66.55774],[33.00774,66.55968],[32.98476,66.56811],[32.96239,66.56956],[32.94837,66.56139],[32.90842,66.56698],[32.8816,66.56721],[32.86869,66.57997],[32.85344,66.58326],[32.58711,66.58221],[32.55728,66.5761],[32.54815,66.47949],[32.48999,66.48001],[32.36039,66.47517],[32.35383,66.46664],[32.34266,66.34539],[31.93698,66.35105],[31.85388,66.36348],[31.83003,66.37138],[31.79194,66.49523],[31.62116,66.50238],[31.60601,66.56225],[31.57586,66.654],[31.49748,66.65871],[31.36124,66.65764],[31.09364,66.6588],[31.08642,66.66732],[30.63979,66.65844],[30.15952,66.65284],[30.16951,66.66066],[29.32253,66.66286],[29.35319,66.6418],[29.3602,66.6256],[29.38682,66.60808],[29.38281,66.59846],[29.40145,66.59723],[29.41101,66.58335],[29.42113,66.57965],[29.47268,66.54345],[29.52429,66.4907],[29.63109,66.36658],[29.66332,66.31771],[29.69682,66.27721],[29.70949,66.2682],[29.92394,66.12625],[29.97126,66.04587],[29.98926,66.01991],[29.99727,65.97889],[30.02417,65.96685],[30.02428,65.95888],[30.0682,65.89518],[30.08735,65.85057],[30.13343,65.70235],[30.13846,65.66869],[30.04014,65.68712],[30.01709,65.69653],[29.93072,65.67873],[29.92591,65.66343],[30.54146,65.65248],[30.55031,65.65025],[30.53458,65.56985],[31.54984,65.54727],[31.53804,65.47064],[32.38814,65.441],[32.39121,65.45249],[32.41119,65.4627],[32.42578,65.46302],[32.44806,65.44643],[32.48416,65.44866],[32.51336,65.44547],[32.54255,65.44802],[32.57558,65.43429],[32.59171,65.43206],[32.59863,65.44196],[32.63166,65.43653],[32.64549,65.44994],[32.66393,65.45664],[32.77301,65.45568],[33.78551,65.43366],[33.83698,65.73216],[34.49917,65.71384],[34.56674,66.04548]]],[[[33.45082,66.30603],[33.48423,66.31252],[33.47071,66.31988],[33.44921,66.32105],[33.4259,66.31701],[33.43467,66.30834],[33.45082,66.30603]]],[[[33.65602,66.31875],[33.62486,66.31888],[33.63801,66.31102],[33.65602,66.31875]]],[[[33.87949,66.31134],[33.8817,66.31652],[33.8514,66.32154],[33.8266,66.32918],[33.8,66.32405],[33.81903,66.31516],[33.87949,66.31134]]],[[[33.75001,66.41815],[33.79143,66.41873],[33.7865,66.42438],[33.75464,66.42646],[33.75001,66.41815]]],[[[33.7501,66.29946],[33.78456,66.30197],[33.76562,66.31476],[33.808,66.31573],[33.78882,66.32908],[33.75372,66.32923],[33.74233,66.32424],[33.6746,66.32391],[33.65985,66.31963],[33.68098,66.30113],[33.69311,66.30325],[33.7501,66.29946]]],[[[33.8292,66.32985],[33.84974,66.3336],[33.85927,66.34397],[33.85954,66.35928],[33.84002,66.36242],[33.80041,66.35199],[33.81334,66.34645],[33.8064,66.33513],[33.8292,66.32985]]],[[[33.4399,66.47752],[33.42865,66.48535],[33.41079,66.48214],[33.4399,66.47752]]],[[[33.04698,66.52222],[33.019,66.51866],[33.03181,66.51176],[33.10101,66.50866],[33.13305,66.50991],[33.1398,66.51502],[33.11302,66.52433],[33.07798,66.52158],[33.04698,66.52222]]]]}}