{"type":"Feature","properties":{"id":"RUS.45.14","name":"Mokrousovsky District","level":2,"country":"RUS"},"geometry":{"type":"Polygon","coordinates":[[[67.0474,55.48808],[67.05215,55.4967],[67.09809,55.51624],[67.09508,55.53227],[67.11537,55.53421],[67.13197,55.52022],[67.16505,55.54113],[67.16318,55.55376],[67.17622,55.55492],[67.20635,55.54945],[67.23614,55.55432],[67.26224,55.5527],[67.30645,55.53496],[67.33062,55.53724],[67.35481,55.53269],[67.40446,55.52955],[67.44717,55.53769],[67.48643,55.57779],[67.46014,55.64827],[67.49563,55.67878],[67.46477,55.69759],[67.46248,55.71899],[67.44976,55.73554],[67.40392,55.72786],[67.31899,55.85578],[67.33317,55.86967],[67.29974,55.88876],[67.28379,55.91477],[67.27833,55.9389],[67.30305,55.9629],[67.184,55.96238],[67.09989,55.95814],[67.09906,55.96928],[67.08297,55.9734],[67.04109,55.97078],[66.98372,55.97147],[66.98989,55.99235],[66.92495,55.99264],[66.92486,55.97343],[66.76387,55.97563],[66.76354,56.00953],[66.72209,56.0268],[66.7234,56.0425],[66.67653,56.04078],[66.6659,56.03854],[66.63586,56.00607],[66.62909,56.00294],[66.5862,55.99876],[66.51823,55.97308],[66.4811,55.96647],[66.47333,55.95609],[66.46108,55.95805],[66.47035,55.91743],[66.51692,55.92066],[66.50728,55.90612],[66.50753,55.87485],[66.51007,55.85176],[66.51577,55.84079],[66.48811,55.84459],[66.43459,55.83823],[66.43308,55.83015],[66.3297,55.82677],[66.29194,55.81583],[66.2793,55.8167],[66.27039,55.82511],[66.25548,55.8227],[66.26007,55.81299],[66.26064,55.79253],[66.24721,55.79382],[66.24309,55.76522],[66.24962,55.76112],[66.27924,55.75731],[66.27862,55.75124],[66.25642,55.73054],[66.27508,55.68031],[66.28588,55.66715],[66.29638,55.66374],[66.33122,55.61422],[66.34391,55.60822],[66.37473,55.59881],[66.40428,55.59224],[66.42052,55.58321],[66.43488,55.57106],[66.48581,55.57059],[66.51925,55.57313],[66.53012,55.57004],[66.54425,55.55811],[66.57123,55.54057],[66.59112,55.54504],[66.59784,55.55031],[66.65957,55.53988],[66.69075,55.54177],[66.68508,55.56231],[66.69196,55.58441],[66.74302,55.59184],[66.80301,55.59575],[66.80455,55.59171],[66.80132,55.54383],[66.84669,55.54413],[66.84134,55.55231],[66.86486,55.55205],[66.86517,55.56099],[66.91294,55.56045],[66.92585,55.55274],[66.92802,55.54235],[66.99396,55.5416],[67.00827,55.52473],[67.02751,55.5246],[67.0305,55.48791],[67.0474,55.48808]]]}}