{"type":"Feature","properties":{"id":"RUS.82.7","name":"Smirnykhovsky District","level":2,"country":"RUS"},"geometry":{"type":"Polygon","coordinates":[[[143.30743,50.74764],[143.307,50.73761],[143.29994,50.72542],[143.30667,50.70699],[143.2988,50.69709],[143.29973,50.68744],[143.31765,50.67504],[143.32076,50.65823],[143.31607,50.65127],[143.29476,50.65233],[143.26842,50.63738],[143.26691,50.63048],[143.27196,50.61301],[143.27482,50.58744],[143.28214,50.58162],[143.27584,50.56325],[143.27914,50.55581],[143.27577,50.54077],[143.26654,50.53201],[143.26204,50.51315],[143.2417,50.50033],[143.24716,50.48729],[143.23682,50.48296],[143.23725,50.47067],[143.25105,50.46265],[143.24759,50.45366],[143.23833,50.45061],[143.23699,50.42219],[143.23017,50.40616],[143.22294,50.40306],[143.2163,50.39091],[143.20721,50.39108],[143.19832,50.37379],[143.19199,50.36809],[143.1758,50.36775],[143.16907,50.35301],[143.14685,50.35342],[143.13139,50.34659],[143.11735,50.34879],[143.08444,50.33581],[143.07819,50.33139],[143.06103,50.3317],[143.03893,50.31075],[143.02273,50.30974],[143.01232,50.30217],[142.99664,50.31343],[142.98995,50.32259],[142.96481,50.32496],[142.94728,50.34077],[142.92631,50.34694],[142.8967,50.33902],[142.8915,50.33523],[142.86525,50.33565],[142.84151,50.32245],[142.84517,50.3127],[142.83968,50.30115],[142.81938,50.32474],[142.80756,50.33268],[142.78567,50.34143],[142.75851,50.34443],[142.74569,50.35302],[142.73162,50.35517],[142.71981,50.36375],[142.6926,50.36609],[142.65592,50.38666],[142.64115,50.36877],[142.61668,50.36265],[142.60939,50.35628],[142.59407,50.35132],[142.56811,50.36073],[142.54372,50.35653],[142.52216,50.34582],[142.50188,50.3435],[142.49184,50.34557],[142.47681,50.36487],[142.4667,50.34454],[142.48408,50.33219],[142.48143,50.32313],[142.49904,50.31835],[142.48818,50.31167],[142.48553,50.30261],[142.4725,50.30202],[142.46598,50.2824],[142.45545,50.28632],[142.44356,50.28419],[142.44294,50.26374],[142.42875,50.26391],[142.39999,50.25062],[142.37646,50.25469],[142.34219,50.25509],[142.32656,50.24542],[142.32381,50.2318],[142.3355,50.22712],[142.33756,50.21649],[142.34935,50.21559],[142.37266,50.20471],[142.37371,50.20015],[142.34431,50.20428],[142.33233,50.19836],[142.32057,50.20001],[142.3003,50.19266],[142.27553,50.19369],[142.27529,50.1846],[142.28681,50.17386],[142.27251,50.16871],[142.24903,50.17351],[142.22878,50.16615],[142.21463,50.1663],[142.20546,50.17701],[142.16252,50.18317],[142.16209,50.17063],[142.167,50.1615],[142.17137,50.13677],[142.16893,50.1158],[142.172,50.09375],[142.16808,50.08317],[142.17383,50.04821],[142.1611,50.03242],[142.14437,50.02046],[142.1575,50.00575],[142.15725,49.98225],[142.1465,49.9635],[142.13575,49.9535],[142.1425,49.93825],[142.13925,49.933],[142.1455,49.91975],[142.14625,49.90625],[142.1375,49.89325],[142.13625,49.876],[142.14275,49.86975],[142.15275,49.84325],[142.15511,49.82417],[142.17937,49.82659],[142.19063,49.82381],[142.20274,49.81369],[142.21901,49.80553],[142.25954,49.82041],[142.29031,49.81608],[142.30481,49.81925],[142.32406,49.8077],[142.35165,49.76342],[142.38531,49.75369],[142.39316,49.74027],[142.42549,49.72122],[142.45516,49.71686],[142.47242,49.70998],[142.47734,49.70259],[142.4719,49.69266],[142.4818,49.68054],[142.4815,49.67055],[142.49238,49.65709],[142.48972,49.63714],[142.49442,49.62309],[142.50565,49.62161],[142.50842,49.61158],[142.49653,49.59175],[142.51509,49.56219],[142.51372,49.55088],[142.52164,49.54212],[142.54413,49.54115],[142.5478,49.52778],[142.56373,49.51357],[142.55224,49.5064],[142.56009,49.49563],[142.57016,49.48061],[142.58588,49.48115],[142.59662,49.47153],[142.60906,49.47856],[142.61877,49.47311],[142.62958,49.4832],[142.6555,49.47563],[142.66832,49.4762],[142.67806,49.47189],[142.76066,49.47218],[142.78468,49.49303],[142.78856,49.50359],[142.80097,49.5087],[142.84938,49.51135],[143.01577,49.50933],[143.03651,49.50404],[143.08591,49.5024],[143.09331,49.51212],[143.1067,49.51225],[143.09662,49.53518],[143.10443,49.54072],[143.08553,49.54827],[143.09235,49.558],[143.10565,49.55548],[143.11419,49.56442],[143.10211,49.56805],[143.09973,49.58061],[143.07995,49.58134],[143.08201,49.58888],[143.06824,49.59406],[143.07507,49.60379],[143.05247,49.62125],[143.0277,49.62889],[143.02204,49.64718],[143.02373,49.65966],[143.00363,49.68199],[143.00692,49.69103],[143.00082,49.6991],[143.03352,49.69853],[143.42118,49.71495],[143.54528,49.71835],[143.69234,49.81926],[143.69517,49.82791],[143.72049,49.84059],[143.72796,49.84837],[143.72916,49.85933],[143.73705,49.86407],[143.76536,49.85658],[143.7685,49.88076],[143.7892,49.89391],[143.79271,49.91392],[143.82184,49.93027],[143.83012,49.94144],[143.85552,49.94385],[143.86049,49.93842],[143.88719,49.94306],[143.9002,49.93478],[143.90907,49.93569],[143.91747,49.94837],[143.93238,49.95216],[143.94968,49.9468],[143.96823,49.96186],[143.99125,49.96714],[143.9875,49.98575],[143.99125,50.00425],[143.99775,50.01875],[143.9805,50.0365],[143.9635,50.06475],[143.94975,50.0785],[143.934,50.10225],[143.90825,50.12925],[143.88175,50.1635],[143.87325,50.17925],[143.845,50.21925],[143.82125,50.2605],[143.78953,50.32218],[143.78033,50.34829],[143.75875,50.39625],[143.741,50.45],[143.7235,50.4945],[143.71675,50.5265],[143.69925,50.57925],[143.69957,50.6049],[143.69275,50.62175],[143.68975,50.64125],[143.7,50.657],[143.6945,50.675],[143.6775,50.714],[143.667,50.765],[143.6705,50.77725],[143.66664,50.79672],[143.62513,50.8131],[143.60783,50.81227],[143.60118,50.79602],[143.56398,50.78166],[143.55544,50.76829],[143.55518,50.75697],[143.56013,50.74364],[143.53683,50.75651],[143.50329,50.76147],[143.49076,50.75651],[143.46102,50.75563],[143.45099,50.76356],[143.43671,50.76235],[143.42506,50.76698],[143.37898,50.75073],[143.3649,50.74372],[143.36194,50.73569],[143.33993,50.73651],[143.33848,50.7449],[143.32285,50.74846],[143.30743,50.74764]]]}}