{"type":"Feature","properties":{"id":"RUS.42.28","name":"Gribanovsky District","level":2,"country":"RUS"},"geometry":{"type":"Polygon","coordinates":[[[42.3562,51.59492],[42.34429,51.58808],[42.30448,51.61341],[42.28768,51.60618],[42.2702,51.60928],[42.27879,51.6258],[42.27449,51.63488],[42.28214,51.64026],[42.26935,51.65302],[42.26837,51.66268],[42.29922,51.66686],[42.30684,51.67714],[42.2958,51.68484],[42.27227,51.69087],[42.2485,51.70938],[42.22914,51.7192],[42.21996,51.71809],[42.2051,51.72351],[42.18991,51.72372],[42.19489,51.70706],[42.17021,51.70991],[42.13838,51.72254],[42.11912,51.73048],[42.1062,51.71892],[42.12592,51.70207],[42.10731,51.69292],[42.12614,51.67127],[42.13041,51.64426],[42.1358,51.63195],[42.09081,51.62935],[42.07063,51.65745],[42.04191,51.66357],[42.01759,51.66834],[42.01007,51.65429],[41.98823,51.65721],[41.95981,51.65631],[41.96689,51.61813],[41.9039,51.58053],[41.92764,51.56343],[41.88886,51.53445],[41.85579,51.50609],[41.84464,51.51434],[41.83426,51.5153],[41.80948,51.5083],[41.80338,51.48692],[41.78515,51.49874],[41.77337,51.50289],[41.77899,51.51639],[41.75615,51.51181],[41.7179,51.53311],[41.69905,51.55332],[41.68594,51.57103],[41.67779,51.56567],[41.6599,51.57057],[41.64962,51.53101],[41.66769,51.52152],[41.66361,51.50304],[41.61907,51.49785],[41.58319,51.5052],[41.58628,51.49911],[41.54806,51.50453],[41.51671,51.50303],[41.52349,51.51346],[41.50192,51.5133],[41.48846,51.50872],[41.4314,51.50687],[41.37824,51.51243],[41.36172,51.51174],[41.3419,51.51749],[41.3052,51.51962],[41.27048,51.53359],[41.27168,51.55921],[41.29041,51.55891],[41.28809,51.56597],[41.29761,51.5884],[41.29711,51.59766],[41.28107,51.60588],[41.25169,51.60762],[41.21757,51.60401],[41.19322,51.59757],[41.18547,51.58333],[41.1839,51.56531],[41.16191,51.56337],[41.13297,51.54893],[41.12305,51.52485],[41.13722,51.51953],[41.14346,51.499],[41.15311,51.49995],[41.15612,51.48988],[41.16856,51.48144],[41.14406,51.47773],[41.14188,51.45358],[41.18692,51.44774],[41.19241,51.43738],[41.18499,51.42592],[41.19697,51.42373],[41.19235,51.41095],[41.2407,51.35288],[41.35168,51.33517],[41.40075,51.33583],[41.40849,51.3429],[41.43777,51.34399],[41.48117,51.33014],[41.51392,51.3244],[41.49292,51.31423],[41.51242,51.3054],[41.5337,51.29991],[41.54173,51.30089],[41.53521,51.26876],[41.59101,51.26944],[41.62995,51.25318],[41.65232,51.24557],[41.69922,51.25712],[41.71428,51.25251],[41.73234,51.26811],[41.76535,51.26222],[41.77574,51.26701],[41.80249,51.25717],[41.81072,51.26518],[41.82672,51.2596],[41.84234,51.2625],[41.85791,51.29226],[41.87775,51.30555],[41.89196,51.31613],[41.93433,51.32515],[41.96446,51.32765],[41.97469,51.31854],[41.98413,51.32862],[42.01315,51.33549],[42.01331,51.34168],[42.02369,51.3516],[42.05301,51.35512],[42.05556,51.36121],[42.04848,51.37665],[42.05756,51.39013],[42.07715,51.39559],[42.09749,51.39188],[42.09437,51.40361],[42.10456,51.42966],[42.11735,51.43215],[42.12637,51.44658],[42.1109,51.45399],[42.10656,51.47043],[42.09855,51.48304],[42.11059,51.49421],[42.13106,51.50275],[42.13319,51.51198],[42.14152,51.51483],[42.15449,51.51055],[42.18097,51.51399],[42.17942,51.52343],[42.18779,51.53095],[42.2066,51.53353],[42.20873,51.54037],[42.25079,51.53042],[42.29699,51.5279],[42.3501,51.53874],[42.36458,51.54951],[42.37068,51.5707],[42.36585,51.58319],[42.35807,51.58439],[42.3562,51.59492]]]}}