{"type":"Feature","properties":{"id":"RUS.50.5","name":"Novotoryalsky District","level":2,"country":"RUS"},"geometry":{"type":"Polygon","coordinates":[[[48.73963,57.16912],[48.72974,57.16757],[48.7161,57.17396],[48.70793,57.16749],[48.67352,57.16902],[48.66295,57.15174],[48.63231,57.15049],[48.60843,57.15899],[48.59591,57.15733],[48.58106,57.17213],[48.55544,57.17172],[48.54993,57.15741],[48.52721,57.15099],[48.42788,57.11315],[48.41984,57.12553],[48.40238,57.13093],[48.37846,57.12657],[48.36166,57.1335],[48.37122,57.1392],[48.36362,57.16652],[48.32894,57.16609],[48.33035,57.15847],[48.31024,57.15112],[48.2794,57.14814],[48.28146,57.13934],[48.26964,57.13366],[48.27676,57.12358],[48.26275,57.12302],[48.2453,57.13039],[48.2297,57.12974],[48.22413,57.11674],[48.2377,57.10334],[48.26879,57.1066],[48.28882,57.10237],[48.31269,57.10169],[48.34638,57.08186],[48.3458,57.06718],[48.38081,57.07002],[48.3745,57.06225],[48.3387,57.06002],[48.31657,57.04457],[48.29859,57.04569],[48.25363,57.04152],[48.25033,57.01821],[48.26947,57.01336],[48.26518,57.00255],[48.28909,56.99706],[48.30444,57.00901],[48.31805,57.01448],[48.34266,57.01331],[48.34941,57.00438],[48.33459,56.9962],[48.35713,56.99119],[48.36709,56.97617],[48.33423,56.9658],[48.33806,56.96191],[48.39089,56.95944],[48.39469,56.97356],[48.4209,56.98524],[48.45645,56.98484],[48.45437,56.97546],[48.48086,56.96635],[48.47334,56.94748],[48.50859,56.94626],[48.53012,56.94197],[48.53654,56.93427],[48.56098,56.93114],[48.58973,56.93948],[48.61428,56.91549],[48.59704,56.91442],[48.60504,56.90288],[48.62375,56.90993],[48.64635,56.90931],[48.66921,56.90186],[48.66541,56.89717],[48.69242,56.8847],[48.74223,56.88542],[48.75485,56.87343],[48.77091,56.87862],[48.78448,56.87677],[48.78797,56.89107],[48.79596,56.89667],[48.83251,56.89531],[48.85052,56.88952],[48.85531,56.9108],[48.8747,56.90614],[48.89092,56.90738],[48.90984,56.91445],[48.9424,56.91177],[48.94691,56.92048],[48.94055,56.93307],[48.92383,56.94828],[48.92308,56.95791],[48.91085,56.96584],[48.93109,56.97073],[48.93788,56.98209],[48.92598,56.98971],[48.92917,57.0135],[48.91753,57.02133],[48.92632,57.03312],[48.90365,57.03855],[48.92402,57.05171],[48.9167,57.06045],[48.90031,57.05914],[48.89845,57.06891],[48.91032,57.08174],[48.87799,57.08938],[48.85358,57.0913],[48.83386,57.09739],[48.84695,57.10671],[48.86071,57.10643],[48.85692,57.12316],[48.82994,57.14095],[48.81467,57.13918],[48.81894,57.15859],[48.82552,57.16577],[48.81111,57.16924],[48.79296,57.16611],[48.77617,57.17186],[48.75268,57.16818],[48.73963,57.16912]]]}}