{"type":"Feature","properties":{"id":"RUS.57.23","name":"Sergiyevsky District","level":2,"country":"RUS"},"geometry":{"type":"Polygon","coordinates":[[[51.20636,54.29402],[51.19528,54.2783],[51.17757,54.27933],[51.17501,54.25313],[51.15947,54.23853],[51.1451,54.23876],[51.13448,54.2207],[51.13644,54.20516],[51.12247,54.20217],[51.11184,54.19434],[51.12916,54.17937],[51.12188,54.17419],[51.10555,54.18398],[51.09748,54.17764],[51.07937,54.17695],[51.06324,54.17119],[51.07565,54.15809],[51.05595,54.15612],[51.03337,54.16287],[51.01065,54.17574],[51.00819,54.1833],[50.9839,54.1869],[50.98513,54.17556],[50.97744,54.16908],[50.96514,54.1788],[50.9344,54.17394],[50.92148,54.17988],[50.90809,54.17979],[50.8912,54.17268],[50.88779,54.16056],[50.86976,54.15099],[50.84709,54.09743],[50.83734,54.08471],[50.80733,54.10398],[50.79395,54.09935],[50.79794,54.0901],[50.79405,54.08161],[50.78067,54.07247],[50.80812,54.05683],[50.79894,54.04147],[50.77977,54.02318],[50.76979,54.00611],[50.74365,54.00934],[50.72003,54.00477],[50.69735,54.00582],[50.68998,53.99618],[50.67826,53.97056],[50.68417,53.95173],[50.69289,53.94371],[50.68534,53.92994],[50.67316,53.93051],[50.64294,53.9439],[50.60319,53.93618],[50.59129,53.92067],[50.60257,53.89883],[50.57378,53.89386],[50.59028,53.85935],[50.59261,53.84963],[50.62003,53.85226],[50.63829,53.85961],[50.64889,53.83957],[50.65065,53.82445],[50.64536,53.8174],[50.65885,53.81385],[50.66912,53.82561],[50.68116,53.82941],[50.69748,53.82685],[50.70605,53.81618],[50.69703,53.80791],[50.70338,53.79647],[50.70572,53.77118],[50.72418,53.76476],[50.72981,53.74716],[50.71218,53.73917],[50.69707,53.73744],[50.7063,53.72594],[50.68102,53.72028],[50.68827,53.71017],[50.68347,53.70522],[50.73549,53.69304],[50.72787,53.68034],[50.73797,53.67081],[50.72023,53.64196],[50.73123,53.64175],[50.76028,53.60409],[50.79591,53.61352],[50.7914,53.61882],[50.81854,53.62594],[50.80569,53.64204],[50.81282,53.64709],[50.91274,53.62482],[50.92765,53.61934],[50.94142,53.60816],[50.96929,53.61344],[50.97428,53.62112],[50.96179,53.6343],[50.97322,53.64039],[51.00433,53.63326],[51.01818,53.64123],[51.01811,53.65716],[51.06386,53.66724],[51.09152,53.64577],[51.12897,53.63978],[51.1394,53.65494],[51.15234,53.6599],[51.18169,53.64951],[51.20433,53.6525],[51.22877,53.65136],[51.24756,53.66647],[51.28428,53.67378],[51.28766,53.68688],[51.30805,53.70689],[51.33127,53.69195],[51.36156,53.6844],[51.36955,53.68888],[51.38511,53.68409],[51.41495,53.68365],[51.41921,53.67905],[51.41807,53.66122],[51.41269,53.64844],[51.43918,53.64659],[51.44958,53.66423],[51.47548,53.68362],[51.4795,53.70823],[51.49071,53.70754],[51.49779,53.71893],[51.48568,53.72427],[51.49025,53.73521],[51.50587,53.73158],[51.52633,53.74103],[51.52603,53.74932],[51.54004,53.75893],[51.52348,53.76316],[51.50927,53.77939],[51.50376,53.79881],[51.4838,53.8042],[51.48893,53.81396],[51.47905,53.82137],[51.46993,53.8171],[51.47088,53.79893],[51.41406,53.80364],[51.43135,53.8244],[51.44276,53.82608],[51.45036,53.83931],[51.44599,53.84761],[51.43002,53.84738],[51.41748,53.85411],[51.40703,53.8661],[51.43572,53.86375],[51.48418,53.85288],[51.48817,53.86722],[51.47886,53.87495],[51.48589,53.90206],[51.48019,53.91717],[51.46746,53.91303],[51.45226,53.91437],[51.42888,53.92523],[51.41767,53.93362],[51.42261,53.94268],[51.43895,53.94827],[51.43154,53.96415],[51.41034,53.9885],[51.39326,54.01381],[51.37285,54.03387],[51.36171,54.0343],[51.31161,54.04477],[51.31458,54.05348],[51.32571,54.05697],[51.30901,54.06503],[51.3001,54.08659],[51.31309,54.08768],[51.30418,54.10966],[51.26818,54.10095],[51.24443,54.08942],[51.21065,54.09203],[51.20657,54.10661],[51.21251,54.12054],[51.2062,54.12445],[51.21956,54.13706],[51.25927,54.11749],[51.25668,54.12554],[51.2641,54.14207],[51.25408,54.15033],[51.25408,54.16163],[51.2422,54.16337],[51.22995,54.17814],[51.23255,54.18661],[51.2203,54.1966],[51.26076,54.20225],[51.27449,54.19747],[51.28748,54.21918],[51.30418,54.21961],[51.31532,54.24391],[51.35092,54.23827],[51.34984,54.24449],[51.361,54.26295],[51.34556,54.26656],[51.31325,54.26239],[51.29021,54.28986],[51.27905,54.28528],[51.25197,54.28708],[51.23273,54.29512],[51.20636,54.29402]]]}}