{"type":"Feature","properties":{"id":"RUS.39.6","name":"Sasovsky District","level":2,"country":"RUS"},"geometry":{"type":"Polygon","coordinates":[[[42.26196,54.08766],[42.28971,54.09644],[42.28373,54.10495],[42.32616,54.12275],[42.32684,54.10661],[42.30327,54.09991],[42.30073,54.0904],[42.31254,54.08272],[42.37192,54.08761],[42.37624,54.09865],[42.39785,54.0993],[42.4174,54.10304],[42.434,54.12042],[42.45183,54.12241],[42.45007,54.10365],[42.45969,54.08504],[42.47471,54.07734],[42.48525,54.07833],[42.49812,54.07011],[42.53003,54.07474],[42.57214,54.08332],[42.55157,54.12124],[42.53612,54.11678],[42.52095,54.13472],[42.52545,54.14759],[42.54632,54.14332],[42.55549,54.15357],[42.57934,54.16543],[42.60721,54.15318],[42.64753,54.14444],[42.66726,54.13649],[42.67529,54.12762],[42.68798,54.13121],[42.66843,54.15665],[42.65039,54.16647],[42.63286,54.16487],[42.62474,54.17128],[42.60812,54.1748],[42.59949,54.18489],[42.58551,54.17823],[42.54444,54.19337],[42.5142,54.21247],[42.48969,54.21505],[42.46699,54.22874],[42.45999,54.23965],[42.4345,54.25711],[42.39593,54.25456],[42.39173,54.24104],[42.36555,54.21862],[42.38723,54.20679],[42.33955,54.19146],[42.35381,54.17576],[42.34996,54.16303],[42.33977,54.15775],[42.32267,54.15762],[42.31208,54.15266],[42.28878,54.15374],[42.27989,54.15862],[42.26042,54.15852],[42.24211,54.16279],[42.25551,54.17631],[42.25367,54.18877],[42.23882,54.18209],[42.25493,54.17651],[42.24594,54.16727],[42.22302,54.17478],[42.23688,54.1823],[42.22865,54.18635],[42.20256,54.18857],[42.2174,54.20673],[42.2078,54.21836],[42.22159,54.22676],[42.1967,54.23129],[42.16921,54.25204],[42.20719,54.25441],[42.2401,54.23948],[42.26052,54.23858],[42.30123,54.22627],[42.32233,54.23466],[42.32758,54.24923],[42.33608,54.2522],[42.38736,54.25394],[42.39867,54.26294],[42.40547,54.28472],[42.47745,54.29883],[42.4931,54.30787],[42.49336,54.31675],[42.46495,54.33553],[42.45473,54.33175],[42.43632,54.33351],[42.43627,54.34133],[42.40988,54.34021],[42.39829,54.3356],[42.36315,54.33482],[42.36244,54.34528],[42.37506,54.34552],[42.38022,54.3559],[42.35947,54.3629],[42.33576,54.35538],[42.29378,54.3562],[42.30107,54.40395],[42.29277,54.41371],[42.30501,54.41752],[42.30834,54.4265],[42.29226,54.43896],[42.28005,54.45925],[42.27797,54.4712],[42.26367,54.47244],[42.26062,54.47892],[42.23671,54.48818],[42.18576,54.49153],[42.17148,54.48637],[42.15247,54.49107],[42.1514,54.50566],[42.12501,54.4963],[42.10943,54.49462],[42.09086,54.50492],[42.08826,54.51493],[42.10585,54.5206],[42.11296,54.51377],[42.12965,54.51155],[42.13541,54.52006],[42.12135,54.52537],[42.10266,54.52341],[42.07925,54.53457],[42.05372,54.52871],[42.05805,54.52069],[42.0321,54.51454],[42.03234,54.52758],[42.01738,54.51976],[42.00032,54.53078],[41.98322,54.53068],[41.96683,54.52494],[41.9614,54.53059],[41.9277,54.5239],[41.92887,54.51574],[41.9396,54.49603],[41.94671,54.49324],[41.89215,54.4747],[41.87828,54.47188],[41.85163,54.47258],[41.83398,54.45728],[41.81333,54.45945],[41.73058,54.48531],[41.71448,54.48021],[41.7141,54.47234],[41.70418,54.46571],[41.69276,54.47497],[41.67279,54.46866],[41.67851,54.44957],[41.66761,54.44486],[41.64016,54.44053],[41.63893,54.43587],[41.56758,54.45891],[41.57831,54.43854],[41.56483,54.43325],[41.59184,54.41503],[41.58268,54.41195],[41.59197,54.39588],[41.59206,54.37322],[41.63391,54.37157],[41.65941,54.34113],[41.68978,54.33827],[41.71061,54.32792],[41.72925,54.33043],[41.73261,54.31959],[41.73034,54.30377],[41.73205,54.28259],[41.71251,54.27863],[41.68875,54.26993],[41.68105,54.24836],[41.65745,54.24149],[41.68481,54.23617],[41.70126,54.22265],[41.7102,54.2226],[41.71607,54.20287],[41.75897,54.20667],[41.79468,54.21733],[41.80195,54.20153],[41.8189,54.20104],[41.83217,54.18898],[41.84756,54.19211],[41.86075,54.18864],[41.87026,54.17721],[41.88003,54.15216],[41.90403,54.15078],[41.94297,54.15708],[41.97178,54.12989],[41.98638,54.11863],[42.00082,54.11685],[42.03126,54.12086],[42.0434,54.11512],[42.07552,54.13076],[42.09503,54.13371],[42.10437,54.14337],[42.13448,54.15062],[42.12964,54.16369],[42.15598,54.17272],[42.19563,54.17416],[42.21535,54.1785],[42.22344,54.16793],[42.21106,54.16209],[42.20261,54.16616],[42.17986,54.16474],[42.19623,54.14782],[42.16216,54.14237],[42.17568,54.13417],[42.2154,54.12986],[42.2259,54.10447],[42.24272,54.09957],[42.26196,54.08766]],[[41.87127,54.3466],[41.89095,54.35413],[41.90464,54.363],[41.92561,54.368],[41.92537,54.37364],[41.96276,54.37925],[41.95975,54.36639],[41.97835,54.36312],[41.98886,54.36789],[42.01576,54.36207],[42.01233,54.34904],[41.98964,54.34724],[41.94144,54.35124],[41.93435,54.33962],[41.91792,54.33441],[41.90749,54.32174],[41.8895,54.34072],[41.87127,54.3466]]]}}