{"type":"Feature","properties":{"id":"RUS.62.9","name":"Nizhneomsky District","level":2,"country":"RUS"},"geometry":{"type":"Polygon","coordinates":[[[74.42262,55.7649],[74.42788,55.76462],[74.47692,55.73298],[74.49584,55.71707],[74.51433,55.68697],[74.60014,55.6868],[74.60589,55.65984],[74.53447,55.65914],[74.52274,55.65318],[74.49092,55.65325],[74.49061,55.61032],[74.45867,55.61063],[74.45824,55.59898],[74.39202,55.5994],[74.37818,55.51907],[74.40604,55.51442],[74.42451,55.51687],[74.45064,55.49766],[74.45171,55.46639],[74.5136,55.46488],[74.5311,55.42766],[74.57765,55.40569],[74.5776,55.39102],[74.61151,55.35415],[74.62902,55.34514],[74.59235,55.33511],[74.63208,55.32675],[74.68298,55.31484],[74.67849,55.32371],[74.68926,55.33376],[74.71338,55.33873],[74.73104,55.33857],[74.74648,55.32562],[74.75238,55.30762],[74.83524,55.30711],[74.90102,55.21919],[74.91384,55.22051],[74.92879,55.21469],[74.94899,55.18312],[74.95482,55.19201],[74.96767,55.19831],[74.98758,55.18903],[75.00593,55.19964],[75.0252,55.20332],[75.04547,55.19504],[75.04742,55.20349],[75.07285,55.19804],[75.11135,55.21019],[75.11139,55.21339],[75.22089,55.21191],[75.22223,55.22993],[75.23785,55.22993],[75.23822,55.24088],[75.27616,55.24046],[75.27632,55.24295],[75.22906,55.28368],[75.20304,55.28525],[75.19952,55.32237],[75.17035,55.32746],[75.17761,55.35242],[75.09154,55.37663],[75.19863,55.4257],[75.16226,55.44713],[75.2359,55.47556],[75.32174,55.49805],[75.31235,55.53797],[75.2964,55.54869],[75.28472,55.55763],[75.27519,55.54862],[75.2609,55.54932],[75.2208,55.54062],[75.19578,55.55248],[75.18538,55.56599],[75.14077,55.5839],[75.15128,55.59355],[75.17015,55.59794],[75.18495,55.61339],[75.19535,55.61907],[75.22333,55.61971],[75.23545,55.62593],[75.25636,55.6255],[75.24542,55.63826],[75.19234,55.65531],[75.19063,55.65821],[75.11546,55.68598],[75.11289,55.69938],[75.12951,55.70989],[75.08801,55.72683],[75.10442,55.75642],[75.23019,55.73091],[75.36937,55.74066],[75.36734,55.80532],[75.34675,55.80007],[75.34332,55.80993],[75.33292,55.81261],[75.30386,55.83202],[75.26515,55.83341],[75.26243,55.84412],[75.32127,55.89549],[75.26389,55.89857],[75.23268,55.89615],[75.20899,55.89656],[75.06046,55.90904],[75.00316,55.90817],[75.00309,55.90221],[74.93009,55.90228],[74.92998,55.85759],[74.87782,55.85583],[74.87686,55.86981],[74.80058,55.86898],[74.79388,55.92199],[74.78914,55.93179],[74.76363,55.93317],[74.76983,55.97186],[74.7381,55.97335],[74.71912,55.9848],[74.69908,55.99098],[74.68497,55.97551],[74.65099,55.98247],[74.64045,55.97834],[74.63455,55.96617],[74.622,55.96316],[74.61782,55.95007],[74.60758,55.94463],[74.5839,55.91433],[74.56657,55.90809],[74.56754,55.90139],[74.53086,55.88912],[74.47692,55.86817],[74.50314,55.86297],[74.52826,55.86751],[74.47589,55.83816],[74.45853,55.83059],[74.45159,55.82065],[74.42202,55.80471],[74.41669,55.80828],[74.43183,55.82162],[74.45188,55.8329],[74.43511,55.83876],[74.41583,55.82988],[74.40879,55.81018],[74.43161,55.79499],[74.42262,55.7649]]]}}