{"type":"Feature","properties":{"id":"RUS.17.22","name":"Yelninsky District","level":2,"country":"RUS"},"geometry":{"type":"Polygon","coordinates":[[[33.10714,54.74361],[33.11315,54.72864],[33.10222,54.71412],[33.11377,54.71073],[33.13027,54.69809],[33.11607,54.69139],[33.08801,54.69307],[33.07277,54.67562],[33.05916,54.67135],[33.04435,54.65349],[33.02994,54.65093],[33.04034,54.62389],[33.06617,54.61768],[33.07692,54.59948],[33.0586,54.6034],[33.0253,54.57964],[33.00688,54.57061],[33.00655,54.56319],[32.97928,54.55283],[32.98762,54.53696],[33.01247,54.53718],[33.00081,54.5228],[33.00834,54.50537],[33.01498,54.50719],[33.02857,54.49241],[33.02406,54.47082],[33.01663,54.46372],[32.99186,54.47168],[32.97643,54.47334],[32.96933,54.47951],[32.95084,54.48516],[32.93618,54.4843],[32.93395,54.47302],[32.90307,54.46874],[32.90199,54.4618],[32.88372,54.45657],[32.89735,54.44129],[32.89252,54.42341],[32.8793,54.41894],[32.8636,54.41935],[32.85771,54.37573],[32.87742,54.37702],[32.90003,54.37278],[32.90623,54.36709],[32.94182,54.36832],[32.94409,54.36058],[32.99086,54.35151],[33.00709,54.3542],[33.01755,54.34279],[33.03988,54.33849],[33.04715,54.34421],[33.06376,54.344],[33.06483,54.32878],[33.07301,54.32472],[33.06944,54.31524],[33.05556,54.31015],[33.05146,54.30233],[33.06323,54.29854],[33.06592,54.29158],[33.07999,54.29256],[33.08832,54.28241],[33.1094,54.28161],[33.12761,54.30688],[33.14877,54.30868],[33.15811,54.32799],[33.1608,54.34584],[33.2227,54.35884],[33.24414,54.36101],[33.2453,54.36816],[33.26148,54.36968],[33.26241,54.37765],[33.28362,54.37694],[33.28446,54.37109],[33.30972,54.37417],[33.35721,54.34331],[33.38539,54.34805],[33.3774,54.33807],[33.38025,54.32847],[33.39929,54.32327],[33.43168,54.32324],[33.44662,54.3131],[33.46111,54.31661],[33.45342,54.32909],[33.46348,54.33773],[33.46014,54.35037],[33.46743,54.35776],[33.48801,54.35326],[33.49414,54.37379],[33.52686,54.36999],[33.52966,54.38234],[33.54978,54.38185],[33.54775,54.39014],[33.57433,54.39475],[33.59616,54.39875],[33.62539,54.39816],[33.63163,54.40895],[33.62652,54.42085],[33.63329,54.42949],[33.65765,54.44175],[33.66153,54.44938],[33.70222,54.46588],[33.68745,54.47555],[33.67062,54.4697],[33.63423,54.47741],[33.64429,54.48185],[33.64953,54.4917],[33.65963,54.49345],[33.64915,54.50782],[33.69525,54.51473],[33.69443,54.53444],[33.69914,54.54104],[33.70579,54.55381],[33.70277,54.56937],[33.69436,54.59032],[33.71355,54.59187],[33.71651,54.60296],[33.72581,54.60609],[33.72625,54.6156],[33.75151,54.6199],[33.75665,54.62581],[33.77979,54.63211],[33.76984,54.64311],[33.75519,54.65018],[33.75698,54.65662],[33.72864,54.65634],[33.72948,54.66872],[33.69557,54.65727],[33.67387,54.66279],[33.66743,54.67343],[33.64963,54.67593],[33.64056,54.6699],[33.62386,54.67046],[33.58565,54.68504],[33.55325,54.68562],[33.55198,54.67217],[33.55884,54.66056],[33.53753,54.65809],[33.53686,54.6505],[33.50355,54.63117],[33.47627,54.63834],[33.48389,54.64536],[33.47853,54.65423],[33.48473,54.67044],[33.45309,54.68051],[33.47418,54.69224],[33.4559,54.70406],[33.41378,54.71032],[33.40128,54.70302],[33.38033,54.71259],[33.37615,54.71971],[33.34902,54.72198],[33.33671,54.73492],[33.32259,54.73025],[33.29845,54.7369],[33.29637,54.74655],[33.2682,54.75084],[33.26394,54.76239],[33.2509,54.75722],[33.23502,54.7616],[33.21384,54.77339],[33.17212,54.75124],[33.15542,54.75963],[33.12508,54.74596],[33.10714,54.74361]]]}}