{"type":"Feature","properties":{"id":"RUS.69.1","name":"Sunzhensky District","level":2,"country":"RUS"},"geometry":{"type":"Polygon","coordinates":[[[45.09008,43.48212],[45.08096,43.47864],[45.05732,43.48054],[45.06794,43.45187],[45.10053,43.45097],[45.13175,43.4184],[45.15852,43.41104],[45.15871,43.40363],[45.14546,43.4018],[45.14425,43.39359],[45.13458,43.38858],[45.13031,43.33786],[45.1316,43.32305],[45.10919,43.31505],[45.11095,43.3074],[45.11443,43.2653],[45.13316,43.21143],[45.1331,43.19399],[45.14015,43.18521],[45.15523,43.1769],[45.17657,43.18021],[45.19196,43.16383],[45.19323,43.19173],[45.17475,43.18969],[45.18591,43.2005],[45.19671,43.20629],[45.20998,43.21869],[45.2198,43.22228],[45.24201,43.21681],[45.2612,43.23046],[45.27532,43.244],[45.23301,43.2596],[45.24771,43.26344],[45.2304,43.27964],[45.21045,43.29248],[45.21797,43.2947],[45.22057,43.30757],[45.20804,43.35124],[45.23144,43.34991],[45.25089,43.38514],[45.23398,43.38782],[45.21593,43.38277],[45.18231,43.39247],[45.1629,43.39593],[45.16662,43.41065],[45.16479,43.41857],[45.13235,43.42599],[45.11055,43.46036],[45.09008,43.48212]]]}}