{"type":"Feature","properties":{"id":"RUS.75.25","name":"городской округ Тында","level":2,"country":"RUS"},"geometry":{"type":"Polygon","coordinates":[[[124.67029,55.16743],[124.67517,55.15161],[124.68577,55.1411],[124.70053,55.13973],[124.70479,55.12758],[124.69833,55.12122],[124.71473,55.10575],[124.71336,55.09684],[124.6854,55.07804],[124.71015,55.06622],[124.74727,55.08789],[124.79583,55.10546],[124.80052,55.11682],[124.81791,55.12616],[124.83678,55.12988],[124.85106,55.1402],[124.82624,55.14605],[124.81988,55.15184],[124.8334,55.18763],[124.81032,55.19636],[124.7774,55.1917],[124.73899,55.20614],[124.79365,55.28002],[124.80407,55.2906],[124.7958,55.29581],[124.68817,55.29011],[124.68217,55.2116],[124.67149,55.18286],[124.67029,55.16743]]]}}