{"type":"Feature","properties":{"id":"RUS.77.18","name":"Находкинский городской окр","level":2,"country":"RUS"},"geometry":{"type":"MultiPolygon","coordinates":[[[[133.22074,42.73449],[133.2023,42.73842],[133.18856,42.7483],[133.13355,42.71109],[133.11768,42.70726],[133.12965,42.68725],[133.14921,42.68482],[133.17096,42.69974],[133.17695,42.7109],[133.1981,42.70455],[133.20528,42.73217],[133.22074,42.73449]]],[[[133.03438,42.77858],[133.047,42.76927],[133.07187,42.75815],[133.07573,42.74632],[133.09411,42.74075],[133.07405,42.73311],[133.04802,42.74664],[133.04351,42.74608],[133.02152,42.7259],[133.01889,42.7131],[132.99997,42.71558],[133.00402,42.70753],[133.02283,42.69673],[133.03768,42.70421],[133.06046,42.7084],[133.07835,42.70666],[133.08766,42.71387],[133.10493,42.72128],[133.12307,42.72237],[133.13853,42.72709],[133.14664,42.74038],[133.14719,42.74842],[133.15692,42.75604],[133.13627,42.76488],[133.11449,42.76478],[133.10345,42.7741],[133.10912,42.78333],[133.09188,42.80042],[133.05747,42.81498],[133.04357,42.81754],[133.03421,42.83136],[133.01501,42.83482],[133.00907,42.81926],[133.01083,42.81254],[133.02151,42.80669],[133.0368,42.80726],[133.02787,42.7911],[133.03438,42.77858]]],[[[132.77653,42.85111],[132.77204,42.84038],[132.77685,42.83635],[132.772,42.82591],[132.78904,42.822],[132.80054,42.81477],[132.80826,42.80286],[132.80642,42.79321],[132.81358,42.78062],[132.80557,42.77846],[132.80291,42.76745],[132.8073,42.76094],[132.8236,42.75986],[132.8284,42.75043],[132.84836,42.74824],[132.85963,42.73395],[132.8749,42.74771],[132.87152,42.75448],[132.87985,42.7638],[132.89415,42.76123],[132.88749,42.77656],[132.90247,42.78177],[132.91049,42.79063],[132.9105,42.80521],[132.89199,42.79989],[132.88587,42.80555],[132.90008,42.8301],[132.9201,42.83687],[132.94786,42.83914],[132.98085,42.83839],[132.99263,42.84966],[132.98321,42.85886],[132.97216,42.86082],[132.97498,42.87062],[132.95972,42.86704],[132.95397,42.88044],[132.94154,42.88247],[132.93132,42.87559],[132.91278,42.88752],[132.89194,42.8909],[132.88608,42.88316],[132.87523,42.88314],[132.85163,42.86483],[132.85228,42.85619],[132.84672,42.83809],[132.82872,42.83614],[132.81336,42.82942],[132.78205,42.85199],[132.77653,42.85111]]],[[[132.58335,42.92639],[132.58257,42.9099],[132.59422,42.90119],[132.56376,42.88501],[132.5482,42.88315],[132.54639,42.86277],[132.55101,42.85092],[132.57155,42.85041],[132.56727,42.84312],[132.58791,42.83816],[132.6132,42.85726],[132.62588,42.86009],[132.64243,42.8574],[132.66557,42.85926],[132.67673,42.85458],[132.70041,42.85499],[132.70145,42.86388],[132.68511,42.86834],[132.68937,42.87429],[132.71126,42.87324],[132.71598,42.88713],[132.72974,42.88794],[132.7207,42.89946],[132.726,42.9047],[132.72381,42.91024],[132.73614,42.91587],[132.73986,42.92325],[132.71997,42.94209],[132.70339,42.95491],[132.67457,42.95629],[132.6823,42.94519],[132.68183,42.93704],[132.6622,42.93931],[132.66026,42.96211],[132.6552,42.9832],[132.6384,42.98313],[132.63927,42.95164],[132.64888,42.93959],[132.60743,42.9382],[132.58335,42.92639]]]]}}