{"type":"Feature","properties":{"id":"RUS.11.2","name":"ЗАТО Заозёрск","level":2,"country":"RUS"},"geometry":{"type":"MultiPolygon","coordinates":[[[[32.70853,69.32288],[32.7266,69.33665],[32.70829,69.34553],[32.76724,69.40022],[32.7329,69.41762],[32.71636,69.43402],[32.78497,69.45988],[32.78291,69.46182],[32.72731,69.47734],[32.67778,69.47711],[32.6668,69.48029],[32.61622,69.45692],[32.601,69.45357],[32.57691,69.4576],[32.58534,69.47347],[32.56991,69.48033],[32.54439,69.48103],[32.51084,69.47131],[32.47474,69.46908],[32.44293,69.47114],[32.44144,69.44894],[32.3609,69.43172],[32.34149,69.42333],[32.3137,69.42732],[32.29322,69.42191],[32.27384,69.4269],[32.29561,69.43454],[32.36105,69.4467],[32.35852,69.45814],[32.38323,69.45461],[32.41042,69.45745],[32.406,69.47143],[32.45755,69.47761],[32.496,69.4845],[32.50252,69.50164],[32.45917,69.50916],[32.38744,69.51736],[32.39949,69.52967],[32.4323,69.54563],[32.43465,69.5556],[32.40954,69.55601],[32.40169,69.56151],[32.37691,69.56302],[32.35123,69.5451],[32.28618,69.50794],[32.23358,69.49326],[32.16234,69.48553],[32.13327,69.47162],[32.1018,69.46089],[32.05987,69.42116],[32.08778,69.40398],[32.08087,69.38944],[32.10829,69.38013],[32.12077,69.36035],[32.18645,69.3574],[32.25052,69.3363],[32.32874,69.31978],[32.46345,69.31255],[32.52833,69.29774],[32.52724,69.28021],[32.66133,69.28021],[32.67577,69.28441],[32.67374,69.30139],[32.70853,69.32288]]],[[[32.62188,69.46626],[32.65083,69.47693],[32.62387,69.47713],[32.62188,69.46626]]]]}}