{"type":"Feature","properties":{"id":"RUS.52.7","name":"Sarapulsky District","level":2,"country":"RUS"},"geometry":{"type":"MultiPolygon","coordinates":[[[[53.38654,56.26668],[53.40023,56.26304],[53.42654,56.27507],[53.44712,56.2712],[53.455,56.25719],[53.4715,56.25107],[53.47617,56.2434],[53.50858,56.23479],[53.55413,56.24256],[53.57533,56.23698],[53.57054,56.22872],[53.59121,56.22843],[53.6178,56.2136],[53.65009,56.20917],[53.6764,56.21825],[53.67743,56.22794],[53.69136,56.23061],[53.70488,56.22777],[53.71852,56.21789],[53.75355,56.1985],[53.77492,56.19272],[53.76931,56.18464],[53.79878,56.16827],[53.80785,56.17563],[53.82301,56.17985],[53.82667,56.19171],[53.81119,56.20242],[53.83478,56.21003],[53.84252,56.2192],[53.8591,56.22568],[53.87842,56.22545],[53.88165,56.21807],[53.90157,56.21668],[53.94869,56.18529],[53.96095,56.19812],[53.98397,56.19482],[54.00644,56.18219],[54.03495,56.19238],[54.05306,56.20861],[54.07828,56.19968],[54.10652,56.20175],[54.12433,56.19446],[54.15051,56.19464],[54.1542,56.20083],[54.18199,56.20239],[54.19518,56.19823],[54.19496,56.20577],[54.1746,56.23816],[54.14469,56.25855],[54.10947,56.28745],[54.09008,56.30803],[54.06694,56.34162],[54.05333,56.35218],[54.03649,56.35934],[54.00331,56.36848],[53.97558,56.36735],[53.91075,56.37791],[53.87894,56.39307],[53.86856,56.40136],[53.8672,56.41999],[53.86199,56.42749],[53.84781,56.42694],[53.81785,56.44011],[53.81052,56.43277],[53.79516,56.4389],[53.78515,56.42997],[53.76643,56.42707],[53.73087,56.43035],[53.72601,56.42788],[53.66023,56.42568],[53.65909,56.43387],[53.67814,56.45269],[53.68103,56.45918],[53.70468,56.4609],[53.69063,56.4717],[53.68908,56.49495],[53.7093,56.48903],[53.72842,56.48911],[53.7338,56.49466],[53.75693,56.48461],[53.76844,56.5035],[53.76652,56.50731],[53.80538,56.52082],[53.81326,56.53528],[53.82694,56.52881],[53.84402,56.52675],[53.84215,56.5059],[53.86488,56.5054],[53.86442,56.49544],[53.87609,56.49528],[53.87508,56.48164],[53.87613,56.46554],[53.9056,56.47628],[53.92862,56.47829],[53.96231,56.48863],[53.96843,56.47547],[54.00773,56.48496],[54.02781,56.48149],[54.05843,56.48562],[54.07221,56.49201],[54.10182,56.49652],[54.10845,56.49107],[54.13721,56.48647],[54.15053,56.4957],[54.18658,56.49713],[54.19327,56.48218],[54.18126,56.46985],[54.17089,56.45301],[54.14878,56.44962],[54.14452,56.43768],[54.12206,56.42592],[54.17362,56.42347],[54.176,56.43561],[54.18808,56.44332],[54.19709,56.43439],[54.21972,56.42282],[54.24729,56.4294],[54.24711,56.44201],[54.25579,56.4515],[54.27995,56.45874],[54.27585,56.46744],[54.24409,56.45817],[54.21873,56.46936],[54.21192,56.47853],[54.2059,56.49871],[54.19039,56.50626],[54.1913,56.53446],[54.14127,56.53215],[54.10796,56.54197],[54.10974,56.56167],[54.09675,56.57616],[54.0845,56.58367],[54.07028,56.57772],[54.05499,56.59241],[54.04162,56.57908],[54.03357,56.58907],[54.05095,56.60358],[54.06405,56.62455],[54.07975,56.62806],[54.08241,56.6354],[54.04332,56.63747],[54.03329,56.63475],[54.01026,56.61995],[53.95806,56.6003],[53.91494,56.59877],[53.90567,56.59401],[53.87668,56.59797],[53.86488,56.58881],[53.84102,56.59672],[53.83885,56.62569],[53.86525,56.62037],[53.86412,56.62877],[53.85301,56.63206],[53.84524,56.64337],[53.851,56.65422],[53.88497,56.66253],[53.90171,56.67907],[53.88495,56.67891],[53.88595,56.71761],[53.84961,56.71819],[53.85405,56.75856],[53.82716,56.75953],[53.78592,56.73751],[53.77086,56.7165],[53.74662,56.70775],[53.691,56.70913],[53.65409,56.70575],[53.662,56.69638],[53.68384,56.68031],[53.68447,56.66307],[53.65848,56.65306],[53.64115,56.65713],[53.62044,56.65133],[53.6055,56.65817],[53.57097,56.66396],[53.55364,56.65575],[53.56431,56.64526],[53.54485,56.63711],[53.52451,56.62095],[53.52489,56.6043],[53.53506,56.58536],[53.52665,56.58052],[53.54724,56.56205],[53.5338,56.55638],[53.51823,56.54267],[53.50693,56.54662],[53.50266,56.56267],[53.44478,56.56295],[53.43687,56.54537],[53.44152,56.54115],[53.41703,56.52363],[53.39255,56.5246],[53.38175,56.51989],[53.3525,56.51747],[53.35099,56.50853],[53.36242,56.50569],[53.34421,56.49606],[53.35802,56.48601],[53.37233,56.48483],[53.37624,56.45707],[53.34434,56.44415],[53.34388,56.43981],[53.38476,56.43754],[53.40861,56.42737],[53.40285,56.41947],[53.3797,56.41652],[53.38464,56.39885],[53.33942,56.39352],[53.34932,56.36516],[53.34703,56.34469],[53.36519,56.34787],[53.39767,56.34498],[53.40407,56.32839],[53.39294,56.31344],[53.40307,56.29615],[53.40459,56.28605],[53.41747,56.27552],[53.39314,56.27603],[53.38654,56.26668]]],[[[53.84267,56.61753],[53.85322,56.59989],[53.94239,56.60148],[53.95713,56.60279],[53.97707,56.61435],[54.00034,56.61941],[54.03603,56.64065],[54.07638,56.64081],[54.09568,56.65497],[54.02227,56.65642],[54.02462,56.67212],[54.01363,56.67443],[53.98719,56.64831],[53.98112,56.63357],[53.96247,56.6288],[53.94598,56.64631],[53.93227,56.64325],[53.92331,56.64961],[53.88935,56.64571],[53.88111,56.63646],[53.88241,56.62591],[53.87258,56.61998],[53.84267,56.61753]]],[[[54.03759,56.44074],[54.04106,56.43408],[54.11409,56.42671],[54.13929,56.44064],[54.13381,56.44861],[54.07484,56.46193],[54.06242,56.44912],[54.03759,56.44074]]]]}}