{"type":"Feature","properties":{"id":"RUS.16.11","name":"Mglinsky District","level":2,"country":"RUS"},"geometry":{"type":"Polygon","coordinates":[[[32.77568,53.32396],[32.77329,53.31176],[32.74597,53.308],[32.73138,53.29976],[32.73041,53.29248],[32.74269,53.28994],[32.76766,53.29279],[32.77375,53.28481],[32.75215,53.2748],[32.75625,53.26632],[32.77176,53.26419],[32.7717,53.25162],[32.74959,53.23599],[32.71667,53.2273],[32.69042,53.23222],[32.68185,53.23732],[32.64853,53.22912],[32.63701,53.21204],[32.64081,53.20958],[32.62883,53.18353],[32.60942,53.17507],[32.61326,53.16598],[32.60493,53.15154],[32.58883,53.14598],[32.59953,53.12965],[32.59993,53.12017],[32.60756,53.11494],[32.60341,53.10087],[32.62478,53.09754],[32.63447,53.09064],[32.64651,53.09029],[32.66277,53.07885],[32.7041,53.08492],[32.71,53.07686],[32.70672,53.06362],[32.69365,53.05401],[32.69779,53.0368],[32.67389,53.03562],[32.6753,53.02227],[32.66552,53.01891],[32.65259,53.00477],[32.6351,52.99541],[32.62657,52.99699],[32.61943,52.98535],[32.62196,52.97983],[32.59475,52.97497],[32.60321,52.95368],[32.62343,52.96302],[32.65999,52.95329],[32.67433,52.93394],[32.69525,52.94519],[32.71726,52.95109],[32.73678,52.95159],[32.76635,52.97352],[32.78235,52.97596],[32.78703,52.96512],[32.80236,52.96077],[32.81388,52.97722],[32.83084,52.98027],[32.82908,52.97079],[32.84001,52.96561],[32.83481,52.95544],[32.8421,52.93462],[32.83643,52.93096],[32.84911,52.91797],[32.85997,52.91435],[32.88512,52.91158],[32.89072,52.90588],[32.906,52.91334],[32.92671,52.91564],[32.93125,52.91038],[32.95413,52.91276],[32.95995,52.90536],[32.99843,52.91506],[33.00536,52.92644],[32.99907,52.9354],[33.02336,52.94565],[33.08417,52.97916],[33.08302,52.98855],[33.07469,52.99798],[33.07463,53.00626],[33.08623,53.02513],[33.14044,53.02107],[33.14256,53.02624],[33.16528,53.03186],[33.17928,53.03013],[33.19491,53.03616],[33.19496,53.05124],[33.17648,53.05505],[33.1694,53.06636],[33.1553,53.07333],[33.15718,53.0885],[33.15059,53.10066],[33.13629,53.11702],[33.12885,53.14339],[33.12585,53.14936],[33.10444,53.15058],[33.0852,53.17235],[33.068,53.18471],[33.06623,53.1938],[33.05319,53.20242],[33.04172,53.20392],[33.02892,53.21411],[33.00744,53.21915],[32.98295,53.23402],[32.97868,53.25083],[32.96148,53.25016],[32.94822,53.238],[32.89254,53.23663],[32.85666,53.2591],[32.86863,53.26742],[32.86278,53.27212],[32.87439,53.28304],[32.88,53.2941],[32.85112,53.30249],[32.83295,53.30004],[32.82864,53.30917],[32.81209,53.30583],[32.7973,53.30888],[32.8103,53.31963],[32.80455,53.32885],[32.77568,53.32396]]]}}