{"type":"Feature","properties":{"id":"RUS.22.21","name":"Sechenovsky District","level":2,"country":"RUS"},"geometry":{"type":"Polygon","coordinates":[[[46.06204,55.04771],[46.05255,55.05375],[46.06797,55.0649],[46.07799,55.08219],[46.06672,55.08707],[46.03218,55.09425],[46.04429,55.11602],[46.04038,55.12992],[46.02878,55.14884],[46.01302,55.14975],[46.01204,55.16278],[46.04505,55.16643],[46.05143,55.17067],[46.05409,55.18931],[46.0743,55.20072],[46.07235,55.2105],[46.07818,55.22102],[46.10664,55.23091],[46.11821,55.2217],[46.15049,55.23335],[46.16451,55.23265],[46.15155,55.24742],[46.17176,55.24921],[46.18557,55.2623],[46.20801,55.26108],[46.21288,55.27081],[46.22953,55.2888],[46.21687,55.30228],[46.21347,55.31951],[46.19993,55.33116],[46.20074,55.34076],[46.2361,55.34799],[46.22703,55.35724],[46.20572,55.35018],[46.18133,55.35197],[46.12417,55.36592],[46.11603,55.35808],[46.09434,55.35594],[46.06721,55.34114],[46.04447,55.3469],[46.03419,55.34548],[45.99875,55.34968],[45.98448,55.35704],[45.97572,55.37308],[45.95374,55.39346],[45.92329,55.37596],[45.91791,55.36847],[45.86941,55.34468],[45.85905,55.3675],[45.86829,55.39077],[45.85482,55.40535],[45.88814,55.41299],[45.87512,55.42181],[45.85448,55.42978],[45.85464,55.41796],[45.83782,55.40909],[45.85328,55.40128],[45.84668,55.39646],[45.82853,55.36791],[45.77833,55.34487],[45.78952,55.33154],[45.78379,55.31473],[45.78622,55.30881],[45.77299,55.29341],[45.75355,55.28043],[45.74707,55.28654],[45.72914,55.28952],[45.67052,55.27006],[45.68267,55.25838],[45.67356,55.24878],[45.65953,55.24611],[45.63464,55.25249],[45.63083,55.24417],[45.6114,55.22328],[45.61024,55.21175],[45.59358,55.20444],[45.57845,55.18377],[45.56733,55.17484],[45.58219,55.16698],[45.59313,55.16577],[45.6096,55.16155],[45.61217,55.16915],[45.6283,55.17155],[45.64023,55.17792],[45.66649,55.17748],[45.66563,55.18336],[45.69034,55.18091],[45.70312,55.19027],[45.71341,55.18424],[45.72766,55.18463],[45.73598,55.1666],[45.73084,55.1595],[45.7359,55.14793],[45.76182,55.15577],[45.76773,55.15469],[45.78215,55.13753],[45.7836,55.11638],[45.75589,55.11447],[45.75898,55.10181],[45.74895,55.09086],[45.73058,55.09243],[45.71925,55.08114],[45.74336,55.07033],[45.7498,55.06394],[45.74328,55.05706],[45.72037,55.05205],[45.71598,55.04741],[45.73417,55.04171],[45.69832,55.01178],[45.70089,55.00376],[45.72344,54.99137],[45.74336,54.99604],[45.75,55.00234],[45.77469,55.00036],[45.78712,55.00386],[45.81866,55.00161],[45.83092,55.00966],[45.84933,55.01109],[45.86466,55.00716],[45.88232,55.00738],[45.9028,55.004],[45.89916,54.9985],[45.92439,54.99372],[45.92807,55.00312],[45.94746,55.00458],[45.9602,54.99687],[45.97555,55.00219],[45.97847,55.00996],[45.99459,55.01612],[45.99974,55.02522],[46.02162,55.02135],[46.03489,55.02739],[46.06204,55.04771]]]}}