{"type":"Feature","properties":{"id":"RUS.8.14","name":"Krasnogvardeysky District","level":2,"country":"RUS"},"geometry":{"type":"Polygon","coordinates":[[[41.73791,45.65689],[41.73811,45.69281],[41.85413,45.6932],[41.87916,45.68996],[41.87885,45.72927],[41.90457,45.72944],[41.90446,45.73986],[41.93102,45.74968],[41.93493,45.75843],[41.96315,45.75624],[41.98737,45.75027],[41.99815,45.75274],[41.99478,45.77872],[41.99358,45.81942],[41.99454,45.84637],[41.96816,45.84633],[41.96775,45.8553],[41.94958,45.85516],[41.94956,45.88416],[42.04518,45.88405],[42.04557,45.94268],[42.08009,45.93375],[42.08295,45.96635],[41.92729,45.97452],[41.9028,45.96797],[41.89561,45.96994],[41.8197,45.97536],[41.80989,45.97896],[41.79473,45.97684],[41.76726,45.97858],[41.7505,45.98153],[41.71441,45.98243],[41.70166,45.97979],[41.69341,45.98291],[41.66693,45.9749],[41.65863,45.97868],[41.61854,45.9792],[41.56738,45.98434],[41.54126,45.98592],[41.52477,45.99163],[41.51618,45.98961],[41.49507,45.99508],[41.49625,46.0062],[41.47145,46.00599],[41.47142,45.99789],[41.42576,45.99916],[41.39281,45.9972],[41.39308,45.95231],[41.1609,45.95169],[41.16118,45.87984],[41.24901,45.88005],[41.25083,45.86952],[41.2628,45.85727],[41.25073,45.84949],[41.23347,45.83139],[41.23921,45.82275],[41.25694,45.81806],[41.26005,45.79495],[41.2728,45.79481],[41.27214,45.75883],[41.24751,45.75894],[41.24761,45.7187],[41.33005,45.71776],[41.32046,45.69763],[41.29867,45.702],[41.29812,45.68254],[41.32147,45.68235],[41.31973,45.63351],[41.33217,45.63312],[41.33454,45.62207],[41.33391,45.5834],[41.32859,45.58309],[41.32817,45.55636],[41.46255,45.55515],[41.46327,45.56845],[41.49504,45.56821],[41.52621,45.56011],[41.52494,45.54505],[41.56476,45.54523],[41.57123,45.54697],[41.57073,45.58454],[41.66052,45.58467],[41.66034,45.65678],[41.73791,45.65689]]]}}