{"type":"Feature","properties":{"id":"RUS.51.4","name":"городской округ Сухой Лог","level":2,"country":"RUS"},"geometry":{"type":"Polygon","coordinates":[[[62.33352,57.18175],[62.28216,57.18472],[62.26661,57.19245],[62.23353,57.19224],[62.22592,57.18938],[62.20342,57.19806],[62.18463,57.19396],[62.18967,57.18569],[62.1085,57.19756],[62.10472,57.18826],[62.0922,57.18864],[62.08778,57.17703],[61.85099,57.20463],[61.85425,57.18223],[61.84075,57.18218],[61.83218,57.1598],[61.80287,57.17685],[61.75575,57.21653],[61.73405,57.20403],[61.74059,57.19745],[61.70712,57.10896],[61.70836,57.10036],[61.69326,57.07416],[61.69043,57.0662],[61.64675,56.95378],[61.67998,56.95002],[61.66467,56.91162],[61.63273,56.9155],[61.62478,56.89665],[61.67794,56.88998],[61.66722,56.89858],[61.67653,56.90277],[61.70051,56.895],[61.69841,56.88753],[61.73934,56.88267],[61.73655,56.87663],[61.76541,56.8732],[61.7706,56.86377],[61.8367,56.84795],[61.86754,56.8448],[61.87101,56.86985],[61.93154,56.87543],[61.95529,56.86517],[61.95259,56.84997],[62.00593,56.85132],[61.99907,56.87159],[62.04382,56.87851],[62.08806,56.86962],[62.12429,56.87211],[62.13059,56.85423],[62.13423,56.81231],[62.15441,56.81019],[62.15639,56.80395],[62.18874,56.80664],[62.21192,56.80237],[62.21909,56.79148],[62.21695,56.78421],[62.24981,56.77603],[62.25915,56.76659],[62.30327,56.77597],[62.31138,56.77478],[62.31399,56.79383],[62.36868,56.79944],[62.36635,56.80645],[62.34119,56.80572],[62.34731,56.8227],[62.36098,56.81506],[62.3736,56.81456],[62.36407,56.83185],[62.38078,56.82997],[62.38544,56.84316],[62.405,56.84728],[62.40293,56.85639],[62.40855,56.88307],[62.38459,56.88615],[62.39124,56.8924],[62.39221,56.91325],[62.38721,56.91448],[62.40087,56.97051],[62.42885,56.97986],[62.41891,56.99038],[62.42483,57.00207],[62.4166,57.00502],[62.40262,56.99352],[62.35754,56.99672],[62.34578,57.00769],[62.3543,57.03009],[62.37336,57.02904],[62.37904,57.0413],[62.3835,57.06474],[62.36718,57.06558],[62.39656,57.12016],[62.41404,57.12236],[62.44712,57.11945],[62.46603,57.16248],[62.47098,57.1743],[62.45766,57.17675],[62.43892,57.17418],[62.33352,57.18175]]]}}