{"type":"Feature","properties":{"id":"RUS.81.3","name":"Yagodninsky Urban District","level":2,"country":"RUS"},"geometry":{"type":"Polygon","coordinates":[[[148.79205,62.43495],[148.80223,62.43335],[148.7992,62.41441],[148.82353,62.41059],[148.83276,62.39506],[148.82681,62.38824],[148.84213,62.36428],[148.86002,62.36579],[148.87888,62.35094],[148.90286,62.34951],[148.942,62.34085],[148.95193,62.33037],[148.99068,62.323],[149.00848,62.32823],[149.02427,62.34435],[149.03464,62.34362],[149.05364,62.35602],[149.09924,62.35469],[149.11468,62.34156],[149.125,62.34887],[149.15763,62.35241],[149.17202,62.35756],[149.19691,62.34818],[149.20061,62.33696],[149.18198,62.32084],[149.18977,62.31061],[149.17937,62.29518],[149.16449,62.28881],[149.16579,62.28003],[149.15467,62.27168],[149.16174,62.26549],[149.15904,62.23131],[149.15315,62.19793],[149.17887,62.19391],[149.19232,62.19504],[149.21536,62.18428],[149.20995,62.17362],[149.21697,62.16708],[149.2196,62.1501],[149.23705,62.13627],[149.21867,62.11028],[149.24793,62.09381],[149.24672,62.07911],[149.25725,62.07672],[149.27948,62.06339],[149.29024,62.0534],[149.27886,62.03443],[149.28938,62.02719],[149.31687,62.02241],[149.30884,62.01156],[149.33253,61.99802],[149.33673,61.98481],[149.40764,61.97161],[149.42228,61.9567],[149.43668,61.9544],[149.45855,61.94028],[149.4701,61.93979],[149.49865,61.93034],[149.5222,61.93347],[149.58026,61.9317],[149.61187,61.93607],[149.68582,61.89919],[149.69689,61.89903],[149.72986,61.90855],[149.74064,61.90162],[149.7316,61.8626],[149.72438,61.85515],[149.75646,61.84645],[149.76941,61.85395],[149.7872,61.85307],[149.81186,61.84556],[149.83493,61.85578],[149.88973,61.86586],[149.90334,61.86978],[149.93164,61.86877],[149.99183,61.85409],[149.99553,61.84513],[150.04131,61.82485],[150.07926,61.81304],[150.10605,61.78859],[150.1329,61.77788],[150.11966,61.76432],[150.13118,61.75078],[150.12264,61.74635],[150.12706,61.73645],[150.14366,61.72077],[150.14298,61.71138],[150.17068,61.69497],[150.19961,61.68186],[150.19226,61.65997],[150.1858,61.65324],[150.20682,61.64081],[150.22061,61.62731],[150.22938,61.62537],[150.26817,61.60774],[150.25899,61.58404],[150.25823,61.56978],[150.2442,61.55177],[150.2059,61.54732],[150.2147,61.5421],[150.22558,61.52267],[150.20872,61.51781],[150.20358,61.49944],[150.22236,61.48994],[150.21113,61.4828],[150.21466,61.46492],[150.22479,61.46084],[150.21971,61.44549],[150.23825,61.43552],[150.25488,61.43551],[150.25627,61.41504],[150.24812,61.40792],[150.24943,61.39394],[150.25821,61.38106],[150.28359,61.36285],[150.29004,61.36383],[150.29874,61.34277],[150.33984,61.33735],[150.34987,61.34399],[150.3721,61.34055],[150.42032,61.33989],[150.43055,61.33215],[150.48359,61.33089],[150.49542,61.32415],[150.53643,61.32392],[150.56163,61.32787],[150.57672,61.33465],[150.61759,61.33696],[150.62778,61.34595],[150.64598,61.34953],[150.69147,61.35099],[150.70164,61.35699],[150.7132,61.37351],[150.73508,61.41147],[150.75863,61.43114],[150.81247,61.44464],[150.86297,61.4702],[150.89407,61.47804],[150.91571,61.47699],[150.93227,61.48273],[150.95903,61.48386],[150.98019,61.50118],[151.00362,61.49407],[151.04297,61.50766],[151.03447,61.51987],[151.04761,61.53516],[151.05189,61.5532],[151.0832,61.54735],[151.09289,61.54915],[151.08666,61.56611],[151.10127,61.57057],[151.11108,61.58093],[151.12132,61.58079],[151.18886,61.60764],[151.17739,61.6283],[151.19051,61.64884],[151.22214,61.66074],[151.26262,61.65611],[151.28865,61.66922],[151.31033,61.66771],[151.35333,61.6699],[151.38184,61.67888],[151.39622,61.66737],[151.41384,61.66104],[151.44113,61.65678],[151.45731,61.66751],[151.47197,61.70569],[151.46502,61.7285],[151.44187,61.73837],[151.43107,61.75058],[151.43549,61.76451],[151.41062,61.80183],[151.39998,61.80163],[151.38334,61.82293],[151.41604,61.82895],[151.43011,61.82794],[151.49256,61.85003],[151.48387,61.8608],[151.49314,61.87474],[151.52283,61.88448],[151.53623,61.89176],[151.55005,61.91747],[151.57164,61.9267],[151.59783,61.94478],[151.60072,61.95697],[151.62275,61.9529],[151.64961,61.96886],[151.6752,61.9596],[151.70758,61.96818],[151.71458,61.98848],[151.71458,62.00101],[151.73326,62.00217],[151.76743,62.02116],[151.79137,62.02035],[151.81216,62.0269],[151.82186,62.03543],[151.87508,62.02901],[151.89544,62.04568],[151.92033,62.04594],[151.93722,62.05353],[151.95632,62.04527],[151.96088,62.03785],[151.99101,62.04394],[152.01799,62.03238],[152.03381,62.03436],[152.05052,62.04348],[152.08069,62.0426],[152.09768,62.05344],[152.09809,62.06234],[152.14361,62.0784],[152.17173,62.06516],[152.20158,62.05946],[152.21661,62.0517],[152.22245,62.04318],[152.23973,62.04335],[152.26459,62.05502],[152.2947,62.0568],[152.32446,62.0544],[152.32038,62.08096],[152.34238,62.08877],[152.35679,62.08452],[152.37529,62.08857],[152.37786,62.09794],[152.33414,62.11624],[152.33328,62.13725],[152.29526,62.14608],[152.27662,62.13991],[152.26446,62.14528],[152.27318,62.15453],[152.24024,62.14957],[152.21296,62.1602],[152.19563,62.16325],[152.16945,62.16187],[152.14434,62.16725],[152.12852,62.16493],[152.10127,62.16782],[152.09381,62.17686],[152.09366,62.19058],[152.07101,62.19827],[152.04014,62.21595],[152.04215,62.22378],[152.02942,62.23039],[152.04125,62.23727],[152.03936,62.24869],[152.05219,62.25382],[152.05226,62.2621],[152.06912,62.26987],[152.07595,62.27857],[152.05709,62.29611],[152.05763,62.30857],[152.07983,62.32506],[152.08866,62.34699],[152.1156,62.35992],[152.12427,62.36798],[152.14027,62.37035],[152.13169,62.38191],[152.14392,62.39401],[152.15081,62.44663],[152.16366,62.46172],[152.15097,62.47629],[152.11802,62.48408],[152.11574,62.498],[152.12804,62.5159],[152.12609,62.53894],[152.13171,62.54348],[152.1341,62.56707],[152.11867,62.59719],[152.07107,62.58257],[152.04054,62.58464],[152.05218,62.59782],[152.03464,62.60142],[152.03213,62.61791],[151.98818,62.61447],[151.98584,62.62058],[151.96184,62.62386],[151.96183,62.63007],[151.91814,62.6395],[151.89428,62.63238],[151.86172,62.64526],[151.83942,62.66411],[151.82671,62.66783],[151.82659,62.67602],[151.80861,62.68065],[151.79517,62.67782],[151.78002,62.68715],[151.75514,62.69178],[151.73567,62.70488],[151.71669,62.70173],[151.6768,62.70605],[151.64185,62.71855],[151.61336,62.71286],[151.57425,62.72151],[151.5725,62.72983],[151.58618,62.73795],[151.55076,62.74989],[151.51067,62.77181],[151.52365,62.78323],[151.53887,62.78746],[151.5636,62.77943],[151.57475,62.78491],[151.5975,62.80856],[151.58377,62.82168],[151.59951,62.83027],[151.58978,62.84849],[151.56143,62.8572],[151.56934,62.8891],[151.58829,62.90335],[151.56684,62.91802],[151.56114,62.93601],[151.54095,62.94519],[151.52755,62.95803],[151.52779,62.98006],[151.49558,62.98707],[151.49433,63.00467],[151.48316,63.01551],[151.46627,63.02256],[151.4826,63.03794],[151.46625,63.05651],[151.47311,63.0645],[151.44189,63.07132],[151.43427,63.08499],[151.41924,63.08933],[151.41172,63.09909],[151.38421,63.1044],[151.38183,63.11522],[151.34498,63.13447],[151.30809,63.13944],[151.28824,63.15109],[151.25182,63.1494],[151.23485,63.15737],[151.22871,63.17166],[151.2136,63.17322],[151.2349,63.18832],[151.23739,63.19564],[151.2165,63.19784],[151.19669,63.20681],[151.17836,63.20617],[151.16363,63.22101],[151.13581,63.22773],[151.10893,63.25301],[151.1079,63.26873],[151.12312,63.27841],[151.12903,63.28887],[151.11199,63.29642],[151.08453,63.29154],[151.05397,63.28264],[151.00342,63.28853],[150.93728,63.31509],[150.91252,63.32218],[150.89532,63.31652],[150.88476,63.32465],[150.87104,63.32515],[150.86709,63.33764],[150.87565,63.34092],[150.87591,63.35421],[150.86414,63.35978],[150.84355,63.35808],[150.82954,63.37044],[150.80677,63.35894],[150.78032,63.36937],[150.77017,63.36881],[150.76121,63.38449],[150.74436,63.38181],[150.69075,63.40512],[150.68355,63.41842],[150.66458,63.41582],[150.64667,63.42307],[150.65531,63.44305],[150.64123,63.44557],[150.65198,63.46188],[150.64792,63.46919],[150.62754,63.47578],[150.62399,63.48447],[150.60748,63.49],[150.60958,63.49884],[150.59514,63.51093],[150.60062,63.52227],[150.58168,63.53162],[150.56237,63.53234],[150.52627,63.54372],[150.54191,63.55997],[150.55652,63.56912],[150.51444,63.57695],[150.50936,63.58425],[150.48819,63.59062],[150.44557,63.58615],[150.40111,63.58659],[150.37611,63.58978],[150.35442,63.58916],[150.33415,63.58375],[150.32247,63.58684],[150.3068,63.57134],[150.26015,63.54004],[150.22738,63.53082],[150.21233,63.53031],[150.19517,63.53927],[150.16419,63.54917],[150.11621,63.55139],[150.09191,63.55795],[150.08876,63.5663],[150.07545,63.57366],[150.07537,63.58321],[150.04566,63.59138],[150.04485,63.60116],[150.03011,63.60333],[150.01401,63.61245],[149.99279,63.63279],[149.98136,63.63297],[149.92262,63.61068],[149.86483,63.60874],[149.85293,63.60596],[149.85715,63.59247],[149.83931,63.57287],[149.85013,63.5585],[149.82179,63.55737],[149.80211,63.57291],[149.77595,63.56329],[149.77351,63.5552],[149.76035,63.55139],[149.75489,63.54141],[149.76005,63.52247],[149.73476,63.51408],[149.75705,63.48773],[149.77698,63.48735],[149.78875,63.48152],[149.77466,63.46775],[149.78501,63.45161],[149.77603,63.44402],[149.72544,63.44779],[149.69636,63.44396],[149.66206,63.45047],[149.64356,63.43856],[149.62409,63.44161],[149.58544,63.42733],[149.57556,63.41911],[149.55442,63.41247],[149.52851,63.40855],[149.49865,63.41795],[149.47851,63.4344],[149.45227,63.44435],[149.4214,63.42456],[149.40229,63.41866],[149.38452,63.40538],[149.34593,63.40787],[149.30052,63.42693],[149.26169,63.42011],[149.22284,63.41966],[149.19027,63.4321],[149.14482,63.42857],[149.11463,63.43303],[149.08315,63.4565],[149.05137,63.4615],[149.00144,63.45604],[148.97911,63.43993],[148.94643,63.44819],[148.94757,63.45282],[148.9332,63.47239],[148.86052,63.49177],[148.8169,63.49091],[148.792,63.48832],[148.76079,63.49371],[148.7401,63.48031],[148.72929,63.48017],[148.70772,63.49046],[148.70099,63.51239],[148.68662,63.51636],[148.66861,63.51446],[148.60726,63.54044],[148.58808,63.54229],[148.5882,63.55511],[148.55574,63.55003],[148.52579,63.54939],[148.50542,63.5424],[148.42065,63.54656],[148.39265,63.55311],[148.35918,63.55053],[148.3462,63.55405],[148.32278,63.55291],[148.31956,63.54396],[148.30383,63.53847],[148.30692,63.53138],[148.28011,63.52619],[148.26234,63.51314],[148.25435,63.50164],[148.23603,63.49579],[148.22192,63.47265],[148.22502,63.45747],[148.20554,63.44698],[148.19143,63.44585],[148.17343,63.43346],[148.17738,63.42099],[148.20175,63.41551],[148.21625,63.40717],[148.22324,63.39621],[148.28009,63.38783],[148.2988,63.37098],[148.28765,63.35873],[148.30443,63.35271],[148.32905,63.35904],[148.34754,63.33701],[148.3518,63.32622],[148.36908,63.31633],[148.37955,63.29843],[148.37684,63.29062],[148.34704,63.28305],[148.36425,63.27207],[148.35481,63.2459],[148.37412,63.23738],[148.38704,63.23933],[148.41183,63.22578],[148.42062,63.21316],[148.41197,63.19165],[148.42757,63.17379],[148.46115,63.15767],[148.46405,63.14647],[148.48229,63.12923],[148.51347,63.1056],[148.53098,63.06665],[148.51014,63.05524],[148.48812,63.0569],[148.47166,63.0502],[148.47083,63.04301],[148.44894,63.04194],[148.4148,63.03539],[148.43881,63.01789],[148.42675,63.0056],[148.4299,62.98732],[148.41866,62.97665],[148.42162,62.95366],[148.41495,62.94208],[148.43654,62.912],[148.45349,62.89369],[148.45503,62.87891],[148.4663,62.8678],[148.45562,62.8499],[148.47137,62.83732],[148.47968,62.8212],[148.47794,62.80664],[148.48197,62.76596],[148.50311,62.75463],[148.50528,62.74103],[148.52853,62.7269],[148.54661,62.70611],[148.56802,62.69954],[148.58316,62.70095],[148.62409,62.69281],[148.63965,62.69282],[148.67741,62.70302],[148.71754,62.70531],[148.76488,62.69932],[148.77595,62.69999],[148.82853,62.69461],[148.85234,62.66827],[148.87481,62.65204],[148.8706,62.63582],[148.87348,62.61901],[148.86286,62.61128],[148.87284,62.59148],[148.84688,62.57898],[148.86223,62.56351],[148.86205,62.5553],[148.84303,62.54518],[148.83944,62.53026],[148.85416,62.51171],[148.85117,62.50377],[148.88109,62.48327],[148.86753,62.4678],[148.79205,62.43495]]]}}