{"type":"Feature","properties":{"id":"RUS.36.7","name":"Bryukhovetsky District","level":2,"country":"RUS"},"geometry":{"type":"Polygon","coordinates":[[[38.72281,45.91097],[38.71264,45.90754],[38.65735,45.90844],[38.64755,45.89509],[38.6305,45.89694],[38.62411,45.88443],[38.62485,45.86877],[38.61214,45.86351],[38.59451,45.86903],[38.62575,45.84155],[38.61792,45.83617],[38.61723,45.75638],[38.63075,45.75795],[38.64223,45.76468],[38.66246,45.76739],[38.67884,45.74764],[38.70998,45.76463],[38.72331,45.76278],[38.72879,45.7529],[38.74427,45.76398],[38.74599,45.77242],[38.91317,45.77116],[38.91232,45.71714],[39.02076,45.7167],[39.0441,45.72387],[39.05733,45.72562],[39.06904,45.70967],[39.08039,45.71356],[39.08642,45.70561],[39.14353,45.72623],[39.12371,45.75368],[39.15114,45.75368],[39.15138,45.74481],[39.24145,45.7455],[39.24154,45.73644],[39.31896,45.73672],[39.31869,45.76361],[39.4468,45.7646],[39.44684,45.78421],[39.46701,45.79573],[39.47041,45.78929],[39.48799,45.7921],[39.49483,45.78666],[39.52346,45.78683],[39.5236,45.81626],[39.52295,45.88172],[39.52679,45.8914],[39.52054,45.88526],[39.50999,45.89088],[39.50841,45.9355],[39.46934,45.93538],[39.46937,45.92655],[39.43258,45.92633],[39.43282,45.89037],[39.40602,45.89027],[39.39381,45.88582],[39.37762,45.88888],[39.35841,45.88793],[39.35236,45.88235],[39.32303,45.8854],[39.31715,45.87938],[39.30401,45.87879],[39.27778,45.88952],[39.2775,45.91578],[39.08452,45.91441],[39.08387,45.92372],[39.05889,45.92667],[39.03436,45.92643],[39.00161,45.9221],[38.99035,45.95997],[38.87671,45.96032],[38.87785,46.00201],[38.85069,45.99834],[38.82665,46.00207],[38.80154,46.00343],[38.78416,45.9987],[38.76954,46.00201],[38.73407,46.00328],[38.75343,45.95868],[38.77397,45.94133],[38.78331,45.94001],[38.79791,45.92142],[38.78955,45.91183],[38.77332,45.90913],[38.76571,45.90329],[38.74376,45.90509],[38.72281,45.91097]]]}}