{"type":"Feature","properties":{"id":"RUS.72.18","name":"Sukhobuzimsky Rayon","level":2,"country":"RUS"},"geometry":{"type":"Polygon","coordinates":[[[94.66954,56.63356],[94.55937,56.63619],[94.55813,56.66165],[94.56303,56.7239],[94.52862,56.72432],[94.525,56.74261],[94.50729,56.76759],[94.48391,56.78493],[94.4055,56.82009],[94.3438,56.81577],[94.28233,56.85081],[94.27941,56.91478],[94.24748,56.91666],[94.2127,56.92338],[94.18386,56.92524],[94.14887,56.91823],[94.1165,56.91503],[94.05646,56.91595],[93.98566,56.89596],[93.80556,56.85685],[93.73717,56.86517],[93.65858,56.83533],[93.62978,56.844],[93.56726,56.82006],[93.54937,56.82152],[93.53245,56.81539],[93.50538,56.82787],[93.47693,56.82664],[93.44594,56.81734],[93.44694,56.81141],[93.42878,56.80107],[93.36924,56.78531],[93.35669,56.78446],[93.38845,56.75028],[93.4093,56.74523],[93.41438,56.73398],[93.42694,56.68047],[93.42425,56.67692],[93.37109,56.66541],[93.32385,56.67774],[93.29482,56.67768],[93.15539,56.67041],[93.10236,56.70355],[93.07658,56.70462],[93.04263,56.70316],[92.99779,56.7053],[92.9663,56.70938],[92.93949,56.68135],[92.93998,56.65934],[92.91231,56.65861],[92.90612,56.64145],[92.88956,56.64101],[92.8894,56.65055],[92.86817,56.64683],[92.8747,56.65756],[92.76075,56.65392],[92.74978,56.66379],[92.73355,56.66728],[92.71745,56.64522],[92.7258,56.63861],[92.72581,56.6243],[92.71675,56.61343],[92.69725,56.602],[92.68651,56.60635],[92.66903,56.6012],[92.66731,56.59004],[92.65754,56.58315],[92.68213,56.56075],[92.73478,56.55746],[92.75269,56.55211],[92.76536,56.53879],[92.79842,56.532],[92.82897,56.54064],[92.87938,56.51304],[92.87474,56.49817],[92.85264,56.47153],[92.8633,56.46842],[92.84638,56.4587],[92.84626,56.44851],[92.86367,56.40104],[92.87441,56.3954],[92.89303,56.39654],[92.92041,56.40536],[92.93699,56.39544],[92.94388,56.38309],[92.96793,56.38464],[93.00197,56.38324],[93.03507,56.35748],[93.05348,56.36053],[93.06852,56.35893],[93.09045,56.35031],[93.08754,56.33557],[93.0894,56.2884],[93.24101,56.29963],[93.27506,56.30326],[93.33909,56.31476],[93.3515,56.31551],[93.35624,56.32718],[93.35374,56.3421],[93.36881,56.34661],[93.38538,56.36357],[93.43815,56.36737],[93.48379,56.38784],[93.51178,56.37651],[93.52937,56.37528],[93.59368,56.38944],[93.60227,56.38564],[93.6219,56.38928],[93.64952,56.38052],[93.73411,56.39855],[93.77863,56.39834],[93.77828,56.38057],[93.82184,56.38035],[93.8121,56.37277],[93.82578,56.35406],[93.76865,56.35439],[93.72746,56.34669],[93.72962,56.33282],[93.74257,56.32653],[93.75911,56.32451],[93.79461,56.30801],[93.87345,56.31254],[93.89112,56.31703],[93.88998,56.33067],[93.90204,56.33943],[93.90271,56.34705],[93.99666,56.35409],[93.99292,56.33503],[94.00133,56.32713],[94.01318,56.32608],[94.01953,56.31532],[94.03429,56.31428],[94.06485,56.29752],[94.07429,56.27999],[94.06811,56.25663],[94.07034,56.24328],[94.08116,56.23069],[94.07704,56.21952],[94.08819,56.20959],[94.11218,56.20234],[94.11998,56.20025],[94.14372,56.20708],[94.15177,56.21612],[94.19966,56.21643],[94.21917,56.22673],[94.23271,56.22787],[94.24245,56.23617],[94.26342,56.24481],[94.2697,56.25164],[94.29681,56.26085],[94.41267,56.38663],[94.51844,56.42442],[94.65968,56.52517],[94.66954,56.63356]]]}}