{"type":"Feature","properties":{"id":"RUS.10.22","name":"Nemansky District","level":2,"country":"RUS"},"geometry":{"type":"Polygon","coordinates":[[[21.84147,55.0456],[21.84097,55.028],[21.83327,55.02277],[21.81391,55.03055],[21.79577,55.00923],[21.77449,55.01144],[21.75544,54.99976],[21.77389,54.98848],[21.76142,54.97732],[21.72918,54.97077],[21.72856,54.9613],[21.73629,54.95498],[21.71723,54.95025],[21.70227,54.95082],[21.70306,54.94133],[21.73433,54.92112],[21.74425,54.92276],[21.75519,54.91621],[21.80189,54.90072],[21.79239,54.88831],[21.80209,54.88046],[21.8013,54.86508],[21.81349,54.85519],[21.82289,54.86099],[21.84422,54.85237],[21.8719,54.84821],[21.88155,54.85258],[21.89284,54.84818],[21.94465,54.85123],[21.96854,54.86555],[22.00213,54.85618],[22.0137,54.8453],[22.05282,54.82234],[22.06698,54.81056],[22.08066,54.81129],[22.09699,54.79893],[22.11251,54.80151],[22.13048,54.79998],[22.16096,54.81375],[22.17144,54.82102],[22.18424,54.82062],[22.183,54.83484],[22.1896,54.84463],[22.18719,54.85279],[22.2116,54.85188],[22.23171,54.86103],[22.24751,54.86217],[22.2418,54.87583],[22.24476,54.88726],[22.2646,54.88627],[22.27838,54.89164],[22.28809,54.90037],[22.30186,54.92035],[22.26335,54.93943],[22.24571,54.93639],[22.23693,54.94407],[22.22205,54.93909],[22.20441,54.94739],[22.20436,54.95398],[22.18664,54.96688],[22.20634,54.97768],[22.19548,54.99482],[22.21358,55.01226],[22.21494,55.02068],[22.19956,55.02613],[22.19844,55.03148],[22.22691,55.04631],[22.19665,55.05525],[22.15632,55.0552],[22.13367,55.04642],[22.12056,55.02777],[22.10024,55.02415],[22.07875,55.02459],[22.05328,55.03148],[22.03691,55.04254],[22.03072,55.05419],[22.03983,55.06952],[22.03527,55.08312],[22.01214,55.0869],[21.98354,55.08391],[21.96639,55.07402],[21.95217,55.07653],[21.94344,55.06228],[21.9189,55.05014],[21.89845,55.04404],[21.88516,55.05016],[21.85873,55.0446],[21.84147,55.0456]]]}}