{"type":"Feature","properties":{"id":"RUS.73.11","name":"Bay-Tayginsky Kozhuun","level":2,"country":"RUS"},"geometry":{"type":"Polygon","coordinates":[[[89.65968,51.53917],[89.64621,51.54694],[89.63282,51.54758],[89.60586,51.53217],[89.58847,51.54615],[89.58025,51.54886],[89.57355,51.55984],[89.56268,51.56403],[89.54178,51.56623],[89.52759,51.57678],[89.50817,51.58628],[89.49456,51.58576],[89.48463,51.59057],[89.4648,51.58985],[89.44876,51.59787],[89.43967,51.60677],[89.40986,51.60847],[89.39413,51.60439],[89.37482,51.60611],[89.3462,51.59351],[89.33506,51.59417],[89.3102,51.57547],[89.29664,51.57169],[89.27848,51.54723],[89.24937,51.54323],[89.23647,51.55412],[89.23772,51.56724],[89.23286,51.58383],[89.24307,51.59473],[89.2427,51.61505],[89.25368,51.61875],[89.25337,51.62771],[89.26382,51.64124],[89.25271,51.65307],[89.22216,51.65335],[89.20731,51.65872],[89.20136,51.65114],[89.1886,51.64974],[89.16492,51.63569],[89.13381,51.63578],[89.12318,51.6415],[89.1093,51.63672],[89.09422,51.62616],[89.08188,51.6119],[89.08543,51.60205],[89.07137,51.58776],[89.03441,51.58813],[89.01703,51.58495],[89.00264,51.57123],[88.97951,51.57371],[88.97098,51.56774],[88.95303,51.563],[88.92586,51.5715],[88.91392,51.56685],[88.89421,51.56792],[88.87195,51.56241],[88.85259,51.57095],[88.83199,51.56863],[88.83276,51.56103],[88.8061,51.55365],[88.79153,51.55376],[88.79965,51.54705],[88.79409,51.53808],[88.80491,51.53401],[88.80698,51.52689],[88.82454,51.51678],[88.84143,51.5158],[88.85388,51.50758],[88.86314,51.48985],[88.8547,51.48026],[88.86388,51.46788],[88.87989,51.46692],[88.8913,51.47233],[88.91989,51.46392],[88.93204,51.44716],[88.95753,51.43284],[88.97087,51.42912],[88.98213,51.41578],[89.00888,51.39426],[89.00843,51.37933],[89.0031,51.3684],[88.9865,51.36462],[88.99058,51.35403],[88.9862,51.34699],[88.99754,51.33538],[88.98976,51.31854],[88.99124,51.30839],[88.98146,51.30398],[88.97798,51.28157],[88.96702,51.26505],[88.97457,51.25842],[88.96013,51.24834],[88.96998,51.23956],[88.96072,51.2283],[88.96754,51.21411],[88.96731,51.20293],[88.98961,51.19846],[88.99925,51.19081],[89.01562,51.18398],[89.03377,51.18501],[89.03933,51.17025],[89.04985,51.15981],[89.03837,51.15036],[89.0377,51.13399],[89.04866,51.11958],[89.03948,51.11252],[89.02888,51.11244],[89.02229,51.10252],[89.0334,51.09907],[89.05415,51.08231],[89.05192,51.06471],[89.06156,51.05825],[89.05422,51.04714],[89.08786,51.0381],[89.11772,51.02582],[89.1232,51.00742],[89.16706,50.99703],[89.1741,50.98674],[89.19247,50.98296],[89.20959,50.95266],[89.22152,50.94841],[89.22863,50.93513],[89.23878,50.93343],[89.24196,50.92156],[89.25271,50.91472],[89.26804,50.91598],[89.26975,50.90842],[89.26775,50.88046],[89.28242,50.87638],[89.29761,50.8852],[89.32191,50.87964],[89.34695,50.88125],[89.34295,50.87257],[89.34858,50.85967],[89.36006,50.86271],[89.37918,50.86069],[89.39866,50.85053],[89.37947,50.83502],[89.37688,50.82343],[89.39022,50.80992],[89.41415,50.80148],[89.43089,50.80889],[89.44015,50.79903],[89.45342,50.79257],[89.46653,50.78047],[89.46586,50.77014],[89.47142,50.75545],[89.48579,50.73765],[89.50254,50.73513],[89.52839,50.72408],[89.53817,50.71057],[89.53788,50.70257],[89.54825,50.68764],[89.55966,50.6849],[89.57063,50.67482],[89.56692,50.6619],[89.58278,50.6458],[89.60478,50.64476],[89.6339,50.6466],[89.64583,50.63252],[89.63249,50.62248],[89.64375,50.613],[89.64827,50.59977],[89.64294,50.59161],[89.64405,50.58131],[89.6645,50.57012],[89.67561,50.57442],[89.69576,50.5756],[89.70021,50.56968],[89.72273,50.57012],[89.73555,50.56642],[89.74859,50.55206],[89.77333,50.54613],[89.78956,50.55065],[89.80127,50.53582],[89.81423,50.53108],[89.82794,50.53195],[89.85157,50.52326],[89.87377,50.51961],[89.88236,50.50746],[89.90567,50.50672],[89.9139,50.51856],[89.93085,50.52098],[89.94141,50.51648],[89.95563,50.52607],[89.96615,50.52024],[89.97809,50.50516],[89.97997,50.49762],[89.99956,50.49292],[90.02425,50.49679],[90.03696,50.49332],[90.05807,50.49973],[90.06411,50.50473],[90.08276,50.50516],[90.09131,50.51472],[90.10871,50.51025],[90.11605,50.51239],[90.12463,50.52757],[90.13662,50.53741],[90.16029,50.54139],[90.17031,50.53642],[90.20068,50.54338],[90.20735,50.54915],[90.25894,50.5711],[90.26201,50.59139],[90.26987,50.59673],[90.2879,50.59907],[90.31768,50.61511],[90.3297,50.61909],[90.35757,50.61411],[90.38837,50.61086],[90.40736,50.61636],[90.43003,50.61155],[90.45045,50.6041],[90.49191,50.60783],[90.50926,50.61554],[90.52279,50.64149],[90.51951,50.66501],[90.52606,50.67561],[90.51848,50.69483],[90.5336,50.70076],[90.55033,50.70033],[90.56843,50.70597],[90.56675,50.71129],[90.54958,50.71363],[90.52698,50.72835],[90.51989,50.7438],[90.50229,50.74836],[90.49104,50.75546],[90.47986,50.7686],[90.46199,50.77491],[90.45287,50.78462],[90.4426,50.80326],[90.43505,50.80487],[90.40125,50.82846],[90.39207,50.84553],[90.38214,50.85775],[90.3572,50.86723],[90.35127,50.89523],[90.35962,50.92412],[90.36704,50.93253],[90.38389,50.94162],[90.38756,50.96669],[90.37121,50.99569],[90.37414,51.01902],[90.36279,51.04115],[90.35231,51.04815],[90.34935,51.06718],[90.32844,51.10255],[90.32793,51.1102],[90.3122,51.11214],[90.29782,51.10646],[90.26594,51.13491],[90.24915,51.175],[90.27389,51.19316],[90.25619,51.22156],[90.19529,51.21569],[90.17236,51.21776],[90.14089,51.2027],[90.12697,51.20114],[90.08771,51.18596],[90.08373,51.18101],[90.0564,51.16649],[90.01102,51.16726],[89.99772,51.17001],[89.97457,51.18254],[89.94581,51.18634],[89.92868,51.18155],[89.88891,51.17944],[89.85781,51.19037],[89.84445,51.2151],[89.80692,51.22184],[89.79774,51.24023],[89.78489,51.24932],[89.77924,51.29031],[89.74344,51.28827],[89.72759,51.29003],[89.70887,51.32171],[89.7155,51.32445],[89.7155,51.34802],[89.71963,51.35936],[89.7162,51.37882],[89.70751,51.38554],[89.77001,51.41868],[89.78626,51.42336],[89.80774,51.44234],[89.82512,51.44358],[89.83994,51.44979],[89.86243,51.44793],[89.88584,51.45061],[89.89718,51.45465],[89.89076,51.47909],[89.88871,51.49615],[89.88286,51.50348],[89.84661,51.52209],[89.82668,51.52147],[89.79323,51.51143],[89.7591,51.51096],[89.71725,51.51899],[89.65968,51.53917]]]}}