{"type":"Feature","properties":{"id":"RUS.84.31","name":"Suksunsky District","level":2,"country":"RUS"},"geometry":{"type":"Polygon","coordinates":[[[57.00033,57.20781],[57.00662,57.20144],[57.02302,57.19863],[57.02287,57.18968],[57.03647,57.18284],[57.04753,57.15578],[57.06277,57.15128],[57.04839,57.13939],[57.05805,57.1303],[57.05431,57.11554],[57.0701,57.10254],[57.11238,57.08364],[57.11608,57.09547],[57.12917,57.10208],[57.13439,57.11194],[57.12676,57.12099],[57.10505,57.12656],[57.10657,57.13491],[57.12301,57.1387],[57.14363,57.13557],[57.15072,57.12161],[57.16646,57.11558],[57.17297,57.10104],[57.16085,57.09484],[57.1653,57.08605],[57.16171,57.07692],[57.17305,57.06335],[57.19608,57.05591],[57.21069,57.04393],[57.19651,57.0367],[57.19289,57.02985],[57.16763,57.02044],[57.14686,57.02046],[57.14121,56.99663],[57.13124,56.98771],[57.12952,56.97676],[57.14963,56.97423],[57.14453,56.9679],[57.12754,56.96049],[57.1162,56.95133],[57.128,56.94346],[57.13206,56.93417],[57.09971,56.93847],[57.09574,56.93145],[57.07816,56.92378],[57.07212,56.91448],[57.11016,56.92307],[57.11347,56.9035],[57.11043,56.89069],[57.1402,56.87063],[57.16011,56.86524],[57.18638,56.87153],[57.21146,56.86078],[57.22938,56.856],[57.24835,56.88478],[57.26522,56.88974],[57.26809,56.90176],[57.29719,56.91036],[57.31384,56.9205],[57.31583,56.92844],[57.34163,56.93054],[57.35993,56.93738],[57.36545,56.94741],[57.38915,56.93738],[57.43083,56.95513],[57.46678,56.9129],[57.56511,56.89588],[57.57253,56.8946],[57.57826,56.91047],[57.59866,56.91621],[57.6367,56.91731],[57.64034,56.90871],[57.66515,56.91081],[57.67606,56.92051],[57.66515,56.93165],[57.66151,56.94422],[57.7066,56.95767],[57.75104,56.94488],[57.77486,56.96285],[57.77243,56.97454],[57.7871,56.97796],[57.78092,56.9902],[57.80562,56.98678],[57.81698,56.97752],[57.80959,56.96693],[57.82657,56.96241],[57.83991,56.98491],[57.83308,56.98568],[57.828,57.00144],[57.83969,57.00597],[57.84884,57.01787],[57.84333,57.02504],[57.84664,57.03949],[57.85656,57.03772],[57.87299,57.05569],[57.89449,57.05261],[57.90904,57.06143],[57.92173,57.05647],[57.94576,57.05625],[57.9515,57.06198],[57.94312,57.07279],[57.95425,57.07929],[57.96594,57.07091],[57.98027,57.0783],[58.00795,57.07587],[58.01611,57.05746],[57.97068,57.05228],[57.96506,57.04004],[57.98458,57.0396],[57.98149,57.04765],[58.00542,57.05018],[58.00663,57.04269],[58.02604,57.03629],[58.03695,57.04037],[58.03728,57.05294],[58.05184,57.05889],[58.06937,57.04941],[58.0757,57.06444],[58.09072,57.10028],[58.07647,57.10067],[58.0397,57.11424],[58.05884,57.12036],[58.06136,57.12569],[58.10357,57.12872],[58.11744,57.12396],[58.1244,57.14261],[58.03217,57.15067],[57.90631,57.16379],[57.87011,57.16893],[57.86267,57.18119],[57.83171,57.18821],[57.81575,57.19839],[57.81933,57.20914],[57.79786,57.20748],[57.77458,57.20039],[57.75722,57.19802],[57.74903,57.21758],[57.72683,57.22046],[57.69542,57.23067],[57.64939,57.21846],[57.60996,57.23],[57.61837,57.23791],[57.6053,57.24201],[57.5814,57.23934],[57.56067,57.23184],[57.52328,57.24293],[57.50529,57.23755],[57.49362,57.22953],[57.48998,57.2146],[57.46862,57.21379],[57.45804,57.21854],[57.44558,57.20868],[57.42059,57.21235],[57.42733,57.22125],[57.38808,57.23147],[57.35431,57.22858],[57.34277,57.22202],[57.32663,57.22417],[57.32402,57.23189],[57.30132,57.23257],[57.28073,57.24073],[57.26738,57.23798],[57.25586,57.24253],[57.22949,57.23807],[57.22184,57.24291],[57.19042,57.23787],[57.1638,57.24906],[57.14238,57.2593],[57.12276,57.2541],[57.10844,57.23876],[57.09508,57.23173],[57.1112,57.22617],[57.09416,57.21845],[57.0966,57.21077],[57.06304,57.20885],[57.05026,57.20374],[57.01293,57.21216],[57.00033,57.20781]]]}}