{"type":"Feature","properties":{"id":"RUS.16.32","name":"Starodubsky District","level":2,"country":"RUS"},"geometry":{"type":"Polygon","coordinates":[[[33.17299,52.75448],[33.15468,52.76088],[33.14375,52.75732],[33.13155,52.74544],[33.11441,52.74911],[33.10749,52.75511],[33.0917,52.75261],[33.0833,52.74442],[33.05641,52.74535],[33.04742,52.75362],[33.04932,52.75984],[33.04252,52.77623],[33.02083,52.78293],[33.00767,52.77099],[32.99303,52.76455],[32.96756,52.76079],[32.96892,52.74367],[32.96012,52.73042],[32.97194,52.72889],[32.97252,52.71722],[32.96416,52.7119],[32.93377,52.7033],[32.91333,52.70679],[32.88661,52.71436],[32.87348,52.72237],[32.85669,52.72573],[32.82737,52.72744],[32.80065,52.71843],[32.7673,52.7326],[32.76629,52.7437],[32.74122,52.75546],[32.72147,52.75942],[32.71232,52.73802],[32.70639,52.73448],[32.73579,52.72331],[32.72895,52.71646],[32.68691,52.71813],[32.69342,52.71217],[32.68798,52.69925],[32.65358,52.69529],[32.62738,52.66389],[32.60507,52.66712],[32.60169,52.68166],[32.56073,52.68902],[32.55203,52.70452],[32.54584,52.69574],[32.51653,52.69882],[32.50589,52.69599],[32.48952,52.70046],[32.47587,52.70975],[32.47337,52.71834],[32.45789,52.72678],[32.45749,52.7328],[32.43694,52.73393],[32.43781,52.72495],[32.4066,52.70311],[32.41099,52.68636],[32.42706,52.67896],[32.42683,52.66842],[32.43846,52.66398],[32.44187,52.65656],[32.46182,52.64055],[32.45298,52.63578],[32.46733,52.62309],[32.46075,52.61391],[32.47428,52.60403],[32.48797,52.60227],[32.51137,52.58765],[32.50539,52.5829],[32.50378,52.57014],[32.50983,52.55734],[32.50498,52.5514],[32.4887,52.55254],[32.47678,52.54894],[32.44277,52.55455],[32.42139,52.52644],[32.42547,52.51229],[32.43607,52.5054],[32.45967,52.50462],[32.47706,52.49838],[32.48405,52.48209],[32.51313,52.47212],[32.51165,52.46328],[32.53137,52.45871],[32.53738,52.45178],[32.55268,52.44715],[32.54375,52.41915],[32.53315,52.41299],[32.54151,52.39523],[32.55761,52.39039],[32.57749,52.37976],[32.54332,52.36276],[32.51528,52.35705],[32.50711,52.32735],[32.55003,52.32687],[32.57138,52.31005],[32.57722,52.30019],[32.6079,52.30468],[32.63803,52.28701],[32.6622,52.2788],[32.68513,52.26631],[32.68963,52.25571],[32.71683,52.25862],[32.72598,52.25634],[32.75659,52.2668],[32.76285,52.25549],[32.7788,52.26148],[32.79924,52.26539],[32.81705,52.25894],[32.83302,52.27829],[32.8566,52.27409],[32.8844,52.27337],[32.87913,52.25883],[32.88756,52.2451],[32.90685,52.24599],[32.9103,52.25002],[32.94496,52.26424],[32.96156,52.27321],[32.99574,52.27186],[32.99703,52.28807],[32.98945,52.28711],[33.00259,52.31437],[33.01926,52.32344],[33.01924,52.33455],[32.98427,52.34816],[32.94348,52.34767],[32.92114,52.34434],[32.93233,52.36213],[32.93143,52.3748],[32.91696,52.38137],[32.91361,52.39018],[32.92615,52.40029],[32.92571,52.4133],[32.94206,52.42666],[32.97086,52.43275],[32.97533,52.43653],[32.9939,52.43453],[33.02351,52.44844],[33.02598,52.45384],[33.00959,52.48527],[33.02095,52.50025],[33.02133,52.50633],[32.9983,52.51744],[32.97627,52.54662],[32.94691,52.54969],[32.94876,52.55919],[32.96599,52.5633],[33.02315,52.56245],[33.0424,52.57128],[33.04389,52.60446],[33.05553,52.63557],[33.06029,52.64201],[33.08424,52.64779],[33.07435,52.66171],[33.10211,52.66768],[33.14689,52.68029],[33.14885,52.69052],[33.16005,52.68963],[33.17028,52.7087],[33.16364,52.71311],[33.12169,52.7172],[33.12989,52.72958],[33.1511,52.72648],[33.16666,52.74008],[33.17299,52.75448]],[[32.7006,52.59893],[32.70921,52.59912],[32.72143,52.5888],[32.73423,52.58491],[32.74413,52.58879],[32.7509,52.603],[32.76836,52.60193],[32.79281,52.59453],[32.78596,52.59073],[32.81032,52.57281],[32.80959,52.56326],[32.79801,52.55873],[32.79011,52.54436],[32.7797,52.54332],[32.77379,52.55786],[32.77957,52.56524],[32.75579,52.5642],[32.75108,52.577],[32.72516,52.56612],[32.71443,52.56903],[32.71793,52.58989],[32.7006,52.59893]]]}}