{"type":"Feature","properties":{"id":"RUS.26.4","name":"Peremyshlsky District","level":2,"country":"RUS"},"geometry":{"type":"Polygon","coordinates":[[[35.94369,54.28842],[35.94956,54.27939],[35.92916,54.27671],[35.93105,54.26882],[35.92301,54.26314],[35.96073,54.25844],[35.96915,54.24833],[35.98832,54.24271],[35.97932,54.23604],[35.96292,54.23898],[35.94039,54.22966],[35.94528,54.22164],[35.93147,54.20676],[35.97135,54.18982],[35.95015,54.17282],[35.95344,54.16396],[35.96364,54.1638],[35.96131,54.17075],[35.98329,54.18354],[35.98595,54.19525],[36.00818,54.19097],[36.03496,54.17197],[36.05157,54.1803],[36.06303,54.17515],[36.09221,54.18189],[36.14093,54.17713],[36.14979,54.16893],[36.17426,54.17366],[36.19701,54.15677],[36.20587,54.15587],[36.21634,54.1664],[36.2345,54.1721],[36.2427,54.1822],[36.24216,54.19277],[36.24862,54.20933],[36.24192,54.21553],[36.26851,54.22085],[36.28997,54.21964],[36.30192,54.21266],[36.31219,54.22195],[36.32304,54.22084],[36.33722,54.21209],[36.36253,54.21116],[36.37714,54.20267],[36.39155,54.22428],[36.43604,54.21733],[36.43043,54.23007],[36.45328,54.23376],[36.44675,54.23906],[36.48398,54.24723],[36.50168,54.24908],[36.47627,54.27227],[36.47176,54.28427],[36.48629,54.28829],[36.50487,54.28369],[36.54506,54.27972],[36.56209,54.28512],[36.58815,54.28097],[36.61425,54.28632],[36.64156,54.28701],[36.6482,54.27962],[36.67975,54.29033],[36.67182,54.29956],[36.67557,54.30845],[36.68922,54.30668],[36.69869,54.30468],[36.71482,54.31096],[36.7146,54.32209],[36.70766,54.34742],[36.7346,54.36948],[36.738,54.38384],[36.72632,54.38302],[36.68529,54.39201],[36.66873,54.41264],[36.67299,54.41701],[36.63823,54.42698],[36.61806,54.41998],[36.60298,54.42408],[36.59214,54.43873],[36.58183,54.44363],[36.55069,54.43731],[36.534,54.43843],[36.51147,54.44949],[36.48696,54.44991],[36.44942,54.44667],[36.41554,54.4511],[36.39349,54.44923],[36.37603,54.45641],[36.34317,54.45532],[36.33206,54.44775],[36.27831,54.44296],[36.27282,54.43289],[36.2468,54.42288],[36.22266,54.4205],[36.18615,54.42957],[36.16978,54.4157],[36.17815,54.40853],[36.19951,54.4121],[36.21181,54.37824],[36.20105,54.36968],[36.17561,54.38508],[36.17689,54.39501],[36.1635,54.39755],[36.17579,54.40608],[36.15029,54.41783],[36.11207,54.42643],[36.10923,54.43271],[36.11864,54.458],[36.0826,54.45682],[36.07115,54.46416],[36.03096,54.46114],[36.00305,54.44441],[36.00045,54.41866],[35.98046,54.41244],[35.97299,54.40103],[35.95933,54.39092],[35.94807,54.39294],[35.93805,54.38548],[35.95441,54.37639],[35.93598,54.37097],[35.94902,54.3423],[35.94138,54.33524],[35.95063,54.32555],[35.96359,54.32886],[35.96933,54.31975],[35.99538,54.32311],[35.98379,54.30582],[35.96922,54.30241],[35.96709,54.2959],[35.94851,54.29298],[35.94369,54.28842]]]}}