{"type":"Feature","properties":{"id":"PRT.17.12","name":"Sabugal","level":2,"country":"PRT"},"geometry":{"type":"Polygon","coordinates":[[[-7.29576,40.28676],[-7.15934,40.30529],[-7.12196,40.33094],[-7.10115,40.29433],[-7.00236,40.29817],[-6.96685,40.27108],[-6.90869,40.27286],[-6.84445,40.34189],[-6.80569,40.36803],[-6.86197,40.46419],[-6.86781,40.50639],[-6.9327,40.51369],[-6.95369,40.53816],[-7.03981,40.51089],[-7.05775,40.57178],[-7.1032,40.54543],[-7.09243,40.47723],[-7.16539,40.44265],[-7.21802,40.46814],[-7.24194,40.4472],[-7.30533,40.43901],[-7.30652,40.38893],[-7.34622,40.29389],[-7.29576,40.28676]]]}}