{"type":"Feature","properties":{"id":"PRT.5.15","name":"Alcobaca","level":2,"country":"PRT"},"geometry":{"type":"Polygon","coordinates":[[[-8.89536,39.50403],[-8.92534,39.52701],[-8.89544,39.58896],[-8.92721,39.60768],[-8.93656,39.66957],[-8.95524,39.72852],[-9.00258,39.73547],[-9.05803,39.75869],[-9.08364,39.70404],[-8.99823,39.66093],[-9.0057,39.59616],[-9.02964,39.58407],[-9.07672,39.59328],[-9.08232,39.55151],[-9.11222,39.52124],[-9.17389,39.51115],[-9.09956,39.47563],[-9.06363,39.49096],[-9.02626,39.48231],[-9.02252,39.41737],[-8.94886,39.43825],[-8.90595,39.44354],[-8.89536,39.50403]]]}}