{"type":"Feature","properties":{"id":"PRT.1.9","name":"Santiago do Cacem","level":2,"country":"PRT"},"geometry":{"type":"Polygon","coordinates":[[[-8.3551,37.87819],[-8.32166,37.92081],[-8.28767,37.93448],[-8.31137,38.01815],[-8.4117,38.08702],[-8.45474,38.04834],[-8.5043,38.05462],[-8.60205,38.09512],[-8.66636,38.14571],[-8.70238,38.12346],[-8.79498,38.12548],[-8.82585,38.07082],[-8.80928,38.02976],[-8.72038,37.97153],[-8.69209,37.94516],[-8.72038,37.80912],[-8.67151,37.77456],[-8.59176,37.7705],[-8.55103,37.81636],[-8.55575,37.86194],[-8.40141,37.87006],[-8.3551,37.87819]]]}}