{"type":"Feature","properties":{"id":"CHE.21","name":"Basel-Landschaft","level":1,"country":"CHE"},"geometry":{"type":"MultiPolygon","coordinates":[[[[7.72732,47.55042],[7.6469,47.55145],[7.58887,47.53488],[7.52087,47.56342],[7.48578,47.49877],[7.52898,47.49395],[7.53394,47.46082],[7.4542,47.45204],[7.446,47.48688],[7.42056,47.45086],[7.44583,47.43886],[7.4404,47.41457],[7.38423,47.4131],[7.43715,47.37928],[7.45265,47.39576],[7.50681,47.38858],[7.58019,47.42987],[7.61512,47.43971],[7.6145,47.48408],[7.66432,47.49157],[7.71336,47.46734],[7.68385,47.42155],[7.63791,47.40646],[7.65378,47.36807],[7.71382,47.36621],[7.78612,47.33851],[7.80534,47.3636],[7.87051,47.38465],[7.88203,47.40238],[7.9289,47.40775],[7.95309,47.42698],[7.95495,47.45772],[7.94022,47.48361],[7.90963,47.48584],[7.84942,47.54534],[7.7962,47.51415],[7.77775,47.5326],[7.72732,47.55042]]],[[[7.38822,47.43329],[7.33693,47.43185],[7.38423,47.4131],[7.38822,47.43329]]]]}}