{"type":"Feature","properties":{"id":"BLZ.5","name":"Stann Creek","level":1,"country":"BLZ"},"geometry":{"type":"Polygon","coordinates":[[[-88.28938,17.13577],[-88.33752,17.10919],[-88.60244,17.10449],[-88.56707,17.04506],[-88.60973,16.96775],[-88.66308,16.91194],[-88.68052,16.80972],[-88.71758,16.80045],[-88.7554,16.75159],[-88.77419,16.68102],[-88.74525,16.69007],[-88.67024,16.69185],[-88.5981,16.66733],[-88.5881,16.6233],[-88.54952,16.56713],[-88.55278,16.51651],[-88.43912,16.5083],[-88.39006,16.49766],[-88.37279,16.53197],[-88.39318,16.55183],[-88.33454,16.63508],[-88.30622,16.6529],[-88.29699,16.72378],[-88.30162,16.77172],[-88.25935,16.84341],[-88.28331,16.89134],[-88.26696,16.92475],[-88.21508,16.96711],[-88.22346,17.02314],[-88.24861,17.07941],[-88.27941,17.09146],[-88.28938,17.13577]]]}}