{"type":"Feature","properties":{"id":"UKR.17","name":"Sumy","level":1,"country":"UKR"},"geometry":{"type":"Polygon","coordinates":[[[35.69221,50.34417],[35.63155,50.34499],[35.57016,50.37646],[35.55466,50.43325],[35.52272,50.45951],[35.44645,50.47604],[35.42526,50.50049],[35.37772,50.62182],[35.39157,50.64637],[35.46887,50.66854],[35.44541,50.6875],[35.43849,50.76238],[35.37906,50.79721],[35.37772,50.83375],[35.34144,50.87648],[35.34175,50.91586],[35.29359,50.93762],[35.27808,50.99265],[35.33255,50.99994],[35.35508,51.0256],[35.30868,51.04733],[35.17256,51.04063],[35.12378,51.09133],[35.09918,51.18318],[35.05939,51.21233],[34.99945,51.2021],[34.96182,51.21533],[34.81754,51.17473],[34.74809,51.16473],[34.67492,51.16768],[34.64277,51.18062],[34.62241,51.22476],[34.57818,51.23669],[34.51348,51.22956],[34.40899,51.25313],[34.33695,51.25114],[34.28176,51.22644],[34.18595,51.24891],[34.28362,51.30124],[34.30874,51.33462],[34.28032,51.36126],[34.2305,51.36767],[34.18585,51.39415],[34.21965,51.42728],[34.2121,51.45503],[34.22368,51.51476],[34.20239,51.54616],[34.16032,51.57613],[34.14007,51.62119],[34.09066,51.63321],[34.08911,51.66662],[34.12797,51.68075],[34.2982,51.70615],[34.37633,51.7086],[34.41416,51.73646],[34.41271,51.77769],[34.38573,51.81767],[34.2767,51.88123],[34.23102,51.89453],[34.14616,51.95161],[34.09624,51.95182],[34.1011,51.99251],[34.06824,52.03101],[34.05666,52.10581],[34.07392,52.12832],[34.05573,52.17033],[34.02193,52.1979],[33.95775,52.2247],[33.9007,52.28585],[33.8391,52.31391],[33.80407,52.35461],[33.68795,52.35582],[33.6002,52.33079],[33.53168,52.28883],[33.49303,52.30314],[33.49943,52.34099],[33.40058,52.34434],[33.35944,52.24834],[33.31784,52.20984],[33.3304,52.15118],[33.37402,52.14199],[33.44946,52.08754],[33.48698,52.07848],[33.46497,52.0491],[33.3734,52.047],[33.35355,51.99083],[33.36626,51.9467],[33.27216,51.92877],[33.22508,51.90572],[33.16069,51.90422],[33.12147,51.85084],[33.08892,51.8357],[33.06204,51.79291],[33.08509,51.74124],[33.1532,51.6931],[33.1377,51.64889],[33.15801,51.63463],[33.15103,51.55928],[33.1869,51.51593],[33.11165,51.46761],[33.13026,51.41934],[33.11088,51.37201],[33.05579,51.36932],[33.00039,51.37852],[33.04938,51.30726],[33.07362,51.28509],[33.07021,51.24891],[33.03326,51.23351],[33.01884,51.19248],[32.96748,51.18215],[32.97042,51.13983],[32.94453,51.09479],[33.06478,51.06629],[33.0531,51.04304],[33.13615,51.0249],[33.16969,51.05776],[33.20689,51.04836],[33.15506,50.9895],[33.18209,50.97092],[33.1793,50.90444],[33.14746,50.88124],[33.12437,50.82377],[33.12514,50.77693],[33.1639,50.7536],[33.13057,50.71008],[33.12406,50.67556],[33.10137,50.66016],[33.09548,50.60193],[33.06153,50.53841],[33.09811,50.52454],[33.19403,50.51733],[33.23361,50.54028],[33.28482,50.54599],[33.34006,50.52524],[33.64495,50.48547],[33.72066,50.46266],[33.81704,50.47558],[33.81301,50.51196],[33.9131,50.53028],[33.97098,50.4934],[34.04762,50.47098],[34.07914,50.49728],[34.18606,50.52764],[34.2458,50.53459],[34.25851,50.43573],[34.37799,50.34251],[34.36326,50.31745],[34.38093,50.26386],[34.42625,50.27202],[34.4587,50.22567],[34.4956,50.20898],[34.50397,50.17536],[34.45622,50.14702],[34.48196,50.10798],[34.53627,50.12443],[34.63373,50.1148],[34.68133,50.12164],[34.70494,50.15089],[34.74515,50.13818],[34.81434,50.15957],[34.90824,50.14596],[34.95728,50.16686],[34.97015,50.18937],[35.01588,50.17213],[35.06725,50.21497],[35.08869,50.20712],[35.13541,50.245],[35.19468,50.23234],[35.24181,50.23611],[35.25256,50.26892],[35.30888,50.27642],[35.32919,50.30466],[35.38878,50.29621],[35.39095,50.3238],[35.42603,50.32964],[35.49383,50.30215],[35.59548,50.32592],[35.67103,50.31993],[35.69221,50.34417]]]}}