{"type":"Feature","properties":{"id":"UKR.14","name":"Odessa","level":1,"country":"UKR"},"geometry":{"type":"MultiPolygon","coordinates":[[[[28.86209,48.0005],[28.88256,47.97676],[28.95036,47.9348],[29.01723,47.93108],[29.06105,47.96976],[29.12399,47.97599],[29.14797,47.95537],[29.16461,47.9056],[29.18662,47.88364],[29.23602,47.87072],[29.18672,47.81822],[29.18745,47.78321],[29.23861,47.756],[29.19696,47.7175],[29.18207,47.61322],[29.1305,47.55963],[29.11743,47.53333],[29.1304,47.4932],[29.16388,47.43938],[29.23261,47.44633],[29.2814,47.41147],[29.30083,47.37819],[29.35891,47.35272],[29.36759,47.30823],[29.40955,47.27975],[29.45916,47.2935],[29.48087,47.33827],[29.55657,47.32404],[29.57926,47.2836],[29.56872,47.24314],[29.54402,47.23425],[29.55063,47.16017],[29.53037,47.12369],[29.48087,47.11749],[29.51146,47.06602],[29.55135,47.0902],[29.59487,47.0746],[29.60303,47.04576],[29.57249,47.01176],[29.55869,46.94574],[29.63187,46.9144],[29.69615,46.90468],[29.75413,46.85802],[29.84364,46.85414],[29.88487,46.81267],[29.93066,46.80309],[29.95262,46.72469],[29.93128,46.61917],[29.94968,46.57886],[29.9381,46.55734],[29.89883,46.55313],[29.91609,46.51882],[29.99494,46.49853],[30.01406,46.46202],[30.06001,46.43681],[30.13158,46.42283],[30.08114,46.3742],[30.03727,46.36893],[29.91867,46.37366],[29.84777,46.34146],[29.80819,46.35469],[29.80033,46.39836],[29.72695,46.4558],[29.70287,46.42833],[29.6544,46.4227],[29.65295,46.3919],[29.63207,46.36606],[29.59859,46.36306],[29.54143,46.41303],[29.47508,46.43226],[29.48624,46.46249],[29.45761,46.48471],[29.41824,46.46249],[29.37472,46.41619],[29.34423,46.43417],[29.32077,46.46874],[29.28915,46.45164],[29.28326,46.39743],[29.25918,46.39435],[29.20068,46.35712],[29.18342,46.37761],[29.20564,46.40611],[29.20678,46.50251],[29.16275,46.53809],[29.07495,46.50367],[29.02033,46.48952],[28.94581,46.45479],[28.91925,46.40466],[28.94581,46.30498],[28.93351,46.25899],[29.00984,46.20436],[29.01537,46.18261],[28.98085,46.13212],[28.94643,46.10509],[28.94116,46.06468],[28.95894,46.02102],[28.93196,45.99316],[28.7576,45.96118],[28.72918,45.93864],[28.74644,45.87059],[28.73828,45.83757],[28.66975,45.81204],[28.66975,45.77731],[28.64361,45.76651],[28.57668,45.76191],[28.56144,45.71659],[28.50418,45.6937],[28.474,45.65794],[28.51131,45.63505],[28.53689,45.5798],[28.49824,45.55872],[28.50646,45.52058],[28.48093,45.50198],[28.41685,45.50379],[28.34192,45.51764],[28.2705,45.52151],[28.21728,45.49335],[28.1995,45.46177],[28.26688,45.44048],[28.2812,45.40183],[28.33024,45.32292],[28.40517,45.29507],[28.49416,45.27889],[28.57705,45.24809],[28.71006,45.22696],[28.77869,45.23109],[28.76153,45.28184],[28.79016,45.29207],[28.81631,45.32607],[28.88085,45.30618],[28.92989,45.2791],[28.95284,45.28509],[28.96648,45.31987],[29.01816,45.33088],[29.06952,45.3608],[29.17432,45.38896],[29.22817,45.42374],[29.28181,45.42229],[29.32212,45.44384],[29.43064,45.43041],[29.5697,45.39496],[29.65026,45.34612],[29.67228,45.27295],[29.65925,45.24417],[29.67449,45.21357],[29.72804,45.23688],[29.7562,45.32123],[29.74187,45.40453],[29.75587,45.42788],[29.74741,45.46345],[29.6753,45.44961],[29.6211,45.45441],[29.60515,45.48701],[29.66163,45.52587],[29.58969,45.55907],[29.59938,45.60444],[29.6032,45.69131],[29.63754,45.70991],[29.62387,45.75153],[29.65187,45.78901],[29.69386,45.78132],[29.67921,45.75153],[29.68531,45.70425],[29.72397,45.66743],[29.74594,45.62263],[29.78907,45.63544],[29.865,45.67235],[29.80323,45.70417],[29.80242,45.73749],[29.87403,45.75153],[29.91969,45.74055],[29.95289,45.77196],[29.96852,45.83894],[29.99073,45.84707],[30.06121,45.81346],[30.09457,45.81485],[30.11061,45.87507],[30.13527,45.88915],[30.13844,45.81977],[30.20493,45.85586],[30.2614,45.89549],[30.37127,45.99795],[30.49415,46.08047],[30.52329,46.13378],[30.5477,46.14777],[30.65349,46.25959],[30.68653,46.32001],[30.77247,46.39643],[30.78207,46.45722],[30.75489,46.51586],[30.80258,46.56025],[30.86695,46.55581],[30.92604,46.5843],[30.99138,46.60126],[31.18686,46.62914],[31.17244,46.68439],[31.16221,46.82539],[31.12356,46.84665],[31.0986,46.8774],[31.05638,46.8974],[31.03731,46.95313],[31.08806,46.95564],[31.10635,46.97129],[31.21451,46.9745],[31.26184,47.00178],[31.29456,47.05046],[31.30417,47.10183],[31.27285,47.10741],[31.2235,47.16583],[31.1819,47.15772],[31.11643,47.18234],[31.11813,47.20694],[31.17198,47.24058],[31.14981,47.27228],[31.03964,47.25094],[31.01059,47.26911],[30.9153,47.2767],[30.88554,47.31654],[30.83386,47.42951],[30.86848,47.50542],[30.86817,47.54346],[30.82487,47.5835],[30.7904,47.58441],[30.77986,47.63373],[30.72384,47.625],[30.7057,47.59224],[30.66581,47.62565],[30.58824,47.63632],[30.54974,47.61761],[30.4759,47.62211],[30.42035,47.64836],[30.40355,47.6789],[30.40789,47.72686],[30.37844,47.75166],[30.39456,47.79217],[30.34738,47.81057],[30.32211,47.83718],[30.29787,47.94488],[30.25121,47.98557],[30.21597,47.99878],[30.2217,48.07407],[30.28532,48.0912],[30.29307,48.13572],[30.08347,48.14373],[30.04781,48.1552],[29.99675,48.22099],[29.95371,48.21018],[29.9241,48.22155],[29.8918,48.18502],[29.86808,48.18336],[29.82043,48.21101],[29.7748,48.20311],[29.66587,48.16895],[29.69755,48.13644],[29.67982,48.09221],[29.58551,48.08714],[29.4972,48.09283],[29.43467,48.11314],[29.33845,48.08621],[29.24631,48.08451],[29.16993,48.10575],[29.10399,48.14357],[29.04115,48.12823],[29.04611,48.08311],[28.96421,48.03583],[28.86209,48.0005]]],[[[29.91871,45.69066],[29.8567,45.64912],[29.81479,45.64106],[29.80747,45.61433],[29.90805,45.66645],[30.12599,45.81147],[30.07569,45.79243],[29.91871,45.69066]]]]}}