{"type":"Feature","properties":{"id":"LKA.6","name":"Pŏḷŏnnaruva","level":1,"country":"LKA"},"geometry":{"type":"Polygon","coordinates":[[[80.75614,8.0123],[80.82331,7.93148],[80.79582,7.80648],[80.76006,7.77258],[80.78166,7.67832],[80.80802,7.67258],[80.88357,7.71506],[80.98899,7.72077],[81.0634,7.72759],[81.12934,7.68421],[81.22081,7.65359],[81.24117,7.73911],[81.22701,7.81647],[81.24334,7.92249],[81.26577,7.9375],[81.33987,7.9374],[81.30752,8.0476],[81.31559,8.20529],[81.31031,8.25743],[81.25213,8.22412],[81.205,8.21862],[81.13482,8.25833],[81.04118,8.27673],[80.99902,8.27262],[80.98238,8.3059],[80.92419,8.33686],[80.89959,8.28841],[80.80285,8.27358],[80.76554,8.15547],[80.75707,8.08165],[80.77701,8.06581],[80.75614,8.0123]]]}}