{"type":"Feature","properties":{"id":"IND.20.2","name":"Faridkot","level":2,"country":"IND"},"geometry":{"type":"Polygon","coordinates":[[[75.00926,30.48791],[75.00076,30.48773],[74.99269,30.49653],[74.99281,30.52452],[74.99802,30.53382],[74.99279,30.54299],[74.98023,30.54251],[74.9469,30.56946],[74.9564,30.59262],[74.95047,30.60048],[74.95014,30.61866],[74.955,30.63408],[74.9524,30.64324],[74.95882,30.65669],[74.95641,30.67408],[74.92487,30.67703],[74.91598,30.67977],[74.90693,30.70143],[74.9141,30.72469],[74.91216,30.73552],[74.889,30.73887],[74.88144,30.74401],[74.86137,30.74203],[74.8406,30.76545],[74.82383,30.76327],[74.81358,30.76743],[74.80804,30.78504],[74.78551,30.79164],[74.78253,30.8024],[74.77246,30.81187],[74.75663,30.81055],[74.74648,30.81956],[74.72957,30.81809],[74.69399,30.82614],[74.68431,30.82134],[74.66588,30.82932],[74.65815,30.82668],[74.64769,30.81455],[74.62623,30.83079],[74.61354,30.82376],[74.59959,30.80523],[74.57947,30.80298],[74.54661,30.78822],[74.53328,30.77997],[74.52553,30.76831],[74.47614,30.74918],[74.47105,30.74272],[74.47536,30.69731],[74.48381,30.67327],[74.50315,30.66719],[74.56196,30.66294],[74.59156,30.65387],[74.60127,30.64468],[74.61989,30.63735],[74.62897,30.61369],[74.64835,30.59357],[74.66002,30.59039],[74.66932,30.57835],[74.71145,30.55732],[74.70846,30.5457],[74.68844,30.52946],[74.68863,30.52073],[74.72042,30.50886],[74.72128,30.50341],[74.73801,30.49288],[74.76338,30.48431],[74.73513,30.46398],[74.73737,30.4464],[74.75663,30.43302],[74.75903,30.41892],[74.75442,30.39362],[74.78891,30.39647],[74.81249,30.40042],[74.82325,30.39289],[74.83906,30.38709],[74.85525,30.37645],[74.87571,30.38931],[74.91254,30.37599],[74.92405,30.36628],[74.93306,30.36797],[74.94658,30.38394],[74.96485,30.38552],[74.97398,30.39494],[74.98501,30.39005],[75.00079,30.38822],[75.02735,30.37919],[75.04327,30.3771],[75.05708,30.38815],[75.05362,30.40861],[75.04285,30.41847],[75.02719,30.42513],[75.02891,30.43584],[75.02174,30.43885],[75.03418,30.45659],[75.04502,30.46426],[75.03322,30.47177],[75.02679,30.48333],[75.00926,30.48791]]]}}