{"type":"Feature","properties":{"id":"IND.23.11","name":"Almora","level":2,"country":"IND"},"geometry":{"type":"Polygon","coordinates":[[[79.85013,29.42836],[79.84794,29.4406],[79.85849,29.45289],[79.86907,29.45158],[79.87346,29.46193],[79.88969,29.48032],[79.91299,29.48646],[79.92181,29.47036],[79.93795,29.46242],[79.95178,29.47279],[79.95984,29.46938],[79.97426,29.47415],[79.97795,29.48192],[79.99013,29.48597],[80.00281,29.48093],[80.03195,29.49599],[80.03991,29.50469],[80.0608,29.50945],[80.08046,29.51794],[80.06702,29.52447],[80.0686,29.53452],[80.05269,29.54155],[80.03799,29.54135],[80.03351,29.54798],[80.0127,29.54813],[80.0013,29.55756],[80.00099,29.5675],[79.98564,29.61818],[79.97212,29.64093],[79.96053,29.6536],[79.96559,29.65909],[79.96131,29.67205],[79.95416,29.67883],[79.93072,29.69071],[79.90536,29.69442],[79.89134,29.70293],[79.8962,29.70972],[79.87919,29.71199],[79.83972,29.71287],[79.82853,29.69798],[79.82075,29.6931],[79.80392,29.67245],[79.77982,29.67108],[79.76652,29.67603],[79.76502,29.69115],[79.75778,29.70145],[79.7377,29.71487],[79.72309,29.73494],[79.70965,29.74445],[79.69837,29.76229],[79.70345,29.78962],[79.68692,29.80725],[79.68123,29.82616],[79.66756,29.83196],[79.65267,29.82706],[79.64167,29.83644],[79.60231,29.83247],[79.55171,29.85327],[79.51301,29.86132],[79.50513,29.88061],[79.49704,29.8879],[79.50629,29.89653],[79.50646,29.91954],[79.50097,29.92964],[79.504,29.93832],[79.4841,29.9538],[79.49083,29.96571],[79.47394,29.9756],[79.45464,29.96218],[79.44732,29.95066],[79.43871,29.94921],[79.43013,29.93281],[79.41902,29.93899],[79.40899,29.93924],[79.37625,29.92304],[79.369,29.93445],[79.3471,29.957],[79.34063,29.96909],[79.32958,29.96844],[79.33215,29.94855],[79.33729,29.93921],[79.32783,29.93541],[79.32661,29.92588],[79.30951,29.92728],[79.28378,29.92175],[79.2879,29.93386],[79.2833,29.94858],[79.27379,29.95757],[79.25752,29.95993],[79.2476,29.96789],[79.22707,29.9757],[79.23448,29.96384],[79.22733,29.94174],[79.20699,29.93588],[79.19346,29.93853],[79.1915,29.91961],[79.17961,29.90383],[79.16248,29.91247],[79.14186,29.90325],[79.12954,29.90297],[79.122,29.89169],[79.09471,29.88935],[79.0815,29.88238],[79.0794,29.87339],[79.06932,29.85911],[79.09012,29.8516],[79.0987,29.84555],[79.10431,29.83279],[79.11327,29.82802],[79.1209,29.79891],[79.12953,29.78073],[79.12609,29.77153],[79.11757,29.76655],[79.1124,29.75042],[79.11088,29.73019],[79.12365,29.71439],[79.10758,29.69522],[79.11707,29.68777],[79.11861,29.67941],[79.11163,29.67256],[79.09937,29.67027],[79.09003,29.65941],[79.081,29.63609],[79.08342,29.62967],[79.06446,29.60748],[79.0631,29.58483],[79.04759,29.58784],[79.03877,29.58181],[79.05726,29.5763],[79.0813,29.57846],[79.09296,29.56472],[79.11276,29.55419],[79.11043,29.54122],[79.14295,29.54952],[79.14918,29.53628],[79.16997,29.53132],[79.19031,29.53035],[79.20111,29.52016],[79.21962,29.51826],[79.22866,29.52072],[79.24317,29.53355],[79.25419,29.55148],[79.26742,29.55985],[79.27664,29.57064],[79.2891,29.57363],[79.28876,29.58653],[79.30147,29.58671],[79.30997,29.59784],[79.32525,29.59936],[79.33376,29.60938],[79.35069,29.60361],[79.35263,29.58955],[79.36612,29.58751],[79.38841,29.5762],[79.41423,29.55352],[79.42693,29.54759],[79.44171,29.53509],[79.44551,29.52044],[79.45285,29.51331],[79.46454,29.51387],[79.47603,29.50705],[79.48735,29.4938],[79.49472,29.49892],[79.50343,29.49292],[79.5141,29.50261],[79.52467,29.51745],[79.53029,29.54429],[79.54326,29.54605],[79.55231,29.53757],[79.56998,29.53531],[79.60054,29.54559],[79.61679,29.55292],[79.63125,29.54842],[79.63615,29.53761],[79.6504,29.54384],[79.66486,29.53821],[79.66896,29.52929],[79.68215,29.52468],[79.68403,29.51335],[79.683,29.48905],[79.68877,29.47583],[79.71328,29.45654],[79.73381,29.45118],[79.73144,29.43541],[79.74725,29.4262],[79.75199,29.43146],[79.76708,29.43211],[79.7699,29.44512],[79.78885,29.44589],[79.79995,29.43388],[79.81082,29.4352],[79.82534,29.42917],[79.82608,29.42275],[79.84223,29.4236],[79.85013,29.42836]]]}}