{"type":"Feature","properties":{"id":"IND.7.1","name":"Baramula","level":2,"country":"IND"},"geometry":{"type":"Polygon","coordinates":[[[74.2655,33.94654],[74.28579,33.94451],[74.32036,33.96093],[74.31559,33.93664],[74.32078,33.93376],[74.33254,33.94463],[74.34051,33.94593],[74.35694,33.92811],[74.35963,33.91705],[74.36825,33.90347],[74.38338,33.89905],[74.4066,33.90337],[74.44058,33.89222],[74.461,33.86491],[74.47579,33.86081],[74.48124,33.87295],[74.50415,33.88085],[74.52219,33.90039],[74.53336,33.90813],[74.53454,33.94255],[74.52256,33.94735],[74.53238,33.96467],[74.54931,33.97511],[74.55202,33.98555],[74.57433,33.98711],[74.58209,34.00714],[74.61037,34.02718],[74.63225,34.05249],[74.65924,34.05807],[74.67358,34.06592],[74.68574,34.06674],[74.70446,34.07636],[74.71933,34.07605],[74.71572,34.08484],[74.72921,34.10167],[74.72681,34.10886],[74.70656,34.12382],[74.68985,34.11535],[74.67453,34.12899],[74.66147,34.12198],[74.65183,34.12319],[74.65301,34.13986],[74.63281,34.13814],[74.61608,34.14122],[74.60814,34.13634],[74.58732,34.1337],[74.58506,34.14598],[74.59334,34.15748],[74.60952,34.17035],[74.60846,34.18031],[74.58778,34.18215],[74.58546,34.17269],[74.56654,34.1712],[74.54897,34.17555],[74.56019,34.18518],[74.56344,34.20001],[74.55236,34.21539],[74.55529,34.22694],[74.5735,34.23135],[74.56487,34.24116],[74.53188,34.23809],[74.5193,34.23489],[74.50824,34.24266],[74.51366,34.25254],[74.51321,34.28114],[74.52015,34.28852],[74.51592,34.29975],[74.52416,34.32646],[74.51912,34.33618],[74.49963,34.34902],[74.48264,34.36442],[74.46711,34.3664],[74.45536,34.35004],[74.4193,34.34164],[74.41415,34.34897],[74.39245,34.34488],[74.37713,34.34822],[74.35907,34.32908],[74.36307,34.31536],[74.3552,34.29416],[74.3424,34.28413],[74.34075,34.27446],[74.32607,34.26663],[74.31346,34.26967],[74.29832,34.26268],[74.28961,34.26746],[74.2626,34.26766],[74.23962,34.25477],[74.22483,34.25446],[74.19539,34.24449],[74.18209,34.21872],[74.16975,34.21562],[74.17199,34.20093],[74.1688,34.19049],[74.14744,34.19162],[74.13923,34.18802],[74.10908,34.20043],[74.09846,34.20275],[74.08742,34.21188],[74.06789,34.20416],[74.04159,34.19788],[74.00459,34.19609],[73.99879,34.18185],[73.96938,34.17268],[73.96147,34.16812],[73.96581,34.15337],[73.95346,34.15188],[73.94494,34.13738],[73.92707,34.12783],[73.92636,34.1036],[73.90438,34.10603],[73.9025,34.08565],[73.90767,34.08208],[73.89571,34.0666],[73.89976,34.05026],[73.92141,34.03537],[73.92316,34.02487],[73.93989,34.02302],[73.95082,34.0289],[73.96938,34.02689],[73.99159,34.02802],[74.00164,34.0216],[74.03514,34.02989],[74.04294,34.02795],[74.06624,34.03605],[74.10708,34.03774],[74.1348,34.04722],[74.14417,34.04411],[74.16112,34.0288],[74.16796,34.02823],[74.17958,34.03924],[74.19749,34.04307],[74.22257,34.0337],[74.23302,34.02385],[74.24986,34.01512],[74.25744,33.99543],[74.26391,33.98897],[74.26122,33.97079],[74.25193,33.96737],[74.25053,33.959],[74.2655,33.94654]]]}}