{"type":"Feature","properties":{"id":"IND.6.7","name":"Bhiwani","level":2,"country":"IND"},"geometry":{"type":"Polygon","coordinates":[[[76.40712,28.68268],[76.38521,28.69815],[76.3812,28.71394],[76.40277,28.73917],[76.40676,28.75615],[76.3877,28.77023],[76.38643,28.78266],[76.3673,28.78811],[76.35927,28.79807],[76.34168,28.80483],[76.33434,28.81349],[76.3143,28.81401],[76.30809,28.8088],[76.292,28.8079],[76.29807,28.83673],[76.28855,28.85121],[76.29609,28.86279],[76.28933,28.87504],[76.2937,28.89739],[76.29868,28.90314],[76.27873,28.90817],[76.27167,28.90322],[76.25673,28.90505],[76.23665,28.91128],[76.23728,28.92253],[76.24473,28.94134],[76.21319,28.95502],[76.21488,28.97315],[76.22601,28.98346],[76.22801,28.99106],[76.21749,28.99467],[76.20235,29.00689],[76.1988,29.01907],[76.20375,29.02793],[76.20162,29.04136],[76.19112,29.05127],[76.16741,29.05042],[76.15121,29.044],[76.13782,29.04509],[76.13261,29.03523],[76.09904,29.04717],[76.08128,29.04114],[76.07642,29.02256],[76.05317,29.02982],[76.04587,29.03818],[76.04614,29.06211],[76.03226,29.06422],[76.0128,29.06002],[75.98453,29.08119],[75.9768,29.06716],[75.96872,29.06277],[75.97912,29.03073],[75.97796,29.01371],[75.98027,28.99534],[75.95976,28.9999],[75.94823,29.00876],[75.92307,29.02291],[75.90528,29.017],[75.89808,29.00351],[75.89658,28.98591],[75.88663,28.98809],[75.87877,28.97088],[75.85405,28.95301],[75.85896,28.93863],[75.84843,28.92085],[75.83259,28.91148],[75.8147,28.91553],[75.80015,28.92577],[75.77872,28.91801],[75.77064,28.89859],[75.75241,28.90519],[75.72762,28.90547],[75.71512,28.90308],[75.69698,28.90558],[75.68122,28.91215],[75.67234,28.9281],[75.66332,28.93788],[75.64877,28.93761],[75.64008,28.95365],[75.63771,28.96767],[75.61681,28.98554],[75.59931,28.98969],[75.58733,28.98261],[75.5659,28.98044],[75.54892,28.96626],[75.52816,28.97035],[75.51093,28.95378],[75.50659,28.93582],[75.47785,28.93325],[75.47484,28.92217],[75.49758,28.89601],[75.49943,28.87071],[75.49774,28.85842],[75.50619,28.85118],[75.50873,28.83913],[75.52115,28.8339],[75.52027,28.81265],[75.50981,28.80263],[75.51217,28.79355],[75.50416,28.78245],[75.52391,28.766],[75.52479,28.75706],[75.53537,28.74242],[75.53828,28.72908],[75.54072,28.69418],[75.54613,28.68272],[75.54235,28.66043],[75.5507,28.64145],[75.56173,28.636],[75.56241,28.61315],[75.58716,28.61312],[75.59205,28.60556],[75.62307,28.60165],[75.62644,28.56594],[75.63436,28.54437],[75.6546,28.53648],[75.66668,28.53593],[75.67301,28.5166],[75.68507,28.51091],[75.6911,28.49978],[75.70285,28.49171],[75.70985,28.49347],[75.74034,28.4847],[75.73654,28.46878],[75.76785,28.46125],[75.78916,28.4535],[75.79299,28.44453],[75.78938,28.43351],[75.77058,28.42272],[75.76758,28.41417],[75.77718,28.40413],[75.79543,28.39956],[75.80043,28.4071],[75.81621,28.40958],[75.82567,28.40291],[75.83371,28.4053],[75.84586,28.39163],[75.8764,28.38718],[75.89125,28.38303],[75.89722,28.39002],[75.90142,28.39928],[75.89853,28.41563],[75.90439,28.43169],[75.92611,28.43533],[75.95179,28.43566],[75.9823,28.44485],[76.01437,28.43386],[76.01081,28.40857],[76.01836,28.38602],[76.04444,28.39165],[76.06011,28.38982],[76.08295,28.39276],[76.09116,28.41257],[76.09408,28.42821],[76.10602,28.43875],[76.10854,28.44744],[76.11957,28.45349],[76.14971,28.45151],[76.1605,28.46172],[76.16695,28.43133],[76.18415,28.42956],[76.18975,28.44319],[76.21271,28.44298],[76.21881,28.46883],[76.23212,28.46666],[76.24559,28.45908],[76.24814,28.43777],[76.28564,28.43151],[76.29132,28.43987],[76.29076,28.4577],[76.29914,28.46103],[76.31164,28.45753],[76.32961,28.47641],[76.31572,28.47561],[76.28434,28.47979],[76.29092,28.49708],[76.30389,28.4997],[76.32086,28.49215],[76.3279,28.49582],[76.33299,28.51003],[76.33604,28.53422],[76.34237,28.55591],[76.33833,28.57366],[76.36887,28.57697],[76.37212,28.5853],[76.36113,28.59521],[76.35364,28.60962],[76.37497,28.59939],[76.39439,28.59885],[76.4022,28.59528],[76.405,28.55091],[76.42198,28.55109],[76.42729,28.57063],[76.43109,28.5956],[76.43648,28.60214],[76.44904,28.59827],[76.46649,28.61423],[76.4473,28.63563],[76.4507,28.65867],[76.4338,28.66571],[76.4019,28.66635],[76.40712,28.68268]]]}}