{"type":"Feature","properties":{"id":"IND.22.19","name":"Mahrajganj","level":2,"country":"IND"},"geometry":{"type":"Polygon","coordinates":[[[83.86282,27.34673],[83.83001,27.37037],[83.615,27.46953],[83.38891,27.47974],[83.40213,27.45726],[83.39897,27.44947],[83.38397,27.44246],[83.39336,27.42494],[83.40562,27.41892],[83.40246,27.40101],[83.38487,27.39028],[83.3882,27.37581],[83.37473,27.36989],[83.36974,27.35819],[83.35789,27.35049],[83.3525,27.33997],[83.33738,27.33263],[83.30014,27.33447],[83.29242,27.33661],[83.2703,27.32577],[83.27064,27.31714],[83.25012,27.30052],[83.25584,27.28864],[83.24188,27.28269],[83.23302,27.272],[83.22017,27.26988],[83.2135,27.2629],[83.22023,27.24446],[83.19796,27.22533],[83.17447,27.22582],[83.16739,27.21769],[83.17729,27.19263],[83.1701,27.18539],[83.1796,27.17651],[83.1782,27.15737],[83.16919,27.14507],[83.15702,27.14437],[83.1606,27.16049],[83.14953,27.16766],[83.13938,27.15871],[83.12363,27.15875],[83.13011,27.14142],[83.16322,27.12874],[83.17073,27.10176],[83.17766,27.08756],[83.19645,27.08745],[83.20877,27.07084],[83.22864,27.06878],[83.24322,27.07289],[83.26395,27.06428],[83.27518,27.06695],[83.28493,27.06154],[83.28453,27.05015],[83.30469,27.04743],[83.32271,27.05349],[83.32471,27.06687],[83.34138,27.09134],[83.3557,27.08901],[83.3607,27.08017],[83.37796,27.07631],[83.3891,27.08995],[83.40352,27.08771],[83.40208,27.07229],[83.37216,27.04407],[83.35927,27.01106],[83.34352,26.99025],[83.33127,26.98104],[83.33938,26.96938],[83.36182,26.96826],[83.366,26.97874],[83.37895,26.9793],[83.40338,26.97573],[83.43347,26.98022],[83.44688,26.97524],[83.4465,26.96137],[83.45866,26.96349],[83.47338,26.95011],[83.47828,26.92324],[83.50194,26.91821],[83.52879,26.89159],[83.54457,26.8805],[83.5472,26.88959],[83.55607,26.89004],[83.56022,26.92313],[83.57145,26.93284],[83.578,26.92845],[83.58887,26.93235],[83.59452,26.92722],[83.59557,26.91402],[83.60708,26.91149],[83.61101,26.92592],[83.62656,26.93008],[83.6287,26.94083],[83.62285,26.95498],[83.63949,26.95431],[83.65452,26.94984],[83.66562,26.9503],[83.68045,26.94589],[83.68225,26.96329],[83.70857,26.9599],[83.71865,26.95064],[83.72845,26.95326],[83.73672,26.99062],[83.74623,26.99479],[83.75765,26.99299],[83.76939,27.00066],[83.74991,27.00844],[83.7455,27.01588],[83.74709,27.02863],[83.73779,27.03834],[83.73026,27.05446],[83.73959,27.05943],[83.75786,27.04734],[83.76741,27.05719],[83.76628,27.07337],[83.74675,27.07519],[83.75986,27.0855],[83.77153,27.0891],[83.77824,27.10493],[83.79977,27.10843],[83.80548,27.11691],[83.80731,27.14999],[83.81194,27.16584],[83.79203,27.16594],[83.78499,27.1714],[83.80212,27.17801],[83.81023,27.18461],[83.80174,27.19377],[83.79829,27.21227],[83.80633,27.21605],[83.81521,27.20211],[83.82812,27.20384],[83.83168,27.21078],[83.82682,27.22902],[83.82188,27.2336],[83.80933,27.22869],[83.79604,27.23553],[83.7957,27.24491],[83.80348,27.24868],[83.81408,27.24442],[83.82768,27.24827],[83.84343,27.24783],[83.84949,27.25469],[83.83921,27.26618],[83.84208,27.28591],[83.87383,27.29709],[83.8819,27.28432],[83.89543,27.28499],[83.90792,27.27581],[83.9204,27.28245],[83.93555,27.30102],[83.93351,27.31325],[83.91797,27.32718],[83.90351,27.32584],[83.88234,27.31299],[83.8646,27.30799],[83.85249,27.31806],[83.8388,27.32344],[83.86495,27.33708],[83.86282,27.34673]]]}}