{"type":"Feature","properties":{"id":"IND.7.14","name":"Reasi","level":2,"country":"IND"},"geometry":{"type":"Polygon","coordinates":[[[74.63911,33.46389],[74.63838,33.44809],[74.64615,33.43714],[74.63755,33.4241],[74.61714,33.41644],[74.62822,33.39938],[74.66468,33.39401],[74.67702,33.38577],[74.67132,33.3605],[74.67946,33.35246],[74.68047,33.34234],[74.68915,33.32432],[74.67806,33.31452],[74.66107,33.31682],[74.65395,33.30639],[74.6588,33.29633],[74.65436,33.28707],[74.67454,33.26158],[74.66009,33.24687],[74.66068,33.23938],[74.69003,33.21738],[74.68705,33.18239],[74.6821,33.1692],[74.66364,33.16074],[74.62525,33.17197],[74.595,33.17548],[74.57442,33.17436],[74.5794,33.16189],[74.57229,33.15563],[74.55153,33.15492],[74.5384,33.1652],[74.53131,33.16366],[74.52469,33.15136],[74.52819,33.14037],[74.53868,33.13756],[74.55104,33.1275],[74.57113,33.1277],[74.57678,33.12131],[74.61377,33.11953],[74.63333,33.10832],[74.62443,33.09981],[74.63101,33.06631],[74.59092,33.04798],[74.56529,33.04375],[74.56425,33.03062],[74.56777,33.01542],[74.57724,33.00303],[74.59461,33.00525],[74.59898,32.99646],[74.61069,32.99176],[74.59947,32.98],[74.61155,32.9661],[74.60722,32.96154],[74.60802,32.94404],[74.63179,32.94182],[74.65054,32.96077],[74.62427,32.97868],[74.62074,32.99026],[74.62422,33.01225],[74.6451,33.00171],[74.6673,33.01825],[74.67174,33.03818],[74.68064,33.03216],[74.69654,33.03405],[74.7036,33.03038],[74.72287,33.03241],[74.7229,33.03991],[74.74154,33.0389],[74.74441,33.0302],[74.76111,33.03093],[74.76803,33.0186],[74.78402,33.01045],[74.79978,32.99141],[74.82289,32.97516],[74.84077,32.9753],[74.84777,32.96344],[74.84061,32.94718],[74.8449,32.94055],[74.86209,32.94775],[74.87998,32.94295],[74.88458,32.91736],[74.89858,32.91669],[74.90828,32.92366],[74.91597,32.94778],[74.93142,32.97662],[74.93941,32.98196],[74.97628,32.98617],[74.98879,32.99741],[75.00834,33.00427],[75.00753,33.01853],[75.00095,33.03271],[75.02039,33.03961],[75.03701,33.03405],[75.05103,33.05123],[75.03714,33.06795],[75.01438,33.08337],[75.01897,33.11239],[75.02426,33.126],[75.03531,33.13693],[75.05733,33.14029],[75.08007,33.16108],[75.0964,33.18105],[75.10623,33.18404],[75.12048,33.1957],[75.14024,33.21632],[75.13408,33.23111],[75.13652,33.24493],[75.13366,33.25705],[75.12186,33.26575],[75.12024,33.28378],[75.12591,33.28703],[75.12725,33.29985],[75.1038,33.30488],[75.09615,33.32594],[75.07799,33.32625],[75.07109,33.3366],[75.04923,33.35329],[75.03362,33.37838],[75.02163,33.39042],[75.02035,33.39973],[75.04454,33.41888],[75.03429,33.42789],[75.02762,33.45159],[75.01278,33.45082],[74.99911,33.46229],[74.98646,33.46734],[74.96295,33.47123],[74.95365,33.46708],[74.92608,33.47185],[74.92128,33.46693],[74.89802,33.45687],[74.88103,33.45419],[74.87347,33.45851],[74.86323,33.45021],[74.84981,33.45052],[74.82696,33.43722],[74.81042,33.43658],[74.80166,33.45507],[74.76668,33.46018],[74.73949,33.48355],[74.71364,33.49244],[74.69514,33.47384],[74.67029,33.47104],[74.66422,33.4788],[74.64889,33.46671],[74.63911,33.46389]]]}}