{"type":"Feature","properties":{"id":"IND.32.11","name":"Amreli","level":2,"country":"IND"},"geometry":{"type":"MultiPolygon","coordinates":[[[[71.59163,21.69957],[71.59828,21.71037],[71.59824,21.72663],[71.58777,21.73427],[71.56425,21.73994],[71.5484,21.75596],[71.54046,21.76977],[71.51108,21.78164],[71.50916,21.79196],[71.49278,21.80226],[71.46988,21.79923],[71.45751,21.82436],[71.45854,21.84218],[71.44805,21.85199],[71.45378,21.86585],[71.42936,21.87582],[71.4182,21.90166],[71.42079,21.90749],[71.44506,21.90598],[71.45392,21.89484],[71.45978,21.90518],[71.46549,21.92446],[71.44642,21.94933],[71.42065,21.94461],[71.3992,21.95443],[71.3929,21.9635],[71.39356,21.97857],[71.38101,21.98562],[71.36867,21.98269],[71.34554,21.98523],[71.3396,22.00062],[71.32999,22.00654],[71.33043,22.02611],[71.30837,22.04237],[71.2758,22.01715],[71.27589,22.00726],[71.28563,22.00059],[71.2982,21.97456],[71.29467,21.96045],[71.26582,21.95736],[71.25309,21.9732],[71.25971,22.0005],[71.24888,22.0097],[71.22112,22.00644],[71.18577,22.0101],[71.20008,22.00053],[71.20224,21.97422],[71.19861,21.96876],[71.1787,21.95756],[71.16921,21.95976],[71.13927,21.94778],[71.1245,21.93783],[71.11657,21.91939],[71.10261,21.91493],[71.07175,21.91024],[71.06009,21.90373],[71.06023,21.88169],[71.04741,21.87495],[71.03232,21.87208],[71.03583,21.86515],[71.05262,21.85195],[71.06036,21.84922],[71.08595,21.86463],[71.10494,21.87015],[71.11022,21.85362],[71.10522,21.84368],[71.09297,21.83901],[71.08476,21.8233],[71.07552,21.82626],[71.0484,21.82344],[71.04367,21.80395],[71.05275,21.78791],[71.0437,21.7687],[71.0481,21.75644],[71.03321,21.74154],[70.99303,21.73175],[70.98537,21.72593],[70.97397,21.73497],[70.96597,21.75044],[70.95685,21.74506],[70.93621,21.7457],[70.92019,21.76288],[70.91116,21.76698],[70.89538,21.76419],[70.89528,21.75689],[70.88658,21.73498],[70.87068,21.74063],[70.85564,21.73725],[70.82701,21.74361],[70.81583,21.74194],[70.81433,21.73349],[70.79645,21.7379],[70.78119,21.73116],[70.7859,21.72072],[70.77053,21.70919],[70.7801,21.70037],[70.78947,21.7084],[70.80258,21.71317],[70.79465,21.66576],[70.80954,21.64303],[70.81715,21.64281],[70.82994,21.63405],[70.84372,21.61748],[70.86328,21.60121],[70.87669,21.57677],[70.88118,21.57575],[70.88398,21.55312],[70.89179,21.55011],[70.895,21.53529],[70.88894,21.52776],[70.87023,21.52691],[70.86483,21.53239],[70.85187,21.53191],[70.84675,21.512],[70.8278,21.50972],[70.80575,21.5142],[70.81133,21.49106],[70.83294,21.49257],[70.82949,21.46451],[70.83316,21.4568],[70.86871,21.46538],[70.88788,21.44192],[70.90544,21.46154],[70.92501,21.46257],[70.92834,21.45362],[70.93063,21.42956],[70.9469,21.42182],[70.94601,21.4052],[70.94931,21.39748],[70.91522,21.38514],[70.90764,21.38715],[70.90375,21.39781],[70.89331,21.39526],[70.88209,21.376],[70.87077,21.37497],[70.87478,21.33822],[70.86971,21.32419],[70.88389,21.31791],[70.90125,21.32628],[70.91653,21.33776],[70.92194,21.34671],[70.93051,21.3418],[70.94299,21.312],[70.92577,21.30239],[70.90856,21.29897],[70.89527,21.28055],[70.89272,21.26947],[70.87356,21.26343],[70.86103,21.26739],[70.85515,21.26414],[70.82704,21.26257],[70.82261,21.2537],[70.8062,21.24478],[70.8051,21.23225],[70.82229,21.21105],[70.82546,21.19699],[70.8356,21.18888],[70.85218,21.18064],[70.85585,21.16779],[70.87401,21.17176],[70.88571,21.18387],[70.89353,21.18706],[70.92915,21.1781],[70.95187,21.17015],[70.97501,21.16568],[70.98897,21.17251],[71.00564,21.16899],[71.02245,21.14987],[71.04371,21.13399],[71.07765,21.11603],[71.09397,21.09844],[71.10022,21.08767],[71.11323,21.07857],[71.1271,21.07722],[71.13602,21.06453],[71.14082,21.04499],[71.14913,21.03232],[71.13479,21.01023],[71.13666,20.99377],[71.12957,20.98242],[71.12792,20.9643],[71.14378,20.95154],[71.16021,20.95752],[71.17773,20.96727],[71.1875,20.9652],[71.19881,20.97912],[71.22526,20.95762],[71.20995,20.92834],[71.19798,20.92336],[71.191,20.92545],[71.18322,20.91594],[71.19628,20.90072],[71.18216,20.8892],[71.1876,20.87705],[71.20737,20.87388],[71.21734,20.85026],[71.21903,20.83485],[71.2246,20.82449],[71.22335,20.81388],[71.20931,20.80139],[71.23102,20.80505],[71.23687,20.81176],[71.25686,20.81675],[71.28384,20.82775],[71.32153,20.84673],[71.33852,20.84873],[71.35194,20.85359],[71.36579,20.8523],[71.37507,20.85673],[71.37407,20.86686],[71.38107,20.87529],[71.3942,20.874],[71.39849,20.86572],[71.42204,20.87043],[71.43918,20.86929],[71.44917,20.88186],[71.46273,20.88128],[71.47729,20.8947],[71.48405,20.91058],[71.51991,20.9192],[71.50442,20.93368],[71.50927,20.9431],[71.51941,20.95095],[71.53352,20.95381],[71.53811,20.94582],[71.55453,20.9531],[71.56295,20.94996],[71.57952,20.95881],[71.6262,20.96894],[71.63391,20.98722],[71.65418,20.99693],[71.67964,21.00055],[71.66749,21.02833],[71.64126,21.03221],[71.63859,21.05797],[71.63123,21.06152],[71.61196,21.05535],[71.61097,21.06907],[71.63021,21.073],[71.63124,21.0899],[71.62619,21.10811],[71.61786,21.11293],[71.59032,21.14542],[71.57375,21.15493],[71.55956,21.15822],[71.55152,21.17105],[71.51952,21.17548],[71.51687,21.18231],[71.52686,21.19575],[71.518,21.22102],[71.52817,21.23114],[71.52381,21.25301],[71.52997,21.25806],[71.53515,21.27174],[71.52975,21.28026],[71.53566,21.29338],[71.55879,21.28723],[71.57149,21.292],[71.57455,21.30551],[71.58692,21.31435],[71.61623,21.32612],[71.62174,21.32594],[71.63224,21.34154],[71.62803,21.34966],[71.63212,21.38196],[71.63114,21.39032],[71.61716,21.3912],[71.61502,21.4063],[71.61463,21.44002],[71.59598,21.44703],[71.57082,21.44802],[71.55626,21.44526],[71.53163,21.44485],[71.52522,21.46028],[71.50084,21.46086],[71.48954,21.46687],[71.47947,21.48378],[71.48503,21.49021],[71.48968,21.51347],[71.50081,21.54344],[71.51032,21.54792],[71.53852,21.55339],[71.54772,21.56075],[71.557,21.5831],[71.55394,21.59019],[71.55307,21.61594],[71.55869,21.62468],[71.57566,21.63151],[71.59323,21.62763],[71.622,21.62963],[71.61814,21.6445],[71.59004,21.6595],[71.58721,21.67373],[71.59163,21.69957]]],[[[71.60462,20.89513],[71.62245,20.90675],[71.62723,20.91632],[71.62307,20.93737],[71.60703,20.93916],[71.59573,20.93223],[71.58674,20.91848],[71.57383,20.90611],[71.57408,20.89798],[71.5869,20.89286],[71.60462,20.89513]]],[[[71.56033,20.85094],[71.57276,20.8603],[71.56996,20.87605],[71.55446,20.87965],[71.54235,20.86851],[71.54576,20.85319],[71.56033,20.85094]]],[[[71.51569,20.91323],[71.50902,20.90434],[71.52101,20.90514],[71.51569,20.91323]]]]}}