{"type":"Feature","properties":{"id":"IND.31.6","name":"Karur","level":2,"country":"IND"},"geometry":{"type":"Polygon","coordinates":[[[78.16864,11.01203],[78.14579,11.03892],[78.13051,11.04698],[78.10701,11.07002],[78.09649,11.07613],[78.07718,11.0782],[78.05726,11.07534],[78.03505,11.08785],[78.01357,11.09452],[77.98864,11.09199],[77.97051,11.07726],[77.95124,11.06584],[77.93284,11.06865],[77.91951,11.04638],[77.90956,11.04613],[77.89974,11.0319],[77.88976,11.03118],[77.8786,11.02449],[77.86701,11.02264],[77.85092,11.03354],[77.84618,11.04465],[77.8359,11.04261],[77.82926,11.04848],[77.82563,11.06155],[77.81451,11.06875],[77.8056,11.06318],[77.79002,11.06534],[77.77689,11.05552],[77.78124,11.03878],[77.79157,11.03139],[77.77983,10.99548],[77.7504,10.97584],[77.75325,10.96426],[77.76722,10.96399],[77.76974,10.95621],[77.76509,10.93096],[77.76127,10.92327],[77.7609,10.90073],[77.77221,10.88962],[77.77286,10.87172],[77.77986,10.86809],[77.79017,10.88258],[77.79897,10.86395],[77.80716,10.85616],[77.81708,10.85615],[77.83047,10.83571],[77.83953,10.83364],[77.85949,10.84798],[77.86948,10.84022],[77.86929,10.82304],[77.87509,10.80836],[77.86772,10.79887],[77.87592,10.78873],[77.88508,10.78896],[77.8918,10.78303],[77.89111,10.77444],[77.87087,10.77632],[77.83401,10.78692],[77.826,10.7965],[77.81411,10.79621],[77.81201,10.80439],[77.80149,10.80608],[77.79365,10.78982],[77.77691,10.79025],[77.7692,10.76677],[77.78084,10.76614],[77.78308,10.75876],[77.80224,10.75513],[77.81261,10.75798],[77.82512,10.75155],[77.82128,10.7328],[77.82483,10.7161],[77.80884,10.69501],[77.80976,10.68025],[77.81886,10.67761],[77.81729,10.64804],[77.83161,10.6328],[77.84947,10.64015],[77.87376,10.63189],[77.8854,10.65126],[77.89745,10.64531],[77.90981,10.6557],[77.9152,10.64642],[77.93022,10.64717],[77.95321,10.63808],[77.98022,10.63901],[77.974,10.65804],[77.97413,10.6738],[77.992,10.67088],[78.00807,10.67508],[78.01143,10.70802],[78.01701,10.71905],[78.01371,10.72904],[78.00052,10.72944],[77.998,10.74257],[77.95233,10.74273],[77.9329,10.73599],[77.93138,10.75282],[77.94017,10.76675],[77.96304,10.76124],[77.9745,10.76426],[77.98584,10.76073],[77.99582,10.76367],[78.00048,10.77391],[78.01837,10.77469],[78.02513,10.77907],[78.0426,10.77513],[78.0505,10.77767],[78.05576,10.76709],[78.06793,10.76754],[78.07309,10.77628],[78.09863,10.76581],[78.10151,10.77926],[78.09781,10.78794],[78.10692,10.80617],[78.13357,10.80389],[78.14998,10.80632],[78.15276,10.82143],[78.15921,10.83245],[78.1696,10.8344],[78.18705,10.82054],[78.17359,10.80343],[78.16923,10.77777],[78.15572,10.74519],[78.15557,10.71533],[78.14809,10.68362],[78.14689,10.65273],[78.165,10.65022],[78.16112,10.63373],[78.16654,10.61496],[78.13898,10.60068],[78.13427,10.57434],[78.14763,10.56291],[78.1528,10.56603],[78.17132,10.55497],[78.18945,10.5575],[78.19836,10.54812],[78.22352,10.5505],[78.24655,10.55878],[78.2616,10.58168],[78.26134,10.59541],[78.25693,10.60685],[78.26481,10.61593],[78.26759,10.64207],[78.27676,10.69765],[78.27983,10.70799],[78.28345,10.74559],[78.29459,10.7336],[78.29092,10.71451],[78.29469,10.70359],[78.31767,10.70306],[78.33094,10.71022],[78.34115,10.7071],[78.34716,10.72173],[78.36881,10.72524],[78.38252,10.71496],[78.4038,10.69327],[78.40239,10.6822],[78.41665,10.67374],[78.42796,10.67737],[78.43314,10.6935],[78.45882,10.69097],[78.46665,10.70138],[78.47452,10.70509],[78.49122,10.69674],[78.51461,10.69348],[78.5187,10.7096],[78.53258,10.71163],[78.55529,10.7256],[78.56566,10.73549],[78.56828,10.74307],[78.56474,10.77174],[78.55785,10.78934],[78.54617,10.79326],[78.5546,10.81303],[78.57642,10.81017],[78.58684,10.82889],[78.57165,10.83432],[78.57784,10.85173],[78.54957,10.87688],[78.53346,10.87815],[78.50445,10.88657],[78.48955,10.89352],[78.47885,10.88261],[78.4698,10.88647],[78.47131,10.89845],[78.48857,10.89984],[78.48679,10.91203],[78.47907,10.91406],[78.44291,10.93221],[78.43167,10.94665],[78.38284,10.9658],[78.36967,10.96268],[78.35284,10.96285],[78.32922,10.95969],[78.31399,10.96267],[78.29953,10.96204],[78.28032,10.96703],[78.26177,10.9686],[78.2465,10.96689],[78.21994,10.95882],[78.19954,10.96028],[78.18494,10.97709],[78.16806,11.00151],[78.16864,11.01203]]]}}