{"type":"Feature","properties":{"id":"IND.28.8","name":"Uttar Bastar Kanker","level":2,"country":"IND"},"geometry":{"type":"Polygon","coordinates":[[[80.54762,20.11287],[80.54241,20.09321],[80.55343,20.06883],[80.54835,20.05133],[80.54886,20.04037],[80.53982,20.00714],[80.55081,19.99832],[80.55142,19.98478],[80.53965,19.97033],[80.54113,19.95634],[80.53355,19.95193],[80.52767,19.9342],[80.50902,19.92806],[80.48774,19.93108],[80.47709,19.93692],[80.47174,19.94949],[80.46023,19.94846],[80.45094,19.95587],[80.43234,19.94051],[80.41351,19.93568],[80.40989,19.91282],[80.41493,19.90913],[80.45171,19.89685],[80.46849,19.90674],[80.48992,19.90223],[80.49711,19.89702],[80.50482,19.87216],[80.4823,19.86046],[80.47591,19.84096],[80.46759,19.83146],[80.43894,19.81372],[80.42458,19.81256],[80.40479,19.81961],[80.4074,19.79705],[80.42496,19.80057],[80.44998,19.79402],[80.45974,19.79639],[80.4741,19.78839],[80.48541,19.77596],[80.48988,19.78425],[80.48754,19.79895],[80.48211,19.80688],[80.46684,19.81479],[80.47645,19.82812],[80.48332,19.83145],[80.49802,19.82882],[80.50569,19.83294],[80.52512,19.83236],[80.55156,19.81477],[80.54702,19.77822],[80.55757,19.7682],[80.57789,19.75843],[80.58946,19.74181],[80.62054,19.73273],[80.64091,19.72232],[80.65305,19.71038],[80.66877,19.70142],[80.6729,19.69191],[80.70924,19.70083],[80.72583,19.69854],[80.71256,19.73701],[80.7116,19.75852],[80.71567,19.77504],[80.72856,19.78931],[80.74239,19.79641],[80.76709,19.80464],[80.78581,19.78543],[80.79574,19.80569],[80.82239,19.8151],[80.81646,19.82956],[80.80241,19.8345],[80.77913,19.83794],[80.75926,19.82729],[80.75038,19.81897],[80.73549,19.81427],[80.73251,19.80114],[80.72268,19.7965],[80.71183,19.80014],[80.7253,19.81413],[80.72964,19.83798],[80.76046,19.86771],[80.77719,19.87241],[80.79756,19.88296],[80.81291,19.8996],[80.83471,19.90545],[80.85363,19.93163],[80.85364,19.94936],[80.86351,19.94223],[80.89007,19.93142],[80.91085,19.9279],[80.91488,19.92314],[80.91382,19.88112],[80.92737,19.85192],[80.93605,19.82015],[80.94743,19.79914],[80.95556,19.79094],[80.99021,19.76583],[81.01132,19.76481],[81.03743,19.76632],[81.04798,19.74652],[81.05902,19.71924],[81.06726,19.70641],[81.08597,19.69176],[81.1125,19.68697],[81.14048,19.69107],[81.15496,19.7166],[81.15034,19.73308],[81.13406,19.76895],[81.13789,19.78591],[81.16629,19.80325],[81.17891,19.80306],[81.18471,19.78904],[81.19239,19.77998],[81.20083,19.77982],[81.21351,19.78615],[81.22808,19.79825],[81.24437,19.80592],[81.26592,19.80565],[81.30187,19.79881],[81.31686,19.80282],[81.34609,19.83233],[81.39388,19.83327],[81.3761,19.85126],[81.38581,19.86091],[81.4028,19.86921],[81.40111,19.88365],[81.3822,19.89669],[81.37838,19.90316],[81.36333,19.91286],[81.3496,19.91041],[81.34705,19.92679],[81.33081,19.93585],[81.33017,19.9592],[81.32772,19.96712],[81.30467,19.97588],[81.30127,19.98574],[81.302,20.00108],[81.29351,20.01733],[81.30888,20.01812],[81.31448,20.02367],[81.34057,20.03622],[81.35775,20.03321],[81.3604,20.04541],[81.38969,20.04652],[81.39294,20.06],[81.40627,20.07817],[81.40208,20.11433],[81.41995,20.14772],[81.42149,20.15579],[81.44835,20.14615],[81.47633,20.15847],[81.51368,20.16454],[81.5258,20.16873],[81.55886,20.19018],[81.58948,20.19417],[81.6171,20.15904],[81.64532,20.14264],[81.67991,20.12994],[81.6884,20.13046],[81.72509,20.13926],[81.73281,20.15645],[81.75442,20.16337],[81.77827,20.15647],[81.80694,20.16065],[81.81701,20.16971],[81.81501,20.19037],[81.80567,20.21167],[81.78848,20.21113],[81.78518,20.22636],[81.77767,20.23316],[81.78968,20.2614],[81.80351,20.25888],[81.79093,20.28981],[81.77947,20.28062],[81.76355,20.28874],[81.76324,20.2993],[81.76823,20.31102],[81.77774,20.3119],[81.78006,20.32016],[81.79653,20.3226],[81.79774,20.32998],[81.7873,20.34585],[81.78522,20.35658],[81.77338,20.35391],[81.76539,20.36014],[81.7697,20.38779],[81.75511,20.39694],[81.73946,20.42105],[81.73664,20.43922],[81.74308,20.46573],[81.73661,20.47143],[81.73727,20.48274],[81.69569,20.48286],[81.66019,20.49838],[81.6448,20.49656],[81.64014,20.50764],[81.62113,20.5155],[81.5865,20.51889],[81.55835,20.5145],[81.54564,20.51505],[81.54048,20.50274],[81.52309,20.49346],[81.51135,20.50024],[81.50258,20.51949],[81.48909,20.51426],[81.45922,20.51527],[81.44229,20.51927],[81.43118,20.51698],[81.41325,20.52789],[81.41214,20.55282],[81.40457,20.55072],[81.38502,20.53282],[81.36454,20.53754],[81.35369,20.55015],[81.34055,20.55068],[81.3307,20.55623],[81.31617,20.55105],[81.30775,20.52955],[81.29224,20.51373],[81.27241,20.50829],[81.25682,20.49848],[81.2661,20.48085],[81.26332,20.46986],[81.25362,20.45522],[81.25755,20.44861],[81.24855,20.44033],[81.23902,20.44173],[81.23662,20.42925],[81.22917,20.42922],[81.22556,20.41824],[81.18875,20.41026],[81.17724,20.40471],[81.15373,20.37832],[81.13005,20.39193],[81.10761,20.40204],[81.07696,20.41974],[81.05064,20.42167],[81.03613,20.43016],[81.02481,20.44739],[81.0007,20.45923],[80.98095,20.44868],[80.97917,20.44396],[80.95938,20.43578],[80.94623,20.44129],[80.93792,20.43915],[80.92454,20.42834],[80.9055,20.40243],[80.89631,20.39805],[80.88673,20.38578],[80.87116,20.38508],[80.86297,20.38882],[80.85189,20.35427],[80.8455,20.34724],[80.83522,20.34959],[80.82253,20.35799],[80.81309,20.35395],[80.82723,20.33997],[80.82758,20.32742],[80.83266,20.31383],[80.82284,20.29748],[80.81439,20.29516],[80.79559,20.28283],[80.78866,20.28178],[80.77865,20.29203],[80.75056,20.28468],[80.74884,20.27392],[80.73072,20.2675],[80.73247,20.25322],[80.73889,20.23987],[80.73735,20.22381],[80.72937,20.20296],[80.7152,20.18837],[80.69133,20.19161],[80.6778,20.21163],[80.66779,20.22238],[80.65734,20.22513],[80.64834,20.21832],[80.64445,20.20305],[80.62493,20.18799],[80.61054,20.18554],[80.5854,20.17582],[80.57677,20.18484],[80.56814,20.18044],[80.57209,20.15921],[80.56612,20.13473],[80.56042,20.12192],[80.54762,20.11287]]]}}