{"type":"Feature","properties":{"id":"IND.34.5","name":"Namsai","level":2,"country":"IND"},"geometry":{"type":"Polygon","coordinates":[[[95.78427,27.73421],[95.75772,27.72552],[95.76996,27.71036],[95.77207,27.69427],[95.77816,27.68869],[95.79251,27.68654],[95.79387,27.67843],[95.7798,27.67345],[95.77854,27.65476],[95.80072,27.64316],[95.79667,27.63002],[95.7866,27.62645],[95.78635,27.61753],[95.79527,27.6123],[95.79722,27.60189],[95.82333,27.59703],[95.81937,27.58939],[95.82034,27.57569],[95.83103,27.57283],[95.83896,27.56052],[95.85113,27.55952],[95.86136,27.54641],[95.88033,27.54701],[95.88488,27.54366],[95.9453,27.55879],[95.95865,27.56093],[95.97582,27.55211],[96.01557,27.55665],[96.03519,27.57159],[96.05401,27.59073],[96.06294,27.59326],[96.07166,27.60978],[96.08593,27.61255],[96.10744,27.62079],[96.1246,27.62414],[96.13837,27.62003],[96.15437,27.60617],[96.1784,27.60273],[96.19001,27.59254],[96.207,27.58874],[96.23623,27.56892],[96.25568,27.56327],[96.27349,27.56255],[96.28023,27.5573],[96.29672,27.55391],[96.31516,27.5622],[96.31311,27.5732],[96.2993,27.57937],[96.29585,27.58944],[96.30681,27.60495],[96.3017,27.62065],[96.28672,27.62869],[96.27723,27.65681],[96.28453,27.67032],[96.27613,27.7021],[96.27759,27.72365],[96.29074,27.75469],[96.29147,27.77003],[96.2838,27.79267],[96.26995,27.8166],[96.24662,27.8482],[96.23659,27.86467],[96.21437,27.86655],[96.08001,27.84399],[96.06341,27.83824],[96.03757,27.8258],[96.00917,27.8175],[95.97727,27.79709],[95.93558,27.78282],[95.91314,27.76741],[95.88028,27.75561],[95.8707,27.74221],[95.85986,27.73423],[95.82498,27.73935],[95.80178,27.73935],[95.78427,27.73421]]]}}