{"type":"Feature","properties":{"id":"IND.32.32","name":"Ahmadabad","level":2,"country":"IND"},"geometry":{"type":"MultiPolygon","coordinates":[[[[72.22152,21.94548],[72.22326,21.97517],[72.23211,22.00786],[72.22483,22.03942],[72.22997,22.05098],[72.23953,22.0604],[72.2501,22.06397],[72.2678,22.07639],[72.28479,22.07996],[72.29835,22.10566],[72.29964,22.1285],[72.30849,22.15077],[72.3122,22.16848],[72.32719,22.16791],[72.33518,22.18261],[72.35703,22.20574],[72.35946,22.22587],[72.36916,22.24086],[72.37173,22.25728],[72.36845,22.26328],[72.35574,22.26841],[72.35945,22.27656],[72.35159,22.29123],[72.35191,22.30396],[72.35937,22.32174],[72.37533,22.34188],[72.38234,22.34515],[72.40257,22.3463],[72.40561,22.35064],[72.39628,22.36471],[72.38347,22.37268],[72.35411,22.37706],[72.34308,22.38587],[72.36883,22.40664],[72.37253,22.44379],[72.37681,22.45222],[72.37851,22.47228],[72.42399,22.48225],[72.44164,22.50484],[72.43917,22.51548],[72.44034,22.53374],[72.42618,22.56105],[72.42988,22.57465],[72.44342,22.56559],[72.47145,22.57987],[72.50833,22.61352],[72.50866,22.62488],[72.51657,22.63271],[72.53813,22.62605],[72.53489,22.64446],[72.54529,22.65508],[72.55094,22.67205],[72.53303,22.67721],[72.54027,22.69357],[72.52553,22.69768],[72.52511,22.711],[72.54088,22.71104],[72.52913,22.72946],[72.53376,22.74714],[72.52561,22.75343],[72.53571,22.7684],[72.52162,22.78073],[72.52482,22.79797],[72.55153,22.807],[72.5528,22.81253],[72.57289,22.82511],[72.58352,22.82142],[72.6107,22.82661],[72.60494,22.83921],[72.61032,22.86053],[72.60199,22.86753],[72.61634,22.88734],[72.63394,22.88316],[72.64162,22.89267],[72.65153,22.89751],[72.66816,22.89462],[72.67883,22.88125],[72.69398,22.88001],[72.7055,22.88498],[72.71759,22.90349],[72.73408,22.91368],[72.76092,22.90437],[72.77455,22.90941],[72.79273,22.9082],[72.80096,22.91916],[72.80217,22.93105],[72.82175,22.95256],[72.83028,22.95412],[72.84448,22.96562],[72.84374,22.9805],[72.83413,22.98222],[72.84205,22.99343],[72.8359,23.00108],[72.82569,23.00419],[72.81673,23.02177],[72.80842,23.02656],[72.80579,23.03552],[72.79559,23.04294],[72.79893,23.04979],[72.79067,23.05707],[72.76733,23.05823],[72.77936,23.07591],[72.76722,23.09395],[72.74569,23.08885],[72.73643,23.09857],[72.72167,23.0958],[72.71418,23.10681],[72.70287,23.11022],[72.68766,23.10012],[72.67792,23.10947],[72.66426,23.11405],[72.64936,23.11484],[72.64772,23.09896],[72.63424,23.09086],[72.61083,23.09144],[72.60441,23.09796],[72.61465,23.10867],[72.61731,23.11789],[72.58918,23.13013],[72.55817,23.13538],[72.54371,23.16409],[72.53019,23.16988],[72.51732,23.16745],[72.52722,23.14539],[72.50976,23.14667],[72.497,23.13444],[72.48572,23.14469],[72.48179,23.13294],[72.47474,23.12715],[72.47536,23.11508],[72.48616,23.08733],[72.46022,23.08226],[72.47415,23.07124],[72.46914,23.06018],[72.45023,23.05934],[72.44745,23.04487],[72.43317,23.04452],[72.43361,23.05664],[72.42888,23.06543],[72.40707,23.06755],[72.40032,23.05556],[72.38969,23.05251],[72.3835,23.06151],[72.38369,23.07756],[72.37023,23.08982],[72.35691,23.08708],[72.34036,23.10601],[72.33596,23.10748],[72.31698,23.10204],[72.3073,23.08556],[72.32384,23.0675],[72.32173,23.05492],[72.30433,23.04236],[72.29505,23.04053],[72.28687,23.05473],[72.28695,23.07475],[72.28122,23.08178],[72.26095,23.08764],[72.26104,23.10456],[72.24837,23.10975],[72.23965,23.11755],[72.22333,23.12214],[72.19829,23.11669],[72.19098,23.105],[72.16429,23.1038],[72.15809,23.10956],[72.1642,23.11944],[72.16666,23.13976],[72.18846,23.14403],[72.18434,23.16602],[72.1745,23.17738],[72.17087,23.19553],[72.18569,23.21534],[72.18308,23.23833],[72.18468,23.24568],[72.17747,23.25823],[72.17698,23.26736],[72.18421,23.27744],[72.19979,23.27709],[72.20007,23.28909],[72.20935,23.30853],[72.22013,23.31038],[72.22674,23.31996],[72.24151,23.32332],[72.26547,23.34634],[72.26253,23.37009],[72.27319,23.37557],[72.27679,23.38356],[72.28886,23.39224],[72.29956,23.41374],[72.2821,23.42828],[72.2858,23.43909],[72.27293,23.44695],[72.26354,23.46049],[72.24852,23.45055],[72.24609,23.43902],[72.23085,23.4262],[72.2265,23.43273],[72.21123,23.43129],[72.20679,23.42049],[72.18657,23.41324],[72.17673,23.42315],[72.16827,23.44092],[72.12626,23.45201],[72.10937,23.45013],[72.09961,23.45914],[72.05434,23.44392],[72.0465,23.45673],[72.03795,23.45785],[72.03384,23.47147],[72.02714,23.47785],[72.03176,23.48535],[72.03375,23.50857],[72.00739,23.50263],[72.00101,23.50401],[71.99871,23.4914],[71.99137,23.48282],[71.97533,23.47377],[71.96903,23.45986],[71.97322,23.43103],[71.9681,23.40524],[71.96055,23.39374],[71.93349,23.39345],[71.9086,23.3858],[71.89438,23.39216],[71.87575,23.38385],[71.87743,23.3713],[71.88699,23.36106],[71.8968,23.33325],[71.88681,23.33061],[71.88141,23.31593],[71.88737,23.30729],[71.87816,23.2902],[71.87625,23.27903],[71.88369,23.25837],[71.8777,23.24674],[71.87769,23.22459],[71.8991,23.22481],[71.90336,23.23068],[71.90595,23.25477],[71.90936,23.26539],[71.92932,23.26985],[71.93472,23.26752],[71.94402,23.24562],[71.96234,23.24671],[71.97473,23.25478],[71.99182,23.25603],[72.00027,23.24978],[71.99165,23.21609],[71.97433,23.21478],[71.95323,23.20797],[71.93882,23.19806],[71.929,23.18689],[71.91134,23.18125],[71.91136,23.16761],[71.90492,23.1387],[71.90754,23.12122],[71.90208,23.11087],[71.91623,23.07971],[71.93275,23.06746],[71.94604,23.06997],[71.95923,23.0487],[71.98109,23.06674],[72.00099,23.06631],[72.01707,23.05664],[72.0193,23.01971],[72.00979,23.00688],[72.01243,22.99465],[72.0215,22.99249],[72.00996,22.9712],[71.99074,22.94974],[71.9904,22.93381],[72.00414,22.92383],[71.99943,22.90588],[71.98898,22.88577],[71.98469,22.87012],[71.98471,22.85591],[71.98863,22.84582],[71.98395,22.83665],[71.98373,22.81735],[71.99614,22.80952],[72.00418,22.7894],[72.00612,22.7594],[72.00177,22.74644],[72.00906,22.7352],[72.00247,22.72874],[72.00219,22.70613],[72.00812,22.69297],[72.01521,22.70438],[72.02264,22.7262],[72.0341,22.72795],[72.04374,22.71258],[72.05522,22.71235],[72.08418,22.72868],[72.10768,22.72091],[72.10047,22.69211],[72.09108,22.67598],[72.06732,22.67674],[72.05765,22.69398],[72.02809,22.67962],[72.03748,22.67078],[72.05742,22.65763],[72.0624,22.6513],[72.06334,22.60839],[72.06644,22.59431],[72.09745,22.60558],[72.1176,22.59919],[72.14353,22.58755],[72.17005,22.57005],[72.18728,22.55039],[72.18818,22.54211],[72.16439,22.5313],[72.1441,22.51465],[72.15133,22.50104],[72.14777,22.49596],[72.16249,22.47989],[72.14922,22.47669],[72.12127,22.46334],[72.10965,22.45111],[72.0857,22.43769],[72.05156,22.44487],[72.05212,22.4729],[72.04605,22.47636],[72.03658,22.49125],[72.0324,22.50679],[72.01166,22.51287],[72.00033,22.50811],[71.97954,22.50666],[71.96809,22.50963],[71.97058,22.52863],[71.96603,22.53339],[71.94718,22.54015],[71.93556,22.53801],[71.92294,22.52164],[71.91007,22.51767],[71.91569,22.50362],[71.90933,22.48053],[71.92809,22.47779],[71.93341,22.486],[71.95859,22.48991],[71.95967,22.47322],[71.95545,22.46537],[71.93828,22.46237],[71.9243,22.4498],[71.92539,22.43235],[71.93065,22.42148],[71.93484,22.38126],[71.917,22.38255],[71.90933,22.39224],[71.90352,22.40683],[71.89189,22.41932],[71.88364,22.41799],[71.87592,22.40695],[71.86665,22.40375],[71.85202,22.38972],[71.85495,22.3709],[71.85017,22.36869],[71.84552,22.35632],[71.84174,22.32398],[71.8573,22.31627],[71.85532,22.30012],[71.8505,22.29332],[71.8598,22.28622],[71.85459,22.27114],[71.85683,22.26101],[71.87038,22.25896],[71.87872,22.26369],[71.8891,22.2565],[71.90679,22.26108],[71.89852,22.27009],[71.89748,22.27845],[71.92377,22.27939],[71.93484,22.26727],[71.93622,22.25749],[71.9599,22.25562],[71.97476,22.25197],[71.98691,22.2537],[72.00472,22.25063],[72.01843,22.24167],[72.05499,22.25009],[72.07403,22.23054],[72.08638,22.22842],[72.08683,22.21812],[72.10506,22.21616],[72.12866,22.19938],[72.12667,22.18126],[72.11482,22.17592],[72.10836,22.1681],[72.11725,22.15486],[72.12892,22.15692],[72.16213,22.15197],[72.16093,22.14759],[72.12203,22.1101],[72.0941,22.10247],[72.06066,22.10118],[72.05972,22.09585],[72.07837,22.06125],[72.0888,22.05766],[72.12605,22.05796],[72.16424,22.00827],[72.17036,21.99753],[72.17821,21.99386],[72.17574,21.9841],[72.16649,21.97113],[72.16588,21.95878],[72.22152,21.94548]]],[[[72.34642,21.80337],[72.36075,21.81227],[72.36426,21.82068],[72.37024,21.86679],[72.37534,21.88261],[72.38648,21.90557],[72.40299,21.9297],[72.40754,21.95603],[72.4058,21.97062],[72.39842,21.98908],[72.38906,21.99828],[72.37951,22.00151],[72.36025,22.00155],[72.33683,21.99636],[72.3096,21.97907],[72.30226,21.96865],[72.29618,21.95279],[72.29363,21.93571],[72.29422,21.91511],[72.31795,21.81995],[72.32961,21.80444],[72.34642,21.80337]]],[[[72.35903,21.59176],[72.3603,21.59805],[72.34717,21.60773],[72.35328,21.59396],[72.35903,21.59176]]]]}}