{"type":"Feature","properties":{"id":"IND.26.9","name":"Jehanabad","level":2,"country":"IND"},"geometry":{"type":"Polygon","coordinates":[[[84.88414,25.07508],[84.92945,25.0781],[84.93348,25.07273],[84.94804,25.06867],[84.94644,25.06085],[84.93088,25.05013],[84.95006,25.02936],[84.95649,25.00302],[84.97566,25.00316],[84.98694,25.01822],[85.00507,25.01846],[85.01721,25.02867],[85.01512,25.03858],[85.03745,25.03629],[85.04727,25.04663],[85.06409,25.04666],[85.06841,25.02247],[85.08236,25.01735],[85.10242,25.01679],[85.10917,25.00769],[85.11952,25.0224],[85.13026,25.03001],[85.13854,25.05085],[85.13741,25.05896],[85.14437,25.07166],[85.17004,25.07208],[85.1707,25.08711],[85.18559,25.08648],[85.19168,25.08079],[85.19084,25.07033],[85.21066,25.07048],[85.22417,25.08278],[85.20851,25.10602],[85.20448,25.12034],[85.19067,25.11194],[85.1784,25.11087],[85.17471,25.13644],[85.1759,25.15017],[85.19103,25.15693],[85.18615,25.16894],[85.16654,25.19117],[85.17228,25.21518],[85.17972,25.21566],[85.1804,25.22735],[85.16477,25.23469],[85.17518,25.25379],[85.19,25.25726],[85.19179,25.26371],[85.20874,25.25966],[85.21283,25.26811],[85.19252,25.26932],[85.18934,25.27424],[85.17301,25.27768],[85.17931,25.30109],[85.17017,25.29776],[85.15135,25.30674],[85.14038,25.29291],[85.12842,25.28774],[85.12634,25.27897],[85.13325,25.2696],[85.12821,25.26256],[85.11298,25.28033],[85.09992,25.27051],[85.07601,25.27601],[85.05003,25.2666],[85.04376,25.26839],[85.04693,25.2814],[85.03445,25.28584],[85.02699,25.30832],[85.01638,25.30049],[85.00679,25.29891],[85.00529,25.28778],[84.98119,25.2869],[84.97359,25.29012],[84.9474,25.27311],[84.94267,25.27975],[84.95109,25.28814],[84.9322,25.28886],[84.91673,25.28123],[84.90996,25.26278],[84.89955,25.25059],[84.90064,25.23329],[84.87453,25.24963],[84.86356,25.22694],[84.84908,25.21558],[84.85847,25.20449],[84.85434,25.19954],[84.84894,25.16945],[84.86123,25.16711],[84.86012,25.15269],[84.85209,25.14048],[84.85982,25.13327],[84.86299,25.11928],[84.88291,25.11629],[84.8808,25.09334],[84.88875,25.09102],[84.88414,25.07508]]]}}