{"type":"Feature","properties":{"id":"IND.35.5","name":"Khawzawl","level":2,"country":"IND"},"geometry":{"type":"Polygon","coordinates":[[[93.35698,23.31573],[93.35717,23.32744],[93.34873,23.34716],[93.34895,23.35396],[93.36849,23.3563],[93.37896,23.35419],[93.375,23.36847],[93.39233,23.38384],[93.38146,23.39059],[93.37889,23.40796],[93.38275,23.42169],[93.34507,23.41582],[93.32627,23.41507],[93.30521,23.42034],[93.28979,23.43162],[93.27493,23.45211],[93.26666,23.48295],[93.26365,23.5371],[93.26064,23.60855],[93.2629,23.67925],[93.25312,23.71611],[93.24653,23.72965],[93.23603,23.7254],[93.1946,23.7261],[93.18584,23.7325],[93.18114,23.76282],[93.16371,23.77533],[93.155,23.77509],[93.14726,23.76501],[93.14918,23.72145],[93.15576,23.70771],[93.15986,23.68115],[93.15384,23.66119],[93.14385,23.6519],[93.11677,23.63986],[93.09902,23.64206],[93.09425,23.65084],[93.07815,23.66133],[93.06822,23.67853],[93.05222,23.67237],[93.04317,23.67441],[93.01154,23.67468],[93.01687,23.66822],[93.00945,23.65364],[93.01651,23.64203],[93.01576,23.6096],[93.01933,23.59566],[93.01384,23.58946],[93.01469,23.56338],[93.01195,23.55843],[93.01938,23.53577],[93.0211,23.5151],[93.03041,23.50344],[93.01663,23.48632],[93.01153,23.48568],[93.02652,23.47532],[93.03624,23.46309],[93.03044,23.45391],[93.01824,23.4443],[93.01589,23.43724],[93.02098,23.41349],[93.0377,23.37177],[93.02979,23.35541],[93.03087,23.34114],[93.02165,23.32271],[93.02911,23.31486],[93.05418,23.31944],[93.0718,23.3153],[93.08681,23.3162],[93.10734,23.32508],[93.12345,23.3225],[93.13355,23.32848],[93.14259,23.34064],[93.15612,23.34464],[93.17803,23.34388],[93.20029,23.33348],[93.2037,23.35471],[93.2151,23.37007],[93.23357,23.38648],[93.24888,23.38974],[93.25553,23.38435],[93.26545,23.33701],[93.2769,23.32447],[93.28995,23.32493],[93.30772,23.3411],[93.31699,23.34163],[93.33086,23.33008],[93.34026,23.31757],[93.35698,23.31573]]]}}