{"type":"Feature","properties":{"id":"IND.6.8","name":"Jind","level":2,"country":"IND"},"geometry":{"type":"Polygon","coordinates":[[[76.21627,29.8407],[76.20614,29.84111],[76.19775,29.82738],[76.17855,29.81449],[76.15113,29.81296],[76.13322,29.79569],[76.12527,29.79594],[76.11504,29.80466],[76.10237,29.80709],[76.08947,29.80206],[76.08609,29.77751],[76.07016,29.76944],[76.05315,29.74508],[76.04731,29.74299],[76.03592,29.75194],[76.01548,29.74729],[75.98413,29.72876],[75.95392,29.73074],[75.94698,29.72929],[75.94475,29.70267],[75.93358,29.68431],[75.94291,29.68154],[75.95133,29.67019],[75.9487,29.6547],[75.94137,29.64109],[75.95666,29.62665],[75.95259,29.60036],[75.9614,29.59113],[75.96004,29.57634],[75.96321,29.56243],[75.9601,29.53761],[75.94945,29.51704],[75.93677,29.51034],[75.93404,29.49874],[75.95062,29.49394],[75.96148,29.49704],[75.98899,29.48869],[76.0065,29.48641],[76.01461,29.48054],[75.99688,29.447],[76.02045,29.43724],[76.02071,29.42723],[76.02814,29.4225],[76.04562,29.43222],[76.05201,29.43974],[76.07757,29.44132],[76.08518,29.41112],[76.09443,29.40361],[76.10825,29.407],[76.11859,29.4035],[76.12733,29.39328],[76.13491,29.3935],[76.14372,29.40917],[76.16221,29.41836],[76.16775,29.41338],[76.18799,29.41204],[76.20394,29.39572],[76.20735,29.381],[76.2074,29.36422],[76.19894,29.35997],[76.1791,29.34074],[76.21012,29.31919],[76.18912,29.29167],[76.18752,29.28596],[76.19894,29.27764],[76.21454,29.25581],[76.21245,29.24765],[76.22889,29.23871],[76.2263,29.21854],[76.25993,29.20721],[76.28132,29.20861],[76.30094,29.18813],[76.29623,29.17728],[76.29927,29.15536],[76.30653,29.14252],[76.306,29.12669],[76.31889,29.11621],[76.30227,29.09483],[76.30217,29.08585],[76.31464,29.08317],[76.32243,29.08727],[76.33817,29.0827],[76.3509,29.08311],[76.35921,29.07617],[76.38026,29.06553],[76.40312,29.07557],[76.44419,29.05538],[76.46248,29.0658],[76.47827,29.09204],[76.48645,29.11558],[76.48776,29.13096],[76.49968,29.1509],[76.51176,29.15585],[76.51293,29.16313],[76.49794,29.1753],[76.49139,29.20658],[76.47875,29.22212],[76.47748,29.23535],[76.48654,29.24045],[76.51289,29.23216],[76.52613,29.23152],[76.52558,29.2211],[76.54331,29.20975],[76.5606,29.20831],[76.56933,29.22641],[76.55498,29.25654],[76.56241,29.2711],[76.59067,29.24061],[76.60284,29.26558],[76.57858,29.28462],[76.59832,29.28016],[76.60583,29.2883],[76.62162,29.2846],[76.63501,29.27471],[76.66678,29.26385],[76.68287,29.26937],[76.67269,29.27856],[76.64496,29.2882],[76.63746,29.29735],[76.64251,29.30518],[76.63267,29.31447],[76.64904,29.33818],[76.64752,29.34949],[76.65018,29.36652],[76.67249,29.37546],[76.68637,29.37664],[76.69075,29.38351],[76.71133,29.38174],[76.7184,29.38649],[76.73531,29.38799],[76.74126,29.40655],[76.7318,29.41233],[76.74643,29.43323],[76.75545,29.45796],[76.7632,29.46563],[76.75565,29.46522],[76.74641,29.47758],[76.71833,29.48218],[76.71017,29.47429],[76.68858,29.47675],[76.68144,29.48264],[76.6499,29.48806],[76.64296,29.4742],[76.63387,29.46918],[76.60853,29.48055],[76.59578,29.47544],[76.58499,29.46453],[76.55721,29.46139],[76.5356,29.45632],[76.52376,29.46574],[76.52909,29.48102],[76.50373,29.48688],[76.4967,29.51524],[76.48821,29.52624],[76.48658,29.54161],[76.46334,29.54871],[76.4546,29.54679],[76.44885,29.5315],[76.43986,29.529],[76.43096,29.54489],[76.41482,29.5406],[76.41635,29.5342],[76.37394,29.52748],[76.36241,29.53576],[76.36106,29.54786],[76.34986,29.55526],[76.35938,29.56918],[76.35179,29.57978],[76.32924,29.57961],[76.31698,29.58587],[76.29864,29.58971],[76.2916,29.57685],[76.30185,29.5573],[76.28216,29.54672],[76.26698,29.55738],[76.26923,29.5724],[76.26022,29.58452],[76.24325,29.58865],[76.24139,29.6093],[76.23466,29.61898],[76.21885,29.62265],[76.21349,29.62952],[76.19492,29.64053],[76.19977,29.64738],[76.20331,29.66456],[76.19294,29.67943],[76.17045,29.68568],[76.17559,29.70739],[76.18447,29.71958],[76.18162,29.72686],[76.18516,29.73863],[76.20386,29.7572],[76.20261,29.76644],[76.21093,29.7813],[76.20818,29.7874],[76.21631,29.79763],[76.21983,29.81855],[76.21011,29.82385],[76.21627,29.8407]]]}}