{"type":"Feature","properties":{"id":"AGO.16.7","name":"Caconda","level":2,"country":"AGO"},"geometry":{"type":"Polygon","coordinates":[[[15.08883,-13.42008],[15.09369,-13.42244],[15.09733,-13.42244],[15.09855,-13.4248],[15.10219,-13.42599],[15.10462,-13.43071],[15.10462,-13.44016],[15.10219,-13.44488],[15.10097,-13.45787],[15.09855,-13.46259],[15.09855,-13.46613],[15.09369,-13.47794],[15.09126,-13.4803],[15.09126,-13.48266],[15.0864,-13.48857],[15.07305,-13.48857],[15.07184,-13.48975],[15.06334,-13.48975],[15.06334,-13.49093],[15.05362,-13.50037],[15.03298,-13.50627],[15.02206,-13.50982],[15.01234,-13.51926],[14.99778,-13.51926],[14.98321,-13.53106],[14.97471,-13.53343],[14.9565,-13.53343],[14.95043,-13.54287],[14.95043,-13.54641],[14.948,-13.54877],[14.94678,-13.55349],[14.94436,-13.55349],[14.94314,-13.55703],[14.94071,-13.55821],[14.93221,-13.55585],[14.92857,-13.55585],[14.92493,-13.55467],[14.92372,-13.55231],[14.92129,-13.55231],[14.92007,-13.54995],[14.91886,-13.54523],[14.91522,-13.53933],[14.91157,-13.5287],[14.90915,-13.52634],[14.90429,-13.52398],[14.89943,-13.52044],[14.88365,-13.52044],[14.88122,-13.5228],[14.87758,-13.5228],[14.87515,-13.52516],[14.87272,-13.52988],[14.87272,-13.53343],[14.8703,-13.53461],[14.8703,-13.54169],[14.86787,-13.54995],[14.86787,-13.55467],[14.86665,-13.55821],[14.86422,-13.56057],[14.86422,-13.56293],[14.85937,-13.56647],[14.85803,-13.56895],[14.86245,-13.58082],[14.86245,-13.58617],[14.86428,-13.59419],[14.86428,-13.60042],[14.86337,-13.60176],[14.86107,-13.60443],[14.86016,-13.60443],[14.85512,-13.60933],[14.84916,-13.612],[14.84366,-13.62002],[14.84228,-13.62581],[14.83999,-13.63071],[14.83678,-13.63561],[14.83541,-13.63917],[14.83587,-13.64407],[14.8377,-13.64674],[14.83816,-13.65075],[14.83724,-13.65788],[14.82578,-13.66946],[14.81891,-13.6699],[14.81433,-13.67213],[14.81204,-13.6748],[14.80837,-13.68415],[14.79829,-13.70375],[14.79599,-13.71488],[14.79645,-13.72645],[14.78775,-13.73625],[14.78225,-13.75762],[14.77812,-13.76385],[14.7717,-13.77008],[14.76666,-13.77987],[14.76208,-13.78165],[14.76437,-13.81236],[14.76162,-13.81236],[14.76116,-13.81325],[14.76116,-13.81904],[14.76437,-13.82839],[14.76804,-13.83462],[14.76895,-13.83773],[14.76895,-13.85242],[14.77033,-13.85331],[14.77675,-13.86131],[14.78225,-13.87155],[14.78225,-13.876],[14.78362,-13.87911],[14.77675,-13.87956],[14.77308,-13.88089],[14.75291,-13.88089],[14.74787,-13.88267],[14.74512,-13.88534],[14.74054,-13.88801],[14.73916,-13.88979],[14.73962,-13.89646],[14.74191,-13.89958],[14.74237,-13.9067],[14.73871,-13.9147],[14.73779,-13.92049],[14.74008,-13.9276],[14.74237,-13.93294],[14.74191,-13.94584],[14.74421,-13.95073],[14.74971,-13.95652],[14.75521,-13.96452],[14.75979,-13.96941],[14.7607,-13.97164],[14.76483,-13.97564],[14.7775,-14.01246],[14.7775,-14.01571],[14.7831,-14.01897],[14.78534,-14.02114],[14.79205,-14.0244],[14.80212,-14.02766],[14.80548,-14.02766],[14.81443,-14.03525],[14.82114,-14.0396],[14.82562,-14.04177],[14.83569,-14.04394],[14.84128,-14.04394],[14.84464,-14.04502],[14.84911,-14.04502],[14.85695,-14.0472],[14.87037,-14.0472],[14.87261,-14.04502],[14.87709,-14.04394],[14.88044,-14.04177],[14.88604,-14.04068],[14.89275,-14.04068],[14.90394,-14.03851],[14.91065,-14.03308],[14.91961,-14.02983],[14.93639,-14.02983],[14.93751,-14.02874],[14.94646,-14.0244],[14.95205,-14.01897],[14.95877,-14.00594],[14.96212,-14.00486],[14.96212,-14.0016],[14.96436,-14.00052],[14.96772,-13.99617],[14.96772,-13.994],[14.96996,-13.98966],[14.97108,-13.98532],[14.97555,-13.97663],[14.97891,-13.97446],[14.98115,-13.97011],[14.98786,-13.96577],[14.9901,-13.96143],[14.99233,-13.96034],[14.99569,-13.956],[15.00688,-13.94948],[15.01136,-13.9484],[15.01583,-13.94297],[15.01919,-13.94188],[15.02366,-13.93862],[15.03262,-13.93428],[15.03597,-13.93319],[15.04157,-13.92994],[15.05052,-13.92994],[15.05387,-13.93862],[15.05387,-13.95708],[15.05164,-13.9712],[15.05164,-13.98532],[15.04828,-13.99726],[15.04716,-14.00486],[15.04716,-14.0092],[15.04604,-14.0168],[15.0438,-14.02331],[15.04269,-14.02874],[15.04269,-14.03525],[15.04045,-14.04394],[15.03933,-14.04502],[15.03933,-14.05696],[15.04045,-14.05805],[15.04604,-14.05805],[15.05052,-14.05588],[15.05611,-14.05154],[15.05947,-14.05045],[15.06395,-14.0472],[15.07402,-14.03743],[15.07849,-14.03525],[15.07961,-14.032],[15.08297,-14.02874],[15.0852,-14.0244],[15.09304,-14.01571],[15.09975,-14.01354],[15.10311,-14.01354],[15.11542,-14.00812],[15.13779,-14.00812],[15.14451,-14.01246],[15.14898,-14.01354],[15.15346,-14.0168],[15.168,-14.02114],[15.19821,-14.02766],[15.20605,-14.032],[15.20605,-14.03634],[15.20717,-14.03743],[15.20717,-14.05696],[15.20828,-14.06022],[15.20828,-14.07216],[15.2094,-14.07542],[15.21276,-14.07976],[15.21612,-14.08193],[15.26423,-14.08193],[15.26983,-14.0841],[15.27318,-14.0841],[15.2743,-14.08627],[15.27766,-14.08735],[15.28325,-14.09386],[15.28885,-14.09821],[15.29892,-14.10255],[15.30787,-14.1058],[15.31234,-14.10689],[15.3336,-14.11557],[15.3392,-14.11557],[15.34367,-14.11774],[15.34591,-14.11991],[15.34815,-14.11991],[15.35151,-14.12208],[15.35486,-14.12208],[15.35822,-14.12425],[15.36158,-14.12425],[15.36717,-14.1275],[15.37724,-14.1275],[15.3806,-14.12316],[15.39626,-14.11557],[15.40298,-14.1058],[15.40298,-14.09821],[15.40633,-14.09495],[15.40633,-14.09278],[15.41305,-14.08735],[15.41752,-14.08301],[15.42088,-14.08084],[15.42088,-14.07433],[15.41081,-14.06782],[15.41081,-14.06022],[15.41417,-14.05696],[15.41752,-14.05588],[15.42759,-14.04828],[15.42983,-14.04394],[15.43207,-14.04285],[15.43319,-14.03634],[15.43766,-14.02983],[15.45445,-14.02006],[15.45668,-14.02006],[15.45892,-14.0168],[15.45892,-14.00703],[15.45668,-14.00594],[15.45445,-14.0016],[15.45333,-13.99726],[15.45333,-13.99074],[15.45892,-13.98423],[15.46004,-13.98097],[15.46228,-13.97989],[15.46564,-13.97337],[15.48242,-13.956],[15.48242,-13.95274],[15.48801,-13.94514],[15.48913,-13.94188],[15.49585,-13.93645],[15.50032,-13.92994],[15.50256,-13.92885],[15.50256,-13.92125],[15.50927,-13.90713],[15.51039,-13.88323],[15.51151,-13.88106],[15.51151,-13.86803],[15.5048,-13.85716],[15.5048,-13.85499],[15.50256,-13.85282],[15.50256,-13.84956],[15.50032,-13.8463],[15.50032,-13.83435],[15.50144,-13.83326],[15.50144,-13.81914],[15.50256,-13.80936],[15.5048,-13.80392],[15.5048,-13.78545],[15.50368,-13.78328],[15.52086,-13.75898],[15.51442,-13.75133],[15.51442,-13.74089],[15.51585,-13.73602],[15.51514,-13.72976],[15.51514,-13.7235],[15.51657,-13.72002],[15.51657,-13.71585],[15.518,-13.71446],[15.52158,-13.7075],[15.52301,-13.70611],[15.52516,-13.69985],[15.52516,-13.68663],[15.52373,-13.68454],[15.52373,-13.67411],[15.52588,-13.67132],[15.52659,-13.66576],[15.52659,-13.65532],[15.52731,-13.65462],[15.52731,-13.64836],[15.52874,-13.64558],[15.52874,-13.63583],[15.54284,-13.61587],[15.53725,-13.61587],[15.53165,-13.61696],[15.52718,-13.62131],[15.49249,-13.62131],[15.49249,-13.61587],[15.46452,-13.61587],[15.46228,-13.61696],[15.45557,-13.61696],[15.45333,-13.61804],[15.44549,-13.61804],[15.42871,-13.62457],[15.41528,-13.62566],[15.40969,-13.62783],[15.38843,-13.62783],[15.38395,-13.62674],[15.3806,-13.62348],[15.3806,-13.60064],[15.37836,-13.59521],[15.37836,-13.59085],[15.37612,-13.5865],[15.37612,-13.58215],[15.375,-13.58107],[15.375,-13.55061],[15.37277,-13.54082],[15.37277,-13.53103],[15.37165,-13.52994],[15.37165,-13.52559],[15.36941,-13.52342],[15.36829,-13.52015],[15.36829,-13.49839],[15.37053,-13.4973],[15.37053,-13.48098],[15.36941,-13.47881],[15.36941,-13.46793],[15.36717,-13.46249],[15.36493,-13.4614],[15.36158,-13.45378],[15.36158,-13.4516],[15.35934,-13.44725],[15.35822,-13.44072],[15.35598,-13.43854],[15.35486,-13.43093],[15.35374,-13.43093],[15.34479,-13.42222],[15.34255,-13.41569],[15.34255,-13.41134],[15.34032,-13.40698],[15.34032,-13.40372],[15.33472,-13.39066],[15.33248,-13.38848],[15.32465,-13.38412],[15.32465,-13.36235],[15.32241,-13.36018],[15.32018,-13.35691],[15.31906,-13.35256],[15.31682,-13.34929],[15.29314,-13.36357],[15.28741,-13.36636],[15.27739,-13.36845],[15.27381,-13.37054],[15.26593,-13.37751],[15.2645,-13.37751],[15.25734,-13.38447],[15.24874,-13.39144],[15.24588,-13.39423],[15.24087,-13.39632],[15.23514,-13.39632],[15.22655,-13.39771],[15.22225,-13.40259],[15.21652,-13.40607],[15.21151,-13.41303],[15.21151,-13.41443],[15.20578,-13.42139],[15.20077,-13.42418],[15.1936,-13.42627],[15.18716,-13.42697],[15.17069,-13.42697],[15.16353,-13.4207],[15.15852,-13.41164],[15.14348,-13.40885],[15.13488,-13.40398],[15.12701,-13.39632],[15.12629,-13.39423],[15.12557,-13.39214],[15.12557,-13.39005],[15.12343,-13.38796],[15.12056,-13.38726],[15.10767,-13.39353],[15.10338,-13.39423],[15.09049,-13.39423],[15.08619,-13.40328],[15.08547,-13.40607],[15.07791,-13.40827],[15.07912,-13.413],[15.08519,-13.41654],[15.0864,-13.4189],[15.08883,-13.42008]]]}}