{"type":"Feature","properties":{"id":"AGO.6.11","name":"Amboim (Gabela)","level":2,"country":"AGO"},"geometry":{"type":"Polygon","coordinates":[[[14.46421,-11.07477],[14.46756,-11.06819],[14.46756,-11.05501],[14.46644,-11.05391],[14.46309,-11.04622],[14.47651,-11.04622],[14.48099,-11.04842],[14.48547,-11.04842],[14.48659,-11.04952],[14.51008,-11.04952],[14.51008,-11.04732],[14.51344,-11.04403],[14.51344,-11.03195],[14.5112,-11.02975],[14.51008,-11.02426],[14.50449,-11.01657],[14.50449,-11.00449],[14.50896,-10.9968],[14.5112,-10.98911],[14.52687,-10.97264],[14.52687,-10.96824],[14.52799,-10.96714],[14.52799,-10.95726],[14.52575,-10.95176],[14.52575,-10.94298],[14.53246,-10.93089],[14.53694,-10.92869],[14.55708,-10.92869],[14.5761,-10.93529],[14.58505,-10.93529],[14.58617,-10.93089],[14.58953,-10.9254],[14.59848,-10.88475],[14.594,-10.88035],[14.59176,-10.87705],[14.57946,-10.86717],[14.57722,-10.86387],[14.57274,-10.86057],[14.56043,-10.84409],[14.56043,-10.84079],[14.55596,-10.8364],[14.54701,-10.8298],[14.54365,-10.8287],[14.54141,-10.8265],[14.53806,-10.82541],[14.53806,-10.82321],[14.53246,-10.81332],[14.53246,-10.81002],[14.53022,-10.80562],[14.52799,-10.80343],[14.52463,-10.79243],[14.52463,-10.76935],[14.51568,-10.76056],[14.51344,-10.76056],[14.51008,-10.75836],[14.50784,-10.75836],[14.49889,-10.75286],[14.49666,-10.75286],[14.48994,-10.74737],[14.48659,-10.74627],[14.48211,-10.74297],[14.45861,-10.71878],[14.44742,-10.71878],[14.43847,-10.71658],[14.43512,-10.71988],[14.434,-10.72538],[14.434,-10.73967],[14.43623,-10.74297],[14.43623,-10.74847],[14.434,-10.75066],[14.41274,-10.75616],[14.38029,-10.75616],[14.37805,-10.75506],[14.37134,-10.75506],[14.37022,-10.75726],[14.36462,-10.76166],[14.36239,-10.76605],[14.35903,-10.76825],[14.35455,-10.76935],[14.34784,-10.76935],[14.34448,-10.77045],[14.32658,-10.77045],[14.32658,-10.77155],[14.30085,-10.77155],[14.30085,-10.77265],[14.27287,-10.77265],[14.2684,-10.77155],[14.2628,-10.76825],[14.25721,-10.76715],[14.24826,-10.76715],[14.24042,-10.76495],[14.227,-10.76386],[14.22588,-10.76276],[14.21581,-10.76276],[14.21512,-10.76344],[14.21469,-10.78364],[14.22364,-10.79353],[14.23147,-10.79903],[14.23371,-10.80123],[14.24714,-10.80672],[14.24826,-10.80892],[14.25273,-10.80892],[14.25609,-10.81112],[14.25721,-10.81332],[14.25609,-10.81661],[14.25273,-10.81661],[14.24938,-10.81881],[14.24602,-10.81881],[14.24378,-10.82101],[14.23819,-10.82321],[14.23819,-10.84739],[14.24266,-10.85508],[14.24378,-10.85837],[14.24378,-10.86387],[14.23931,-10.86826],[14.23147,-10.87266],[14.22588,-10.87705],[14.22364,-10.88035],[14.2214,-10.88804],[14.21916,-10.89024],[14.21916,-10.89354],[14.21469,-10.89903],[14.21469,-10.90233],[14.20909,-10.91002],[14.20686,-10.91002],[14.19791,-10.91441],[14.19343,-10.91551],[14.19119,-10.91771],[14.18895,-10.91771],[14.18672,-10.91991],[14.18448,-10.91991],[14.17776,-10.9265],[14.17665,-10.93089],[14.17329,-10.93199],[14.17329,-10.93419],[14.16881,-10.93748],[14.16546,-10.93968],[14.16322,-10.93968],[14.14979,-10.95067],[14.1442,-10.95176],[14.14196,-10.95396],[14.13972,-10.95396],[14.13525,-10.95751],[14.13413,-10.96055],[14.13413,-10.97154],[14.13972,-10.97813],[14.14308,-10.97813],[14.15315,-10.98362],[14.15539,-10.98362],[14.16098,-10.98911],[14.16434,-10.99021],[14.17217,-10.9957],[14.17441,-10.9957],[14.17776,-10.999],[14.18336,-11.0001],[14.1856,-11.00119],[14.18895,-11.00229],[14.19455,-11.00559],[14.20462,-11.00778],[14.20686,-11.00998],[14.21357,-11.00998],[14.2214,-11.01328],[14.23035,-11.01328],[14.23147,-11.01108],[14.23707,-11.00888],[14.24154,-11.00888],[14.25161,-11.01657],[14.25609,-11.01767],[14.25721,-11.01987],[14.27175,-11.01987],[14.27847,-11.01657],[14.27959,-11.01108],[14.28294,-11.00888],[14.28742,-11.00449],[14.28854,-10.9968],[14.29413,-10.99131],[14.29749,-10.99021],[14.30644,-10.99021],[14.3098,-10.9946],[14.32099,-10.999],[14.32434,-11.00119],[14.32882,-11.00119],[14.32994,-11.00229],[14.33441,-11.00229],[14.33665,-11.00339],[14.34896,-11.00339],[14.35343,-11.00449],[14.35567,-11.00559],[14.35679,-11.01108],[14.36462,-11.01767],[14.36686,-11.01877],[14.37469,-11.02755],[14.37805,-11.02865],[14.37917,-11.03085],[14.38365,-11.03195],[14.38588,-11.03524],[14.38924,-11.03634],[14.39148,-11.03963],[14.39483,-11.04073],[14.39595,-11.04403],[14.40155,-11.04952],[14.40267,-11.05391],[14.40938,-11.0605],[14.4105,-11.0627],[14.41497,-11.06709],[14.42057,-11.07148],[14.4284,-11.07368],[14.43176,-11.07587],[14.46085,-11.07587],[14.46421,-11.07477]]]}}