{"type":"Feature","properties":{"id":"AGO.5.2","name":"Lucala","level":2,"country":"AGO"},"geometry":{"type":"Polygon","coordinates":[[[15.20101,-8.94024],[15.19931,-8.94489],[15.19885,-8.94897],[15.19197,-8.94806],[15.18601,-8.9553],[15.18601,-8.96119],[15.18739,-8.96345],[15.18739,-8.96662],[15.18693,-8.96798],[15.18235,-8.97296],[15.17272,-8.97341],[15.17135,-8.97432],[15.16768,-8.98247],[15.16493,-8.98563],[15.15943,-8.98609],[15.15714,-8.9888],[15.15485,-8.98971],[15.15164,-8.99333],[15.14981,-8.99424],[15.14202,-8.99424],[15.14018,-8.99514],[15.13423,-9.00103],[15.13377,-9.00284],[15.12277,-9.00103],[15.11773,-9.00963],[15.11681,-9.01325],[15.11314,-9.01642],[15.11314,-9.02004],[15.10856,-9.01868],[15.10764,-9.01732],[15.10489,-9.02094],[15.09756,-9.02049],[15.09389,-9.0223],[15.08839,-9.0309],[15.08427,-9.0309],[15.08244,-9.03271],[15.07648,-9.03497],[15.07235,-9.03859],[15.07098,-9.04538],[15.06456,-9.04765],[15.0609,-9.04991],[15.05888,-9.05373],[15.05507,-9.05344],[15.04861,-9.05547],[15.0305,-9.0638],[15.0334,-9.06575],[15.03523,-9.06801],[15.04348,-9.07118],[15.04486,-9.07299],[15.05127,-9.07525],[15.05127,-9.07842],[15.04898,-9.08204],[15.04898,-9.08431],[15.05173,-9.08612],[15.05173,-9.092],[15.04806,-9.09743],[15.04761,-9.10105],[15.05182,-9.10821],[15.06972,-9.10821],[15.07831,-9.10891],[15.07831,-9.11316],[15.07545,-9.11598],[15.07473,-9.12023],[15.07831,-9.12447],[15.07831,-9.12871],[15.07974,-9.13012],[15.07974,-9.1379],[15.08189,-9.14427],[15.08619,-9.14639],[15.09049,-9.14709],[15.0912,-9.15134],[15.0912,-9.15982],[15.09407,-9.16265],[15.09478,-9.16547],[15.09478,-9.17113],[15.08762,-9.17749],[15.08046,-9.17961],[15.07688,-9.17961],[15.07402,-9.18103],[15.0733,-9.18315],[15.0733,-9.1881],[15.06972,-9.19234],[15.06685,-9.19446],[15.06542,-9.19517],[15.06256,-9.19799],[15.06256,-9.20506],[15.06542,-9.20648],[15.069,-9.20648],[15.06972,-9.21354],[15.07545,-9.22061],[15.07545,-9.23334],[15.07974,-9.23758],[15.08547,-9.2397],[15.08762,-9.24182],[15.09478,-9.24182],[15.09621,-9.24323],[15.09621,-9.24747],[15.08332,-9.2503],[15.07473,-9.2503],[15.07115,-9.25313],[15.07115,-9.25737],[15.0733,-9.25878],[15.07616,-9.26302],[15.07473,-9.26585],[15.07187,-9.26726],[15.07258,-9.27362],[15.07258,-9.28069],[15.07115,-9.28281],[15.07115,-9.29412],[15.06972,-9.29624],[15.06972,-9.30119],[15.06757,-9.30543],[15.06757,-9.31461],[15.06972,-9.31673],[15.07043,-9.32521],[15.06542,-9.3351],[15.06542,-9.33652],[15.05683,-9.34076],[15.05396,-9.34358],[15.05396,-9.34853],[15.0554,-9.35206],[15.06471,-9.36266],[15.07402,-9.36831],[15.08046,-9.37043],[15.08046,-9.37467],[15.07903,-9.37609],[15.0733,-9.37891],[15.07187,-9.38033],[15.07043,-9.38174],[15.07043,-9.38598],[15.06685,-9.38951],[15.06471,-9.38951],[15.06256,-9.39304],[15.06256,-9.39658],[15.06399,-9.39728],[15.07043,-9.40081],[15.07616,-9.40081],[15.0776,-9.40152],[15.10338,-9.40152],[15.10311,-9.39344],[15.11877,-9.3835],[15.12772,-9.37578],[15.1322,-9.37467],[15.13891,-9.37467],[15.14003,-9.37357],[15.14674,-9.37357],[15.15346,-9.37136],[15.16912,-9.37136],[15.17024,-9.37026],[15.17472,-9.37026],[15.17584,-9.36915],[15.18479,-9.36915],[15.19374,-9.36695],[15.19933,-9.36695],[15.20045,-9.36584],[15.21164,-9.36584],[15.21276,-9.36474],[15.21724,-9.36474],[15.21947,-9.36253],[15.22171,-9.36253],[15.22507,-9.36032],[15.22619,-9.35811],[15.22731,-9.3548],[15.22731,-9.34818],[15.22843,-9.34707],[15.22843,-9.33493],[15.22954,-9.32941],[15.2329,-9.3261],[15.24073,-9.31064],[15.24073,-9.30622],[15.24185,-9.30401],[15.24185,-9.29849],[15.24409,-9.29187],[15.2508,-9.28303],[15.2508,-9.28082],[15.2564,-9.27641],[15.26087,-9.2742],[15.26423,-9.27088],[15.26759,-9.26978],[15.28325,-9.26978],[15.28437,-9.26868],[15.31123,-9.26868],[15.31458,-9.26757],[15.3213,-9.26757],[15.32465,-9.26536],[15.32801,-9.26536],[15.32913,-9.26315],[15.33472,-9.26095],[15.33696,-9.25874],[15.34144,-9.25763],[15.34815,-9.25211],[15.35262,-9.25101],[15.35598,-9.24769],[15.36829,-9.23996],[15.375,-9.23444],[15.37948,-9.23334],[15.38619,-9.22892],[15.39179,-9.22781],[15.40074,-9.22229],[15.41193,-9.21898],[15.41305,-9.21787],[15.42088,-9.21677],[15.42424,-9.21567],[15.42647,-9.21346],[15.42983,-9.21346],[15.43319,-9.21125],[15.43542,-9.21125],[15.4399,-9.20904],[15.44326,-9.20572],[15.45109,-9.20241],[15.45445,-9.2002],[15.45713,-9.1881],[15.4557,-9.18668],[15.45856,-9.18386],[15.46,-9.17961],[15.46572,-9.17466],[15.47861,-9.17184],[15.47933,-9.16596],[15.47861,-9.16406],[15.47503,-9.16123],[15.47002,-9.1584],[15.47002,-9.15204],[15.46358,-9.14285],[15.46358,-9.13932],[15.46572,-9.13861],[15.46501,-9.13225],[15.46214,-9.12871],[15.46143,-9.12447],[15.46,-9.12164],[15.45713,-9.11881],[15.45427,-9.1174],[15.44997,-9.11669],[15.44854,-9.11457],[15.44567,-9.11316],[15.44281,-9.11033],[15.4378,-9.10114],[15.43493,-9.09901],[15.42849,-9.09548],[15.41563,-9.08023],[15.41563,-9.07842],[15.41013,-9.06847],[15.406,-9.0662],[15.40371,-9.06349],[15.39454,-9.06032],[15.39134,-9.05715],[15.38859,-9.04991],[15.38859,-9.04176],[15.38767,-9.03588],[15.38675,-9.03497],[15.38675,-9.02637],[15.38767,-9.02321],[15.39225,-9.01551],[15.39088,-9.01234],[15.39088,-9.00691],[15.38996,-9.00103],[15.38813,-8.99876],[15.38492,-8.99242],[15.38446,-8.98971],[15.37896,-8.98971],[15.373,-8.99107],[15.36705,-8.99967],[15.35925,-9.00012],[15.3565,-8.99786],[15.3533,-8.99197],[15.3533,-8.98292],[15.34551,-8.98292],[15.34138,-8.98699],[15.33955,-8.99288],[15.33359,-8.99424],[15.33359,-8.9974],[15.33634,-9.00736],[15.33588,-9.00872],[15.33176,-9.00782],[15.32717,-9.00419],[15.32396,-9.00012],[15.3203,-8.99378],[15.31984,-8.99107],[15.31984,-8.98201],[15.31663,-8.9802],[15.3093,-8.97839],[15.30105,-8.97794],[15.29784,-8.97432],[15.29097,-8.97386],[15.28776,-8.96843],[15.2873,-8.96436],[15.28593,-8.96119],[15.27722,-8.96164],[15.27722,-8.96526],[15.27493,-8.96662],[15.26897,-8.96798],[15.26255,-8.97341],[15.25614,-8.97613],[15.25339,-8.98201],[15.24514,-8.98111],[15.24422,-8.97749],[15.24101,-8.97703],[15.24101,-8.96662],[15.24284,-8.96345],[15.23884,-8.96082],[15.2403,-8.95574],[15.24422,-8.95224],[15.24414,-8.94951],[15.24038,-8.94867],[15.23884,-8.94351],[15.24076,-8.93986],[15.24438,-8.94024],[15.24291,-8.93315],[15.23476,-8.93302],[15.22692,-8.93576],[15.22531,-8.93827],[15.218,-8.94032],[15.21193,-8.93872],[15.20954,-8.94404],[15.20539,-8.94373],[15.20101,-8.94024]]]}}