{"type":"Feature","properties":{"id":"AGO.1.1","name":"Capenda-Camulemba","level":2,"country":"AGO"},"geometry":{"type":"Polygon","coordinates":[[[18.38848,-9.10927],[18.38477,-9.10927],[18.38477,-9.11293],[18.38106,-9.11293],[18.38106,-9.11659],[18.37365,-9.11659],[18.37365,-9.12025],[18.36623,-9.12025],[18.36623,-9.12391],[18.35882,-9.12391],[18.3514,-9.13124],[18.34398,-9.13124],[18.34398,-9.1349],[18.34028,-9.1349],[18.34028,-9.13856],[18.33657,-9.13856],[18.33286,-9.14222],[18.32915,-9.14222],[18.32915,-9.14588],[18.32544,-9.14588],[18.27724,-9.17517],[18.26241,-9.17883],[18.2587,-9.18249],[18.24757,-9.18615],[18.24757,-9.18981],[18.24386,-9.19347],[18.24386,-9.20811],[18.24016,-9.20811],[18.24016,-9.21909],[18.23645,-9.22275],[18.23645,-9.26667],[18.23645,-9.29595],[18.24016,-9.29961],[18.24016,-9.30327],[18.24386,-9.30327],[18.25128,-9.31059],[18.25128,-9.31424],[18.25499,-9.3179],[18.25499,-9.32156],[18.2587,-9.32156],[18.26241,-9.32522],[18.26241,-9.32888],[18.26611,-9.33254],[18.26611,-9.3362],[18.26982,-9.33986],[18.26982,-9.34718],[18.27353,-9.35084],[18.27353,-9.36181],[18.27724,-9.36181],[18.27724,-9.3801],[18.28095,-9.38376],[18.28095,-9.40205],[18.28465,-9.40205],[18.28465,-9.40937],[18.28836,-9.41303],[18.28836,-9.42766],[18.29207,-9.43132],[18.29207,-9.44229],[18.29578,-9.44229],[18.29578,-9.45327],[18.29949,-9.45692],[18.30319,-9.45692],[18.30319,-9.46058],[18.31432,-9.47156],[18.31432,-9.47521],[18.31803,-9.47521],[18.31803,-9.47887],[18.32173,-9.47887],[18.32173,-9.48253],[18.34028,-9.50081],[18.34398,-9.50813],[18.34769,-9.51179],[18.35511,-9.51544],[18.35882,-9.52276],[18.36252,-9.52641],[18.36252,-9.53007],[18.36623,-9.53007],[18.36623,-9.53738],[18.36994,-9.54104],[18.36994,-9.5447],[18.37365,-9.54836],[18.37365,-9.55567],[18.37736,-9.55933],[18.37736,-9.56664],[18.38106,-9.57029],[18.38106,-9.57761],[18.38477,-9.57761],[18.38477,-9.58126],[18.38848,-9.58492],[18.38848,-9.58858],[18.39219,-9.59223],[18.39219,-9.59589],[18.3996,-9.6032],[18.3996,-9.60686],[18.40331,-9.61051],[18.40331,-9.61417],[18.40702,-9.62148],[18.41073,-9.62514],[18.41073,-9.63245],[18.41444,-9.63611],[18.41815,-9.63611],[18.41815,-9.64342],[18.42185,-9.64342],[18.42185,-9.65073],[18.42556,-9.65073],[18.42556,-9.65438],[18.42927,-9.65438],[18.42927,-9.65804],[18.43298,-9.6617],[18.43669,-9.6617],[18.43669,-9.66535],[18.44039,-9.66535],[18.44039,-9.66901],[18.44781,-9.67266],[18.45152,-9.67632],[18.45523,-9.67632],[18.45893,-9.67997],[18.46264,-9.67997],[18.47006,-9.68728],[18.47377,-9.68728],[18.47747,-9.69094],[18.48118,-9.69094],[18.48489,-9.69459],[18.4886,-9.69459],[18.49602,-9.7019],[18.49972,-9.7019],[18.49972,-9.70556],[18.50343,-9.70556],[18.50714,-9.70921],[18.51085,-9.70921],[18.51456,-9.71287],[18.51456,-9.71652],[18.52197,-9.71652],[18.52939,-9.72383],[18.5331,-9.72383],[18.54422,-9.72749],[18.54793,-9.72749],[18.55164,-9.73114],[18.56276,-9.73114],[18.56647,-9.7348],[18.57389,-9.7348],[18.57759,-9.73845],[18.58501,-9.73845],[18.58872,-9.74211],[18.59613,-9.74211],[18.59613,-9.74942],[18.59984,-9.74942],[18.59984,-9.75672],[18.61097,-9.76769],[18.61097,-9.775],[18.61467,-9.775],[18.61467,-9.78231],[18.61838,-9.78231],[18.61838,-9.78596],[18.62209,-9.78596],[18.6258,-9.79327],[18.6258,-9.79692],[18.62951,-9.80058],[18.62951,-9.80788],[18.63322,-9.80788],[18.63322,-9.81154],[18.63692,-9.81154],[18.63692,-9.8225],[18.64063,-9.82615],[18.64063,-9.83711],[18.64434,-9.84442],[18.64805,-9.84807],[18.64805,-9.85538],[18.65176,-9.85903],[18.65176,-9.86634],[18.65917,-9.87365],[18.65917,-9.8773],[18.66288,-9.88095],[18.66288,-9.88826],[18.66659,-9.88826],[18.66659,-9.89557],[18.674,-9.90287],[18.674,-9.90652],[18.67771,-9.91018],[18.67771,-9.91383],[18.68142,-9.91748],[18.68142,-9.92114],[18.68513,-9.92114],[18.68513,-9.92844],[18.68884,-9.93209],[18.68884,-9.9394],[18.69254,-9.94305],[18.69254,-9.95401],[18.69625,-9.95766],[18.69625,-9.96862],[18.69996,-9.96862],[18.69996,-9.98688],[18.69625,-9.98688],[18.69625,-10.00148],[18.69254,-10.00514],[18.69254,-10.01609],[18.68884,-10.01974],[18.68884,-10.03435],[18.68513,-10.03435],[18.68513,-10.038],[18.68142,-10.04165],[18.68142,-10.06721],[18.67771,-10.07086],[18.67771,-10.08181],[18.674,-10.08546],[18.674,-10.09276],[18.66659,-10.10007],[18.66659,-10.10372],[18.66288,-10.10737],[18.66288,-10.11102],[18.65176,-10.12197],[18.65176,-10.12562],[18.64805,-10.12927],[18.64434,-10.12927],[18.64063,-10.13292],[18.64063,-10.13657],[18.63692,-10.14022],[18.62951,-10.14022],[18.62951,-10.14387],[18.6258,-10.14387],[18.62209,-10.14752],[18.61838,-10.14752],[18.61467,-10.15117],[18.61467,-10.15482],[18.61097,-10.15482],[18.61097,-10.15847],[18.60355,-10.15847],[18.59984,-10.16212],[18.59613,-10.16212],[18.59613,-10.16577],[18.58872,-10.16577],[18.58872,-10.16942],[18.58501,-10.16942],[18.58501,-10.17307],[18.5813,-10.17307],[18.57759,-10.17672],[18.57389,-10.17672],[18.57389,-10.18037],[18.56647,-10.18767],[18.56647,-10.19132],[18.56276,-10.19132],[18.55905,-10.19497],[18.55905,-10.19862],[18.55535,-10.20227],[18.55535,-10.20592],[18.54793,-10.21322],[18.54793,-10.21686],[18.54422,-10.22051],[18.54422,-10.22781],[18.54051,-10.22781],[18.5368,-10.23146],[18.5368,-10.23511],[18.5331,-10.23876],[18.5331,-10.24606],[18.52939,-10.24606],[18.52939,-10.24971],[18.52568,-10.24971],[18.52197,-10.257],[18.52197,-10.26065],[18.51826,-10.26065],[18.51826,-10.26795],[18.51456,-10.26795],[18.51456,-10.2716],[18.50714,-10.2789],[18.50714,-10.28255],[18.50343,-10.28255],[18.50343,-10.28619],[18.49972,-10.28984],[18.49972,-10.29349],[18.49602,-10.29714],[18.49231,-10.29714],[18.49231,-10.30079],[18.4886,-10.30079],[18.4886,-10.30808],[18.48489,-10.31173],[18.48118,-10.31173],[18.47377,-10.31903],[18.47377,-10.32268],[18.47006,-10.32633],[18.46635,-10.32633],[18.46635,-10.32997],[18.46264,-10.33362],[18.46264,-10.34092],[18.45893,-10.34092],[18.45893,-10.35186],[18.45523,-10.35551],[18.45523,-10.3628],[18.45152,-10.36645],[18.45152,-10.41022],[18.45523,-10.41387],[18.45523,-10.41751],[18.46264,-10.41751],[18.46264,-10.42116],[18.46635,-10.42116],[18.47006,-10.42481],[18.47747,-10.42481],[18.48118,-10.42845],[18.48489,-10.42845],[18.48489,-10.4321],[18.51085,-10.4321],[18.51456,-10.43575],[18.56276,-10.43575],[18.56647,-10.4321],[18.57018,-10.4321],[18.57389,-10.42845],[18.6703,-10.42845],[18.674,-10.42481],[18.68884,-10.42481],[18.69254,-10.42116],[18.71479,-10.42116],[18.7185,-10.41751],[18.72963,-10.41751],[18.73704,-10.41387],[18.74446,-10.41387],[18.74446,-10.41022],[18.75187,-10.41022],[18.75187,-10.40657],[18.75929,-10.40657],[18.75929,-10.40292],[18.76671,-10.40292],[18.76671,-10.39928],[18.77042,-10.39928],[18.77412,-10.39563],[18.77783,-10.39563],[18.77783,-10.39198],[18.78525,-10.38469],[18.78896,-10.38469],[18.78896,-10.38104],[18.79266,-10.38104],[18.79637,-10.37739],[18.79637,-10.37375],[18.8075,-10.3628],[18.8112,-10.3628],[18.8112,-10.35916],[18.81491,-10.35916],[18.81491,-10.35551],[18.81862,-10.35186],[18.82233,-10.35186],[18.82233,-10.34821],[18.82604,-10.34821],[18.83345,-10.34092],[18.83716,-10.34092],[18.84087,-10.33727],[18.84087,-10.33362],[18.84458,-10.33362],[18.84458,-10.32997],[18.84829,-10.32997],[18.84829,-10.32633],[18.85199,-10.32633],[18.85199,-10.32268],[18.85941,-10.31538],[18.85941,-10.31173],[18.86312,-10.31173],[18.86312,-10.30808],[18.86683,-10.30444],[18.86683,-10.30079],[18.87053,-10.30079],[18.87424,-10.29714],[18.88166,-10.29714],[18.88166,-10.29349],[18.88537,-10.29349],[18.88907,-10.28984],[18.94099,-10.28984],[18.94099,-10.28619],[18.9447,-10.28619],[18.9484,-10.28255],[18.95211,-10.28255],[18.95211,-10.2789],[18.95582,-10.2789],[18.95582,-10.27525],[18.95953,-10.27525],[18.96324,-10.2716],[18.97436,-10.2716],[18.97807,-10.26795],[19.00773,-10.26795],[19.01144,-10.2643],[19.05594,-10.2643],[19.05594,-10.26065],[19.07077,-10.26065],[19.07448,-10.257],[19.0819,-10.257],[19.0819,-10.25336],[19.0856,-10.25336],[19.0856,-10.24606],[19.08931,-10.24606],[19.08931,-10.24241],[19.09302,-10.24241],[19.09302,-10.23876],[19.11527,-10.23876],[19.11898,-10.23511],[19.12268,-10.23511],[19.12268,-10.23146],[19.1301,-10.23146],[19.1301,-10.22781],[19.13381,-10.22781],[19.13752,-10.22416],[19.14123,-10.22416],[19.14123,-10.21686],[19.14493,-10.21686],[19.14493,-10.21322],[19.14864,-10.21322],[19.14864,-10.20957],[19.15606,-10.20957],[19.15977,-10.20592],[19.16347,-10.20592],[19.16347,-10.20227],[19.16718,-10.20227],[19.17089,-10.19862],[19.17831,-10.19862],[19.17831,-10.19497],[19.18572,-10.19497],[19.18572,-10.19132],[19.18943,-10.18767],[19.18943,-10.18402],[19.19314,-10.18037],[19.19314,-10.17672],[19.19685,-10.17307],[19.19685,-10.16942],[19.20055,-10.16942],[19.20426,-10.16577],[19.20797,-10.16577],[19.20797,-10.15847],[19.21539,-10.15847],[19.21539,-10.15482],[19.2191,-10.15482],[19.2191,-10.15117],[19.23022,-10.15117],[19.23022,-10.14752],[19.23393,-10.14752],[19.23393,-10.14387],[19.23764,-10.14387],[19.24134,-10.14022],[19.24505,-10.14022],[19.24876,-10.13657],[19.24876,-10.13292],[19.25247,-10.12927],[19.25618,-10.12927],[19.25618,-10.12562],[19.25988,-10.12562],[19.25988,-10.11832],[19.26359,-10.11832],[19.2673,-10.11467],[19.28584,-10.11467],[19.28584,-10.11102],[19.31921,-10.11102],[19.31921,-10.10737],[19.32663,-10.10737],[19.33034,-10.10372],[19.34146,-10.10372],[19.34517,-10.10007],[19.35259,-10.10007],[19.36,-10.09642],[19.36,-10.09276],[19.36742,-10.09276],[19.36742,-10.08911],[19.37484,-10.08911],[19.37484,-10.08546],[19.37854,-10.08546],[19.37854,-10.08181],[19.38225,-10.08181],[19.38225,-10.07816],[19.39338,-10.07816],[19.39338,-10.07086],[19.39708,-10.07086],[19.39708,-10.06356],[19.40079,-10.06356],[19.40079,-10.05991],[19.4045,-10.05991],[19.4045,-10.04895],[19.40821,-10.0453],[19.40821,-10.04239],[19.40821,-10.01609],[19.40079,-10.00879],[19.40079,-10.00514],[19.39708,-10.00514],[19.39708,-10.00148],[19.39338,-10.00148],[19.39338,-9.99418],[19.38596,-9.98688],[19.38596,-9.98322],[19.38225,-9.97957],[19.38225,-9.97227],[19.37854,-9.97227],[19.37854,-9.96131],[19.37484,-9.96131],[19.37484,-9.89557],[19.37113,-9.89191],[19.37113,-9.88461],[19.36371,-9.8773],[19.36,-9.86999],[19.3563,-9.86634],[19.3563,-9.85903],[19.35259,-9.85903],[19.35259,-9.84442],[19.34888,-9.84442],[19.34888,-9.83346],[19.34517,-9.82981],[19.34517,-9.78231],[19.34146,-9.78231],[19.34146,-9.775],[19.33775,-9.77134],[19.33775,-9.76403],[19.33405,-9.76403],[19.33405,-9.76038],[19.33034,-9.76038],[19.33034,-9.75672],[19.32663,-9.75672],[19.32663,-9.75307],[19.31921,-9.74942],[19.31921,-9.74576],[19.31551,-9.74576],[19.31551,-9.74211],[19.3118,-9.74211],[19.3118,-9.7348],[19.30809,-9.7348],[19.30438,-9.73114],[19.30438,-9.72749],[19.30067,-9.72383],[19.30067,-9.72018],[19.29326,-9.71287],[19.29326,-9.70921],[19.28955,-9.70556],[19.28955,-9.7019],[19.28584,-9.7019],[19.28584,-9.69825],[19.28213,-9.69825],[19.27472,-9.69094],[19.27472,-9.68728],[19.27101,-9.68363],[19.27101,-9.67997],[19.2673,-9.67997],[19.26359,-9.67632],[19.26359,-9.66901],[19.25988,-9.66901],[19.25988,-9.65804],[19.25618,-9.65804],[19.25618,-9.65073],[19.25247,-9.64707],[19.25247,-9.64342],[19.24876,-9.64342],[19.24876,-9.63611],[19.24505,-9.63245],[19.24505,-9.61783],[19.24134,-9.61783],[19.24134,-9.61051],[19.23764,-9.6032],[19.23764,-9.58492],[19.23393,-9.58492],[19.23393,-9.57395],[19.23022,-9.57029],[19.23022,-9.56298],[19.22651,-9.56298],[19.22651,-9.5447],[19.2228,-9.5447],[19.2228,-9.54104],[19.2191,-9.53738],[19.2191,-9.53007],[19.21539,-9.53007],[19.21539,-9.52641],[19.21168,-9.52641],[19.21168,-9.52276],[19.20797,-9.5191],[19.20797,-9.51544],[19.20426,-9.51179],[19.20426,-9.50081],[19.20055,-9.4935],[19.20055,-9.48619],[19.19685,-9.48253],[19.19685,-9.47887],[19.19314,-9.47887],[19.18943,-9.47521],[19.18572,-9.47521],[19.18572,-9.47156],[19.17831,-9.4679],[19.1746,-9.4679],[19.1746,-9.46424],[19.15977,-9.46424],[19.15977,-9.46058],[19.15606,-9.46058],[19.15235,-9.45692],[19.14864,-9.45692],[19.14864,-9.45327],[19.14493,-9.45327],[19.13752,-9.44595],[19.1301,-9.44229],[19.12639,-9.43864],[19.10414,-9.42766],[19.08931,-9.41669],[19.0856,-9.41669],[19.0856,-9.41303],[19.0819,-9.41303],[19.07819,-9.40937],[19.07448,-9.40937],[19.06706,-9.40205],[19.05965,-9.40205],[19.05223,-9.39474],[19.04481,-9.39474],[19.0374,-9.38742],[19.03369,-9.38742],[19.02998,-9.38376],[19.02627,-9.38376],[19.02627,-9.3801],[19.01886,-9.3801],[19.01886,-9.37645],[19.01515,-9.37645],[19.01515,-9.37279],[19.01144,-9.37279],[19.00773,-9.36913],[19.00032,-9.36913],[18.9929,-9.36181],[18.98178,-9.36181],[18.97436,-9.35449],[18.95953,-9.35449],[18.95582,-9.35084],[18.9484,-9.34718],[18.9447,-9.34718],[18.94099,-9.34352],[18.92986,-9.34352],[18.92616,-9.33986],[18.92245,-9.33986],[18.92245,-9.3362],[18.91503,-9.3362],[18.91132,-9.33254],[18.90761,-9.33254],[18.9002,-9.32522],[18.89278,-9.32522],[18.87424,-9.31424],[18.86312,-9.31424],[18.85941,-9.31059],[18.83345,-9.31059],[18.83345,-9.30693],[18.82974,-9.30693],[18.82233,-9.30327],[18.78896,-9.30327],[18.78525,-9.29961],[18.77042,-9.29961],[18.76671,-9.29595],[18.75187,-9.29595],[18.74817,-9.29229],[18.74446,-9.29229],[18.73704,-9.28863],[18.72221,-9.28863],[18.71479,-9.28497],[18.70738,-9.28497],[18.70367,-9.28131],[18.69996,-9.28131],[18.69625,-9.27765],[18.68142,-9.27765],[18.6703,-9.27033],[18.64434,-9.26301],[18.59984,-9.25569],[18.5813,-9.25569],[18.56276,-9.24837],[18.52568,-9.24105],[18.51826,-9.24105],[18.51456,-9.23739],[18.50714,-9.23739],[18.50714,-9.23373],[18.49972,-9.23373],[18.49972,-9.22641],[18.49602,-9.22641],[18.49602,-9.22275],[18.4886,-9.21909],[18.48489,-9.21177],[18.47747,-9.20811],[18.46635,-9.19713],[18.45893,-9.19347],[18.45523,-9.18249],[18.4441,-9.16052],[18.44039,-9.14954],[18.43298,-9.14222],[18.43298,-9.13124],[18.42927,-9.12391],[18.42927,-9.12025],[18.42556,-9.11659],[18.42556,-9.10561],[18.3996,-9.10561],[18.3959,-9.10927],[18.38848,-9.10927]]]}}