{"type":"Feature","properties":{"id":"AGO.1.7","name":"Cambulo","level":2,"country":"AGO"},"geometry":{"type":"Polygon","coordinates":[[[21.90925,-8.35],[21.91162,-8.34766],[21.91162,-8.34531],[21.914,-8.34296],[21.91637,-8.34296],[21.91874,-8.34061],[21.91874,-8.33826],[21.92349,-8.33357],[21.92586,-8.33357],[21.91162,-8.30774],[21.92824,-8.30774],[21.92586,-8.23728],[21.92349,-8.23024],[21.92349,-8.22554],[21.92112,-8.22319],[21.92112,-8.21614],[21.914,-8.2091],[21.90925,-8.20675],[21.9045,-8.20675],[21.9045,-8.2044],[21.89264,-8.1997],[21.88077,-8.18796],[21.87603,-8.18561],[21.87603,-8.18326],[21.87365,-8.18091],[21.87128,-8.18091],[21.87128,-8.17621],[21.86891,-8.17621],[21.86891,-8.16916],[21.86653,-8.16681],[21.86416,-8.15977],[21.86179,-8.15742],[21.85941,-8.15742],[21.85704,-8.15507],[21.85704,-8.15272],[21.85467,-8.15037],[21.85229,-8.15037],[21.84992,-8.14332],[21.84755,-8.14332],[21.8428,-8.13862],[21.8428,-8.13627],[21.83093,-8.12688],[21.82856,-8.12218],[21.82382,-8.11748],[21.82382,-8.11278],[21.82144,-8.11043],[21.8167,-8.09868],[21.81432,-8.09868],[21.81195,-8.09399],[21.81195,-8.08929],[21.8072,-8.08459],[21.80483,-8.07989],[21.80246,-8.07989],[21.80246,-8.07519],[21.79534,-8.06814],[21.79296,-8.06344],[21.79059,-8.06344],[21.79059,-8.04934],[21.78822,-8.04699],[21.78822,-8.04229],[21.78347,-8.03759],[21.78347,-8.03289],[21.77872,-8.02584],[21.77872,-8.02114],[21.77635,-8.02114],[21.77635,-8.01644],[21.7716,-8.00939],[21.7716,-7.99999],[21.76686,-7.99059],[21.76686,-7.98354],[21.76449,-7.98119],[21.76449,-7.97884],[21.75974,-7.97414],[21.75974,-7.97179],[21.75499,-7.96709],[21.75262,-7.96004],[21.75025,-7.96004],[21.75025,-7.95299],[21.74787,-7.95064],[21.74787,-7.92478],[21.75025,-7.92243],[21.75262,-7.92243],[21.75737,-7.91773],[21.75737,-7.91303],[21.75974,-7.91303],[21.75974,-7.90363],[21.76449,-7.89658],[21.76449,-7.88717],[21.76686,-7.88482],[21.76686,-7.87777],[21.76923,-7.87542],[21.7716,-7.87542],[21.7716,-7.82135],[21.77398,-7.819],[21.77398,-7.81429],[21.77635,-7.81194],[21.77635,-7.80489],[21.7811,-7.80019],[21.7811,-7.79548],[21.78584,-7.78843],[21.78584,-7.78373],[21.79059,-7.77902],[21.79059,-7.77432],[21.79296,-7.77432],[21.79296,-7.76727],[21.79771,-7.76256],[21.79771,-7.75786],[21.80008,-7.75786],[21.80008,-7.75081],[21.80246,-7.75081],[21.80246,-7.7461],[21.8072,-7.73905],[21.80958,-7.72024],[21.81195,-7.71318],[21.81432,-7.71083],[21.81432,-7.69907],[21.8167,-7.69672],[21.8167,-7.68261],[21.81907,-7.6779],[21.81907,-7.65674],[21.82382,-7.64968],[21.82382,-7.63792],[21.82619,-7.63086],[21.82856,-7.62851],[21.82856,-7.62381],[21.83331,-7.6191],[21.83331,-7.6144],[21.83568,-7.6144],[21.83805,-7.60734],[21.8428,-7.60028],[21.84517,-7.60028],[21.84517,-7.59558],[21.84992,-7.59088],[21.85704,-7.57911],[21.85704,-7.57441],[21.86179,-7.5697],[21.86179,-7.56265],[21.86653,-7.55559],[21.86653,-7.54853],[21.86891,-7.54853],[21.86891,-7.48971],[21.86653,-7.48736],[21.86416,-7.4803],[21.86416,-7.47559],[21.85941,-7.46853],[21.85941,-7.46147],[21.85704,-7.45912],[21.85704,-7.45206],[21.84755,-7.43559],[21.84755,-7.43088],[21.8428,-7.42618],[21.8428,-7.41676],[21.84043,-7.41206],[21.84043,-7.40735],[21.83805,-7.405],[21.83805,-7.40029],[21.83568,-7.39794],[21.83331,-7.39088],[21.83331,-7.38617],[21.82856,-7.38146],[21.82382,-7.36969],[21.81907,-7.36263],[21.81907,-7.34851],[21.8167,-7.34616],[21.8167,-7.33674],[21.8072,-7.32733],[21.80008,-7.32497],[21.80008,-7.32262],[21.78822,-7.31085],[21.78584,-7.31085],[21.78347,-7.30614],[21.77872,-7.30144],[21.77635,-7.30144],[21.77398,-7.29437],[21.7716,-7.29437],[21.76686,-7.28967],[21.75974,-7.28731],[21.42512,-7.28731],[21.42037,-7.28967],[21.37528,-7.28967],[21.37054,-7.29202],[21.34443,-7.29202],[21.34206,-7.29437],[21.33257,-7.29437],[21.32782,-7.29673],[21.31121,-7.29673],[21.30646,-7.29908],[21.24476,-7.29908],[21.23764,-7.29673],[21.22103,-7.29673],[21.21391,-7.29437],[21.19017,-7.29437],[21.19017,-7.29673],[21.19255,-7.29908],[21.19255,-7.30144],[21.19729,-7.3085],[21.19729,-7.3132],[21.19967,-7.31556],[21.20204,-7.32027],[21.20204,-7.33204],[21.20441,-7.33674],[21.20441,-7.34145],[21.20916,-7.35087],[21.20916,-7.35793],[21.21153,-7.36028],[21.21153,-7.37205],[21.21391,-7.37911],[21.21628,-7.38146],[21.21628,-7.39558],[21.21865,-7.40029],[21.21865,-7.42853],[21.21628,-7.43088],[21.21628,-7.4403],[21.21391,-7.44265],[21.21391,-7.4803],[21.21153,-7.48265],[21.21153,-7.49912],[21.20916,-7.50148],[21.20679,-7.50853],[21.20679,-7.51794],[21.20441,-7.5203],[21.20441,-7.52736],[21.20204,-7.52736],[21.19492,-7.53441],[21.19492,-7.53677],[21.19255,-7.53912],[21.19017,-7.53912],[21.19017,-7.54382],[21.17831,-7.55559],[21.17831,-7.56029],[21.17119,-7.56735],[21.17119,-7.57206],[21.16882,-7.57441],[21.16882,-7.57676],[21.16644,-7.57911],[21.1617,-7.58147],[21.15932,-7.58617],[21.15695,-7.58617],[21.15458,-7.59088],[21.14746,-7.59793],[21.14746,-7.60028],[21.14271,-7.60499],[21.14034,-7.60499],[21.13559,-7.60969],[21.13559,-7.6144],[21.13322,-7.6144],[21.13322,-7.6191],[21.13084,-7.6191],[21.12847,-7.62146],[21.12847,-7.62616],[21.1261,-7.62851],[21.1261,-7.63557],[21.12373,-7.63792],[21.12373,-7.65674],[21.12135,-7.66144],[21.12135,-7.70613],[21.11898,-7.71083],[21.11898,-7.73435],[21.11661,-7.7367],[21.11661,-7.7461],[21.11423,-7.74846],[21.11423,-7.75786],[21.10949,-7.76492],[21.10949,-7.76727],[21.10711,-7.77197],[21.10711,-7.77432],[21.10474,-7.77902],[21.10474,-7.78138],[21.10237,-7.78608],[21.09999,-7.78843],[21.09999,-7.79313],[21.09762,-7.80019],[21.09525,-7.80254],[21.09525,-7.81429],[21.09287,-7.81429],[21.09287,-7.82605],[21.0905,-7.8284],[21.0905,-7.85896],[21.09287,-7.86131],[21.09287,-7.87072],[21.09525,-7.87307],[21.09525,-7.88247],[21.09999,-7.88717],[21.09999,-7.89422],[21.10237,-7.89422],[21.10237,-7.90128],[21.10711,-7.90598],[21.10711,-7.91068],[21.11186,-7.91773],[21.11423,-7.92008],[21.11423,-7.92478],[21.11661,-7.92713],[21.11898,-7.93183],[21.12373,-7.93654],[21.12373,-7.93889],[21.1261,-7.94124],[21.1261,-7.94359],[21.13084,-7.94829],[21.13084,-7.95064],[21.13796,-7.95769],[21.13796,-7.96474],[21.14034,-7.96474],[21.14034,-7.97414],[21.14271,-7.97414],[21.14271,-7.98354],[21.14508,-7.98354],[21.14508,-7.99059],[21.14746,-7.99294],[21.14746,-8.02114],[21.14983,-8.02114],[21.14983,-8.02584],[21.1522,-8.02584],[21.1522,-8.03289],[21.15695,-8.03759],[21.15932,-8.04229],[21.1617,-8.04464],[21.1617,-8.04699],[21.17119,-8.05639],[21.17119,-8.06344],[21.17356,-8.06579],[21.17356,-8.07284],[21.17594,-8.07754],[21.17594,-8.12688],[21.17831,-8.12923],[21.17831,-8.17386],[21.18068,-8.17621],[21.18068,-8.18326],[21.18305,-8.18326],[21.18305,-8.1903],[21.18543,-8.19265],[21.18543,-8.20205],[21.1878,-8.2044],[21.1878,-8.2091],[21.19017,-8.21145],[21.19017,-8.25137],[21.19255,-8.25607],[21.19255,-8.26077],[21.19492,-8.26312],[21.19492,-8.27251],[21.19967,-8.27721],[21.19967,-8.27956],[21.20441,-8.28425],[21.20441,-8.2866],[21.21153,-8.29365],[21.21153,-8.30069],[21.21391,-8.30069],[21.21391,-8.41339],[21.21628,-8.41809],[21.21628,-8.44391],[21.21865,-8.44861],[21.21865,-8.46269],[21.22103,-8.46504],[21.22103,-8.47443],[21.2234,-8.47443],[21.2234,-8.48147],[21.22577,-8.48382],[21.22577,-8.49555],[21.22815,-8.4979],[21.22815,-8.50729],[21.23052,-8.50729],[21.23052,-8.51433],[21.23289,-8.51433],[21.23764,-8.51902],[21.23764,-8.52372],[21.24001,-8.52372],[21.2495,-8.53311],[21.2495,-8.53545],[21.25425,-8.53545],[21.25425,-8.5378],[21.26374,-8.54719],[21.26374,-8.54953],[21.26849,-8.55423],[21.26849,-8.55657],[21.27324,-8.55657],[21.27324,-8.55892],[21.28036,-8.56596],[21.28273,-8.56596],[21.28985,-8.573],[21.29459,-8.573],[21.29459,-8.57535],[21.30409,-8.57535],[21.30409,-8.5777],[21.34206,-8.5777],[21.34206,-8.57535],[21.35392,-8.57535],[21.3563,-8.573],[21.42275,-8.573],[21.42512,-8.57535],[21.48682,-8.57535],[21.4892,-8.573],[21.49394,-8.573],[21.49394,-8.57066],[21.50581,-8.57066],[21.50818,-8.56831],[21.5153,-8.56831],[21.52005,-8.56361],[21.52717,-8.56361],[21.52954,-8.56127],[21.53666,-8.56127],[21.54141,-8.55657],[21.54615,-8.55657],[21.55327,-8.54953],[21.55327,-8.54719],[21.55802,-8.54249],[21.56514,-8.54249],[21.56751,-8.54015],[21.57226,-8.54015],[21.577,-8.5378],[21.58412,-8.5378],[21.5865,-8.53545],[21.59124,-8.53545],[21.59362,-8.53311],[21.59836,-8.53311],[21.60311,-8.52841],[21.60786,-8.52841],[21.61735,-8.51902],[21.61735,-8.51668],[21.62209,-8.51198],[21.62209,-8.50729],[21.62447,-8.50729],[21.62447,-8.5026],[21.62684,-8.50025],[21.62684,-8.49555],[21.62921,-8.49321],[21.62921,-8.48851],[21.63159,-8.48617],[21.63159,-8.48147],[21.64108,-8.47208],[21.64108,-8.46973],[21.64583,-8.46973],[21.6482,-8.46739],[21.65295,-8.46739],[21.65769,-8.46269],[21.66481,-8.46269],[21.66718,-8.46035],[21.67193,-8.46035],[21.6743,-8.458],[21.68617,-8.458],[21.68854,-8.45565],[21.69329,-8.45565],[21.69329,-8.4533],[21.70041,-8.4533],[21.70278,-8.45096],[21.70753,-8.45096],[21.70753,-8.44861],[21.79059,-8.44861],[21.79534,-8.44391],[21.79534,-8.43922],[21.79771,-8.43922],[21.80008,-8.43687],[21.80008,-8.43218],[21.80246,-8.42983],[21.80483,-8.42513],[21.80958,-8.42044],[21.80958,-8.41809],[21.81432,-8.41339],[21.8167,-8.41339],[21.81907,-8.41105],[21.81907,-8.40635],[21.82144,-8.404],[21.82619,-8.404],[21.82619,-8.40166],[21.83093,-8.39696],[21.83093,-8.39461],[21.83568,-8.39461],[21.84043,-8.38992],[21.84517,-8.38992],[21.84517,-8.38757],[21.84992,-8.38757],[21.85704,-8.38053],[21.86179,-8.37818],[21.86416,-8.37583],[21.86416,-8.37348],[21.86653,-8.37114],[21.86891,-8.37114],[21.88077,-8.3594],[21.88314,-8.3594],[21.88789,-8.3547],[21.89738,-8.3547],[21.89738,-8.35235],[21.9045,-8.35235],[21.90688,-8.35],[21.90925,-8.35]]]}}