{"type":"Feature","properties":{"id":"AGO.15.6","name":"Londuimbale","level":2,"country":"AGO"},"geometry":{"type":"Polygon","coordinates":[[[15.06813,-12.56205],[15.07413,-12.56408],[15.07912,-12.56208],[15.08674,-12.56208],[15.08909,-12.55836],[15.09701,-12.55836],[15.09848,-12.55721],[15.0976,-12.55148],[15.10728,-12.54003],[15.11285,-12.53831],[15.11872,-12.53831],[15.12136,-12.53688],[15.12429,-12.53316],[15.12928,-12.52543],[15.13368,-12.52113],[15.13837,-12.51913],[15.14042,-12.51741],[15.14335,-12.50911],[15.14482,-12.50023],[15.14599,-12.4988],[15.18207,-12.47703],[15.1862,-12.47834],[15.18921,-12.47541],[15.19127,-12.46973],[15.19596,-12.46368],[15.20347,-12.46203],[15.20779,-12.45744],[15.21624,-12.45671],[15.22562,-12.45305],[15.22844,-12.45066],[15.23163,-12.44388],[15.23632,-12.4393],[15.24308,-12.43856],[15.24627,-12.43746],[15.24796,-12.43508],[15.2581,-12.43545],[15.2611,-12.43178],[15.26486,-12.42243],[15.28344,-12.42903],[15.28776,-12.42976],[15.29188,-12.42829],[15.29188,-12.42158],[15.29555,-12.41979],[15.3038,-12.41755],[15.31067,-12.41442],[15.31526,-12.41397],[15.3258,-12.40949],[15.32946,-12.40681],[15.33634,-12.39964],[15.33726,-12.39964],[15.44424,-12.35267],[15.49222,-12.33658],[15.55237,-12.34008],[15.57242,-12.34707],[15.60537,-12.34357],[15.62613,-12.33238],[15.6469,-12.33308],[15.65917,-12.34113],[15.66337,-12.33868],[15.66409,-12.33518],[15.66409,-12.32818],[15.66122,-12.32329],[15.65979,-12.31769],[15.65907,-12.31629],[15.65478,-12.30999],[15.64976,-12.30719],[15.64905,-12.3058],[15.6469,-12.303],[15.6469,-12.2911],[15.64905,-12.2869],[15.65549,-12.28131],[15.66051,-12.27851],[15.67053,-12.27851],[15.6734,-12.27991],[15.68056,-12.27991],[15.68127,-12.27851],[15.68629,-12.27641],[15.69273,-12.26941],[15.70857,-12.26163],[15.70732,-12.25712],[15.70732,-12.25165],[15.70508,-12.24947],[15.70173,-12.24947],[15.69054,-12.24509],[15.68159,-12.244],[15.66928,-12.23963],[15.66704,-12.23744],[15.66368,-12.23744],[15.66256,-12.23525],[15.65809,-12.23416],[15.65249,-12.22978],[15.64578,-12.22322],[15.64019,-12.21557],[15.63795,-12.21557],[15.63459,-12.21229],[15.629,-12.21229],[15.62005,-12.20901],[15.61781,-12.20901],[15.60774,-12.20245],[15.6055,-12.20245],[15.59767,-12.19698],[15.59207,-12.19151],[15.58983,-12.18713],[15.58983,-12.18495],[15.58648,-12.18167],[15.58312,-12.1762],[15.58312,-12.17073],[15.58088,-12.16745],[15.58088,-12.15213],[15.55627,-12.13135],[15.55067,-12.12916],[15.54732,-12.12916],[15.54508,-12.12697],[15.53613,-12.12588],[15.53053,-12.1226],[15.52606,-12.1226],[15.50256,-12.11056],[15.49808,-12.10947],[15.49025,-12.10291],[15.48801,-12.10291],[15.48578,-12.10072],[15.4813,-12.09853],[15.4634,-12.08102],[15.4634,-12.07884],[15.45892,-12.07337],[15.45892,-12.07008],[15.45557,-12.06789],[15.45557,-12.06571],[15.44997,-12.06461],[15.44997,-12.06352],[15.4399,-12.06023],[15.43542,-12.05805],[15.43319,-12.05586],[15.42983,-12.05476],[15.42088,-12.0471],[15.41752,-12.04492],[15.41417,-12.04054],[15.40969,-12.03616],[15.40857,-12.03288],[15.40633,-12.03288],[15.39291,-12.01537],[15.38507,-11.99457],[15.38507,-11.98582],[15.38395,-11.98472],[15.38395,-11.97816],[15.38284,-11.97706],[15.38284,-11.9683],[15.36493,-11.93547],[15.34327,-11.94173],[15.32752,-11.94173],[15.32179,-11.94453],[15.31606,-11.94873],[15.31176,-11.95434],[15.30389,-11.95784],[15.30174,-11.95784],[15.29458,-11.96064],[15.29028,-11.96485],[15.29028,-11.96835],[15.28741,-11.97395],[15.28741,-11.97816],[15.28383,-11.98586],[15.28383,-11.98796],[15.28169,-11.99427],[15.27882,-11.99987],[15.27023,-12.00618],[15.26163,-12.01038],[15.25877,-12.01108],[15.2466,-12.01108],[15.23872,-12.00898],[15.23227,-12.00898],[15.21938,-12.01318],[15.21652,-12.01528],[15.21437,-12.01528],[15.20793,-12.01878],[15.20363,-12.02018],[15.20005,-12.02018],[15.19146,-12.02369],[15.18215,-12.02579],[15.18,-12.02789],[15.16926,-12.03349],[15.15637,-12.03629],[15.14419,-12.03629],[15.14133,-12.03559],[15.13345,-12.03559],[15.13059,-12.03489],[15.11555,-12.03489],[15.11412,-12.03559],[15.11483,-12.03139],[15.09478,-12.03139],[15.09192,-12.03419],[15.08905,-12.03909],[15.08834,-12.0524],[15.08476,-12.0594],[15.08476,-12.0608],[15.07903,-12.06571],[15.07258,-12.06851],[15.06614,-12.07411],[15.04251,-12.10212],[15.03821,-12.11332],[15.03821,-12.11612],[15.03606,-12.11962],[15.03606,-12.12312],[15.03463,-12.12662],[15.01744,-12.15183],[15.01601,-12.15533],[15.01601,-12.17703],[15.01315,-12.18193],[15.01171,-12.18823],[15.00813,-12.19593],[15.00742,-12.20503],[14.98697,-12.21794],[14.98951,-12.22882],[14.98983,-12.23287],[14.99588,-12.24811],[14.99747,-12.27361],[14.99843,-12.2761],[15.00065,-12.28667],[15.00225,-12.29009],[15.0067,-12.31279],[15.00288,-12.35694],[15.0032,-12.36223],[15.00575,-12.37466],[15.01179,-12.39238],[15.01593,-12.39984],[15.01593,-12.40575],[15.02071,-12.41259],[15.02421,-12.41663],[15.02452,-12.42253],[15.02643,-12.42657],[15.03312,-12.42906],[15.04712,-12.42533],[15.04903,-12.4359],[15.04903,-12.44087],[15.05158,-12.4474],[15.05158,-12.45268],[15.05062,-12.45703],[15.05221,-12.45859],[15.05731,-12.45952],[15.0554,-12.46636],[15.05349,-12.46977],[15.05094,-12.47133],[15.04702,-12.47533],[15.04001,-12.47818],[15.03509,-12.48144],[15.03333,-12.48722],[15.03484,-12.48983],[15.03367,-12.49333],[15.03442,-12.49813],[15.04009,-12.50131],[15.04476,-12.50099],[15.0506,-12.50376],[15.05436,-12.5027],[15.05669,-12.50343],[15.05686,-12.50612],[15.06095,-12.50856],[15.06128,-12.51076],[15.06512,-12.51304],[15.07218,-12.51414],[15.05197,-12.53348],[15.05381,-12.5344],[15.05508,-12.54],[15.05731,-12.54466],[15.0589,-12.55025],[15.06813,-12.55491],[15.0694,-12.55833],[15.06813,-12.56205]]]}}