{"type":"Feature","properties":{"id":"MDA.14","name":"Comrat","level":1,"country":"MDA"},"geometry":{"type":"MultiPolygon","coordinates":[[[[28.50374,45.5661],[28.42584,45.56719],[28.352,45.589],[28.28048,45.58528],[28.27042,45.52147],[28.48093,45.50198],[28.50374,45.5661]]],[[[28.58563,46.50259],[28.47214,46.42637],[28.46563,46.37159],[28.51049,46.34792],[28.49328,46.26674],[28.49819,46.20814],[28.44336,46.16871],[28.44057,46.09688],[28.45866,46.08794],[28.53452,46.08148],[28.62221,45.96665],[28.66304,45.96779],[28.8283,46.00965],[28.88752,46.07665],[28.9162,46.16664],[28.9148,46.21832],[28.80918,46.24896],[28.80375,46.29614],[28.7437,46.34505],[28.76339,46.4174],[28.58563,46.50259]]],[[[28.39168,45.86552],[28.37995,45.83643],[28.30197,45.76057],[28.29665,45.71008],[28.33753,45.67055],[28.40088,45.66223],[28.4876,45.72194],[28.51493,45.80268],[28.44222,45.82612],[28.39168,45.86552]]]]}}