{"type":"Feature","properties":{"id":"MAR.3.1","name":"Province de Taounate إقليم تاونات","level":2,"country":"MAR"},"geometry":{"type":"Polygon","coordinates":[[[-4.75577,34.08292],[-4.72293,34.0641],[-4.69769,34.05279],[-4.66413,34.04306],[-4.63562,34.04361],[-4.60389,34.03919],[-4.57665,34.0435],[-4.56354,34.04245],[-4.56911,34.07122],[-4.58061,34.07008],[-4.59241,34.10368],[-4.57366,34.1042],[-4.55355,34.11978],[-4.53154,34.11863],[-4.53517,34.1361],[-4.52117,34.14075],[-4.51361,34.13272],[-4.49612,34.13849],[-4.49342,34.14625],[-4.47681,34.14365],[-4.442,34.1615],[-4.42525,34.15253],[-4.41349,34.15267],[-4.39788,34.17052],[-4.39913,34.18304],[-4.3745,34.19652],[-4.36724,34.20764],[-4.34154,34.22659],[-4.31287,34.24295],[-4.31973,34.25184],[-4.35263,34.27475],[-4.37632,34.28],[-4.39299,34.27758],[-4.39745,34.28907],[-4.43105,34.30216],[-4.46556,34.29178],[-4.45822,34.31777],[-4.45971,34.33018],[-4.43579,34.343],[-4.43873,34.35927],[-4.45701,34.42575],[-4.4483,34.43943],[-4.44405,34.46777],[-4.42643,34.47255],[-4.38687,34.50975],[-4.38922,34.5266],[-4.37574,34.53066],[-4.34219,34.53427],[-4.32717,34.54652],[-4.32552,34.56671],[-4.33419,34.59515],[-4.34131,34.60923],[-4.31858,34.61305],[-4.303,34.60791],[-4.26681,34.60842],[-4.24784,34.60454],[-4.21163,34.61238],[-4.20111,34.62287],[-4.18716,34.62673],[-4.13636,34.60871],[-4.08171,34.61684],[-4.0916,34.63326],[-4.10889,34.65089],[-4.1155,34.67],[-4.11059,34.69026],[-4.1448,34.72851],[-4.1434,34.74404],[-4.1548,34.75791],[-4.17059,34.75138],[-4.21177,34.76723],[-4.23513,34.79519],[-4.24805,34.80668],[-4.26098,34.79387],[-4.28815,34.77593],[-4.30443,34.76181],[-4.29364,34.7515],[-4.29739,34.73927],[-4.31237,34.73188],[-4.31503,34.72272],[-4.34255,34.71118],[-4.35435,34.71251],[-4.38082,34.70567],[-4.41615,34.7108],[-4.42095,34.69175],[-4.43694,34.67192],[-4.49271,34.6922],[-4.50568,34.70114],[-4.51877,34.69739],[-4.5408,34.70172],[-4.57299,34.6827],[-4.57782,34.69955],[-4.58855,34.71512],[-4.62782,34.72373],[-4.65906,34.7231],[-4.66629,34.71863],[-4.72386,34.71904],[-4.75429,34.73461],[-4.77842,34.75027],[-4.78746,34.77279],[-4.78757,34.80136],[-4.79218,34.82354],[-4.79057,34.84275],[-4.80696,34.83496],[-4.86305,34.8252],[-4.87492,34.82561],[-4.88494,34.8333],[-4.90822,34.82363],[-4.92112,34.81447],[-4.9509,34.80772],[-4.97548,34.79421],[-5.01788,34.79347],[-5.02081,34.8008],[-5.08004,34.78241],[-5.11213,34.77628],[-5.12462,34.7674],[-5.14494,34.76529],[-5.18109,34.73905],[-5.1856,34.70633],[-5.18076,34.69257],[-5.18867,34.66967],[-5.18315,34.6592],[-5.18064,34.61428],[-5.18213,34.60688],[-5.19621,34.59734],[-5.18145,34.59035],[-5.19771,34.55843],[-5.25861,34.55604],[-5.26711,34.54215],[-5.25619,34.53251],[-5.28082,34.51478],[-5.31515,34.5159],[-5.33154,34.50351],[-5.34459,34.48282],[-5.34365,34.45572],[-5.36073,34.44075],[-5.37961,34.44001],[-5.39388,34.41352],[-5.41715,34.40183],[-5.45562,34.39421],[-5.47008,34.38265],[-5.49565,34.37086],[-5.51539,34.37801],[-5.52887,34.37546],[-5.52713,34.36516],[-5.49309,34.34414],[-5.50444,34.33313],[-5.50477,34.32379],[-5.49264,34.31613],[-5.48236,34.32588],[-5.47189,34.3136],[-5.44305,34.30084],[-5.43873,34.27976],[-5.43175,34.27233],[-5.41418,34.27306],[-5.39798,34.26218],[-5.38353,34.27438],[-5.36277,34.25773],[-5.32632,34.26116],[-5.31657,34.27413],[-5.30618,34.26509],[-5.28167,34.26633],[-5.27167,34.27557],[-5.24719,34.28449],[-5.23287,34.27812],[-5.2295,34.29808],[-5.21627,34.29944],[-5.19829,34.30846],[-5.18831,34.31866],[-5.13331,34.30662],[-5.10923,34.28976],[-5.11275,34.27696],[-5.09806,34.26841],[-5.09198,34.27756],[-5.09786,34.28539],[-5.08786,34.29427],[-5.07003,34.29662],[-5.06468,34.27818],[-5.04875,34.2864],[-5.05199,34.30287],[-5.02856,34.29201],[-5.00815,34.29277],[-5.01003,34.28431],[-4.97322,34.29056],[-4.94174,34.27958],[-4.94571,34.26861],[-4.95739,34.26125],[-4.94961,34.25314],[-4.93775,34.25957],[-4.9103,34.25976],[-4.88792,34.25419],[-4.90599,34.24355],[-4.90499,34.23013],[-4.88907,34.21455],[-4.87915,34.21091],[-4.86163,34.21494],[-4.8563,34.22227],[-4.83789,34.23043],[-4.82399,34.2288],[-4.81647,34.20602],[-4.8002,34.19954],[-4.8021,34.18192],[-4.78477,34.17099],[-4.76387,34.16554],[-4.75783,34.14678],[-4.76063,34.11987],[-4.74837,34.09265],[-4.75577,34.08292]]]}}