{"type":"Feature","properties":{"id":"MAR.4.3","name":"Province de Sidi Kacem إقليم سيدي قاسم","level":2,"country":"MAR"},"geometry":{"type":"Polygon","coordinates":[[[-5.79338,34.21103],[-5.76797,34.16289],[-5.75142,34.15968],[-5.73041,34.16255],[-5.70133,34.17396],[-5.70658,34.14487],[-5.70455,34.12094],[-5.68403,34.11853],[-5.64833,34.11941],[-5.64191,34.12558],[-5.60447,34.12015],[-5.59449,34.1074],[-5.58198,34.10783],[-5.54213,34.1292],[-5.53457,34.13716],[-5.53148,34.15988],[-5.50352,34.15114],[-5.49089,34.1572],[-5.469,34.14743],[-5.46416,34.1651],[-5.45645,34.16507],[-5.44311,34.18454],[-5.4641,34.19134],[-5.47371,34.21206],[-5.464,34.22619],[-5.45091,34.23472],[-5.4362,34.2335],[-5.42255,34.25674],[-5.43175,34.27233],[-5.43873,34.27976],[-5.44305,34.30084],[-5.47189,34.3136],[-5.48236,34.32588],[-5.49264,34.31613],[-5.50477,34.32379],[-5.50444,34.33313],[-5.49309,34.34414],[-5.52713,34.36516],[-5.52887,34.37546],[-5.51539,34.37801],[-5.49565,34.37086],[-5.47008,34.38265],[-5.45562,34.39421],[-5.41715,34.40183],[-5.39388,34.41352],[-5.37961,34.44001],[-5.36073,34.44075],[-5.34365,34.45572],[-5.34459,34.48282],[-5.33154,34.50351],[-5.31515,34.5159],[-5.3439,34.52735],[-5.38939,34.53714],[-5.39485,34.52191],[-5.40892,34.53362],[-5.42773,34.53673],[-5.43527,34.55828],[-5.42939,34.57361],[-5.41274,34.58665],[-5.42204,34.60828],[-5.44482,34.62362],[-5.46149,34.62844],[-5.48926,34.63127],[-5.4942,34.63854],[-5.51415,34.645],[-5.5284,34.63861],[-5.54084,34.66812],[-5.5491,34.67281],[-5.55183,34.69364],[-5.57582,34.69329],[-5.5796,34.70775],[-5.59009,34.7216],[-5.60826,34.72088],[-5.63429,34.72604],[-5.62929,34.73626],[-5.64423,34.74006],[-5.66663,34.73435],[-5.66835,34.72639],[-5.6825,34.71269],[-5.70508,34.71128],[-5.71934,34.72706],[-5.72851,34.73047],[-5.74417,34.72655],[-5.75385,34.73533],[-5.77623,34.73484],[-5.79486,34.75075],[-5.78636,34.76186],[-5.78155,34.77786],[-5.78799,34.79365],[-5.78383,34.80387],[-5.78415,34.82496],[-5.79086,34.83523],[-5.82439,34.8348],[-5.82914,34.85192],[-5.85949,34.84283],[-5.86348,34.82966],[-5.87369,34.826],[-5.89999,34.82932],[-5.88262,34.79365],[-5.89002,34.76735],[-5.87224,34.72516],[-5.87156,34.68845],[-5.88403,34.65101],[-5.87959,34.64509],[-5.86163,34.64564],[-5.84807,34.63236],[-5.88968,34.61945],[-5.91422,34.62311],[-5.93319,34.64325],[-5.95579,34.65115],[-5.97173,34.65138],[-6.00669,34.64147],[-6.0212,34.62007],[-6.03627,34.61448],[-6.04983,34.62668],[-6.05662,34.60229],[-6.0763,34.60159],[-6.08686,34.59303],[-6.09647,34.60785],[-6.10592,34.60197],[-6.13516,34.61699],[-6.14337,34.61036],[-6.14219,34.5951],[-6.14847,34.59107],[-6.1651,34.59861],[-6.19198,34.56681],[-6.20798,34.55839],[-6.21279,34.5722],[-6.23374,34.55969],[-6.24002,34.55062],[-6.23468,34.5428],[-6.25174,34.53647],[-6.25043,34.51171],[-6.27524,34.53158],[-6.2924,34.51773],[-6.30599,34.52122],[-6.3069,34.50378],[-6.31268,34.49573],[-6.30014,34.49011],[-6.2761,34.48988],[-6.25447,34.47173],[-6.25692,34.44809],[-6.23385,34.46146],[-6.20549,34.46655],[-6.17191,34.45777],[-6.16569,34.43742],[-6.15273,34.43172],[-6.12948,34.43677],[-6.1066,34.41814],[-6.09268,34.41023],[-6.08983,34.39959],[-6.07503,34.39728],[-6.04556,34.38002],[-6.0373,34.36074],[-5.99906,34.36045],[-5.97922,34.36643],[-5.97532,34.35989],[-5.95817,34.35851],[-5.95,34.33651],[-5.94045,34.33398],[-5.92162,34.33797],[-5.90221,34.34613],[-5.88921,34.3473],[-5.87548,34.35482],[-5.86356,34.34492],[-5.8558,34.37114],[-5.85767,34.38201],[-5.88432,34.40402],[-5.90136,34.42324],[-5.9123,34.44709],[-5.90718,34.47042],[-5.88281,34.47328],[-5.88166,34.4568],[-5.86306,34.46202],[-5.86826,34.4741],[-5.8388,34.48892],[-5.82002,34.47939],[-5.82897,34.4626],[-5.82096,34.4593],[-5.80234,34.46255],[-5.79359,34.45901],[-5.80045,34.43537],[-5.79792,34.41823],[-5.78078,34.41683],[-5.76648,34.4225],[-5.75204,34.41498],[-5.74814,34.40128],[-5.75146,34.39026],[-5.71639,34.3816],[-5.70376,34.395],[-5.69855,34.38524],[-5.70396,34.37723],[-5.68954,34.35608],[-5.69272,34.34427],[-5.7067,34.33048],[-5.7298,34.33259],[-5.73787,34.34273],[-5.75443,34.33522],[-5.76035,34.35407],[-5.78316,34.35333],[-5.77578,34.34121],[-5.78895,34.29657],[-5.79599,34.30227],[-5.80068,34.2568],[-5.79074,34.25516],[-5.79338,34.21103]]]}}