{"type":"Feature","properties":{"id":"MAR.10.3","name":"Province de Figuig إقليم الناظور","level":2,"country":"MAR"},"geometry":{"type":"Polygon","coordinates":[[[-3.25177,31.71362],[-3.00062,31.75867],[-2.8207,31.79364],[-2.82192,31.8144],[-2.83252,31.82676],[-2.84415,31.83207],[-2.83707,31.85643],[-2.84232,31.88362],[-2.85507,31.90335],[-2.88365,31.93486],[-2.88189,31.95523],[-2.8852,31.96612],[-2.89949,31.97774],[-2.91654,32.01247],[-2.9282,32.02318],[-2.92813,32.04794],[-2.9156,32.07506],[-2.90376,32.08765],[-2.87343,32.11136],[-2.81982,32.11526],[-2.79877,32.11257],[-2.76366,32.11314],[-2.72856,32.11085],[-2.64907,32.11703],[-2.60003,32.11291],[-2.56918,32.1259],[-2.54244,32.14508],[-2.47525,32.15098],[-2.4486,32.15609],[-2.4323,32.15296],[-2.41918,32.15347],[-2.40649,32.15768],[-2.38772,32.15528],[-2.36075,32.15709],[-2.35106,32.15491],[-2.31432,32.15832],[-2.29993,32.1513],[-2.2871,32.1527],[-2.28642,32.16282],[-2.27761,32.16861],[-2.25935,32.16241],[-2.23161,32.15898],[-2.19033,32.14311],[-2.18024,32.14225],[-2.1325,32.14649],[-2.10241,32.15359],[-2.08772,32.16041],[-2.01492,32.18218],[-1.98864,32.17411],[-1.96858,32.15732],[-1.9445,32.15852],[-1.92678,32.15105],[-1.92075,32.16236],[-1.9034,32.16436],[-1.86838,32.14408],[-1.85598,32.14946],[-1.83817,32.14336],[-1.82996,32.14637],[-1.80156,32.13635],[-1.78365,32.13587],[-1.74886,32.12108],[-1.72652,32.12106],[-1.71213,32.11409],[-1.69679,32.11874],[-1.64668,32.10849],[-1.58031,32.09224],[-1.56558,32.09338],[-1.50478,32.10387],[-1.48335,32.09511],[-1.44983,32.09327],[-1.40995,32.08731],[-1.38234,32.08645],[-1.35725,32.09121],[-1.3382,32.08319],[-1.2807,32.08456],[-1.27261,32.0868],[-1.26135,32.0778],[-1.23961,32.07708],[-1.2213,32.07989],[-1.1959,32.08979],[-1.1926,32.0965],[-1.16454,32.10971],[-1.15236,32.11107],[-1.15288,32.12813],[-1.1648,32.13486],[-1.17248,32.15146],[-1.19191,32.16878],[-1.21719,32.17583],[-1.26493,32.16197],[-1.27634,32.1638],[-1.28775,32.15854],[-1.29934,32.16856],[-1.2822,32.17723],[-1.27262,32.18846],[-1.24112,32.20571],[-1.24816,32.25069],[-1.23483,32.28955],[-1.23749,32.31328],[-1.24872,32.32026],[-1.24545,32.32853],[-1.22121,32.34426],[-1.20582,32.39492],[-1.18892,32.40709],[-1.15504,32.41784],[-1.1224,32.41475],[-1.10385,32.4321],[-1.06814,32.45021],[-1.04699,32.47691],[-1.02053,32.49368],[-1.01195,32.50655],[-1.00066,32.50586],[-1.00026,32.51959],[-1.01009,32.53239],[-1.0449,32.54738],[-1.12876,32.60155],[-1.27112,32.69594],[-1.31226,32.71186],[-1.35641,32.7318],[-1.37668,32.7446],[-1.39899,32.76266],[-1.49828,32.89875],[-1.54378,32.95776],[-1.5106,32.96951],[-1.49645,32.9671],[-1.48593,32.97535],[-1.47229,33.00366],[-1.47673,33.0217],[-1.46176,33.04222],[-1.47547,33.07653],[-1.4994,33.0908],[-1.51462,33.09395],[-1.5346,33.10753],[-1.53916,33.11767],[-1.57605,33.14889],[-1.58035,33.16952],[-1.60673,33.21292],[-1.62893,33.22352],[-1.64167,33.246],[-1.65533,33.2559],[-1.67027,33.28408],[-1.65854,33.30144],[-1.6617,33.31842],[-1.65853,33.339],[-1.66377,33.35162],[-1.66355,33.37812],[-1.64602,33.42301],[-1.62793,33.43179],[-1.62127,33.44818],[-1.61758,33.47339],[-1.62177,33.48771],[-1.60618,33.49822],[-1.59543,33.52143],[-1.58816,33.52906],[-1.60066,33.54665],[-1.59302,33.56486],[-1.60124,33.57586],[-1.59646,33.58621],[-1.59955,33.61543],[-1.625,33.62506],[-1.63134,33.63142],[-1.64618,33.66971],[-1.67875,33.66024],[-1.73628,33.64692],[-1.78285,33.63941],[-1.8478,33.63842],[-1.90736,33.6431],[-2.05214,33.65882],[-2.12471,33.68857],[-2.15497,33.69158],[-2.21357,33.69323],[-2.25823,33.68558],[-2.29508,33.67275],[-2.32124,33.63998],[-2.45168,33.66285],[-2.56797,33.67758],[-2.62771,33.69448],[-2.658,33.69575],[-2.77468,33.68153],[-2.79859,33.66193],[-2.8189,33.62578],[-2.83983,33.59858],[-2.85509,33.53906],[-2.88912,33.49687],[-2.93993,33.46113],[-2.96707,33.42286],[-3.00575,33.37593],[-3.04644,33.348],[-2.9992,33.31764],[-2.93543,33.2557],[-2.90572,33.21653],[-2.899,33.19964],[-2.90695,33.17701],[-2.9415,33.15244],[-2.9785,33.13258],[-3.02867,33.1138],[-3.23413,33.07736],[-3.34091,33.05967],[-3.43584,33.05657],[-3.51461,33.08515],[-3.55965,33.09762],[-3.57562,33.10844],[-3.60351,33.09453],[-3.61699,33.07831],[-3.64969,33.05743],[-3.68275,33.02694],[-3.71296,32.97939],[-3.72741,32.94771],[-3.74986,32.9256],[-3.79887,32.89575],[-3.83034,32.86649],[-3.86818,32.82388],[-3.91125,32.76307],[-3.94745,32.71852],[-3.97854,32.68849],[-4.01593,32.64076],[-4.0149,32.61954],[-4.01816,32.60844],[-4.00295,32.57946],[-3.96393,32.55516],[-3.92072,32.53419],[-3.93953,32.50745],[-3.93261,32.47903],[-3.91602,32.45019],[-3.85485,32.40252],[-3.821,32.34537],[-3.81043,32.31591],[-3.80774,32.28171],[-3.8179,32.26418],[-3.81341,32.25665],[-3.78804,32.26109],[-3.77295,32.26373],[-3.75373,32.26113],[-3.74676,32.2432],[-3.75382,32.20219],[-3.67358,32.19689],[-3.63152,32.20045],[-3.60069,32.20509],[-3.58301,32.19833],[-3.61658,32.17216],[-3.63614,32.15274],[-3.64679,32.13662],[-3.63447,32.12134],[-3.61543,32.10945],[-3.56595,32.12709],[-3.54222,32.14263],[-3.51086,32.14723],[-3.48375,32.14372],[-3.42677,32.12688],[-3.37695,32.10942],[-3.33347,32.10606],[-3.30945,32.1258],[-3.2679,32.1473],[-3.19299,32.17684],[-3.26207,32.09237],[-3.27219,32.01075],[-3.26996,31.97129],[-3.24448,31.90588],[-3.19333,31.81254],[-3.18449,31.81453],[-3.18217,31.83121],[-3.11273,31.84014],[-3.15642,31.79673],[-3.1965,31.77217],[-3.25606,31.72818],[-3.25177,31.71362]]]}}