{"type":"Feature","properties":{"id":"MAR.11.8","name":"Chtouka-Ait Baha Province","level":2,"country":"MAR"},"geometry":{"type":"Polygon","coordinates":[[[-9.33083,30.31408],[-9.36216,30.32383],[-9.36533,30.31239],[-9.41116,30.31354],[-9.42816,30.31573],[-9.4489,30.32883],[-9.457,30.31777],[-9.43761,30.30372],[-9.43781,30.28805],[-9.45224,30.28111],[-9.4676,30.26144],[-9.50459,30.28171],[-9.53081,30.27893],[-9.55189,30.28434],[-9.62009,30.29494],[-9.62759,30.26533],[-9.63327,30.22652],[-9.64239,30.20526],[-9.63843,30.19494],[-9.64248,30.16901],[-9.65471,30.13446],[-9.65483,30.12159],[-9.66201,30.10933],[-9.66699,30.08844],[-9.69433,30.05103],[-9.71015,30.01735],[-9.73015,29.98406],[-9.73273,29.97324],[-9.76178,29.92826],[-9.76035,29.91445],[-9.76728,29.90751],[-9.74213,29.90963],[-9.70531,29.90365],[-9.66428,29.89962],[-9.64013,29.90366],[-9.60737,29.89655],[-9.60171,29.92795],[-9.5448,29.92936],[-9.5442,29.8949],[-9.50473,29.88843],[-9.49423,29.89069],[-9.48008,29.88208],[-9.47269,29.86981],[-9.45872,29.85787],[-9.4487,29.86721],[-9.43184,29.863],[-9.41313,29.83092],[-9.39265,29.83934],[-9.36293,29.83863],[-9.35039,29.83235],[-9.34514,29.81559],[-9.35241,29.80955],[-9.29838,29.80302],[-9.2633,29.80538],[-9.24731,29.78393],[-9.26983,29.7674],[-9.25318,29.74214],[-9.24424,29.74307],[-9.23933,29.75816],[-9.2075,29.76001],[-9.19427,29.74362],[-9.21436,29.74241],[-9.1921,29.72519],[-9.16899,29.71559],[-9.16638,29.69873],[-9.13427,29.70137],[-9.10912,29.69023],[-9.09666,29.70993],[-9.10125,29.729],[-9.09372,29.75047],[-9.06838,29.76711],[-9.05137,29.78133],[-9.03916,29.7974],[-9.01467,29.80789],[-8.9948,29.81029],[-8.996,29.83994],[-8.97472,29.84355],[-8.93484,29.84662],[-8.91431,29.85252],[-8.90638,29.85971],[-8.88947,29.89152],[-8.9418,29.94689],[-8.94916,29.95812],[-8.95961,29.98934],[-8.96386,30.02417],[-8.95881,30.03818],[-8.94153,30.05133],[-8.90317,30.07533],[-8.88163,30.095],[-8.93845,30.12275],[-8.98316,30.12764],[-8.99729,30.14991],[-8.99255,30.17029],[-9.01377,30.17505],[-9.03754,30.191],[-9.09006,30.22073],[-9.11429,30.24783],[-9.12886,30.2584],[-9.13788,30.25329],[-9.16337,30.26611],[-9.18483,30.26352],[-9.19118,30.25692],[-9.22081,30.26624],[-9.24818,30.26138],[-9.27247,30.27984],[-9.33083,30.31408]]]}}