{"type":"Feature","properties":{"id":"MAR.13.1","name":"Province de Safi إقليم أسفي","level":2,"country":"MAR"},"geometry":{"type":"Polygon","coordinates":[[[-9.46112,31.92196],[-9.43717,31.90237],[-9.4181,31.90452],[-9.41593,31.8871],[-9.40801,31.88576],[-9.39168,31.90529],[-9.38297,31.88563],[-9.34949,31.86454],[-9.3367,31.86191],[-9.32427,31.88226],[-9.30978,31.88921],[-9.26245,31.88903],[-9.25326,31.89495],[-9.22597,31.90095],[-9.21366,31.92404],[-9.19062,31.94016],[-9.15561,31.91794],[-9.12136,31.89114],[-9.10397,31.90091],[-9.0578,31.90414],[-9.0299,31.90813],[-9.01831,31.88056],[-9.01668,31.86088],[-9.02758,31.83519],[-9.04239,31.82048],[-9.02427,31.80316],[-9.0282,31.79372],[-9.01096,31.79237],[-9.00424,31.77704],[-8.98222,31.78094],[-8.96467,31.80515],[-8.9524,31.83855],[-8.95549,31.84205],[-8.93117,31.86397],[-8.9203,31.88135],[-8.92446,31.89758],[-8.9427,31.90583],[-8.92943,31.92336],[-8.89686,31.92827],[-8.8803,31.93993],[-8.88047,31.94663],[-8.8615,31.9767],[-8.84682,31.98508],[-8.82983,32.0142],[-8.84639,32.03857],[-8.84545,32.05035],[-8.85223,32.06593],[-8.83639,32.07127],[-8.8319,32.08621],[-8.83902,32.09007],[-8.86975,32.12009],[-8.85069,32.15127],[-8.83413,32.15927],[-8.8228,32.17162],[-8.8246,32.19566],[-8.81464,32.2075],[-8.81583,32.23455],[-8.80108,32.23807],[-8.78772,32.22664],[-8.76182,32.21976],[-8.73087,32.2364],[-8.71783,32.25955],[-8.70607,32.25781],[-8.68817,32.24619],[-8.67826,32.25883],[-8.63573,32.2676],[-8.62127,32.27828],[-8.60427,32.28192],[-8.59406,32.30194],[-8.55904,32.28975],[-8.55586,32.29724],[-8.54821,32.33211],[-8.5767,32.35099],[-8.5985,32.39026],[-8.62247,32.44886],[-8.62982,32.47938],[-8.63957,32.4916],[-8.66309,32.51321],[-8.68911,32.52533],[-8.71435,32.52279],[-8.73334,32.50738],[-8.76517,32.5076],[-8.77926,32.51383],[-8.79117,32.50936],[-8.80302,32.51199],[-8.82583,32.49944],[-8.85212,32.49424],[-8.87011,32.50121],[-8.88794,32.50288],[-8.93249,32.52267],[-8.93127,32.52975],[-8.95032,32.54432],[-8.97148,32.56844],[-8.99466,32.58057],[-9.00688,32.6099],[-9.01746,32.61628],[-9.0037,32.65587],[-8.98019,32.67414],[-9.04874,32.72192],[-9.05932,32.72101],[-9.09555,32.68437],[-9.12593,32.65831],[-9.17913,32.61742],[-9.27119,32.55319],[-9.28483,32.54225],[-9.27182,32.52848],[-9.27113,32.51627],[-9.26214,32.50408],[-9.24766,32.49539],[-9.23262,32.47957],[-9.23336,32.45796],[-9.24762,32.42586],[-9.24899,32.41639],[-9.26783,32.39247],[-9.2858,32.37619],[-9.29054,32.36248],[-9.28201,32.34791],[-9.28075,32.32993],[-9.25308,32.31971],[-9.24378,32.30038],[-9.25222,32.27297],[-9.26568,32.25175],[-9.25091,32.21861],[-9.25293,32.20035],[-9.26096,32.1754],[-9.28087,32.15391],[-9.32231,32.11295],[-9.31955,32.10339],[-9.32954,32.08456],[-9.32953,32.0666],[-9.34137,32.05198],[-9.34465,32.03353],[-9.37909,32.00244],[-9.43224,31.94725],[-9.46112,31.92196]]]}}