{"type":"Feature","properties":{"id":"LSO.8.3","name":"Tsoelikana","level":2,"country":"LSO"},"geometry":{"type":"Polygon","coordinates":[[[28.61027,-30.05256],[28.6165,-30.06209],[28.62718,-30.07176],[28.62758,-30.07711],[28.64891,-30.08255],[28.66314,-30.08285],[28.68629,-30.0794],[28.69711,-30.07336],[28.71809,-30.08344],[28.72459,-30.08214],[28.74866,-30.08908],[28.75069,-30.08731],[28.78263,-30.09622],[28.79566,-30.1047],[28.80698,-30.09735],[28.83074,-30.09704],[28.84293,-30.09241],[28.85597,-30.08964],[28.85951,-30.08647],[28.8578,-30.07767],[28.8691,-30.07724],[28.87861,-30.06971],[28.9025,-30.06584],[28.91103,-30.0592],[28.9188,-30.05798],[28.93553,-30.04976],[28.9415,-30.03605],[28.95953,-30.03861],[28.97929,-30.02992],[28.99042,-30.02796],[28.99179,-30.01998],[28.99875,-30.01058],[29.01916,-29.99761],[29.02506,-29.99922],[29.0341,-29.99195],[29.03321,-29.98696],[29.04463,-29.98225],[29.05088,-29.98219],[29.06796,-29.97232],[29.07237,-29.96458],[29.08207,-29.96642],[29.08939,-29.96024],[29.1045,-29.9672],[29.10319,-29.95696],[29.10647,-29.94619],[29.11474,-29.93667],[29.12765,-29.92911],[29.13747,-29.92899],[29.15051,-29.92417],[29.15539,-29.92548],[29.17003,-29.91554],[29.1655,-29.90798],[29.16342,-29.88376],[29.14819,-29.88317],[29.142,-29.874],[29.1458,-29.86764],[29.13718,-29.85978],[29.12379,-29.85544],[29.11236,-29.85401],[29.10171,-29.84829],[29.11629,-29.83978],[29.11754,-29.83348],[29.12908,-29.83133],[29.13188,-29.82497],[29.12402,-29.80515],[29.12599,-29.79319],[29.12974,-29.78947],[29.13134,-29.77194],[29.12396,-29.76742],[29.14003,-29.75926],[29.14098,-29.7501],[29.13629,-29.73906],[29.12985,-29.73614],[29.11944,-29.73801],[29.10556,-29.72943],[29.0931,-29.71532],[29.07419,-29.7166],[29.0594,-29.71254],[29.05068,-29.71386],[29.0415,-29.71007],[29.03091,-29.70934],[29.02853,-29.71391],[29.01735,-29.71792],[29.01602,-29.72897],[29.01082,-29.73486],[29.00315,-29.73719],[29.00064,-29.74801],[28.99342,-29.75007],[28.98406,-29.75984],[28.98869,-29.7692],[28.98367,-29.77691],[28.98566,-29.78134],[28.97536,-29.79009],[28.96727,-29.79158],[28.95959,-29.79973],[28.95293,-29.81027],[28.95394,-29.8205],[28.9584,-29.82583],[28.95632,-29.83074],[28.97007,-29.84312],[28.96233,-29.85032],[28.96929,-29.86561],[28.97548,-29.86823],[28.97115,-29.8773],[28.96018,-29.88458],[28.93736,-29.89064],[28.94083,-29.90591],[28.9231,-29.90847],[28.91715,-29.91511],[28.89442,-29.92172],[28.88507,-29.92111],[28.87331,-29.92388],[28.87968,-29.93504],[28.88647,-29.939],[28.89174,-29.95589],[28.89628,-29.96118],[28.8966,-29.97306],[28.89215,-29.98015],[28.89474,-29.99093],[28.90472,-29.9972],[28.91105,-30.00454],[28.92066,-30.00808],[28.92393,-30.01871],[28.90652,-30.01914],[28.9048,-30.03044],[28.89695,-30.02629],[28.90051,-30.01201],[28.89439,-30.01355],[28.88787,-30.02756],[28.86193,-30.02656],[28.86033,-30.03088],[28.84694,-30.02934],[28.85125,-30.04202],[28.85026,-30.04707],[28.83856,-30.04129],[28.83629,-30.03438],[28.82711,-30.04566],[28.81585,-30.04465],[28.81365,-30.03629],[28.80393,-30.03708],[28.7964,-30.03262],[28.80126,-30.02854],[28.79457,-30.02081],[28.78977,-30.0269],[28.78769,-30.03835],[28.78039,-30.03586],[28.78121,-30.02783],[28.76626,-30.02516],[28.74995,-30.02413],[28.74467,-30.02751],[28.73542,-30.01735],[28.72488,-30.02454],[28.71726,-30.02004],[28.71657,-30.00965],[28.7123,-30.00547],[28.7037,-30.0066],[28.70367,-29.99944],[28.7084,-29.99676],[28.70422,-29.98837],[28.69854,-29.99159],[28.68886,-29.98847],[28.67901,-29.99135],[28.67534,-30.00327],[28.6813,-30.01041],[28.67096,-30.01062],[28.66052,-30.00156],[28.64985,-30.00599],[28.64422,-30.01344],[28.6413,-30.02216],[28.63316,-30.02337],[28.62892,-30.02821],[28.63254,-30.03326],[28.64257,-30.0279],[28.64479,-30.03382],[28.61027,-30.05256]]]}}