{"type":"Feature","properties":{"id":"ITA.67.1","name":"Rieti","level":2,"country":"ITA"},"geometry":{"type":"Polygon","coordinates":[[[13.17723,42.40722],[13.15609,42.41519],[13.12243,42.44302],[13.13268,42.45755],[13.17751,42.47915],[13.17833,42.51311],[13.15673,42.54102],[13.177,42.55362],[13.17519,42.56849],[13.19148,42.58637],[13.2269,42.58315],[13.27932,42.58342],[13.29611,42.5707],[13.32268,42.57938],[13.34331,42.57477],[13.37281,42.57873],[13.39349,42.59087],[13.39405,42.62016],[13.4097,42.6366],[13.39941,42.64656],[13.3692,42.65023],[13.347,42.6716],[13.3579,42.69322],[13.31694,42.72419],[13.28413,42.73984],[13.25599,42.72281],[13.19182,42.73367],[13.19146,42.71088],[13.17546,42.69081],[13.17506,42.66707],[13.14631,42.64608],[13.13004,42.65944],[13.11685,42.65709],[13.10613,42.64026],[13.06138,42.62327],[13.03696,42.62774],[13.02374,42.63899],[13.01439,42.61966],[13.00536,42.61579],[12.95068,42.61859],[12.9367,42.6157],[12.93158,42.60407],[12.92073,42.60329],[12.89933,42.6147],[12.88065,42.60949],[12.87859,42.6],[12.89349,42.57951],[12.89308,42.56573],[12.84765,42.55288],[12.81802,42.53423],[12.77439,42.53127],[12.77159,42.51221],[12.72799,42.50882],[12.71465,42.49704],[12.73865,42.46865],[12.70328,42.46132],[12.69317,42.44884],[12.67552,42.44242],[12.64987,42.44231],[12.6199,42.452],[12.61103,42.43205],[12.61475,42.41442],[12.60652,42.40447],[12.57177,42.38444],[12.54685,42.38171],[12.52808,42.36492],[12.51237,42.37869],[12.51882,42.39727],[12.51275,42.40254],[12.47494,42.38748],[12.461,42.39834],[12.4388,42.39674],[12.44296,42.39609],[12.45632,42.37948],[12.45558,42.35841],[12.46304,42.33886],[12.4739,42.31554],[12.48792,42.29708],[12.52806,42.29038],[12.55805,42.28875],[12.58263,42.28404],[12.57836,42.26459],[12.60505,42.27405],[12.60544,42.26],[12.63162,42.24827],[12.63056,42.23653],[12.64233,42.2351],[12.63713,42.21011],[12.61363,42.20193],[12.61579,42.18195],[12.64505,42.16379],[12.64575,42.15299],[12.6535,42.15054],[12.67162,42.15905],[12.68951,42.15176],[12.7148,42.15535],[12.7439,42.16738],[12.76656,42.18781],[12.78949,42.18553],[12.79463,42.17756],[12.78034,42.16771],[12.84931,42.14355],[12.86178,42.1264],[12.86675,42.10374],[12.89799,42.10075],[12.9091,42.1135],[12.92236,42.11344],[12.95032,42.08947],[12.97721,42.12855],[12.99207,42.12957],[13.0317,42.12309],[13.06073,42.12394],[13.08623,42.14394],[13.09465,42.16029],[13.08798,42.17886],[13.12538,42.17746],[13.17062,42.15169],[13.19363,42.15923],[13.24775,42.12859],[13.27598,42.14035],[13.30621,42.13923],[13.32819,42.16483],[13.35549,42.16834],[13.3797,42.18037],[13.34238,42.19939],[13.33281,42.20915],[13.34199,42.21837],[13.33653,42.22338],[13.28303,42.23821],[13.25757,42.26578],[13.23556,42.27491],[13.22737,42.32031],[13.15483,42.35757],[13.19508,42.39017],[13.17723,42.40722]]]}}