{"type":"Feature","properties":{"id":"ITA.19.1","name":"Nuoro","level":2,"country":"ITA"},"geometry":{"type":"MultiPolygon","coordinates":[[[[9.22807,39.84191],[9.27204,39.85083],[9.27787,39.85838],[9.28312,39.87632],[9.27382,39.90397],[9.27899,39.92017],[9.28835,39.92706],[9.27852,39.94452],[9.28898,39.97982],[9.32147,39.99422],[9.31629,40.00987],[9.29646,40.02391],[9.29833,40.03642],[9.31819,40.03882],[9.32326,40.05687],[9.33638,40.0718],[9.36847,40.07238],[9.39156,40.09245],[9.4347,40.10429],[9.45594,40.14267],[9.47606,40.14858],[9.47972,40.16895],[9.49815,40.1858],[9.51715,40.1924],[9.52575,40.21843],[9.57656,40.19118],[9.5983,40.21642],[9.62772,40.22442],[9.62324,40.24834],[9.63214,40.27579],[9.68192,40.33653],[9.7257,40.37237],[9.76677,40.39263],[9.77402,40.42659],[9.79496,40.44085],[9.82775,40.51261],[9.82868,40.52846],[9.79596,40.54448],[9.79064,40.57068],[9.75377,40.59741],[9.74197,40.63177],[9.74923,40.65859],[9.73712,40.67136],[9.69339,40.67885],[9.68149,40.66735],[9.65012,40.69252],[9.60321,40.69684],[9.58324,40.70595],[9.55822,40.6761],[9.51146,40.64894],[9.49615,40.65091],[9.48681,40.64515],[9.46631,40.65576],[9.41878,40.65663],[9.41712,40.63629],[9.39188,40.61753],[9.37984,40.61705],[9.39144,40.59112],[9.36919,40.56979],[9.31471,40.54899],[9.28728,40.5264],[9.23722,40.53956],[9.18873,40.53649],[9.19017,40.51665],[9.18386,40.51211],[9.19502,40.50552],[9.22704,40.50144],[9.25716,40.51215],[9.27883,40.51078],[9.28157,40.476],[9.24977,40.4635],[9.22709,40.42739],[9.22549,40.41056],[9.18907,40.39051],[9.18357,40.37341],[9.11805,40.3588],[9.11296,40.35246],[9.05885,40.33539],[9.04068,40.3247],[9.0434,40.31377],[9.02761,40.30019],[8.99022,40.32408],[8.94887,40.36816],[8.90222,40.38757],[8.89801,40.4057],[8.86438,40.38978],[8.85607,40.392],[8.85372,40.40811],[8.83319,40.41203],[8.81684,40.40813],[8.81363,40.36716],[8.77998,40.3498],[8.73635,40.35233],[8.7278,40.34322],[8.71103,40.34152],[8.69185,40.33071],[8.67632,40.31234],[8.6593,40.31056],[8.64432,40.29704],[8.63629,40.31051],[8.62094,40.31734],[8.61231,40.31081],[8.62141,40.28316],[8.61881,40.2724],[8.6266,40.26414],[8.66653,40.24969],[8.67301,40.20415],[8.70992,40.21392],[8.71717,40.20602],[8.74293,40.20091],[8.74583,40.18261],[8.76763,40.19612],[8.7945,40.19172],[8.85516,40.21048],[8.90778,40.20789],[8.98486,40.21734],[9.0119,40.19919],[9.01437,40.1921],[8.99806,40.17991],[9.01835,40.14789],[9.01686,40.12621],[9.03196,40.09775],[9.03677,40.06314],[9.02742,40.03974],[8.99089,40.05771],[8.96798,40.04653],[8.94511,40.01912],[8.94582,40.00699],[8.95621,39.99314],[8.99346,39.98689],[9.00915,39.99149],[9.01754,39.98214],[8.99362,39.95725],[8.98343,39.91734],[9.03675,39.91251],[9.09283,39.8826],[9.10924,39.88199],[9.12843,39.88924],[9.15984,39.8561],[9.17227,39.85246],[9.17037,39.83057],[9.20763,39.82232],[9.22807,39.84191]]],[[[9.62848,40.22478],[9.62883,40.22478],[9.62877,40.22494],[9.62848,40.22478]]],[[[9.6279,40.21797],[9.62794,40.2179],[9.62815,40.21795],[9.6279,40.21797]]],[[[9.81644,40.53789],[9.8205,40.53898],[9.82125,40.54078],[9.81644,40.53789]]],[[[9.81603,40.53773],[9.81596,40.53759],[9.81625,40.53757],[9.81603,40.53773]]],[[[9.81759,40.53533],[9.81759,40.53523],[9.81787,40.53526],[9.81759,40.53533]]],[[[9.82256,40.54026],[9.82284,40.54041],[9.82258,40.54038],[9.82256,40.54026]]],[[[9.82199,40.54039],[9.82224,40.54038],[9.82215,40.54049],[9.82199,40.54039]]],[[[9.81349,40.53754],[9.81357,40.53805],[9.81303,40.53782],[9.81349,40.53754]]],[[[9.81724,40.5354],[9.81739,40.53537],[9.81733,40.53555],[9.81724,40.5354]]],[[[9.81553,40.53759],[9.81569,40.53737],[9.81579,40.53758],[9.81553,40.53759]]],[[[9.82234,40.54008],[9.82251,40.54016],[9.82238,40.54022],[9.82234,40.54008]]],[[[9.82192,40.49732],[9.82172,40.4973],[9.82187,40.4971],[9.82192,40.49732]]],[[[9.82928,40.52835],[9.82918,40.52833],[9.82926,40.52825],[9.82928,40.52835]]],[[[9.82873,40.52872],[9.82883,40.52877],[9.82876,40.52881],[9.82873,40.52872]]],[[[9.8289,40.52843],[9.8289,40.52833],[9.82899,40.52838],[9.8289,40.52843]]],[[[9.81611,40.53784],[9.81623,40.53778],[9.81622,40.53785],[9.81611,40.53784]]],[[[9.81629,40.53784],[9.81638,40.53794],[9.81626,40.538],[9.81629,40.53784]]],[[[9.82218,40.54056],[9.82229,40.54065],[9.82217,40.54071],[9.82218,40.54056]]],[[[9.81255,40.53819],[9.81274,40.53832],[9.81243,40.53838],[9.81255,40.53819]]],[[[9.82401,40.49628],[9.82388,40.49626],[9.82399,40.49606],[9.82401,40.49628]]],[[[9.82129,40.49469],[9.8216,40.49449],[9.82151,40.49485],[9.82129,40.49469]]],[[[9.82891,40.52823],[9.82893,40.52816],[9.829,40.5282],[9.82891,40.52823]]],[[[9.82259,40.54008],[9.82264,40.54003],[9.82266,40.54011],[9.82259,40.54008]]],[[[9.82194,40.54001],[9.82201,40.53996],[9.82201,40.54005],[9.82194,40.54001]]],[[[9.82243,40.53994],[9.82253,40.53991],[9.82252,40.53999],[9.82243,40.53994]]]]}}