{"type":"Feature","properties":{"id":"PER.7.12","name":"Calca","level":2,"country":"PER"},"geometry":{"type":"Polygon","coordinates":[[[-71.90035,-12.73336],[-71.91821,-12.72017],[-71.91778,-12.69891],[-71.92856,-12.69916],[-71.95166,-12.69076],[-71.96489,-12.69358],[-71.9786,-12.68333],[-71.97102,-12.67198],[-71.97009,-12.66214],[-71.95613,-12.65446],[-71.95954,-12.63846],[-71.96506,-12.63197],[-71.96937,-12.61091],[-71.98421,-12.60817],[-71.9814,-12.58049],[-71.99244,-12.57754],[-72.00804,-12.56042],[-72.00799,-12.55098],[-72.02883,-12.52637],[-72.03871,-12.5254],[-72.05185,-12.51866],[-72.05196,-12.51177],[-72.06528,-12.50672],[-72.07113,-12.51148],[-72.07539,-12.5176],[-72.09072,-12.51625],[-72.09745,-12.52644],[-72.10747,-12.53287],[-72.11117,-12.54008],[-72.12451,-12.5485],[-72.12069,-12.56529],[-72.12135,-12.57876],[-72.12917,-12.59123],[-72.13538,-12.61697],[-72.14178,-12.6264],[-72.16043,-12.64029],[-72.17915,-12.64773],[-72.18577,-12.65714],[-72.20319,-12.65613],[-72.21435,-12.66304],[-72.22457,-12.66513],[-72.23731,-12.65944],[-72.25648,-12.65811],[-72.26818,-12.65343],[-72.28396,-12.65566],[-72.31401,-12.64999],[-72.33381,-12.63628],[-72.36577,-12.63104],[-72.36993,-12.63863],[-72.36442,-12.64558],[-72.34744,-12.657],[-72.33796,-12.65773],[-72.32168,-12.66942],[-72.34153,-12.68456],[-72.35296,-12.68664],[-72.35145,-12.69448],[-72.35776,-12.70374],[-72.36289,-12.71856],[-72.3626,-12.75554],[-72.36625,-12.76754],[-72.36437,-12.78158],[-72.35523,-12.78878],[-72.36117,-12.80471],[-72.36226,-12.82441],[-72.35512,-12.83844],[-72.35516,-12.84506],[-72.34498,-12.85727],[-72.33392,-12.86473],[-72.33814,-12.87856],[-72.334,-12.88884],[-72.32234,-12.9028],[-72.3204,-12.91445],[-72.31194,-12.92365],[-72.29487,-12.93432],[-72.28727,-12.92964],[-72.27962,-12.93889],[-72.27094,-12.93655],[-72.24813,-12.94882],[-72.2381,-12.94949],[-72.22147,-12.9566],[-72.22283,-12.96227],[-72.21477,-12.98218],[-72.21371,-12.99563],[-72.19965,-13.00409],[-72.18229,-13.00672],[-72.18063,-13.01689],[-72.16932,-13.02424],[-72.17683,-13.05512],[-72.18436,-13.06238],[-72.18038,-13.07147],[-72.19063,-13.09615],[-72.17844,-13.10917],[-72.17021,-13.10994],[-72.16245,-13.12073],[-72.16446,-13.12864],[-72.15692,-13.13299],[-72.14895,-13.15499],[-72.15007,-13.17495],[-72.1379,-13.18061],[-72.13079,-13.19183],[-72.09831,-13.18897],[-72.08863,-13.19268],[-72.05956,-13.21499],[-72.05339,-13.25043],[-72.04703,-13.25656],[-72.04404,-13.2918],[-72.0385,-13.3079],[-72.03989,-13.31615],[-72.03438,-13.32451],[-72.02536,-13.31584],[-72.01121,-13.32736],[-72.00709,-13.33899],[-71.99291,-13.35689],[-71.98477,-13.37859],[-71.97413,-13.38284],[-71.96892,-13.39794],[-71.9739,-13.42276],[-71.98022,-13.4295],[-71.96194,-13.43972],[-71.93884,-13.44259],[-71.92923,-13.43607],[-71.92446,-13.45933],[-71.93167,-13.4676],[-71.90385,-13.48127],[-71.88379,-13.4978],[-71.87208,-13.49925],[-71.85522,-13.49593],[-71.84286,-13.49056],[-71.82792,-13.49571],[-71.81245,-13.50719],[-71.80463,-13.50826],[-71.7796,-13.52563],[-71.76936,-13.54652],[-71.76159,-13.54939],[-71.75013,-13.56175],[-71.74599,-13.57527],[-71.73875,-13.57145],[-71.73238,-13.56054],[-71.71952,-13.55247],[-71.72074,-13.53146],[-71.72494,-13.51656],[-71.7264,-13.49386],[-71.73805,-13.47687],[-71.72872,-13.46906],[-71.73616,-13.46266],[-71.72573,-13.4568],[-71.73962,-13.44709],[-71.74692,-13.43184],[-71.7465,-13.42093],[-71.72509,-13.42081],[-71.72774,-13.40646],[-71.73968,-13.38559],[-71.74909,-13.37854],[-71.75479,-13.36564],[-71.76377,-13.35671],[-71.78326,-13.34282],[-71.79453,-13.31738],[-71.80546,-13.31418],[-71.8213,-13.3196],[-71.82835,-13.30834],[-71.838,-13.30127],[-71.83121,-13.28929],[-71.83,-13.27883],[-71.84306,-13.26596],[-71.84778,-13.25016],[-71.86418,-13.22705],[-71.85482,-13.20657],[-71.85958,-13.1963],[-71.86658,-13.19363],[-71.87342,-13.18181],[-71.87136,-13.17528],[-71.88006,-13.15308],[-71.86236,-13.13684],[-71.86324,-13.12559],[-71.88044,-13.11568],[-71.88589,-13.10957],[-71.87848,-13.09842],[-71.8869,-13.09405],[-71.88946,-13.08443],[-71.88742,-13.06464],[-71.88889,-13.05349],[-71.90311,-13.04427],[-71.90637,-13.02079],[-71.89754,-13.01677],[-71.88057,-12.99281],[-71.8689,-12.99509],[-71.8501,-12.98601],[-71.84779,-12.96664],[-71.83544,-12.96261],[-71.8285,-12.95423],[-71.82849,-12.93755],[-71.82393,-12.93152],[-71.82908,-12.92078],[-71.84122,-12.91918],[-71.85284,-12.89339],[-71.86468,-12.8888],[-71.86569,-12.87282],[-71.87701,-12.86391],[-71.87634,-12.84128],[-71.89141,-12.83321],[-71.89589,-12.81993],[-71.89481,-12.81108],[-71.87753,-12.79579],[-71.89222,-12.78788],[-71.89379,-12.77782],[-71.90306,-12.77252],[-71.9062,-12.76179],[-71.91776,-12.75638],[-71.91041,-12.74408],[-71.90089,-12.73951],[-71.90035,-12.73336]]]}}