{"type":"Feature","properties":{"id":"PER.17.6","name":"San Martin","level":2,"country":"PER"},"geometry":{"type":"Polygon","coordinates":[[[-75.91655,-6.14076],[-75.91621,-6.16099],[-75.92932,-6.17732],[-75.93395,-6.21477],[-75.95635,-6.24837],[-75.97279,-6.26675],[-75.97824,-6.28136],[-75.97753,-6.29779],[-75.97347,-6.30486],[-75.9521,-6.32475],[-75.94142,-6.3448],[-75.9292,-6.35684],[-75.92274,-6.36732],[-75.92648,-6.37635],[-75.91903,-6.38625],[-75.92654,-6.3938],[-75.92579,-6.40005],[-75.91329,-6.41529],[-75.90187,-6.44101],[-75.90127,-6.4587],[-75.9208,-6.46369],[-75.94146,-6.4644],[-75.95035,-6.4791],[-75.95406,-6.49047],[-75.96929,-6.48879],[-75.97909,-6.49947],[-75.98942,-6.50011],[-75.99914,-6.49486],[-76.00728,-6.49863],[-76.02892,-6.48594],[-76.07074,-6.47243],[-76.08443,-6.47842],[-76.1128,-6.47617],[-76.119,-6.48705],[-76.12503,-6.4874],[-76.13258,-6.4995],[-76.14736,-6.49732],[-76.15594,-6.49913],[-76.16135,-6.5064],[-76.18357,-6.49842],[-76.18279,-6.48254],[-76.19765,-6.47478],[-76.18075,-6.45956],[-76.18454,-6.42745],[-76.19663,-6.42972],[-76.21486,-6.42722],[-76.22205,-6.42093],[-76.23723,-6.42024],[-76.24504,-6.42683],[-76.26985,-6.42647],[-76.27356,-6.41779],[-76.28158,-6.41371],[-76.29139,-6.40318],[-76.31579,-6.36566],[-76.33393,-6.34914],[-76.35892,-6.33941],[-76.36826,-6.35483],[-76.37959,-6.3913],[-76.38707,-6.39516],[-76.4108,-6.38],[-76.42548,-6.3813],[-76.43332,-6.40029],[-76.44361,-6.40412],[-76.44765,-6.41301],[-76.45227,-6.43884],[-76.45914,-6.46168],[-76.47826,-6.48393],[-76.47845,-6.49441],[-76.47196,-6.50888],[-76.45625,-6.51613],[-76.46256,-6.52437],[-76.45251,-6.53686],[-76.43969,-6.5412],[-76.41839,-6.56183],[-76.42526,-6.57332],[-76.41163,-6.5822],[-76.40129,-6.59991],[-76.38912,-6.60535],[-76.3789,-6.61514],[-76.38651,-6.62815],[-76.40793,-6.63565],[-76.41474,-6.64289],[-76.41917,-6.65442],[-76.42757,-6.66369],[-76.44241,-6.67408],[-76.45632,-6.68001],[-76.43275,-6.67852],[-76.41679,-6.68097],[-76.40882,-6.68992],[-76.3999,-6.68328],[-76.38328,-6.6782],[-76.36508,-6.6821],[-76.35105,-6.68922],[-76.33574,-6.68236],[-76.32335,-6.68044],[-76.31609,-6.68456],[-76.30473,-6.68264],[-76.29844,-6.68676],[-76.27505,-6.69207],[-76.26335,-6.76611],[-76.25682,-6.77261],[-76.23911,-6.76645],[-76.22229,-6.76839],[-76.20799,-6.76099],[-76.19768,-6.75056],[-76.19849,-6.7342],[-76.18819,-6.71231],[-76.1736,-6.70383],[-76.15615,-6.70697],[-76.14577,-6.69627],[-76.12677,-6.68799],[-76.12121,-6.69944],[-76.09541,-6.71486],[-76.10339,-6.72881],[-76.09169,-6.74523],[-76.08535,-6.76479],[-76.06852,-6.80149],[-76.0509,-6.81086],[-76.02583,-6.80528],[-76.01158,-6.80602],[-76.00916,-6.79906],[-75.98207,-6.79473],[-75.98016,-6.80007],[-75.96495,-6.78841],[-75.94295,-6.79503],[-75.93797,-6.79141],[-75.92589,-6.79383],[-75.91536,-6.79064],[-75.90086,-6.79488],[-75.86452,-6.79818],[-75.85975,-6.80156],[-75.84388,-6.79726],[-75.83259,-6.80223],[-75.82719,-6.81019],[-75.80537,-6.82321],[-75.79168,-6.82481],[-75.79133,-6.83416],[-75.78344,-6.83705],[-75.78262,-6.84466],[-75.76843,-6.85382],[-75.76268,-6.85104],[-75.74606,-6.85655],[-75.73856,-6.85006],[-75.72165,-6.85197],[-75.70659,-6.86405],[-75.69548,-6.86726],[-75.68999,-6.86127],[-75.68486,-6.84524],[-75.67574,-6.84616],[-75.6681,-6.82642],[-75.65967,-6.81933],[-75.64775,-6.81922],[-75.64017,-6.82471],[-75.64096,-6.83422],[-75.63344,-6.84306],[-75.61689,-6.84119],[-75.59544,-6.83278],[-75.58544,-6.82066],[-75.57679,-6.82099],[-75.57417,-6.80883],[-75.56184,-6.80161],[-75.54404,-6.79964],[-75.53601,-6.79397],[-75.52667,-6.79305],[-75.5118,-6.78557],[-75.50123,-6.76705],[-75.50044,-6.75935],[-75.505,-6.72533],[-75.50621,-6.69705],[-75.50213,-6.67411],[-75.50023,-6.64032],[-75.50756,-6.60278],[-75.5093,-6.58298],[-75.50479,-6.56858],[-75.50298,-6.55223],[-75.5083,-6.53347],[-75.51076,-6.5073],[-75.5096,-6.49214],[-75.52423,-6.47558],[-75.52014,-6.46482],[-75.52934,-6.44853],[-75.52985,-6.4401],[-75.539,-6.43513],[-75.53373,-6.4163],[-75.54342,-6.40687],[-75.53645,-6.39154],[-75.54333,-6.37946],[-75.54321,-6.36293],[-75.55009,-6.34771],[-75.53466,-6.32226],[-75.50936,-6.30029],[-75.49634,-6.28103],[-75.48729,-6.25426],[-75.48719,-6.20342],[-75.49415,-6.18932],[-75.52555,-6.16513],[-75.52796,-6.15804],[-75.52937,-6.12216],[-75.53279,-6.0956],[-75.54863,-6.05565],[-75.56504,-6.02557],[-75.57111,-6.00399],[-75.58412,-6.01166],[-75.60706,-6.01934],[-75.62107,-6.02938],[-75.62482,-6.03937],[-75.62614,-6.07398],[-75.62921,-6.08299],[-75.6517,-6.09791],[-75.6663,-6.09893],[-75.67229,-6.0934],[-75.68005,-6.09531],[-75.686,-6.10613],[-75.69856,-6.11249],[-75.71883,-6.14123],[-75.733,-6.14442],[-75.75803,-6.14145],[-75.77116,-6.14765],[-75.77476,-6.14061],[-75.76729,-6.13213],[-75.77663,-6.11924],[-75.79186,-6.11785],[-75.79878,-6.10483],[-75.81722,-6.09953],[-75.84142,-6.10582],[-75.85088,-6.11209],[-75.84447,-6.11974],[-75.845,-6.13368],[-75.83798,-6.14051],[-75.85861,-6.1422],[-75.88563,-6.13311],[-75.90515,-6.13381],[-75.91655,-6.14076]]]}}