{"type":"Feature","properties":{"id":"PER.15.2","name":"Viru","level":2,"country":"PER"},"geometry":{"type":"Polygon","coordinates":[[[-78.63909,-8.143],[-78.6427,-8.14754],[-78.65935,-8.1469],[-78.66919,-8.14074],[-78.68126,-8.15209],[-78.69983,-8.15388],[-78.71022,-8.16303],[-78.72963,-8.17164],[-78.76387,-8.17383],[-78.77724,-8.18194],[-78.78158,-8.20955],[-78.78719,-8.20324],[-78.7967,-8.2012],[-78.80984,-8.20633],[-78.82476,-8.20251],[-78.83812,-8.20962],[-78.83747,-8.22931],[-78.81444,-8.23845],[-78.80302,-8.25082],[-78.8025,-8.25755],[-78.80915,-8.26975],[-78.81526,-8.27237],[-78.80807,-8.28689],[-78.81419,-8.29445],[-78.81676,-8.30999],[-78.83161,-8.31718],[-78.84002,-8.31801],[-78.85183,-8.33017],[-78.86724,-8.33829],[-78.88237,-8.34334],[-78.8895,-8.35422],[-78.89271,-8.3665],[-78.90053,-8.37145],[-78.8951,-8.38546],[-78.89541,-8.39687],[-78.90084,-8.41423],[-78.91339,-8.42928],[-78.93452,-8.42796],[-78.93488,-8.43632],[-78.91425,-8.46079],[-78.86227,-8.49408],[-78.81326,-8.53332],[-78.79495,-8.55034],[-78.77893,-8.56826],[-78.76109,-8.59485],[-78.74724,-8.62443],[-78.74155,-8.64231],[-78.738,-8.66694],[-78.74672,-8.68427],[-78.73736,-8.71152],[-78.74277,-8.74032],[-78.76102,-8.757],[-78.7575,-8.76694],[-78.76116,-8.77396],[-78.69088,-8.86571],[-78.67176,-8.88577],[-78.65166,-8.91436],[-78.64369,-8.93508],[-78.64276,-8.9571],[-78.64492,-8.96923],[-78.62973,-8.97089],[-78.59166,-8.946],[-78.59029,-8.92656],[-78.58015,-8.90642],[-78.57648,-8.88905],[-78.58279,-8.86568],[-78.58828,-8.85868],[-78.58253,-8.84662],[-78.5758,-8.81973],[-78.56541,-8.79791],[-78.56534,-8.7926],[-78.55157,-8.77502],[-78.5301,-8.76378],[-78.51814,-8.75298],[-78.49203,-8.74983],[-78.48724,-8.75116],[-78.4664,-8.74086],[-78.44823,-8.73693],[-78.42533,-8.7239],[-78.41133,-8.70876],[-78.37917,-8.69657],[-78.3732,-8.68724],[-78.35481,-8.67328],[-78.33821,-8.67596],[-78.33425,-8.66645],[-78.31095,-8.66721],[-78.29626,-8.65872],[-78.28717,-8.66255],[-78.27266,-8.65631],[-78.24736,-8.65858],[-78.23558,-8.65292],[-78.24139,-8.64058],[-78.24912,-8.63332],[-78.2605,-8.61601],[-78.26213,-8.59589],[-78.28047,-8.5762],[-78.2813,-8.56135],[-78.28662,-8.55086],[-78.28332,-8.54218],[-78.26632,-8.5369],[-78.26779,-8.52703],[-78.27436,-8.51882],[-78.27355,-8.48327],[-78.26241,-8.47572],[-78.26171,-8.46884],[-78.28557,-8.46663],[-78.29579,-8.46177],[-78.32071,-8.46696],[-78.3327,-8.46691],[-78.34288,-8.47881],[-78.35907,-8.46514],[-78.37478,-8.45959],[-78.37736,-8.43893],[-78.37308,-8.42428],[-78.37538,-8.41052],[-78.38222,-8.40454],[-78.39537,-8.40195],[-78.40443,-8.41183],[-78.41092,-8.39345],[-78.41999,-8.38736],[-78.42639,-8.38958],[-78.42991,-8.37376],[-78.42985,-8.36024],[-78.43611,-8.36494],[-78.43633,-8.37496],[-78.4425,-8.38228],[-78.4715,-8.38697],[-78.48941,-8.37763],[-78.48922,-8.3663],[-78.47912,-8.35131],[-78.50159,-8.34002],[-78.5154,-8.33892],[-78.53415,-8.3271],[-78.53828,-8.32126],[-78.55038,-8.32421],[-78.57114,-8.31989],[-78.58062,-8.30872],[-78.5883,-8.3075],[-78.5832,-8.27931],[-78.57379,-8.27307],[-78.56589,-8.25008],[-78.57538,-8.24369],[-78.5956,-8.23641],[-78.60478,-8.21855],[-78.60114,-8.20846],[-78.60697,-8.19539],[-78.62392,-8.18784],[-78.63156,-8.19109],[-78.64375,-8.19011],[-78.65247,-8.18466],[-78.65167,-8.17714],[-78.64274,-8.16831],[-78.6368,-8.15553],[-78.63909,-8.143]]]}}