{"type":"Feature","properties":{"id":"VNM.55","name":"Hau Giang","level":1,"country":"VNM"},"geometry":{"type":"Polygon","coordinates":[[[105.83851,10.00475],[105.77952,10.06424],[105.69224,10.12318],[105.52445,10.07889],[105.42278,10.04363],[105.51891,9.95218],[105.52853,9.90787],[105.50398,9.83426],[105.38853,9.72726],[105.36156,9.68349],[105.39319,9.64262],[105.39226,9.58683],[105.46259,9.58745],[105.5693,9.61042],[105.6741,9.64091],[105.79295,9.71235],[105.82039,9.7192],[105.90211,9.9167],[105.83839,9.97944],[105.83851,10.00475]]]}}