{"type":"Feature","properties":{"id":"VNM.24","name":"Thái Bình","level":1,"country":"VNM"},"geometry":{"type":"Polygon","coordinates":[[[106.5936,20.64672],[106.5373,20.61244],[106.46899,20.60066],[106.41721,20.71928],[106.25737,20.6959],[106.20647,20.66721],[106.13867,20.66683],[106.11237,20.63161],[106.16782,20.54642],[106.18445,20.49087],[106.21474,20.47493],[106.21412,20.42441],[106.27225,20.40617],[106.2783,20.32961],[106.34941,20.36455],[106.45018,20.28729],[106.50294,20.30052],[106.52166,20.31346],[106.59259,20.27541],[106.57309,20.36848],[106.59425,20.44819],[106.56772,20.52489],[106.62721,20.6166],[106.5936,20.64672]]]}}