{"type":"Feature","properties":{"id":"VNM.52","name":"Kiên Giang","level":1,"country":"VNM"},"geometry":{"type":"MultiPolygon","coordinates":[[[[104.72443,10.52134],[104.62553,10.53336],[104.55401,10.51833],[104.45362,10.37983],[104.50375,10.35737],[104.58888,10.26089],[104.61598,10.14643],[104.65089,10.14448],[104.70737,10.22232],[104.77198,10.22663],[104.80486,10.2071],[104.86891,10.11612],[104.90105,10.09732],[104.96388,10.10586],[105.00327,10.09211],[105.08766,9.99673],[105.07667,9.94343],[104.99334,9.88813],[104.96998,9.85366],[104.89279,9.8511],[104.85656,9.73804],[104.83414,9.53443],[104.87306,9.50784],[104.96944,9.52988],[105.02391,9.52826],[105.24053,9.41692],[105.27991,9.40581],[105.28198,9.47123],[105.31019,9.51552],[105.29252,9.58745],[105.30647,9.60536],[105.39226,9.58683],[105.39319,9.64262],[105.36156,9.68349],[105.38853,9.72726],[105.50398,9.83426],[105.52853,9.90787],[105.51891,9.95218],[105.42278,10.04363],[105.32415,10.14189],[105.24146,10.19961],[104.88769,10.38247],[104.72443,10.52134]]],[[[104.08204,10.371],[104.00473,10.451],[103.93377,10.36636],[103.85133,10.37421],[103.85743,10.32087],[103.93719,10.26606],[103.98365,10.15876],[104.01059,10.03046],[104.05128,10.06932],[104.03346,10.09602],[104.08546,10.24811],[104.08204,10.371]]]]}}