{"type":"Feature","properties":{"id":"AZE.56","name":"Zaqatala","level":1,"country":"AZE"},"geometry":{"type":"Polygon","coordinates":[[[47.02826,41.55707],[46.97923,41.6355],[46.90688,41.70694],[46.8348,41.73024],[46.70956,41.83507],[46.70235,41.77776],[46.56918,41.69787],[46.54117,41.63911],[46.48851,41.60108],[46.3648,41.55664],[46.27987,41.57117],[46.29674,41.51039],[46.4451,41.42595],[46.54246,41.39499],[46.62984,41.34614],[46.74689,41.5108],[46.79831,41.52354],[46.92916,41.50527],[46.98853,41.51514],[47.02826,41.55707]]]}}