{"type":"Feature","properties":{"id":"AZE.14","name":"Bakı","level":1,"country":"AZE"},"geometry":{"type":"MultiPolygon","coordinates":[[[[49.70972,40.58599],[49.69044,40.55339],[49.76909,40.54432],[49.86929,40.49699],[49.73038,40.46544],[49.68553,40.47603],[49.54347,40.46908],[49.41934,40.3981],[49.42565,40.23656],[49.3794,40.18034],[49.33661,40.08673],[49.34436,40.04552],[49.29191,39.95301],[49.35149,39.86315],[49.35681,39.81212],[49.34245,39.77357],[49.35874,39.66657],[49.4236,39.70954],[49.39479,39.78246],[49.44313,39.87336],[49.42311,39.9265],[49.4839,39.98867],[49.44264,40.07844],[49.49659,40.09455],[49.49252,40.154],[49.57716,40.21674],[49.77833,40.27582],[49.84718,40.31415],[49.8934,40.36905],[50.00375,40.32421],[50.05519,40.35151],[50.22999,40.34276],[50.37078,40.28262],[50.33595,40.40595],[50.27589,40.43659],[50.23756,40.49616],[50.12965,40.51846],[50.05201,40.5843],[49.93816,40.58747],[49.81674,40.56538],[49.70972,40.58599]],[[49.59677,40.41091],[49.66989,40.42758],[49.70217,40.38803],[49.62227,40.37221],[49.59677,40.41091]]],[[[50.61891,40.29999],[50.60694,40.33784],[50.563,40.32486],[50.58758,40.3006],[50.61891,40.29999]]],[[[50.38844,40.40168],[50.39527,40.4204],[50.3628,40.45356],[50.35369,40.39989],[50.38844,40.40168]]]]}}