{"type":"Feature","properties":{"id":"LAO.11.6","name":"Nambak","level":2,"country":"LAO"},"geometry":{"type":"Polygon","coordinates":[[[102.42013,20.82482],[102.41189,20.80641],[102.3973,20.80428],[102.38853,20.7946],[102.37115,20.79013],[102.36154,20.78196],[102.35063,20.77874],[102.34555,20.76758],[102.35105,20.7534],[102.34863,20.7356],[102.3435,20.72817],[102.3459,20.71861],[102.34597,20.69766],[102.34233,20.68824],[102.33107,20.68381],[102.32316,20.67182],[102.31647,20.67398],[102.30597,20.66704],[102.29209,20.64167],[102.26491,20.63476],[102.26024,20.64093],[102.24748,20.6334],[102.24484,20.62544],[102.23274,20.62551],[102.21044,20.59262],[102.2118,20.58221],[102.20038,20.56494],[102.19879,20.55396],[102.1813,20.52949],[102.18732,20.51004],[102.14153,20.49691],[102.12496,20.48948],[102.14387,20.48074],[102.14448,20.47256],[102.15782,20.46847],[102.16104,20.4613],[102.15878,20.44807],[102.14831,20.43872],[102.14491,20.42666],[102.14726,20.41187],[102.14525,20.39221],[102.13751,20.37097],[102.14312,20.36389],[102.15865,20.36338],[102.16609,20.34999],[102.17636,20.3434],[102.16512,20.32785],[102.15003,20.29944],[102.14636,20.27425],[102.14828,20.26771],[102.16484,20.24346],[102.16551,20.23699],[102.18785,20.25508],[102.21827,20.27087],[102.23991,20.28514],[102.25775,20.29162],[102.27499,20.30336],[102.33248,20.31093],[102.38936,20.32383],[102.41304,20.32453],[102.41357,20.35004],[102.40791,20.37074],[102.41022,20.37782],[102.41514,20.4156],[102.41799,20.42511],[102.43618,20.45976],[102.4634,20.49418],[102.47987,20.5059],[102.48879,20.51811],[102.50361,20.52658],[102.51763,20.52884],[102.5318,20.5414],[102.54749,20.55924],[102.56355,20.56998],[102.569,20.57818],[102.57936,20.60918],[102.59497,20.61732],[102.60981,20.6216],[102.61816,20.62966],[102.62251,20.64966],[102.61058,20.65866],[102.60876,20.67408],[102.60907,20.70753],[102.5862,20.7471],[102.58568,20.75548],[102.5999,20.77629],[102.63828,20.81769],[102.65172,20.84132],[102.65585,20.86301],[102.64133,20.88363],[102.63563,20.90055],[102.63687,20.91999],[102.64884,20.94451],[102.64887,20.95214],[102.63947,20.94394],[102.62852,20.94475],[102.60212,20.93863],[102.57962,20.92145],[102.56733,20.92331],[102.56036,20.90969],[102.54237,20.90097],[102.53272,20.90346],[102.52905,20.88995],[102.51891,20.88492],[102.51323,20.87083],[102.49742,20.86553],[102.49281,20.85788],[102.48221,20.85746],[102.47188,20.84686],[102.45626,20.84696],[102.44571,20.83496],[102.42441,20.82972],[102.42013,20.82482]]]}}