{"type":"Feature","properties":{"id":"LAO.8.4","name":"Kasy","level":2,"country":"LAO"},"geometry":{"type":"Polygon","coordinates":[[[102.23971,18.90636],[102.26003,18.92377],[102.27817,18.94258],[102.29658,18.96912],[102.30006,18.98973],[102.29569,19.02315],[102.29913,19.04],[102.30499,19.05247],[102.30709,19.07146],[102.3172,19.10239],[102.33657,19.11434],[102.34271,19.12575],[102.34161,19.15913],[102.34694,19.17737],[102.36368,19.18354],[102.39124,19.18188],[102.41132,19.17076],[102.4176,19.17272],[102.42317,19.18544],[102.43509,19.1895],[102.44201,19.19803],[102.4734,19.21402],[102.49266,19.21514],[102.50826,19.20061],[102.52515,19.19924],[102.53513,19.20222],[102.53907,19.21471],[102.52747,19.2221],[102.50952,19.22506],[102.50055,19.23112],[102.50552,19.25549],[102.5164,19.25876],[102.511,19.26271],[102.50692,19.29115],[102.47184,19.32456],[102.46674,19.33659],[102.45147,19.34084],[102.44519,19.35212],[102.45615,19.36127],[102.45622,19.37201],[102.44798,19.37871],[102.4398,19.37285],[102.42506,19.37304],[102.40144,19.36185],[102.39424,19.36211],[102.38223,19.37796],[102.36474,19.38418],[102.35319,19.38077],[102.34373,19.39705],[102.33304,19.39495],[102.32646,19.37535],[102.31996,19.36911],[102.29305,19.37302],[102.284,19.38772],[102.25585,19.37171],[102.24695,19.37326],[102.23817,19.38171],[102.21599,19.39203],[102.20904,19.40721],[102.18143,19.41474],[102.17212,19.41397],[102.1537,19.40247],[102.14653,19.41088],[102.13368,19.40528],[102.11895,19.41385],[102.10328,19.40904],[102.08513,19.39161],[102.0811,19.38325],[102.09033,19.37336],[102.09002,19.36063],[102.09589,19.34694],[102.09247,19.3364],[102.07726,19.3271],[102.06639,19.31422],[102.05977,19.31346],[102.04747,19.30379],[102.04298,19.28618],[102.03107,19.27435],[102.00661,19.28364],[101.98832,19.26275],[101.987,19.25144],[101.99028,19.23438],[101.97969,19.22032],[101.97578,19.20862],[101.98729,19.19845],[101.9804,19.19255],[101.96318,19.18854],[101.96344,19.17536],[101.95942,19.16381],[101.95117,19.1582],[101.93544,19.12989],[101.92559,19.1187],[101.91648,19.11514],[101.889,19.11117],[101.87229,19.11221],[101.86393,19.09102],[101.86133,19.05267],[101.86843,19.0356],[101.85822,19.01751],[101.82653,19.02019],[101.80893,19.01523],[101.7967,19.00135],[101.80132,18.95652],[101.78981,18.89089],[101.79288,18.87379],[101.80467,18.86448],[101.82178,18.89832],[101.83804,18.91723],[101.84428,18.92022],[101.85748,18.93731],[101.85407,18.94524],[101.86439,18.95429],[101.8725,18.96951],[101.87737,18.97092],[101.895,18.96345],[101.92607,18.9602],[101.93122,18.94653],[101.94132,18.94226],[101.94506,18.93447],[101.97227,18.94265],[101.99746,18.96756],[102.02932,18.99592],[102.04485,19.00389],[102.06357,19.00594],[102.08485,18.99944],[102.10108,18.98774],[102.10906,18.9745],[102.11247,18.9599],[102.10994,18.92888],[102.08514,18.86047],[102.04759,18.78031],[102.05842,18.78588],[102.07728,18.78995],[102.09012,18.79966],[102.09838,18.79888],[102.11132,18.81024],[102.12386,18.8124],[102.12742,18.82333],[102.13734,18.82334],[102.15149,18.83892],[102.17658,18.85807],[102.18231,18.86596],[102.20514,18.87726],[102.23971,18.90636]]]}}