{"type":"Feature","properties":{"id":"MLI.9","name":"Koulikoro","level":1,"country":"MLI"},"geometry":{"type":"Polygon","coordinates":[[[-9.02776,12.40475],[-8.96309,12.32421],[-8.99591,12.26101],[-8.97384,12.18758],[-8.9139,12.16985],[-8.9263,12.06428],[-8.81979,12.01265],[-8.797,11.91323],[-8.84723,11.65795],[-8.71287,11.64007],[-8.65675,11.49643],[-8.53942,11.45631],[-8.48803,11.51594],[-8.43106,11.64195],[-8.20603,11.70495],[-8.07103,11.68595],[-7.96302,11.77794],[-7.74805,11.90496],[-7.54403,12.00593],[-7.47998,12.14794],[-7.319,12.22695],[-7.28903,12.30594],[-7.11607,12.43294],[-7.04807,12.13794],[-7.07902,12.01195],[-6.94903,11.95496],[-6.94701,11.86196],[-6.64003,11.74794],[-6.55303,11.74595],[-6.54303,11.66993],[-6.46903,11.65296],[-6.39604,11.84496],[-6.33403,11.90496],[-6.34705,12.02694],[-6.25202,12.07694],[-6.14101,12.02294],[-6.14502,12.09296],[-5.98201,12.12195],[-5.94501,12.21194],[-5.95103,12.29995],[-6.07004,12.30796],[-6.17504,12.40694],[-6.26101,12.55495],[-6.35405,12.59195],[-6.39004,12.69995],[-6.46903,12.68096],[-6.51197,12.76594],[-6.62502,12.80893],[-6.80904,12.78294],[-6.89404,12.78795],[-6.88603,12.90795],[-7.01905,12.94495],[-7.08101,13.01595],[-7.03303,13.08695],[-7.02202,13.18194],[-6.97104,13.30095],[-6.92606,13.34195],[-6.77402,13.36595],[-6.71703,13.45194],[-6.76403,13.49494],[-6.78304,13.62395],[-6.90006,13.74895],[-6.91404,13.81595],[-6.90006,13.99796],[-6.71504,14.32295],[-6.58202,14.47994],[-6.45906,14.44594],[-6.38203,14.53596],[-6.38103,14.60195],[-6.43604,14.78096],[-6.54502,14.94395],[-6.52802,14.99795],[-6.40503,15.16796],[-6.33604,15.37596],[-6.32014,15.49454],[-6.83717,15.49474],[-7.51724,15.49497],[-8.60394,15.49539],[-9.14138,15.49558],[-8.99004,15.36795],[-8.84901,15.29294],[-8.80406,15.24496],[-8.74104,15.02596],[-8.67704,14.98195],[-8.50702,14.96296],[-8.47506,14.87594],[-8.48503,14.73295],[-8.46304,14.69794],[-8.23704,14.51994],[-8.16404,14.50294],[-8.13206,14.33995],[-8.27202,14.30494],[-8.44304,14.29794],[-8.59404,14.40796],[-8.65001,14.31396],[-8.80935,14.28822],[-8.76398,14.18079],[-8.76473,14.10898],[-8.81845,14.05757],[-8.84659,13.96871],[-8.75127,13.91664],[-8.70386,13.85037],[-8.59265,13.83952],[-8.56606,13.94566],[-8.46477,13.92269],[-8.45764,13.82314],[-8.5549,13.68338],[-8.54299,13.57894],[-8.45661,13.46295],[-8.55547,13.21767],[-8.57929,12.97807],[-8.63422,12.85945],[-8.59815,12.80689],[-8.76204,12.68995],[-8.89103,12.64995],[-9.00304,12.52296],[-9.02776,12.40475]],[[-8.00158,12.70405],[-7.93859,12.66157],[-7.93273,12.57514],[-7.97814,12.54292],[-8.05431,12.57954],[-8.0512,12.6908],[-8.00158,12.70405]]]}}