{"type":"Feature","properties":{"id":"KEN.7.8","name":"Likuyani","level":2,"country":"KEN"},"geometry":{"type":"Polygon","coordinates":[[[35.01885,0.8877],[35.01382,0.86115],[35.02467,0.85386],[35.02783,0.84075],[35.02464,0.83252],[35.03266,0.82182],[35.04131,0.8211],[35.05119,0.80343],[35.06391,0.79692],[35.06649,0.76744],[35.06258,0.76301],[35.05463,0.74937],[35.05863,0.73871],[35.05406,0.72944],[35.05328,0.70805],[35.03873,0.68851],[35.03943,0.65868],[35.04352,0.64899],[35.0412,0.64051],[35.06278,0.63421],[35.06953,0.63001],[35.08615,0.63034],[35.09631,0.63784],[35.10379,0.64777],[35.11599,0.64244],[35.11764,0.65026],[35.13391,0.6562],[35.14131,0.66198],[35.15461,0.6652],[35.15538,0.74143],[35.14442,0.74093],[35.1448,0.82845],[35.12588,0.82925],[35.11618,0.85228],[35.11372,0.88297],[35.10098,0.87572],[35.08504,0.88427],[35.08263,0.89415],[35.07387,0.90033],[35.06227,0.89821],[35.05151,0.90339],[35.02417,0.8968],[35.01885,0.8877]]]}}