{"type":"Feature","properties":{"id":"KEN.6.1","name":"Kapseret","level":2,"country":"KEN"},"geometry":{"type":"Polygon","coordinates":[[[35.28185,0.51107],[35.27597,0.51503],[35.26991,0.51866],[35.26098,0.51533],[35.23949,0.52486],[35.23441,0.53612],[35.2238,0.5383],[35.22346,0.5444],[35.21221,0.55434],[35.20593,0.56517],[35.19661,0.56423],[35.18909,0.55792],[35.16628,0.54696],[35.15974,0.50654],[35.15261,0.48765],[35.14199,0.47334],[35.15071,0.45623],[35.17077,0.42566],[35.17683,0.4209],[35.18101,0.40896],[35.19486,0.38015],[35.22817,0.32291],[35.24546,0.29793],[35.2602,0.27739],[35.26916,0.28973],[35.28036,0.28868],[35.27865,0.3032],[35.29028,0.31392],[35.30026,0.31392],[35.31475,0.35563],[35.32558,0.34147],[35.34082,0.34886],[35.34645,0.37277],[35.33269,0.38068],[35.33244,0.38941],[35.32086,0.39238],[35.32708,0.41583],[35.31939,0.416],[35.31032,0.4325],[35.31725,0.44753],[35.29831,0.4555],[35.29312,0.44446],[35.27629,0.46056],[35.26427,0.46389],[35.2611,0.45735],[35.25154,0.45986],[35.2698,0.49468],[35.27966,0.49595],[35.28478,0.50911],[35.28185,0.51107]]]}}