{"type":"Feature","properties":{"id":"KEN.5.21","name":"Isiolo South","level":2,"country":"KEN"},"geometry":{"type":"Polygon","coordinates":[[[38.71063,0.36636],[38.69022,0.44735],[38.67985,0.47358],[38.67698,0.49496],[38.66589,0.5016],[38.66156,0.51072],[38.67808,0.50964],[38.69331,0.5116],[38.70376,0.50793],[38.70838,0.51426],[38.72197,0.51339],[38.7232,0.52607],[38.73503,0.52017],[38.74328,0.52473],[38.75328,0.52357],[38.75591,0.51641],[38.76404,0.51291],[38.78386,0.52732],[38.79159,0.54122],[38.79907,0.54445],[38.80746,0.55498],[38.81581,0.57132],[38.82489,0.58126],[38.83892,0.58715],[38.85775,0.59937],[38.87112,0.60114],[38.87495,0.59552],[38.89159,0.59604],[38.91124,0.59984],[38.92538,0.60685],[38.93582,0.62515],[38.95158,0.62835],[38.9767,0.62252],[38.98597,0.62625],[39.00204,0.62464],[39.01246,0.62817],[39.014,0.64095],[39.02087,0.64155],[39.02223,0.65512],[39.02688,0.66497],[39.03505,0.66712],[39.05367,0.68609],[39.07224,0.67858],[39.08395,0.67693],[39.09728,0.68023],[39.10247,0.68938],[39.11417,0.69126],[39.13213,0.68832],[39.14217,0.69118],[39.14784,0.706],[39.17388,0.71972],[39.18056,0.75175],[39.20047,0.78947],[39.22466,0.81776],[39.23707,0.84416],[39.24956,0.85964],[39.26779,0.87595],[39.3136,0.92477],[39.36126,0.95395],[39.39567,0.96845],[39.45448,0.98916],[39.46192,0.99589],[39.4546,1.00112],[39.44666,1.01346],[39.42344,1.02764],[39.40915,1.04159],[39.39335,1.05362],[39.37504,1.05743],[39.36662,1.06451],[39.34721,1.06437],[39.33242,1.07997],[39.32193,1.08292],[39.30128,1.09496],[39.29788,1.09312],[39.27747,1.09785],[39.26387,1.10367],[39.24734,1.1003],[39.24137,1.10532],[39.21797,1.10772],[39.2121,1.1025],[39.19495,1.10436],[39.17657,1.12366],[39.1796,1.13012],[39.16091,1.14166],[39.14425,1.16351],[39.12127,1.17018],[39.1156,1.17849],[39.09499,1.17901],[39.08413,1.18615],[39.06609,1.18522],[39.03995,1.20137],[39.02776,1.2036],[39.0201,1.2011],[39.01048,1.20793],[38.99946,1.20957],[38.98435,1.20665],[38.97715,1.21085],[38.95783,1.19511],[38.94127,1.19172],[38.92504,1.20136],[38.90871,1.18973],[38.88567,1.19644],[38.86364,1.19632],[38.85707,1.19171],[38.84066,1.18871],[38.83763,1.18442],[38.8215,1.18177],[38.81429,1.16882],[38.78596,1.15408],[38.77866,1.15343],[38.77443,1.14357],[38.75956,1.14199],[38.74412,1.1256],[38.74501,1.11006],[38.72881,1.10587],[38.73216,1.09826],[38.72387,1.09261],[38.71979,1.07239],[38.70967,1.07542],[38.68775,1.06539],[38.68791,1.05978],[38.66994,1.05102],[38.66082,1.04247],[38.6598,1.03264],[38.64728,1.02072],[38.63939,1.02195],[38.63217,1.01599],[38.61441,1.01553],[38.61065,1.02162],[38.5947,1.02353],[38.58756,1.02774],[38.57776,1.02463],[38.56757,1.00714],[38.56631,0.98741],[38.56131,0.98253],[38.56089,0.97124],[38.56597,0.96268],[38.5587,0.95117],[38.55843,0.93837],[38.54631,0.92035],[38.53007,0.91395],[38.52394,0.89987],[38.52394,0.88957],[38.51409,0.88158],[38.51118,0.86439],[38.48505,0.87804],[38.47396,0.87114],[38.45107,0.86525],[38.4371,0.86853],[38.40844,0.86852],[38.39447,0.85668],[38.38885,0.84751],[38.38153,0.84536],[38.37573,0.85566],[38.37012,0.855],[38.36203,0.83224],[38.35765,0.82987],[38.34014,0.84183],[38.33205,0.83635],[38.32355,0.84338],[38.31002,0.82602],[38.28668,0.8236],[38.27777,0.82943],[38.26581,0.83111],[38.2583,0.82456],[38.24502,0.83325],[38.23236,0.82881],[38.21793,0.83016],[38.21162,0.83403],[38.19588,0.8252],[38.17909,0.82932],[38.16077,0.8257],[38.15203,0.81145],[38.1426,0.80934],[38.13273,0.81735],[38.11946,0.81967],[38.10481,0.81335],[38.09511,0.80362],[38.08636,0.80314],[38.08049,0.78375],[38.08043,0.7612],[38.08484,0.74603],[38.07863,0.72651],[38.07008,0.71606],[38.06379,0.68653],[38.06251,0.67124],[38.09442,0.56406],[38.17636,0.33078],[38.19558,0.322],[38.19156,0.23521],[38.20077,0.22699],[38.22325,0.21612],[38.22945,0.21673],[38.26213,0.19227],[38.26261,0.18667],[38.27189,0.17702],[38.28575,0.16904],[38.29639,0.15965],[38.30513,0.13326],[38.30477,0.11748],[38.30863,0.10914],[38.31807,0.10757],[38.32581,0.08825],[38.3229,0.07933],[38.32833,0.07184],[38.33578,0.07048],[38.34897,0.0604],[38.34349,0.04493],[38.3572,0.03781],[38.3532,0.03097],[38.35603,0.0205],[38.36569,0.01433],[38.3792,-0.00289],[38.3945,-0.00946],[38.40434,-0.02921],[38.40597,-0.04305],[38.41074,-0.04713],[38.41038,-0.0638],[38.41955,-0.07036],[38.43277,-0.07699],[38.43743,-0.07202],[38.45291,-0.08514],[38.4642,-0.08446],[38.48287,-0.07603],[38.49153,-0.05888],[38.49986,-0.0632],[38.51074,-0.05942],[38.52072,-0.06279],[38.53092,-0.05489],[38.53012,-0.04394],[38.54009,-0.04452],[38.54751,-0.02095],[38.55372,-0.01707],[38.56889,-0.01931],[38.58721,-0.02578],[38.60345,-0.03402],[38.6107,-0.02981],[38.62544,-0.04135],[38.63873,-0.0547],[38.64842,-0.05374],[38.65507,-0.04649],[38.67635,-0.05514],[38.69581,-0.04995],[38.71257,-0.06228],[38.7282,-0.06477],[38.73816,-0.07085],[38.75773,-0.07344],[38.76473,-0.05497],[38.75112,-0.04689],[38.75281,-0.03819],[38.74873,-0.02968],[38.74848,-0.0196],[38.7417,-0.01261],[38.74379,-0.00284],[38.73763,0.00402],[38.74007,0.0145],[38.73056,0.04889],[38.72857,0.08601],[38.7318,0.0987],[38.72983,0.11929],[38.73467,0.14907],[38.75699,0.17141],[38.75723,0.18381],[38.71063,0.36636]]]}}