{"type":"Feature","properties":{"id":"KEN.6.9","name":"Turkana East","level":2,"country":"KEN"},"geometry":{"type":"Polygon","coordinates":[[[36.38588,2.82977],[36.37769,2.82928],[36.37347,2.81427],[36.3649,2.80878],[36.35852,2.7821],[36.34711,2.76892],[36.34131,2.75671],[36.34448,2.73169],[36.33911,2.7193],[36.33087,2.71008],[36.34229,2.68848],[36.33673,2.65491],[36.33649,2.5907],[36.32428,2.57611],[36.26111,2.54688],[36.24988,2.53888],[36.23749,2.52612],[36.22028,2.52911],[36.19269,2.51172],[36.18213,2.50348],[36.16608,2.50128],[36.15308,2.49091],[36.14227,2.48608],[36.1283,2.47333],[36.09528,2.46228],[36.09131,2.4527],[36.0979,2.43848],[36.08728,2.40649],[36.08289,2.34888],[36.07629,2.3045],[36.0755,2.28931],[36.08228,2.2821],[36.09271,2.28149],[36.1239,2.24487],[36.12531,2.2301],[36.12372,2.20911],[36.11627,2.17792],[36.10968,2.11969],[36.09473,2.05829],[36.08191,2.05933],[36.0625,2.05048],[36.05328,2.05151],[36.0322,2.06589],[36.01392,2.05627],[35.99109,2.07751],[35.98828,2.09088],[35.9939,2.11151],[35.99268,2.11871],[35.97992,2.14313],[35.98151,2.1637],[35.97247,2.18573],[35.96808,2.19049],[35.82269,2.20612],[35.81891,2.2092],[35.81848,2.2265],[35.82269,2.24091],[35.81488,2.25909],[35.81628,2.27551],[35.81488,2.2959],[35.82251,2.31268],[35.81732,2.3363],[35.80872,2.3399],[35.7915,2.34052],[35.77271,2.33112],[35.75653,2.33173],[35.74268,2.32208],[35.72192,2.32251],[35.70349,2.31512],[35.69348,2.30731],[35.67688,2.3017],[35.6601,2.3031],[35.64252,2.2937],[35.62793,2.29169],[35.61328,2.28247],[35.61731,2.2663],[35.62512,2.25629],[35.64288,2.24109],[35.6637,2.22772],[35.66913,2.21307],[35.66669,2.20331],[35.65631,2.18988],[35.6507,2.17548],[35.63751,2.16107],[35.63708,2.1521],[35.64368,2.14771],[35.6709,2.15088],[35.68213,2.13348],[35.70093,2.13373],[35.70929,2.13013],[35.72272,2.11432],[35.7265,2.10327],[35.72388,2.08429],[35.7157,2.07312],[35.69989,2.05951],[35.68573,2.04028],[35.68231,2.02808],[35.68372,2.01672],[35.6925,2.00708],[35.70691,1.9989],[35.71411,2.00293],[35.75293,2.00348],[35.77209,2.00128],[35.78833,1.99188],[35.79169,1.9649],[35.80048,1.94153],[35.80048,1.9353],[35.79248,1.92633],[35.7821,1.90692],[35.77393,1.88232],[35.70344,1.70501],[35.73856,1.67905],[35.75904,1.67385],[35.77192,1.66609],[35.7817,1.6643],[35.78565,1.65613],[36.09729,1.16931],[36.17328,1.17124],[36.31732,0.99152],[36.34229,0.99411],[36.35175,0.96698],[36.36407,0.96429],[36.37025,0.95591],[36.38419,0.95486],[36.38921,0.94881],[36.38708,0.92871],[36.39535,0.91312],[36.4191,0.93528],[36.43127,0.95169],[36.44585,0.98363],[36.45319,1.01828],[36.44266,1.04282],[36.44478,1.05616],[36.44379,1.07349],[36.43922,1.08511],[36.44012,1.1012],[36.44455,1.11589],[36.43996,1.133],[36.43384,1.13974],[36.4352,1.15188],[36.44095,1.16345],[36.44263,1.17522],[36.41992,1.18689],[36.3982,1.17366],[36.39162,1.17583],[36.38892,1.18793],[36.39649,1.19453],[36.39534,1.22105],[36.40614,1.23026],[36.41668,1.22735],[36.42149,1.23563],[36.41514,1.24621],[36.41439,1.25525],[36.40454,1.25251],[36.3891,1.26349],[36.39803,1.27653],[36.40926,1.27875],[36.42389,1.26709],[36.43042,1.26682],[36.44757,1.25219],[36.4534,1.25771],[36.45061,1.27167],[36.43671,1.29132],[36.43609,1.30381],[36.42109,1.29584],[36.40613,1.29968],[36.39648,1.30851],[36.41266,1.32972],[36.42108,1.33472],[36.42248,1.34647],[36.43398,1.35285],[36.44299,1.36306],[36.46025,1.37157],[36.46603,1.38471],[36.46395,1.40254],[36.45532,1.39832],[36.44952,1.41091],[36.43762,1.41173],[36.41999,1.41676],[36.40153,1.43332],[36.39236,1.44535],[36.36768,1.43848],[36.3549,1.43767],[36.34152,1.44754],[36.32698,1.46708],[36.31628,1.47189],[36.29246,1.46515],[36.2888,1.46849],[36.29999,1.49134],[36.29692,1.50012],[36.30098,1.51487],[36.30267,1.54124],[36.33465,1.56944],[36.35712,1.57111],[36.35893,1.58707],[36.37109,1.59631],[36.37708,1.58609],[36.3725,1.57068],[36.37575,1.54329],[36.39008,1.5251],[36.39773,1.52809],[36.41336,1.56229],[36.42651,1.57312],[36.43327,1.59702],[36.44124,1.61502],[36.44744,1.61877],[36.46278,1.61482],[36.46919,1.63729],[36.47043,1.65726],[36.48608,1.68347],[36.48758,1.70519],[36.49953,1.70742],[36.5086,1.72507],[36.50987,1.73424],[36.52228,1.74969],[36.51868,1.76453],[36.51297,1.76859],[36.51621,1.78174],[36.52288,1.78611],[36.52641,1.79614],[36.53473,1.80713],[36.52444,1.81215],[36.51554,1.82323],[36.52209,1.83069],[36.52487,1.84688],[36.5166,1.85197],[36.51568,1.87948],[36.52479,1.88661],[36.53755,1.9077],[36.54205,1.92428],[36.53695,1.95473],[36.5321,1.95728],[36.54103,1.97793],[36.5466,1.99582],[36.54482,2.02173],[36.55603,2.04293],[36.55627,2.04852],[36.56906,2.05797],[36.56609,2.08108],[36.56763,2.09249],[36.56486,2.10443],[36.58068,2.12187],[36.58503,2.14089],[36.59538,2.14672],[36.60029,2.15424],[36.62053,2.16148],[36.63653,2.16423],[36.65883,2.17489],[36.67084,2.18687],[36.68751,2.19606],[36.7012,2.19915],[36.7005,2.21771],[36.71149,2.22412],[36.71008,2.24011],[36.71443,2.25154],[36.70765,2.26235],[36.72368,2.27705],[36.72226,2.28711],[36.72467,2.30204],[36.6013,2.36083],[36.6024,2.4048],[36.59229,2.41344],[36.58683,2.4074],[36.56852,2.4048],[36.55958,2.39659],[36.53895,2.40763],[36.53203,2.43222],[36.52449,2.44619],[36.52483,2.459],[36.52946,2.47352],[36.52732,2.48519],[36.53109,2.50006],[36.53007,2.52276],[36.52429,2.53301],[36.51508,2.56025],[36.49405,2.57545],[36.47518,2.60026],[36.47266,2.60952],[36.45411,2.61216],[36.43803,2.6345],[36.43443,2.65383],[36.43608,2.6705],[36.43403,2.68007],[36.43828,2.69179],[36.44729,2.70549],[36.432,2.71498],[36.42127,2.7367],[36.41871,2.7635],[36.39601,2.80065],[36.38782,2.81895],[36.38588,2.82977]]]}}