{"type":"Feature","properties":{"id":"KEN.7.33","name":"Kimilili","level":2,"country":"KEN"},"geometry":{"type":"Polygon","coordinates":[[[34.65829,0.72847],[34.6714,0.72094],[34.68349,0.7294],[34.68721,0.73797],[34.6999,0.74402],[34.71425,0.73576],[34.72076,0.72681],[34.73165,0.71896],[34.74245,0.71817],[34.75262,0.72689],[34.76862,0.74716],[34.78437,0.75775],[34.79519,0.76076],[34.80581,0.75889],[34.81932,0.76174],[34.80482,0.77607],[34.80149,0.79696],[34.80909,0.8075],[34.81162,0.82217],[34.80125,0.8483],[34.79635,0.85721],[34.79291,0.84952],[34.77965,0.85613],[34.76774,0.84609],[34.75307,0.84241],[34.74073,0.83362],[34.72914,0.83484],[34.72047,0.83005],[34.70341,0.81343],[34.67774,0.80154],[34.67399,0.81171],[34.64519,0.821],[34.64192,0.80994],[34.64312,0.79715],[34.65191,0.79178],[34.65555,0.78328],[34.65473,0.76272],[34.66266,0.7457],[34.65829,0.72847]]]}}