{"type":"Feature","properties":{"id":"KEN.2.29","name":"Kirinyaga Central","level":2,"country":"KEN"},"geometry":{"type":"Polygon","coordinates":[[[37.30781,-0.14957],[37.21603,-0.4195],[37.21389,-0.43583],[37.21829,-0.46157],[37.22144,-0.468],[37.21979,-0.48122],[37.22705,-0.49083],[37.22994,-0.50387],[37.23518,-0.51064],[37.235,-0.52082],[37.24679,-0.5348],[37.25016,-0.5509],[37.24515,-0.55694],[37.24813,-0.57928],[37.25779,-0.58887],[37.26326,-0.60382],[37.27696,-0.58886],[37.32196,-0.5658],[37.3242,-0.55156],[37.31431,-0.5409],[37.3115,-0.52844],[37.30554,-0.52037],[37.30329,-0.50125],[37.29118,-0.48831],[37.29313,-0.47786],[37.29138,-0.46117],[37.28535,-0.45053],[37.28856,-0.441],[37.27698,-0.42566],[37.27402,-0.41267],[37.30781,-0.14957]]]}}