{"type":"Feature","properties":{"id":"KEN.6.47","name":"Kajiado North","level":2,"country":"KEN"},"geometry":{"type":"Polygon","coordinates":[[[36.81996,-1.38103],[36.80558,-1.38684],[36.80045,-1.38511],[36.76754,-1.38628],[36.76022,-1.38223],[36.74886,-1.38223],[36.72609,-1.37091],[36.70219,-1.34948],[36.6928,-1.35065],[36.67889,-1.32598],[36.66348,-1.31729],[36.66599,-1.31217],[36.65971,-1.30053],[36.64837,-1.2984],[36.6476,-1.31987],[36.6391,-1.33333],[36.65128,-1.34864],[36.64673,-1.36467],[36.62841,-1.36753],[36.63071,-1.37919],[36.63756,-1.38931],[36.6359,-1.40564],[36.64566,-1.40017],[36.6611,-1.3976],[36.68654,-1.39884],[36.68715,-1.41117],[36.684,-1.43378],[36.69232,-1.43982],[36.7037,-1.43691],[36.70945,-1.43016],[36.71768,-1.43],[36.72233,-1.42314],[36.74504,-1.4195],[36.7584,-1.41135],[36.76581,-1.41046],[36.79007,-1.40169],[36.80295,-1.38961],[36.81971,-1.38818],[36.81996,-1.38103]]]}}