{"type":"Feature","properties":{"id":"GNQ.4.8","name":"MBINI","level":2,"country":"GNQ"},"geometry":{"type":"Polygon","coordinates":[[[10.11433,1.57814],[10.05604,1.57893],[10.0511,1.58393],[10.04619,1.60631],[9.98118,1.69107],[9.98111,1.69329],[9.9707,1.68836],[9.96057,1.67988],[9.95275,1.68395],[9.93328,1.67157],[9.92199,1.66],[9.75934,1.65959],[9.73442,1.66885],[9.71654,1.70204],[9.6632,1.71276],[9.65893,1.70551],[9.64903,1.70217],[9.64063,1.69104],[9.63256,1.68976],[9.62068,1.6736],[9.61096,1.66545],[9.61176,1.64675],[9.60768,1.62288],[9.61274,1.62141],[9.61765,1.61059],[9.6238,1.60757],[9.63212,1.58722],[9.65198,1.57525],[9.67504,1.56799],[9.68517,1.56996],[9.70182,1.58296],[9.72025,1.59308],[9.73859,1.59628],[9.75075,1.59292],[9.75915,1.5953],[9.76698,1.5876],[9.77965,1.58067],[9.77773,1.57733],[9.75727,1.59136],[9.74081,1.59188],[9.72189,1.5868],[9.71444,1.5743],[9.69971,1.57188],[9.69441,1.56161],[9.68534,1.56047],[9.67512,1.55438],[9.65898,1.5549],[9.64709,1.56489],[9.63415,1.57122],[9.62765,1.58323],[9.62022,1.59002],[9.61119,1.58507],[9.59882,1.57376],[9.59776,1.56098],[9.58373,1.53267],[9.57598,1.50927],[9.59569,1.50984],[9.67896,1.47003],[10.10684,1.46868],[10.11433,1.57814]]]}}