{"type":"Feature","properties":{"id":"NPL.12.1","name":"Bhojpur","level":2,"country":"NPL"},"geometry":{"type":"Polygon","coordinates":[[[86.89408,27.42545],[86.96595,27.28834],[86.89664,27.27403],[86.8994,27.11078],[86.94376,27.0901],[86.96595,26.94006],[87.01386,26.88547],[87.0919,26.92951],[87.17889,26.90208],[87.15824,26.92662],[87.22584,27.09369],[87.27163,27.15288],[87.26141,27.19131],[87.19752,27.26468],[87.13098,27.42782],[87.08307,27.44199],[86.96595,27.42309],[86.91803,27.45853],[86.89408,27.42545]]]}}