{"type":"Feature","properties":{"id":"GMB.5.2","name":"Kombo Central","level":2,"country":"GMB"},"geometry":{"type":"Polygon","coordinates":[[[-16.58435,13.33383],[-16.60268,13.33344],[-16.6157,13.33832],[-16.61769,13.32733],[-16.63123,13.31933],[-16.64202,13.32665],[-16.65982,13.3236],[-16.65598,13.30473],[-16.6803,13.28866],[-16.69405,13.28685],[-16.70107,13.2761],[-16.73279,13.2549],[-16.73869,13.23473],[-16.73042,13.23764],[-16.71612,13.22525],[-16.70524,13.22047],[-16.67866,13.22329],[-16.67892,13.20485],[-16.67411,13.20075],[-16.67573,13.16828],[-16.65588,13.1638],[-16.64625,13.16758],[-16.60237,13.16708],[-16.60352,13.25418],[-16.61476,13.25882],[-16.61797,13.27199],[-16.60418,13.28061],[-16.60481,13.2887],[-16.58625,13.31487],[-16.58435,13.33383]]]}}