{"type":"Feature","properties":{"id":"SEN.14","name":"Tambacounda","level":1,"country":"SEN"},"geometry":{"type":"Polygon","coordinates":[[[-11.89997,13.38218],[-11.89041,13.46515],[-11.99681,13.54416],[-12.09763,13.70441],[-12.01231,13.75118],[-11.96291,13.82947],[-11.96291,13.90915],[-12.01531,13.9593],[-12.02523,14.02674],[-11.99758,14.16617],[-12.03448,14.25027],[-12.09778,14.28807],[-12.11561,14.35512],[-12.22173,14.39124],[-12.23643,14.51945],[-12.16594,14.62518],[-12.26413,14.77494],[-12.38249,14.84602],[-12.4482,14.91821],[-12.47151,14.998],[-12.60215,15.07877],[-12.62295,15.10226],[-12.68958,15.09248],[-12.58235,14.94948],[-12.57264,14.89372],[-12.64886,14.70629],[-12.73077,14.58474],[-12.75547,14.56552],[-12.94884,14.54624],[-13.2189,14.59456],[-13.23751,14.58712],[-13.51118,14.3985],[-13.78486,14.39426],[-13.83406,14.40176],[-14.26948,14.56252],[-14.35661,14.64365],[-14.3979,14.63084],[-14.50875,14.54025],[-14.63298,14.5109],[-14.6337,14.32264],[-14.59298,14.22156],[-14.57748,14.06478],[-14.61851,13.99868],[-14.62874,13.9391],[-14.71566,13.86334],[-14.81255,13.83998],[-14.86031,13.7656],[-14.82237,13.7172],[-14.80294,13.65232],[-14.72858,13.61933],[-14.66719,13.65289],[-14.58554,13.66046],[-14.52324,13.62566],[-14.47027,13.52235],[-14.38958,13.46587],[-14.32995,13.45644],[-14.19683,13.51879],[-14.09288,13.55473],[-13.96749,13.57558],[-13.90134,13.54163],[-13.8825,13.50378],[-13.82961,13.53561],[-13.81008,13.48006],[-13.73298,13.46812],[-13.77008,13.37458],[-13.70094,13.37376],[-13.68637,13.28839],[-13.62281,13.24012],[-13.59948,13.3133],[-13.47606,13.33849],[-13.3557,13.3249],[-13.3662,13.24881],[-13.32844,13.22862],[-13.33479,13.12413],[-13.32844,13.04373],[-13.28954,13.01687],[-13.21729,13.04],[-13.12924,13.01358],[-13.03239,13.0576],[-12.97663,13.0576],[-12.85337,12.98423],[-12.79173,13.05174],[-12.74184,13.04587],[-12.69488,13.11337],[-12.70075,13.16033],[-12.61564,13.19261],[-12.56281,13.17206],[-12.51292,13.19261],[-12.49825,13.2337],[-12.44542,13.27772],[-12.35737,13.25424],[-12.33683,13.30707],[-12.26639,13.30707],[-12.25759,13.34816],[-12.28694,13.38338],[-12.25465,13.44794],[-12.14019,13.37751],[-12.07856,13.3599],[-12.04628,13.31587],[-11.99345,13.36283],[-11.89997,13.38218]]]}}