{"type":"Feature","properties":{"id":"FJI.3","name":"Northern","level":1,"country":"FJI"},"geometry":{"type":"MultiPolygon","coordinates":[[[[178.334,-16.79339],[178.28004,-16.78672],[178.28297,-16.82236],[178.33367,-16.82887],[178.334,-16.79339]]],[[[-180,-16.78673],[-180,-16.96414],[-179.9829,-16.93239],[-179.89013,-16.86785],[-179.87157,-16.86386],[-179.85664,-16.8139],[-179.82099,-16.77996],[-179.8424,-16.74871],[-179.8557,-16.69305],[-179.87715,-16.67783],[-179.91588,-16.69451],[-180,-16.78673]]],[[[179.91749,-16.65553],[179.9358,-16.65407],[179.945,-16.61875],[179.91017,-16.63209],[179.91749,-16.65553]]],[[[178.58823,-16.57301],[178.57399,-16.59417],[178.60613,-16.59173],[178.58823,-16.57301]]],[[[-180,-16.48994],[-180,-16.54112],[-179.95202,-16.52304],[-179.92199,-16.49749],[-179.92833,-16.4638],[-179.95905,-16.44687],[-180,-16.48994]]],[[[179.36232,-16.32659],[179.32814,-16.32659],[179.34376,-16.33896],[179.37745,-16.33904],[179.36232,-16.32659]]],[[[-180,-16.14911],[-180,-16.16961],[-179.96178,-16.15472],[-179.97301,-16.13104],[-180,-16.14911]]],[[[180,-16.96278],[180,-16.78535],[179.9673,-16.85833],[179.93116,-16.90944],[179.89527,-16.93914],[179.89422,-16.96746],[179.91749,-16.99879],[179.96681,-16.99334],[180,-16.96278]]],[[[180,-16.54127],[180,-16.51656],[180,-16.48952],[179.98715,-16.51832],[179.98748,-16.54241],[180,-16.54127]]],[[[180,-16.16895],[180,-16.14911],[179.98317,-16.1491],[179.91066,-16.17986],[179.85597,-16.23113],[179.81446,-16.2077],[179.77272,-16.21942],[179.76442,-16.18141],[179.62485,-16.2483],[179.56316,-16.2374],[179.55437,-16.27264],[179.4861,-16.26523],[179.45818,-16.31992],[179.43141,-16.31902],[179.39772,-16.34783],[179.3965,-16.40569],[179.35874,-16.38812],[179.32928,-16.40797],[179.24041,-16.39813],[179.19125,-16.40797],[179.17758,-16.42978],[179.13673,-16.42978],[179.05421,-16.45403],[178.9651,-16.47064],[178.917,-16.47064],[178.93092,-16.51263],[178.88624,-16.55234],[178.84864,-16.54632],[178.7977,-16.60662],[178.77329,-16.60328],[178.71762,-16.64951],[178.68092,-16.66806],[178.61883,-16.6452],[178.57179,-16.61549],[178.53395,-16.629],[178.55275,-16.65895],[178.58562,-16.66513],[178.56804,-16.70403],[178.54021,-16.70403],[178.48357,-16.75994],[178.48561,-16.79339],[178.51157,-16.81422],[178.60231,-16.77972],[178.6364,-16.80706],[178.62745,-16.83766],[178.67042,-16.89902],[178.68068,-16.95827],[178.70533,-16.99879],[178.76271,-17.00506],[178.80096,-16.97772],[178.8213,-16.9026],[178.8838,-16.85768],[178.94532,-16.87754],[178.96746,-16.90635],[179.02687,-16.92311],[179.04542,-16.88014],[179.04444,-16.82383],[179.06544,-16.79892],[179.09571,-16.80706],[179.12338,-16.78965],[179.1229,-16.75872],[179.17205,-16.72259],[179.26637,-16.68987],[179.30795,-16.71771],[179.35141,-16.73138],[179.35475,-16.75848],[179.32342,-16.77117],[179.29689,-16.80682],[179.40382,-16.80234],[179.43824,-16.8139],[179.47145,-16.8012],[179.59685,-16.78875],[179.64381,-16.7457],[179.69988,-16.73528],[179.72633,-16.71771],[179.80201,-16.71771],[179.87574,-16.76946],[179.89633,-16.73821],[179.94191,-16.75262],[179.94972,-16.73008],[179.90382,-16.71771],[179.89194,-16.67596],[179.84864,-16.66237],[179.89015,-16.61468],[179.95346,-16.49961],[179.93946,-16.46331],[179.85109,-16.50856],[179.81414,-16.54632],[179.72267,-16.60442],[179.69842,-16.64951],[179.63258,-16.71022],[179.58522,-16.72942],[179.54811,-16.76605],[179.52027,-16.74961],[179.4861,-16.76605],[179.48878,-16.70761],[179.52361,-16.65895],[179.57146,-16.62558],[179.59791,-16.53981],[179.69386,-16.47731],[179.73846,-16.45924],[179.78102,-16.40301],[179.85125,-16.29095],[179.91212,-16.22796],[179.938,-16.2243],[180,-16.16895]]]]}}