{"type":"Feature","properties":{"id":"LVA.6.15","name":"Jaunlaicenes pag.","level":2,"country":"LVA"},"geometry":{"type":"Polygon","coordinates":[[[26.83929,57.5778],[26.83346,57.57174],[26.82262,57.57065],[26.81704,57.56491],[26.8402,57.55697],[26.84248,57.54312],[26.83318,57.54042],[26.84258,57.52981],[26.82564,57.51957],[26.82379,57.51033],[26.83577,57.5041],[26.85509,57.49749],[26.87918,57.50323],[26.91729,57.49371],[26.93746,57.49368],[26.95261,57.5132],[26.94451,57.52476],[26.94373,57.54225],[26.95316,57.5524],[26.93739,57.55064],[26.90438,57.54984],[26.89989,57.57728],[26.86446,57.57999],[26.84746,57.57615],[26.83929,57.5778]]]}}