{"type":"Feature","properties":{"id":"LVA.93.2","name":"Liepupes pag.","level":2,"country":"LVA"},"geometry":{"type":"Polygon","coordinates":[[[24.36795,57.55432],[24.36245,57.54135],[24.37403,57.52952],[24.37961,57.51359],[24.3815,57.49249],[24.38098,57.47519],[24.38512,57.46508],[24.38465,57.44948],[24.39821,57.40302],[24.40776,57.39957],[24.42849,57.4024],[24.44125,57.40609],[24.46146,57.4057],[24.47008,57.40945],[24.48154,57.4084],[24.49545,57.41936],[24.5076,57.42118],[24.51436,57.42953],[24.51678,57.4421],[24.5321,57.44747],[24.56794,57.4466],[24.56778,57.45108],[24.58216,57.45706],[24.58524,57.46559],[24.56694,57.47339],[24.55353,57.4843],[24.54472,57.50849],[24.53467,57.52219],[24.54389,57.52885],[24.55756,57.53374],[24.55529,57.53719],[24.50025,57.54023],[24.50419,57.55461],[24.48498,57.56417],[24.47093,57.55833],[24.45679,57.56269],[24.43415,57.56141],[24.4328,57.55268],[24.36795,57.55432]]]}}