{"type":"Feature","properties":{"id":"LVA.63.4","name":"Salnavas pag.","level":2,"country":"LVA"},"geometry":{"type":"Polygon","coordinates":[[[27.35106,56.78324],[27.36399,56.78225],[27.37323,56.77701],[27.3885,56.77593],[27.41427,56.78223],[27.42843,56.78098],[27.44672,56.78241],[27.46192,56.78018],[27.48589,56.7852],[27.4887,56.77883],[27.49921,56.78434],[27.51054,56.77855],[27.53506,56.77358],[27.54459,56.77509],[27.55582,56.76689],[27.58154,56.75512],[27.58737,56.74885],[27.59851,56.74823],[27.6587,56.79112],[27.67159,56.80013],[27.72496,56.83844],[27.72784,56.8533],[27.71922,56.84749],[27.7037,56.8476],[27.70245,56.84154],[27.6919,56.83712],[27.65938,56.83434],[27.63697,56.83232],[27.63268,56.83653],[27.61904,56.83923],[27.60348,56.85843],[27.57322,56.85614],[27.56895,56.8766],[27.53377,56.87654],[27.535,56.86636],[27.54655,56.85901],[27.49752,56.85362],[27.42644,56.85295],[27.42422,56.84724],[27.4146,56.84448],[27.40738,56.84401],[27.39829,56.83515],[27.41609,56.83168],[27.39801,56.82682],[27.40741,56.82354],[27.39348,56.81668],[27.37353,56.81691],[27.38065,56.82305],[27.37788,56.8276],[27.36552,56.82765],[27.35505,56.8191],[27.34587,56.81732],[27.34504,56.78899],[27.35106,56.78324]]]}}