{"type":"Feature","properties":{"id":"LVA.11.5","name":"Dobeles pag.","level":2,"country":"LVA"},"geometry":{"type":"Polygon","coordinates":[[[23.29788,56.71557],[23.27534,56.70726],[23.26821,56.71365],[23.24405,56.72023],[23.22551,56.72093],[23.22047,56.71739],[23.20485,56.72347],[23.19529,56.72003],[23.18394,56.70814],[23.19321,56.7007],[23.19042,56.69533],[23.17637,56.69129],[23.15438,56.66504],[23.1676,56.66329],[23.17743,56.66034],[23.19839,56.65796],[23.21419,56.65037],[23.22301,56.65175],[23.25495,56.64187],[23.27751,56.64526],[23.27782,56.63798],[23.28642,56.63622],[23.28637,56.64119],[23.29979,56.64899],[23.32492,56.65784],[23.33197,56.66231],[23.34844,56.67881],[23.36415,56.6864],[23.36472,56.69313],[23.3378,56.69434],[23.33547,56.70252],[23.31413,56.70538],[23.29788,56.71557]]]}}