{"type":"Feature","properties":{"id":"LVA.59.7","name":"Vecauces pag.","level":2,"country":"LVA"},"geometry":{"type":"Polygon","coordinates":[[[22.98189,56.51057],[22.9726,56.50719],[22.94878,56.50852],[22.93082,56.49194],[22.92001,56.49184],[22.91403,56.49683],[22.89726,56.49507],[22.89399,56.48734],[22.88053,56.48889],[22.86327,56.48442],[22.85899,56.46912],[22.86569,56.46656],[22.87085,56.45826],[22.88818,56.45919],[22.8991,56.47],[22.91966,56.47064],[22.92313,56.45798],[22.93749,56.45192],[22.9554,56.45451],[22.97815,56.45069],[22.98143,56.46688],[22.99978,56.46201],[23.0018,56.45711],[23.01247,56.45585],[23.02345,56.45841],[23.02921,56.46808],[23.00243,56.47103],[23.01042,56.48017],[23.0003,56.49851],[22.99231,56.50517],[22.99478,56.50981],[22.98189,56.51057]]]}}