{"type":"Feature","properties":{"id":"LVA.61.2","name":"Vecumu pag.","level":2,"country":"LVA"},"geometry":{"type":"Polygon","coordinates":[[[27.71478,57.10455],[27.71963,57.10387],[27.75191,57.09828],[27.75311,57.10735],[27.73381,57.11303],[27.73754,57.11897],[27.75568,57.12368],[27.75721,57.13103],[27.77295,57.1344],[27.78783,57.13274],[27.80684,57.14117],[27.81854,57.14372],[27.82242,57.15799],[27.83322,57.16657],[27.82619,57.17179],[27.83495,57.18205],[27.82566,57.19194],[27.83074,57.19921],[27.82967,57.20731],[27.84248,57.21217],[27.83787,57.22],[27.84362,57.23031],[27.85393,57.23525],[27.85872,57.24488],[27.86662,57.24464],[27.86832,57.25445],[27.86051,57.26299],[27.86234,57.27665],[27.86805,57.28163],[27.86664,57.29643],[27.85563,57.30317],[27.84789,57.30329],[27.84061,57.29781],[27.81793,57.30155],[27.82104,57.28909],[27.77537,57.29699],[27.77578,57.28601],[27.78078,57.281],[27.76064,57.28129],[27.7555,57.26277],[27.74105,57.25279],[27.75074,57.24326],[27.73818,57.23863],[27.7193,57.23768],[27.71756,57.21694],[27.72797,57.21165],[27.71732,57.19761],[27.69649,57.1979],[27.69925,57.18847],[27.71019,57.1879],[27.69686,57.17591],[27.70699,57.17446],[27.74114,57.15368],[27.7397,57.13173],[27.73177,57.13061],[27.71569,57.11981],[27.71478,57.10455]]]}}