{"type":"Feature","properties":{"id":"LVA.61.3","name":"Medņevas pag.","level":2,"country":"LVA"},"geometry":{"type":"Polygon","coordinates":[[[27.67857,57.17399],[27.67228,57.16629],[27.65533,57.1582],[27.64289,57.16414],[27.61354,57.16681],[27.58292,57.14806],[27.58699,57.14182],[27.58062,57.13688],[27.58137,57.12598],[27.55916,57.1208],[27.55896,57.11144],[27.44479,57.11186],[27.44986,57.10767],[27.47895,57.09305],[27.51723,57.07381],[27.52914,57.07722],[27.55772,57.08185],[27.57672,57.07979],[27.59419,57.08212],[27.6106,57.08652],[27.6198,57.08594],[27.62798,57.09592],[27.68192,57.08198],[27.69792,57.09153],[27.70048,57.09827],[27.69253,57.1052],[27.71478,57.10455],[27.71569,57.11981],[27.73177,57.13061],[27.7397,57.13173],[27.74114,57.15368],[27.70699,57.17446],[27.69686,57.17591],[27.68545,57.17025],[27.67857,57.17399]]]}}