{"type":"Feature","properties":{"id":"BDI.4","name":"Ruyigi","level":1,"country":"BDI"},"geometry":{"type":"Polygon","coordinates":[[[30.61025,-3.37636],[30.52923,-3.29349],[30.45636,-3.28135],[30.44003,-3.23117],[30.28893,-3.18518],[30.15643,-3.31742],[30.0381,-3.34656],[30.08233,-3.42475],[30.07427,-3.50754],[30.10393,-3.57942],[30.10352,-3.63585],[30.17349,-3.67006],[30.22816,-3.63864],[30.37307,-3.70434],[30.42887,-3.60221],[30.42686,-3.56386],[30.46892,-3.51301],[30.50716,-3.51105],[30.61289,-3.4449],[30.61025,-3.37636]]]}}