{"type":"Feature","properties":{"id":"MDG.13.3","name":"Ambilobe","level":2,"country":"MDG"},"geometry":{"type":"MultiPolygon","coordinates":[[[[48.60333,-12.96444],[48.60363,-12.95776],[48.59883,-12.95895],[48.59934,-12.96401],[48.60333,-12.96444]]],[[[49.10846,-14.19847],[49.12396,-14.20586],[49.15076,-14.18976],[49.15243,-14.18215],[49.14829,-14.15555],[49.16137,-14.13425],[49.16,-14.12428],[49.17405,-14.12319],[49.18912,-14.11262],[49.19988,-14.08322],[49.19918,-14.06192],[49.20524,-14.06017],[49.21771,-14.03899],[49.21248,-14.02385],[49.22939,-14.00416],[49.24357,-14.00508],[49.25461,-13.9945],[49.26513,-13.99805],[49.27389,-13.98648],[49.28601,-13.99105],[49.29692,-13.9867],[49.31914,-13.99081],[49.32325,-13.97723],[49.33111,-13.9725],[49.33191,-13.96276],[49.34024,-13.95906],[49.34554,-13.94912],[49.33167,-13.93648],[49.33381,-13.91646],[49.34166,-13.90651],[49.33848,-13.89152],[49.35036,-13.8834],[49.35735,-13.86425],[49.36628,-13.86201],[49.36821,-13.84914],[49.37882,-13.84313],[49.38625,-13.82102],[49.38685,-13.81239],[49.38197,-13.80388],[49.39267,-13.78801],[49.40027,-13.76489],[49.39619,-13.74978],[49.40447,-13.72332],[49.40091,-13.71213],[49.40577,-13.70393],[49.41149,-13.68084],[49.40221,-13.67494],[49.37896,-13.66821],[49.3698,-13.64277],[49.36413,-13.64106],[49.3568,-13.6297],[49.3651,-13.61566],[49.37725,-13.61336],[49.38276,-13.6066],[49.3749,-13.59721],[49.37512,-13.57042],[49.3642,-13.55883],[49.3678,-13.55187],[49.36397,-13.54481],[49.34661,-13.53803],[49.3525,-13.52915],[49.35345,-13.51525],[49.35829,-13.50522],[49.3476,-13.50249],[49.34579,-13.48764],[49.33394,-13.47283],[49.3426,-13.45689],[49.33554,-13.44074],[49.33689,-13.42878],[49.32563,-13.40283],[49.32925,-13.39263],[49.33729,-13.39676],[49.34946,-13.38795],[49.35308,-13.37444],[49.36134,-13.3695],[49.37242,-13.37067],[49.38009,-13.36085],[49.40092,-13.34284],[49.41743,-13.34827],[49.42546,-13.33645],[49.41935,-13.31201],[49.40856,-13.30113],[49.4058,-13.28976],[49.41722,-13.28305],[49.42598,-13.26487],[49.43677,-13.25257],[49.45001,-13.21415],[49.44712,-13.20434],[49.44897,-13.18849],[49.44358,-13.17966],[49.43349,-13.17283],[49.4205,-13.16975],[49.42449,-13.16008],[49.41482,-13.14501],[49.41128,-13.12366],[49.41944,-13.11376],[49.43064,-13.10967],[49.43347,-13.09861],[49.445,-13.08272],[49.4647,-13.0831],[49.47126,-13.06744],[49.47091,-13.0543],[49.47459,-13.04501],[49.47234,-13.02622],[49.46728,-13.01931],[49.47025,-13.00678],[49.47674,-12.99432],[49.45383,-12.99109],[49.44743,-12.99612],[49.42587,-12.9932],[49.4095,-13.01082],[49.3917,-13.01377],[49.3848,-13.02109],[49.3631,-13.02261],[49.35806,-13.02865],[49.34256,-13.03113],[49.32739,-13.04371],[49.30438,-13.038],[49.28724,-13.03055],[49.27872,-13.03537],[49.2666,-13.03024],[49.26597,-13.01593],[49.26024,-13.01105],[49.23984,-13.00812],[49.2318,-13.01046],[49.21123,-13.0078],[49.21223,-12.99054],[49.20404,-12.98361],[49.20223,-12.96449],[49.19311,-12.95154],[49.19423,-12.93615],[49.1891,-12.92118],[49.18186,-12.92477],[49.16985,-12.91777],[49.17032,-12.90686],[49.17504,-12.895],[49.17387,-12.8876],[49.15026,-12.86658],[49.1384,-12.86021],[49.13546,-12.8543],[49.11508,-12.85451],[49.10644,-12.85682],[49.09884,-12.8477],[49.08908,-12.84751],[49.06918,-12.86142],[49.05418,-12.86101],[49.03811,-12.86651],[49.02778,-12.87463],[49.01555,-12.8739],[49.0096,-12.88368],[48.99418,-12.88916],[48.98548,-12.8985],[48.97262,-12.88747],[48.96887,-12.89517],[48.96105,-12.89178],[48.94871,-12.89468],[48.94035,-12.88794],[48.93427,-12.89453],[48.92387,-12.92337],[48.91866,-12.94184],[48.91141,-12.94375],[48.90488,-12.96935],[48.88898,-12.98665],[48.87585,-13.00991],[48.87928,-13.02402],[48.86995,-13.02028],[48.86645,-13.04087],[48.85722,-13.03994],[48.84402,-13.05358],[48.84104,-13.06929],[48.83264,-13.07381],[48.81392,-13.11864],[48.82586,-13.11485],[48.8278,-13.12127],[48.81752,-13.12574],[48.81043,-13.1219],[48.80407,-13.13151],[48.81464,-13.14406],[48.80424,-13.14975],[48.81022,-13.16605],[48.80128,-13.17007],[48.80621,-13.18131],[48.80038,-13.1862],[48.79702,-13.20023],[48.80292,-13.21621],[48.80282,-13.23013],[48.80909,-13.23479],[48.80508,-13.24437],[48.82306,-13.2571],[48.83071,-13.27061],[48.84617,-13.26632],[48.84627,-13.27411],[48.82889,-13.27638],[48.81567,-13.27017],[48.79269,-13.2973],[48.79469,-13.31029],[48.78123,-13.32744],[48.78393,-13.33881],[48.77784,-13.3473],[48.7872,-13.36018],[48.80386,-13.3697],[48.79464,-13.37611],[48.78383,-13.37667],[48.76336,-13.39779],[48.7599,-13.40473],[48.73675,-13.41875],[48.73429,-13.43096],[48.72599,-13.42349],[48.70913,-13.43061],[48.6997,-13.44013],[48.69343,-13.43807],[48.67474,-13.44724],[48.66453,-13.43852],[48.65479,-13.45881],[48.64631,-13.46372],[48.65219,-13.47084],[48.66335,-13.47232],[48.67523,-13.48693],[48.67428,-13.50006],[48.68975,-13.51512],[48.687,-13.52795],[48.67492,-13.55132],[48.67438,-13.56814],[48.66573,-13.5779],[48.66305,-13.58635],[48.65343,-13.58759],[48.64233,-13.56802],[48.61852,-13.57947],[48.61254,-13.57715],[48.60477,-13.60346],[48.58651,-13.5995],[48.57742,-13.60679],[48.57734,-13.6247],[48.58452,-13.63359],[48.59772,-13.63397],[48.60745,-13.64776],[48.61012,-13.65873],[48.62541,-13.66243],[48.6345,-13.67191],[48.66111,-13.65701],[48.66992,-13.65486],[48.68365,-13.66948],[48.69795,-13.67051],[48.71552,-13.67761],[48.72448,-13.68572],[48.72154,-13.69976],[48.73937,-13.69554],[48.75184,-13.708],[48.75101,-13.71616],[48.75593,-13.72789],[48.76166,-13.75906],[48.77701,-13.7617],[48.7896,-13.75648],[48.8058,-13.76853],[48.81,-13.7796],[48.80549,-13.78651],[48.80765,-13.7964],[48.8326,-13.80544],[48.84134,-13.81561],[48.86248,-13.82225],[48.873,-13.83285],[48.89057,-13.83245],[48.8919,-13.8413],[48.90246,-13.85254],[48.91133,-13.85339],[48.93469,-13.87024],[48.94234,-13.86557],[48.9573,-13.86875],[48.96149,-13.87541],[48.97567,-13.88332],[48.97694,-13.88984],[48.98601,-13.89466],[48.98466,-13.90269],[48.98885,-13.91612],[48.98312,-13.92616],[48.98903,-13.93505],[48.98087,-13.94696],[48.978,-13.96133],[48.97318,-13.96776],[48.98047,-13.9897],[48.98164,-13.99952],[48.96621,-14.02202],[48.97986,-14.02951],[48.98709,-14.04335],[48.98445,-14.07855],[48.98146,-14.09389],[48.98553,-14.10707],[48.97875,-14.11938],[48.982,-14.13152],[48.97534,-14.13655],[48.9727,-14.14597],[48.97936,-14.16476],[48.99039,-14.16263],[49.00125,-14.16452],[49.02165,-14.17512],[49.02682,-14.18265],[49.04029,-14.18914],[49.04819,-14.18518],[49.06092,-14.19062],[49.08169,-14.20695],[49.0954,-14.19823],[49.10846,-14.19847]]],[[[48.5823,-12.84264],[48.58083,-12.83552],[48.57508,-12.83579],[48.57456,-12.84247],[48.5823,-12.84264]]],[[[48.62705,-12.85158],[48.63241,-12.83509],[48.62246,-12.82367],[48.61098,-12.82468],[48.61419,-12.84307],[48.60901,-12.8652],[48.59274,-12.8826],[48.58301,-12.89603],[48.58147,-12.90777],[48.57182,-12.90325],[48.56626,-12.88592],[48.55121,-12.88017],[48.54002,-12.88924],[48.55178,-12.89191],[48.56123,-12.89989],[48.57076,-12.91661],[48.58375,-12.92686],[48.58654,-12.93674],[48.60411,-12.9214],[48.60333,-12.9122],[48.61337,-12.90728],[48.61491,-12.89645],[48.60907,-12.88649],[48.60932,-12.8751],[48.61529,-12.86031],[48.62705,-12.85158]]]]}}