{"type":"Feature","properties":{"id":"MDG.9.1","name":"Marolambo","level":2,"country":"MDG"},"geometry":{"type":"Polygon","coordinates":[[[47.7067,-20.05935],[47.71533,-20.08045],[47.71121,-20.09713],[47.71702,-20.10142],[47.7085,-20.11434],[47.71393,-20.1231],[47.71121,-20.1383],[47.69966,-20.15677],[47.68273,-20.17336],[47.68807,-20.18669],[47.6898,-20.21085],[47.67956,-20.22407],[47.66506,-20.24915],[47.67312,-20.25718],[47.67895,-20.26853],[47.66982,-20.27843],[47.66934,-20.29419],[47.67731,-20.30141],[47.67545,-20.30863],[47.6851,-20.3161],[47.68796,-20.32772],[47.67173,-20.35862],[47.67267,-20.37473],[47.68824,-20.37312],[47.69793,-20.37949],[47.69195,-20.39445],[47.69974,-20.40534],[47.70745,-20.40705],[47.72008,-20.40223],[47.74161,-20.41146],[47.73578,-20.42992],[47.75693,-20.44394],[47.76851,-20.46169],[47.79057,-20.46378],[47.79573,-20.45842],[47.81338,-20.45388],[47.84188,-20.45295],[47.85379,-20.43517],[47.8676,-20.4327],[47.87231,-20.42632],[47.88701,-20.42569],[47.91214,-20.44024],[47.92278,-20.43424],[47.93064,-20.43924],[47.94095,-20.43476],[47.95144,-20.4185],[47.95959,-20.41886],[47.96514,-20.4073],[47.98478,-20.40668],[48.00229,-20.40954],[48.01474,-20.42183],[48.01834,-20.41812],[48.03628,-20.42237],[48.04825,-20.45042],[48.06108,-20.45516],[48.07523,-20.43773],[48.07766,-20.42066],[48.07153,-20.4151],[48.07996,-20.40146],[48.07711,-20.39159],[48.09045,-20.3757],[48.09549,-20.35948],[48.10905,-20.33239],[48.11648,-20.32302],[48.11689,-20.30942],[48.12556,-20.29929],[48.13497,-20.28243],[48.14309,-20.27661],[48.14483,-20.2686],[48.13087,-20.25453],[48.13398,-20.23951],[48.14189,-20.23664],[48.14528,-20.22807],[48.15497,-20.21667],[48.16432,-20.19621],[48.16494,-20.18422],[48.15887,-20.1746],[48.16307,-20.16689],[48.17145,-20.16368],[48.1734,-20.14714],[48.16861,-20.1364],[48.16974,-20.1292],[48.1809,-20.1214],[48.17765,-20.10836],[48.17761,-20.08923],[48.183,-20.07975],[48.18092,-20.06467],[48.1847,-20.05839],[48.1973,-20.04904],[48.19796,-20.03185],[48.20356,-20.01845],[48.21618,-20.01034],[48.23998,-19.98722],[48.2783,-19.97848],[48.29142,-19.98626],[48.30408,-19.98187],[48.30075,-19.94741],[48.31156,-19.9226],[48.30056,-19.89103],[48.30997,-19.88224],[48.31836,-19.88933],[48.33035,-19.8876],[48.33896,-19.88133],[48.3515,-19.85652],[48.36365,-19.8523],[48.3694,-19.8436],[48.37017,-19.82925],[48.35859,-19.82926],[48.35237,-19.84268],[48.34432,-19.8462],[48.33284,-19.83778],[48.33476,-19.82552],[48.32697,-19.82134],[48.31899,-19.82684],[48.30345,-19.82408],[48.2956,-19.8104],[48.28436,-19.80726],[48.27307,-19.81126],[48.276,-19.80223],[48.2693,-19.79267],[48.25504,-19.78585],[48.24704,-19.79037],[48.23336,-19.78069],[48.22353,-19.78714],[48.21615,-19.80604],[48.18985,-19.80224],[48.17903,-19.81078],[48.15868,-19.80948],[48.1542,-19.80237],[48.1332,-19.79154],[48.10877,-19.77075],[48.10196,-19.7783],[48.0905,-19.77466],[48.08667,-19.75773],[48.0778,-19.75002],[48.0562,-19.71288],[48.0445,-19.70844],[48.03539,-19.76405],[48.03174,-19.77385],[48.02408,-19.76895],[47.99269,-19.76542],[47.95779,-19.75941],[47.93852,-19.75454],[47.92601,-19.75918],[47.92406,-19.77655],[47.91737,-19.78492],[47.90924,-19.80317],[47.90296,-19.80194],[47.88461,-19.78429],[47.86992,-19.78254],[47.86546,-19.76871],[47.86591,-19.78802],[47.86238,-19.8108],[47.85933,-19.81634],[47.86926,-19.82202],[47.8767,-19.82144],[47.89094,-19.84329],[47.88619,-19.85635],[47.88799,-19.86815],[47.88547,-19.87871],[47.87993,-19.88103],[47.86669,-19.87222],[47.85099,-19.86979],[47.84304,-19.85633],[47.83478,-19.85122],[47.81735,-19.84768],[47.79827,-19.83548],[47.78968,-19.84366],[47.77603,-19.86376],[47.76385,-19.86539],[47.76929,-19.88458],[47.75993,-19.90684],[47.74491,-19.92049],[47.7438,-19.92821],[47.72954,-19.93841],[47.6959,-19.93794],[47.70214,-19.95352],[47.70693,-19.95514],[47.72766,-19.97719],[47.73136,-19.99428],[47.7445,-20.00809],[47.74731,-20.01534],[47.76371,-20.03077],[47.7468,-20.0571],[47.7309,-20.05034],[47.7191,-20.05017],[47.7067,-20.05935]]]}}