{"type":"Feature","properties":{"id":"CUB.11.8","name":"Segundo Frente","level":2,"country":"CUB"},"geometry":{"type":"Polygon","coordinates":[[[-75.47832,20.54386],[-75.50083,20.53043],[-75.51565,20.5127],[-75.53059,20.51836],[-75.54859,20.50289],[-75.55917,20.50563],[-75.57176,20.49936],[-75.58549,20.50168],[-75.5958,20.5059],[-75.60424,20.50665],[-75.61292,20.49519],[-75.60857,20.48283],[-75.62851,20.45011],[-75.64744,20.44956],[-75.6476,20.43441],[-75.65267,20.42817],[-75.64181,20.42167],[-75.65459,20.4122],[-75.67095,20.40821],[-75.66985,20.40228],[-75.65899,20.39339],[-75.6583,20.36698],[-75.63604,20.3434],[-75.62656,20.33708],[-75.62999,20.33322],[-75.62669,20.32394],[-75.60248,20.30515],[-75.58402,20.30332],[-75.56341,20.30569],[-75.55214,20.31371],[-75.54087,20.31718],[-75.51482,20.32027],[-75.49247,20.321],[-75.48489,20.32629],[-75.47508,20.32555],[-75.4703,20.33504],[-75.44823,20.34657],[-75.44602,20.35293],[-75.42859,20.35461],[-75.42745,20.36052],[-75.41971,20.37156],[-75.41941,20.38212],[-75.41024,20.40381],[-75.3958,20.39608],[-75.37871,20.40118],[-75.38117,20.41546],[-75.37708,20.42145],[-75.37924,20.43518],[-75.3909,20.44886],[-75.40734,20.45216],[-75.41962,20.4651],[-75.42316,20.48217],[-75.41704,20.4855],[-75.40802,20.48501],[-75.40939,20.49145],[-75.40101,20.501],[-75.39259,20.50138],[-75.38887,20.50519],[-75.3908,20.52591],[-75.38931,20.54436],[-75.40088,20.53765],[-75.42023,20.54451],[-75.44151,20.53494],[-75.46322,20.53554],[-75.46594,20.54295],[-75.47832,20.54386]]]}}