{"type":"Feature","properties":{"id":"CUB.16.1","name":"Batabanó","level":2,"country":"CUB"},"geometry":{"type":"Polygon","coordinates":[[[-82.27779,22.81472],[-82.2835,22.80584],[-82.2897,22.80926],[-82.3052,22.77354],[-82.3095,22.78221],[-82.33093,22.77464],[-82.33488,22.76725],[-82.34367,22.76669],[-82.35079,22.75613],[-82.36464,22.75961],[-82.36543,22.74785],[-82.37046,22.73836],[-82.36806,22.73214],[-82.39311,22.73614],[-82.39527,22.73462],[-82.40401,22.72577],[-82.4009,22.71194],[-82.40354,22.71041],[-82.40947,22.68508],[-82.40226,22.68542],[-82.38051,22.68197],[-82.36045,22.68121],[-82.34009,22.678],[-82.31597,22.6829],[-82.29232,22.68281],[-82.27423,22.68697],[-82.23864,22.68857],[-82.21606,22.68583],[-82.19624,22.68612],[-82.1961,22.71796],[-82.21185,22.73863],[-82.21364,22.75928],[-82.21884,22.75964],[-82.22571,22.76782],[-82.22973,22.78038],[-82.22902,22.78577],[-82.23789,22.80854],[-82.27779,22.81472]]]}}