{"type":"Feature","properties":{"id":"NIC.3.3","name":"Municipio El Ayote","level":2,"country":"NIC"},"geometry":{"type":"Polygon","coordinates":[[[-84.9522,12.62497],[-84.94768,12.61713],[-84.93586,12.61594],[-84.93088,12.61041],[-84.92768,12.59228],[-84.92041,12.59051],[-84.91366,12.5804],[-84.90414,12.57723],[-84.89413,12.56264],[-84.89425,12.55121],[-84.888,12.54218],[-84.89164,12.53089],[-84.88502,12.51725],[-84.87322,12.50875],[-84.87494,12.50548],[-84.86941,12.49359],[-84.85786,12.48859],[-84.84235,12.48751],[-84.83739,12.48183],[-84.8391,12.47715],[-84.85102,12.47247],[-84.8478,12.46367],[-84.851,12.45608],[-84.84936,12.44692],[-84.85251,12.4455],[-84.85524,12.43503],[-84.85972,12.42958],[-84.86415,12.41762],[-84.87056,12.41223],[-84.86302,12.40763],[-84.84705,12.37769],[-84.84492,12.35414],[-84.80222,12.33861],[-84.73861,12.45399],[-84.70814,12.48259],[-84.69018,12.5069],[-84.68635,12.50895],[-84.68628,12.51856],[-84.67681,12.52531],[-84.64808,12.6387],[-84.64851,12.643],[-84.65697,12.65038],[-84.65827,12.6597],[-84.65503,12.67161],[-84.66106,12.67528],[-84.66187,12.68455],[-84.6674,12.69172],[-84.66063,12.69998],[-84.66156,12.71085],[-84.65817,12.71142],[-84.65755,12.7308],[-84.66585,12.72774],[-84.67436,12.72724],[-84.68756,12.72371],[-84.69695,12.71546],[-84.70626,12.72451],[-84.71588,12.72095],[-84.72262,12.71514],[-84.71859,12.69284],[-84.72609,12.65966],[-84.72608,12.65079],[-84.75592,12.66361],[-84.77364,12.6566],[-84.78765,12.70368],[-84.82743,12.68566],[-84.83416,12.70794],[-84.86877,12.70513],[-84.89128,12.69806],[-84.95739,12.71812],[-84.9708,12.71229],[-84.98356,12.69385],[-84.99621,12.68446],[-84.99729,12.68146],[-84.98983,12.67513],[-84.98657,12.66828],[-84.95267,12.62976],[-84.9522,12.62497]]]}}