{"type":"Feature","properties":{"id":"NIC.15.9","name":"Municipio Macuelizo","level":2,"country":"NIC"},"geometry":{"type":"Polygon","coordinates":[[[-86.56469,13.57363],[-86.55573,13.57269],[-86.55072,13.57876],[-86.53543,13.58928],[-86.53154,13.59376],[-86.50991,13.59595],[-86.50627,13.60288],[-86.51,13.61591],[-86.52312,13.63152],[-86.53168,13.63517],[-86.53228,13.6447],[-86.53745,13.64639],[-86.5423,13.65286],[-86.54127,13.65895],[-86.5455,13.67195],[-86.5515,13.67472],[-86.56565,13.67239],[-86.56363,13.68054],[-86.55129,13.70112],[-86.54873,13.71045],[-86.55228,13.72393],[-86.56147,13.7308],[-86.56289,13.73806],[-86.56104,13.74555],[-86.56442,13.75494],[-86.573,13.76493],[-86.57188,13.7732],[-86.57522,13.77802],[-86.5755,13.79114],[-86.58514,13.78438],[-86.59508,13.78891],[-86.61133,13.78459],[-86.61864,13.78746],[-86.62831,13.78805],[-86.64458,13.77649],[-86.6545,13.77738],[-86.64714,13.76022],[-86.6519,13.72055],[-86.66151,13.70339],[-86.66878,13.70299],[-86.67725,13.68927],[-86.67282,13.6766],[-86.68336,13.66948],[-86.6891,13.66808],[-86.69245,13.66029],[-86.69711,13.65659],[-86.69294,13.65117],[-86.68547,13.65029],[-86.67382,13.64526],[-86.63847,13.6392],[-86.63466,13.61173],[-86.60778,13.59111],[-86.6076,13.58462],[-86.58801,13.59307],[-86.56469,13.57363]]]}}