{"type":"Feature","properties":{"id":"NIC.5.1","name":"Granada (Municipio)","level":2,"country":"NIC"},"geometry":{"type":"Polygon","coordinates":[[[-86.01498,12.15029],[-86.00725,12.14297],[-86.00606,12.13489],[-85.99043,12.13138],[-85.9604,12.09178],[-85.98403,12.07128],[-85.98908,12.01313],[-85.98682,12.00983],[-85.98848,11.99535],[-85.99757,11.98825],[-86.00382,11.98877],[-86.01256,11.9839],[-86.01638,11.9855],[-86.02103,11.97086],[-86.03534,11.95051],[-86.03088,11.92344],[-86.00345,11.90885],[-86.00803,11.89787],[-86.01379,11.89563],[-86.00722,11.89197],[-85.99537,11.89138],[-85.99816,11.88054],[-86.00385,11.86878],[-86.02071,11.85188],[-86.01292,11.84025],[-86.01445,11.83142],[-86.0126,11.82317],[-86.01472,11.80369],[-86.01844,11.79331],[-86.00452,11.78222],[-85.99112,11.7731],[-85.98671,11.77356],[-85.97781,11.78219],[-85.97013,11.78015],[-85.96393,11.78477],[-85.94912,11.78195],[-85.94521,11.77193],[-85.92937,11.77134],[-85.92312,11.76692],[-85.92695,11.76118],[-85.92219,11.75168],[-85.90444,11.75831],[-85.89466,11.75195],[-85.89109,11.70124],[-85.88237,11.71264],[-85.87831,11.70049],[-85.67037,11.7096],[-85.78366,12.11934],[-85.78591,12.13193],[-85.79375,12.13573],[-85.79324,12.13975],[-85.80206,12.14272],[-85.81297,12.14131],[-85.81725,12.14926],[-85.81349,12.16447],[-85.81527,12.17077],[-85.81254,12.18659],[-85.81502,12.19279],[-85.82561,12.2026],[-85.8247,12.21075],[-85.85369,12.20127],[-85.86304,12.20106],[-85.86793,12.20673],[-85.89283,12.21164],[-85.89922,12.21458],[-85.91897,12.21071],[-85.91436,12.20054],[-85.927,12.18793],[-86.01498,12.15029]]]}}