{"type":"Feature","properties":{"id":"SVK.3.2","name":"District of Turcianske Teplice","level":2,"country":"SVK"},"geometry":{"type":"Polygon","coordinates":[[[18.99831,48.74899],[19.01217,48.76778],[19.01075,48.77431],[19.01658,48.79026],[18.99246,48.80244],[18.99221,48.81087],[19.00217,48.81756],[19.00307,48.83338],[18.99395,48.84592],[19.00885,48.84995],[19.02563,48.86678],[19.02288,48.87532],[19.02929,48.878],[19.02137,48.88604],[19.01048,48.88436],[19.00067,48.87748],[18.97444,48.87912],[18.95074,48.89548],[18.94854,48.9057],[18.93349,48.9197],[18.91044,48.9243],[18.89246,48.93605],[18.86486,48.93787],[18.82948,48.95194],[18.81766,48.94951],[18.79838,48.95439],[18.77797,48.96404],[18.76424,48.96029],[18.74154,48.95027],[18.72455,48.93789],[18.72028,48.93749],[18.6946,48.92793],[18.69756,48.91767],[18.69319,48.91178],[18.70794,48.89749],[18.70411,48.88709],[18.69542,48.8807],[18.70068,48.86909],[18.69807,48.84771],[18.72293,48.83803],[18.72914,48.83201],[18.73928,48.83212],[18.75243,48.82689],[18.75052,48.82017],[18.77332,48.81171],[18.78032,48.80418],[18.77672,48.79078],[18.79351,48.7826],[18.81014,48.76917],[18.81445,48.75878],[18.82267,48.75599],[18.82635,48.74406],[18.84239,48.75018],[18.86335,48.76464],[18.87351,48.76939],[18.88449,48.76846],[18.88545,48.76241],[18.89842,48.75187],[18.90984,48.75064],[18.91461,48.74334],[18.93015,48.74218],[18.94518,48.74803],[18.96331,48.74596],[18.97685,48.7481],[18.98489,48.74547],[18.99831,48.74899]]]}}