{"type":"Feature","properties":{"id":"SVK.6.6","name":"District of Galanta","level":2,"country":"SVK"},"geometry":{"type":"Polygon","coordinates":[[[17.88029,47.98627],[17.86963,48.00547],[17.87411,48.01835],[17.86862,48.02249],[17.88447,48.03427],[17.87795,48.04014],[17.88089,48.04592],[17.87144,48.0531],[17.85397,48.05437],[17.83847,48.06339],[17.85157,48.06928],[17.84355,48.07684],[17.81462,48.06539],[17.8026,48.07615],[17.80703,48.08835],[17.8201,48.10575],[17.81317,48.11373],[17.77767,48.13956],[17.75477,48.14833],[17.77803,48.15817],[17.79009,48.15619],[17.80019,48.14847],[17.81635,48.15542],[17.82104,48.16603],[17.82897,48.16719],[17.80057,48.18574],[17.80102,48.19141],[17.82048,48.20105],[17.83157,48.19268],[17.84382,48.18928],[17.87728,48.20129],[17.88202,48.21493],[17.86896,48.22645],[17.85354,48.23117],[17.84627,48.24621],[17.85908,48.25259],[17.85065,48.26133],[17.86009,48.26747],[17.86561,48.28069],[17.85969,48.28728],[17.83792,48.28948],[17.83295,48.29757],[17.8471,48.30662],[17.84934,48.33208],[17.86052,48.33704],[17.85707,48.34723],[17.84357,48.34045],[17.84059,48.34772],[17.82881,48.35352],[17.81155,48.35232],[17.80301,48.34751],[17.81382,48.32863],[17.79822,48.32633],[17.78861,48.3222],[17.77405,48.33006],[17.7674,48.33843],[17.758,48.34082],[17.74978,48.31706],[17.74194,48.32005],[17.70526,48.31623],[17.68742,48.30393],[17.6972,48.30056],[17.68941,48.28362],[17.67808,48.28091],[17.65538,48.27927],[17.65268,48.26932],[17.62078,48.26844],[17.60682,48.27042],[17.59623,48.26493],[17.58314,48.25087],[17.57684,48.25004],[17.56147,48.23976],[17.53341,48.26577],[17.51374,48.27908],[17.48268,48.25288],[17.47864,48.24091],[17.47328,48.23508],[17.52056,48.22555],[17.50074,48.20531],[17.50445,48.20054],[17.52145,48.1944],[17.51429,48.17495],[17.50711,48.17652],[17.50015,48.16834],[17.48624,48.17228],[17.48279,48.1639],[17.47563,48.16257],[17.4674,48.1523],[17.46664,48.1441],[17.48392,48.13585],[17.49164,48.12524],[17.52538,48.11368],[17.53319,48.12201],[17.54389,48.12208],[17.54691,48.11523],[17.53788,48.11021],[17.54329,48.10556],[17.55912,48.10822],[17.56899,48.11406],[17.58395,48.10681],[17.5934,48.09136],[17.60323,48.1091],[17.61129,48.1115],[17.61851,48.10376],[17.6134,48.09345],[17.64004,48.09268],[17.65438,48.08496],[17.66727,48.08827],[17.66714,48.07752],[17.68071,48.07476],[17.68002,48.06538],[17.68901,48.06668],[17.70057,48.05981],[17.71609,48.06155],[17.75787,48.05371],[17.76142,48.03586],[17.77602,48.02961],[17.78241,48.01977],[17.79526,48.0177],[17.8049,48.0058],[17.81434,48.00625],[17.81734,47.99937],[17.82785,47.99282],[17.83745,47.98006],[17.85581,47.97278],[17.8671,47.96342],[17.8756,47.96057],[17.87489,47.97439],[17.88029,47.98627]]]}}