{"type":"Feature","properties":{"id":"SVK.7.3","name":"District of Gelnica","level":2,"country":"SVK"},"geometry":{"type":"Polygon","coordinates":[[[20.5336,48.79417],[20.53477,48.78476],[20.54932,48.78089],[20.55419,48.77519],[20.55379,48.76127],[20.56467,48.74698],[20.57739,48.74591],[20.5909,48.74856],[20.6017,48.74761],[20.61754,48.75508],[20.63128,48.75026],[20.63675,48.74388],[20.65169,48.73968],[20.64927,48.72096],[20.64936,48.69906],[20.65867,48.68605],[20.69869,48.68091],[20.71613,48.67148],[20.73187,48.66743],[20.73673,48.67134],[20.74323,48.67588],[20.73917,48.68655],[20.75039,48.7003],[20.74747,48.70651],[20.75013,48.71759],[20.76038,48.71991],[20.76682,48.72637],[20.78995,48.72938],[20.8068,48.73757],[20.82329,48.73855],[20.83357,48.74408],[20.84374,48.75654],[20.84217,48.76802],[20.8596,48.77945],[20.87283,48.77096],[20.90377,48.76741],[20.91882,48.76366],[20.93714,48.76704],[20.9467,48.77511],[20.96843,48.77872],[20.98053,48.77748],[21.00276,48.77038],[21.01871,48.77237],[21.03078,48.77873],[21.0235,48.78815],[21.029,48.79064],[21.03044,48.80068],[21.03819,48.8073],[21.06417,48.82192],[21.06031,48.8303],[21.07334,48.83714],[21.06934,48.85016],[21.06088,48.85075],[21.06111,48.85839],[21.0427,48.86185],[21.04198,48.87528],[21.05693,48.88025],[21.0658,48.87824],[21.06495,48.88928],[21.0556,48.90254],[21.05819,48.90569],[21.036,48.90308],[21.02538,48.90391],[21.01509,48.91375],[21.01351,48.9238],[20.99017,48.93603],[20.99084,48.94949],[20.98503,48.9594],[20.97268,48.96018],[20.94997,48.9474],[20.93995,48.95107],[20.91969,48.96371],[20.89911,48.96315],[20.88475,48.95348],[20.89405,48.93596],[20.88696,48.92932],[20.90196,48.9247],[20.92072,48.90455],[20.91055,48.89885],[20.90581,48.8921],[20.89666,48.88858],[20.88534,48.87876],[20.87572,48.85959],[20.84669,48.85192],[20.81093,48.84433],[20.77892,48.84001],[20.76788,48.83463],[20.75072,48.83326],[20.73688,48.84382],[20.72437,48.8461],[20.7104,48.85617],[20.69692,48.85588],[20.68663,48.86211],[20.66898,48.86205],[20.65922,48.85168],[20.66084,48.87417],[20.65667,48.89088],[20.64429,48.89418],[20.62142,48.89533],[20.6077,48.89086],[20.59463,48.88258],[20.58471,48.87965],[20.57784,48.86493],[20.58037,48.85591],[20.57053,48.84859],[20.56857,48.84117],[20.55125,48.83055],[20.55634,48.82572],[20.55111,48.81905],[20.52997,48.81347],[20.52975,48.80027],[20.5336,48.79417]]]}}