{"type":"Feature","properties":{"id":"SVK.2.9","name":"District of Detva","level":2,"country":"SVK"},"geometry":{"type":"Polygon","coordinates":[[[19.35353,48.3901],[19.35855,48.38325],[19.37194,48.38291],[19.39122,48.39402],[19.39434,48.39832],[19.38849,48.40877],[19.39044,48.42046],[19.37949,48.43721],[19.3654,48.44914],[19.36709,48.45642],[19.39582,48.45782],[19.38266,48.4675],[19.39481,48.47498],[19.37062,48.48404],[19.37099,48.48882],[19.39342,48.48608],[19.40842,48.48204],[19.42216,48.48772],[19.43009,48.48179],[19.4387,48.48989],[19.44184,48.50041],[19.45637,48.49861],[19.45616,48.49079],[19.47157,48.49383],[19.47841,48.50202],[19.49993,48.50886],[19.50108,48.52094],[19.53567,48.53308],[19.54302,48.54036],[19.56789,48.54478],[19.56911,48.53644],[19.58047,48.53711],[19.59156,48.53641],[19.60508,48.53965],[19.61787,48.5345],[19.6257,48.51902],[19.63437,48.53949],[19.6502,48.5529],[19.64701,48.56422],[19.65854,48.56349],[19.67765,48.57507],[19.6815,48.57293],[19.71201,48.57885],[19.70901,48.58826],[19.72132,48.59677],[19.70469,48.60267],[19.68981,48.61428],[19.67532,48.61549],[19.67229,48.61916],[19.66065,48.62385],[19.6378,48.62489],[19.64549,48.63403],[19.64422,48.64301],[19.62953,48.64186],[19.61894,48.64604],[19.60898,48.64525],[19.60165,48.65065],[19.57217,48.65458],[19.56364,48.65887],[19.55396,48.65737],[19.5388,48.66149],[19.51921,48.66088],[19.49426,48.6543],[19.48449,48.65476],[19.46249,48.64438],[19.4488,48.63563],[19.43425,48.61512],[19.42595,48.60793],[19.4065,48.61757],[19.38193,48.62055],[19.37335,48.61279],[19.36495,48.61284],[19.35444,48.60523],[19.32901,48.60642],[19.31836,48.59106],[19.34472,48.5805],[19.36274,48.57544],[19.35982,48.56365],[19.38606,48.54791],[19.37061,48.5485],[19.3621,48.55935],[19.34179,48.56252],[19.33134,48.55997],[19.32613,48.57474],[19.29534,48.57838],[19.29213,48.56636],[19.28443,48.56361],[19.28,48.5542],[19.28475,48.54057],[19.27543,48.53369],[19.28989,48.52044],[19.28668,48.50986],[19.27937,48.50236],[19.27179,48.50663],[19.26156,48.5018],[19.24156,48.50204],[19.23766,48.48574],[19.2467,48.48166],[19.25548,48.47092],[19.27182,48.47175],[19.27872,48.46786],[19.27474,48.45682],[19.27564,48.44398],[19.30941,48.43652],[19.3209,48.43829],[19.34242,48.42035],[19.34946,48.40797],[19.35353,48.3901]]]}}