{"type":"Feature","properties":{"id":"SVK.7.7","name":"District of Kolice IV","level":2,"country":"SVK"},"geometry":{"type":"Polygon","coordinates":[[[21.31936,48.71226],[21.30384,48.71187],[21.28137,48.72665],[21.27632,48.72454],[21.2713,48.71894],[21.24756,48.71486],[21.24628,48.70883],[21.23597,48.69666],[21.21603,48.68242],[21.21149,48.67087],[21.22389,48.66412],[21.24191,48.66055],[21.24876,48.64501],[21.26877,48.64557],[21.28467,48.65129],[21.29918,48.65017],[21.33007,48.65151],[21.33305,48.64664],[21.35278,48.64474],[21.35528,48.65739],[21.34942,48.65916],[21.34993,48.67419],[21.34225,48.67673],[21.32895,48.68933],[21.33026,48.70682],[21.31936,48.71226]]]}}