{"type":"Feature","properties":{"id":"CHL.9.4","name":"Provincia de Talagante","level":2,"country":"CHL"},"geometry":{"type":"Polygon","coordinates":[[[-70.92088,-33.51126],[-70.92277,-33.524],[-70.92964,-33.54646],[-70.93796,-33.55491],[-70.94845,-33.56061],[-70.94796,-33.56727],[-70.93635,-33.57752],[-70.9352,-33.587],[-70.93669,-33.59259],[-70.94582,-33.59814],[-70.9502,-33.59897],[-70.95448,-33.60495],[-70.95577,-33.61316],[-70.96377,-33.62191],[-70.96962,-33.62402],[-70.97752,-33.61809],[-70.98752,-33.61669],[-70.99473,-33.61366],[-71.00206,-33.61509],[-71.01078,-33.62523],[-71.0185,-33.6282],[-71.02966,-33.62834],[-71.03378,-33.64153],[-71.03567,-33.64285],[-71.04798,-33.63656],[-71.05974,-33.63799],[-71.06262,-33.63249],[-71.07356,-33.62838],[-71.0836,-33.62774],[-71.08905,-33.63277],[-71.09789,-33.63417],[-71.10575,-33.68535],[-71.10081,-33.69264],[-71.10266,-33.70546],[-71.09566,-33.71085],[-71.09712,-33.71577],[-71.10639,-33.71959],[-71.10965,-33.72352],[-71.11931,-33.72955],[-71.11927,-33.73987],[-71.11055,-33.74411],[-71.09184,-33.74793],[-71.07798,-33.75653],[-71.05751,-33.75325],[-71.04163,-33.75521],[-71.03532,-33.76153],[-71.02584,-33.76452],[-71.0179,-33.77144],[-71.0061,-33.77248],[-70.99717,-33.77843],[-70.99331,-33.77569],[-70.98112,-33.77965],[-70.98215,-33.79409],[-70.98065,-33.79941],[-70.96104,-33.79393],[-70.94904,-33.7979],[-70.92278,-33.80088],[-70.91784,-33.79625],[-70.91793,-33.78822],[-70.91239,-33.77465],[-70.90531,-33.78264],[-70.90424,-33.797],[-70.90171,-33.80233],[-70.89606,-33.80363],[-70.89066,-33.80112],[-70.87752,-33.80386],[-70.86246,-33.79481],[-70.85778,-33.787],[-70.83238,-33.77044],[-70.821,-33.75408],[-70.82605,-33.74884],[-70.82451,-33.74097],[-70.82039,-33.73612],[-70.82132,-33.72736],[-70.82434,-33.72084],[-70.81848,-33.71985],[-70.81138,-33.72256],[-70.807,-33.72034],[-70.8046,-33.71206],[-70.79542,-33.70299],[-70.79181,-33.69578],[-70.79902,-33.68007],[-70.80278,-33.66668],[-70.80821,-33.65964],[-70.81172,-33.64449],[-70.81911,-33.64221],[-70.83645,-33.6623],[-70.86746,-33.65048],[-70.86108,-33.64687],[-70.84364,-33.63165],[-70.82527,-33.61074],[-70.81718,-33.59564],[-70.81048,-33.59627],[-70.79758,-33.57307],[-70.78827,-33.57775],[-70.77843,-33.56906],[-70.78373,-33.56767],[-70.79794,-33.55561],[-70.81594,-33.54371],[-70.80532,-33.53595],[-70.80416,-33.53157],[-70.80795,-33.52837],[-70.81833,-33.53778],[-70.84175,-33.53337],[-70.85145,-33.53731],[-70.8584,-33.53087],[-70.8729,-33.5323],[-70.88672,-33.52793],[-70.89239,-33.52057],[-70.89762,-33.51792],[-70.90389,-33.51076],[-70.91067,-33.50897],[-70.92088,-33.51126]]]}}