{"type":"Feature","properties":{"id":"CHL.5.1","name":"Provincia de Parinacota","level":2,"country":"CHL"},"geometry":{"type":"Polygon","coordinates":[[[-68.95033,-18.93652],[-68.93199,-18.92172],[-68.93178,-18.91399],[-68.92406,-18.90828],[-68.92551,-18.9037],[-68.92187,-18.8931],[-68.91633,-18.88999],[-68.91999,-18.88485],[-68.9193,-18.86779],[-68.9232,-18.86007],[-68.9253,-18.84303],[-68.97682,-18.73809],[-68.97675,-18.72656],[-68.98674,-18.70678],[-68.98442,-18.6935],[-68.98811,-18.67418],[-68.99463,-18.6601],[-69.00516,-18.64674],[-69.0085,-18.63738],[-69.03274,-18.62907],[-69.02999,-18.61067],[-69.02549,-18.60026],[-69.0149,-18.5988],[-69.00676,-18.60081],[-69.01685,-18.57239],[-69.01395,-18.56109],[-69.01291,-18.54173],[-69.01117,-18.53432],[-69.00598,-18.5254],[-69.00481,-18.52012],[-69.01037,-18.51649],[-69.00822,-18.48685],[-69.00396,-18.48075],[-69.00432,-18.4761],[-69.02887,-18.4569],[-69.02838,-18.44665],[-69.0365,-18.44494],[-69.04745,-18.42644],[-69.04575,-18.41592],[-69.04848,-18.4124],[-69.0457,-18.39106],[-69.048,-18.38282],[-69.05257,-18.38157],[-69.05518,-18.3735],[-69.0474,-18.36781],[-69.0493,-18.35593],[-69.05284,-18.34683],[-69.05136,-18.33785],[-69.0458,-18.33458],[-69.03787,-18.32338],[-69.04566,-18.31264],[-69.04936,-18.31262],[-69.05806,-18.30819],[-69.06338,-18.30183],[-69.07508,-18.29234],[-69.07005,-18.25249],[-69.06585,-18.24681],[-69.06601,-18.24067],[-69.06327,-18.23373],[-69.07318,-18.22313],[-69.08353,-18.21628],[-69.09228,-18.21188],[-69.1055,-18.20829],[-69.12052,-18.18928],[-69.13228,-18.17894],[-69.14584,-18.16306],[-69.14209,-18.16058],[-69.14058,-18.14633],[-69.12915,-18.13809],[-69.12867,-18.12658],[-69.09754,-18.11335],[-69.09963,-18.10664],[-69.09839,-18.10342],[-69.09263,-18.10187],[-69.08479,-18.0962],[-69.08148,-18.09662],[-69.08141,-18.08643],[-69.07742,-18.08728],[-69.06811,-18.06964],[-69.05147,-18.05648],[-69.06206,-18.05446],[-69.06652,-18.04372],[-69.07066,-18.04111],[-69.07892,-18.04323],[-69.08613,-18.03817],[-69.089,-18.03024],[-69.09641,-18.02153],[-69.10536,-18.02119],[-69.11635,-18.00846],[-69.12716,-18.00258],[-69.15274,-17.99964],[-69.16374,-18.00086],[-69.17066,-17.99339],[-69.18213,-17.99319],[-69.2065,-17.98836],[-69.21242,-17.98583],[-69.21638,-17.98153],[-69.22523,-17.98017],[-69.23372,-17.98458],[-69.24093,-17.98461],[-69.24743,-17.9822],[-69.25619,-17.97514],[-69.25436,-17.96045],[-69.25576,-17.95408],[-69.26209,-17.96143],[-69.26964,-17.96388],[-69.2755,-17.9689],[-69.28116,-17.96945],[-69.28369,-17.96435],[-69.28886,-17.96018],[-69.29077,-17.95492],[-69.29601,-17.94791],[-69.30003,-17.93913],[-69.30366,-17.92366],[-69.30135,-17.91872],[-69.30399,-17.91372],[-69.30139,-17.90807],[-69.31105,-17.89925],[-69.30743,-17.89418],[-69.30609,-17.88466],[-69.30728,-17.8675],[-69.30275,-17.86611],[-69.29946,-17.85674],[-69.29997,-17.85087],[-69.30575,-17.84486],[-69.30536,-17.8394],[-69.30697,-17.82381],[-69.31072,-17.81574],[-69.30773,-17.80548],[-69.31118,-17.79376],[-69.31423,-17.78756],[-69.32093,-17.78224],[-69.32242,-17.77667],[-69.33386,-17.76531],[-69.33425,-17.75903],[-69.33884,-17.7518],[-69.33927,-17.74386],[-69.33553,-17.73799],[-69.33687,-17.73149],[-69.34214,-17.72506],[-69.46788,-17.6049],[-69.46848,-17.4984],[-69.55234,-17.57535],[-69.61653,-17.62052],[-69.66654,-17.66027],[-69.73127,-17.65243],[-69.79621,-17.64639],[-69.82611,-17.706],[-69.8222,-17.74397],[-69.80085,-17.76218],[-69.80336,-17.78801],[-69.7991,-17.86581],[-69.77987,-17.9118],[-69.75021,-17.9473],[-69.75468,-17.98927],[-69.78231,-18.04581],[-69.77638,-18.04603],[-69.77061,-18.05342],[-69.76872,-18.06256],[-69.77106,-18.06792],[-69.76535,-18.07404],[-69.76115,-18.08118],[-69.75052,-18.08069],[-69.74677,-18.0873],[-69.75514,-18.09383],[-69.76039,-18.10172],[-69.76984,-18.10452],[-69.75928,-18.12099],[-69.75774,-18.12859],[-69.74845,-18.1394],[-69.74004,-18.1399],[-69.7186,-18.14625],[-69.7018,-18.1458],[-69.69436,-18.15025],[-69.69017,-18.15542],[-69.67512,-18.16121],[-69.68194,-18.1644],[-69.68332,-18.16782],[-69.69155,-18.17516],[-69.69413,-18.19604],[-69.68829,-18.20142],[-69.68555,-18.213],[-69.6816,-18.21609],[-69.68263,-18.22245],[-69.67851,-18.24365],[-69.67164,-18.26778],[-69.66169,-18.29223],[-69.64984,-18.30966],[-69.65018,-18.31683],[-69.65739,-18.32596],[-69.66254,-18.32808],[-69.67525,-18.33981],[-69.66924,-18.35317],[-69.65362,-18.38054],[-69.644,-18.40595],[-69.62667,-18.43462],[-69.63611,-18.44634],[-69.65018,-18.45579],[-69.65963,-18.46523],[-69.67113,-18.48754],[-69.67696,-18.49291],[-69.67971,-18.49812],[-69.68194,-18.51537],[-69.68435,-18.52237],[-69.69482,-18.53344],[-69.69482,-18.54109],[-69.69258,-18.54548],[-69.61293,-18.59967],[-69.54238,-18.64225],[-69.52058,-18.65705],[-69.50152,-18.67202],[-69.4974,-18.6782],[-69.495,-18.686],[-69.48968,-18.69039],[-69.48916,-18.69885],[-69.4756,-18.69933],[-69.46994,-18.70145],[-69.46273,-18.69803],[-69.45758,-18.69836],[-69.45346,-18.70405],[-69.4526,-18.7112],[-69.43767,-18.72047],[-69.42874,-18.72356],[-69.39255,-18.7929],[-69.3898,-18.80444],[-69.38328,-18.8111],[-69.3589,-18.82166],[-69.35684,-18.8202],[-69.35616,-18.81029],[-69.34895,-18.80558],[-69.34156,-18.80525],[-69.33212,-18.79599],[-69.33247,-18.78835],[-69.32697,-18.78283],[-69.3165,-18.78429],[-69.3062,-18.77909],[-69.29848,-18.7799],[-69.28801,-18.78478],[-69.27633,-18.79339],[-69.26758,-18.79014],[-69.26535,-18.78413],[-69.25024,-18.78526],[-69.23994,-18.78965],[-69.2341,-18.78738],[-69.22449,-18.7877],[-69.21316,-18.79631],[-69.20595,-18.81435],[-69.20698,-18.82069],[-69.20012,-18.82816],[-69.18226,-18.82816],[-69.1651,-18.83401],[-69.15703,-18.8306],[-69.15102,-18.83092],[-69.15548,-18.86228],[-69.15085,-18.87203],[-69.15205,-18.8782],[-69.15033,-18.88632],[-69.15377,-18.89444],[-69.15463,-18.90808],[-69.15686,-18.91263],[-69.15068,-18.91766],[-69.14827,-18.92416],[-69.14724,-18.93423],[-69.14141,-18.93829],[-69.14055,-18.94949],[-69.13368,-18.95517],[-69.12699,-18.95826],[-69.12047,-18.96459],[-69.11961,-18.96978],[-69.12458,-18.97238],[-69.12458,-18.97903],[-69.11909,-18.98342],[-69.11154,-18.99381],[-69.10381,-19.00014],[-69.10158,-19.00403],[-69.09248,-19.0115],[-69.08888,-19.01231],[-69.08424,-19.01977],[-69.07118,-19.02598],[-69.0572,-19.02771],[-69.04864,-19.03057],[-69.02829,-19.00766],[-69.01995,-19.00836],[-69.01012,-18.99647],[-69.01059,-18.98663],[-69.02487,-18.97495],[-69.02101,-18.96774],[-69.02152,-18.95768],[-69.01079,-18.94883],[-69.00264,-18.95573],[-68.99637,-18.9576],[-68.98513,-18.95467],[-68.97869,-18.94777],[-68.96676,-18.94453],[-68.96081,-18.94678],[-68.95033,-18.93652]]]}}