{"type":"Feature","properties":{"id":"JPN.20.31","name":"Minamiizu","level":2,"country":"JPN"},"geometry":{"type":"Polygon","coordinates":[[[138.8515,34.70767],[138.84471,34.70894],[138.83231,34.70445],[138.81656,34.70426],[138.81035,34.7019],[138.79769,34.70702],[138.79151,34.715],[138.77141,34.71199],[138.75768,34.70663],[138.75206,34.707],[138.74071,34.70032],[138.74465,34.6877],[138.75617,34.69165],[138.76692,34.68495],[138.77725,34.67537],[138.77803,34.66697],[138.78957,34.66927],[138.79143,34.66264],[138.78035,34.66002],[138.77318,34.65433],[138.77186,34.64814],[138.77604,34.64108],[138.78683,34.64002],[138.79395,34.63406],[138.79302,34.62302],[138.79939,34.62288],[138.80628,34.62721],[138.82657,34.60641],[138.83977,34.60431],[138.8487,34.60494],[138.84886,34.6127],[138.85891,34.61224],[138.86747,34.61954],[138.87214,34.61756],[138.87805,34.62458],[138.88546,34.62354],[138.89145,34.63453],[138.90485,34.62905],[138.90163,34.63996],[138.89543,34.64237],[138.89088,34.64982],[138.89743,34.6545],[138.90085,34.6677],[138.89887,34.67341],[138.88671,34.67414],[138.88369,34.68209],[138.89195,34.68867],[138.89152,34.70005],[138.8515,34.70767]]]}}