{"type":"Feature","properties":{"id":"JPN.19.70","name":"Tomi","level":2,"country":"JPN"},"geometry":{"type":"Polygon","coordinates":[[[138.45771,36.41158],[138.45696,36.42024],[138.44719,36.41926],[138.4416,36.42259],[138.40097,36.43474],[138.38962,36.43068],[138.38709,36.43328],[138.35817,36.43065],[138.34686,36.42109],[138.34459,36.40586],[138.32901,36.40002],[138.32699,36.39478],[138.31773,36.3882],[138.30952,36.38599],[138.30889,36.38064],[138.29691,36.38018],[138.29419,36.37504],[138.29803,36.36779],[138.30814,36.36359],[138.32341,36.34703],[138.31902,36.33449],[138.3086,36.32288],[138.29876,36.31919],[138.29531,36.3131],[138.29697,36.3072],[138.30593,36.30821],[138.32422,36.30695],[138.32755,36.31682],[138.33569,36.32437],[138.34095,36.31649],[138.33722,36.30747],[138.34137,36.30321],[138.34209,36.29233],[138.34889,36.2964],[138.36836,36.29955],[138.37508,36.29512],[138.3863,36.29757],[138.38357,36.30329],[138.37649,36.30505],[138.37275,36.31718],[138.36508,36.32159],[138.36646,36.33262],[138.37578,36.33556],[138.37969,36.34397],[138.38693,36.35233],[138.38531,36.36016],[138.39409,36.37284],[138.41222,36.37121],[138.41762,36.37672],[138.42418,36.37658],[138.43801,36.38463],[138.44398,36.39817],[138.45771,36.41158]]]}}