{"type":"Feature","properties":{"id":"JPN.37.23","name":"Gojome","level":2,"country":"JPN"},"geometry":{"type":"MultiPolygon","coordinates":[[[[140.05892,39.93314],[140.04411,39.94024],[140.01599,39.91985],[140.04777,39.92655],[140.05892,39.93314]]],[[[140.23537,40.00768],[140.22821,40.00417],[140.21972,40.00599],[140.21168,40.01159],[140.19791,40.01292],[140.18746,40.01063],[140.18138,40.00583],[140.17338,40.00528],[140.17079,40.01056],[140.15823,40.01067],[140.1525,40.00447],[140.13907,39.99698],[140.13185,39.99775],[140.12693,39.98931],[140.11627,39.9863],[140.12103,39.97834],[140.11921,39.96684],[140.11138,39.95806],[140.09489,39.96773],[140.09034,39.95892],[140.09308,39.94539],[140.08061,39.93867],[140.07553,39.94006],[140.05937,39.93342],[140.08045,39.92832],[140.10161,39.92504],[140.10655,39.92791],[140.11933,39.92423],[140.11921,39.91976],[140.13302,39.91682],[140.13236,39.91061],[140.13856,39.90457],[140.14754,39.90298],[140.1493,39.89323],[140.1568,39.89042],[140.17624,39.89403],[140.18595,39.88285],[140.21095,39.88069],[140.21691,39.87749],[140.2159,39.86315],[140.22271,39.86098],[140.23378,39.84157],[140.23929,39.83899],[140.24568,39.82936],[140.25888,39.83002],[140.27376,39.82738],[140.28177,39.83497],[140.28816,39.83077],[140.29645,39.83295],[140.30642,39.84706],[140.30498,39.86068],[140.29827,39.86613],[140.30388,39.87962],[140.29676,39.88829],[140.29785,39.899],[140.29279,39.91192],[140.29563,39.91989],[140.29242,39.92748],[140.27421,39.93198],[140.26581,39.9378],[140.26694,39.94177],[140.26126,39.94973],[140.25152,39.95475],[140.24754,39.96016],[140.25267,39.97013],[140.25042,39.98361],[140.24318,39.98544],[140.23434,39.99182],[140.23537,40.00768]]]]}}