{"type":"Feature","properties":{"id":"JPN.7.32","name":"Fukuoka","level":2,"country":"JPN"},"geometry":{"type":"MultiPolygon","coordinates":[[[[130.31095,33.62599],[130.304,33.63796],[130.29822,33.6352],[130.29959,33.6262],[130.29487,33.61298],[130.29916,33.6073],[130.30839,33.60885],[130.31342,33.61704],[130.31095,33.62599]]],[[[130.42606,33.66972],[130.41598,33.67523],[130.39488,33.66453],[130.40164,33.65633],[130.41409,33.66143],[130.41753,33.65831],[130.42631,33.66191],[130.42606,33.66972]]],[[[130.22915,33.69472],[130.22516,33.68968],[130.23124,33.68312],[130.23718,33.6834],[130.23736,33.69085],[130.22915,33.69472]]],[[[130.44241,33.60668],[130.44109,33.61269],[130.45162,33.61888],[130.46123,33.63006],[130.46645,33.63081],[130.47216,33.6372],[130.4858,33.62679],[130.49425,33.63469],[130.49045,33.64939],[130.47906,33.64874],[130.4796,33.65378],[130.46897,33.66713],[130.46877,33.67954],[130.46406,33.68285],[130.45516,33.67953],[130.44832,33.69213],[130.44784,33.69782],[130.41803,33.71254],[130.41597,33.70228],[130.3996,33.68741],[130.38808,33.67948],[130.37142,33.67071],[130.35301,33.66562],[130.34672,33.66199],[130.33078,33.65995],[130.31662,33.66203],[130.30622,33.68494],[130.29892,33.68914],[130.29025,33.6874],[130.28581,33.67963],[130.29222,33.6669],[130.29869,33.66026],[130.30809,33.65945],[130.31222,33.66235],[130.32545,33.65935],[130.33384,33.64931],[130.33917,33.65203],[130.35004,33.6484],[130.35688,33.64335],[130.36019,33.65776],[130.36999,33.66583],[130.39814,33.67111],[130.40526,33.67478],[130.40782,33.68333],[130.41815,33.68632],[130.43006,33.68712],[130.43282,33.67919],[130.42542,33.67508],[130.43411,33.66497],[130.405,33.6522],[130.40637,33.64989],[130.42206,33.64727],[130.42091,33.6411],[130.40734,33.64246],[130.40409,33.63443],[130.40322,33.62337],[130.41496,33.62081],[130.41417,33.61695],[130.40134,33.61847],[130.39595,33.61021],[130.38474,33.6075],[130.39322,33.59732],[130.38568,33.59416],[130.38128,33.60272],[130.36434,33.60053],[130.35287,33.59515],[130.34069,33.59545],[130.32979,33.59863],[130.31347,33.59805],[130.31183,33.58817],[130.29293,33.58012],[130.2871,33.58313],[130.27668,33.58153],[130.26711,33.58662],[130.24848,33.59933],[130.2628,33.60262],[130.2707,33.59627],[130.27519,33.60408],[130.26961,33.61263],[130.26221,33.61077],[130.24768,33.61138],[130.23407,33.61516],[130.23012,33.62642],[130.22413,33.6342],[130.23455,33.64366],[130.2371,33.64873],[130.23101,33.65559],[130.22179,33.65916],[130.21043,33.66733],[130.20642,33.6638],[130.20772,33.6483],[130.19779,33.6398],[130.20398,33.63524],[130.20674,33.62854],[130.20491,33.61443],[130.21012,33.60605],[130.21179,33.58899],[130.21919,33.58056],[130.23771,33.58044],[130.24107,33.57308],[130.23666,33.56643],[130.23938,33.5589],[130.25751,33.55523],[130.26558,33.55657],[130.26644,33.55001],[130.28381,33.53953],[130.28865,33.53864],[130.28701,33.52248],[130.29221,33.51907],[130.29182,33.51306],[130.28561,33.50707],[130.27951,33.50666],[130.27259,33.49556],[130.27211,33.47935],[130.27671,33.47888],[130.29838,33.46239],[130.30567,33.46314],[130.31378,33.4581],[130.32312,33.45596],[130.335,33.45037],[130.33975,33.44461],[130.34543,33.44502],[130.35579,33.43324],[130.36881,33.43628],[130.37822,33.42496],[130.38739,33.42812],[130.39616,33.42741],[130.39599,33.44026],[130.39936,33.44879],[130.38796,33.4548],[130.38802,33.46646],[130.38127,33.48038],[130.37937,33.49498],[130.37123,33.50478],[130.38198,33.50555],[130.39107,33.50863],[130.40393,33.5185],[130.41658,33.52349],[130.4268,33.53039],[130.42836,33.52268],[130.43405,33.52291],[130.43581,33.52892],[130.44302,33.53323],[130.43965,33.54291],[130.44216,33.5466],[130.45217,33.54882],[130.4634,33.53584],[130.46893,33.53789],[130.47096,33.54948],[130.46151,33.5619],[130.46671,33.56279],[130.4737,33.55317],[130.47784,33.55253],[130.48567,33.56019],[130.48564,33.56028],[130.47728,33.56721],[130.47898,33.57526],[130.4731,33.58354],[130.46738,33.58695],[130.45924,33.59688],[130.44241,33.60668]]]]}}