{"type":"Feature","properties":{"id":"JPN.44.15","name":"Nagayo","level":2,"country":"JPN"},"geometry":{"type":"Polygon","coordinates":[[[129.84644,32.8121],[129.85106,32.80527],[129.86084,32.79838],[129.87013,32.80571],[129.88067,32.8081],[129.8875,32.80641],[129.89395,32.81169],[129.90366,32.80934],[129.91748,32.81369],[129.92417,32.82087],[129.92149,32.82806],[129.91295,32.83361],[129.90579,32.84241],[129.89928,32.84441],[129.88544,32.86859],[129.89034,32.87116],[129.88916,32.87479],[129.87854,32.87475],[129.8802,32.8637],[129.87307,32.85866],[129.86735,32.85074],[129.8588,32.84642],[129.85251,32.86066],[129.85372,32.84864],[129.86227,32.83923],[129.86707,32.83773],[129.8678,32.82814],[129.8578,32.82362],[129.84644,32.8121]]]}}