{"type":"Feature","properties":{"id":"JPN.15.24","name":"Seto","level":2,"country":"JPN"},"geometry":{"type":"Polygon","coordinates":[[[137.05034,35.26023],[137.05497,35.25042],[137.05988,35.24628],[137.06615,35.2384],[137.05784,35.22495],[137.0596,35.2145],[137.05701,35.20802],[137.04909,35.20272],[137.04983,35.19474],[137.05918,35.1911],[137.06705,35.19589],[137.07218,35.19138],[137.08157,35.18874],[137.09567,35.17939],[137.10613,35.17935],[137.10919,35.18572],[137.12606,35.18242],[137.12938,35.18847],[137.14312,35.19361],[137.15302,35.20365],[137.16079,35.20665],[137.16998,35.20666],[137.17595,35.22286],[137.18096,35.22853],[137.17755,35.23629],[137.18415,35.24999],[137.18949,35.25257],[137.17637,35.2604],[137.17609,35.27038],[137.16546,35.28226],[137.14583,35.2798],[137.13159,35.29363],[137.11895,35.2979],[137.10103,35.30162],[137.09628,35.2907],[137.08371,35.28108],[137.08067,35.27448],[137.0684,35.26304],[137.05571,35.26532],[137.05034,35.26023]]]}}