{"type":"Feature","properties":{"id":"JPN.10.12","name":"Tobe","level":2,"country":"JPN"},"geometry":{"type":"Polygon","coordinates":[[[132.74562,33.62767],[132.75,33.6276],[132.75937,33.62069],[132.76631,33.60725],[132.77836,33.61246],[132.78917,33.62037],[132.79643,33.61873],[132.8128,33.62836],[132.82462,33.62964],[132.83572,33.63515],[132.83694,33.64072],[132.83082,33.645],[132.8356,33.65162],[132.83198,33.65561],[132.83543,33.66694],[132.82524,33.67095],[132.82185,33.68051],[132.83195,33.68736],[132.82392,33.69471],[132.82229,33.71239],[132.82561,33.71547],[132.81833,33.72511],[132.81745,33.73256],[132.80674,33.74208],[132.80499,33.75332],[132.79878,33.75568],[132.79456,33.76489],[132.79912,33.78604],[132.78591,33.78762],[132.77065,33.79568],[132.77078,33.79054],[132.77434,33.78844],[132.77224,33.77783],[132.76241,33.771],[132.76172,33.76391],[132.75697,33.76075],[132.74173,33.75749],[132.74676,33.74837],[132.73639,33.7367],[132.74362,33.73329],[132.74488,33.72517],[132.75353,33.72563],[132.75907,33.72217],[132.75948,33.71635],[132.76553,33.70505],[132.77971,33.69238],[132.77409,33.68559],[132.77321,33.66924],[132.76566,33.6608],[132.76455,33.64762],[132.75362,33.64392],[132.7525,33.63758],[132.74562,33.62767]]]}}