{"type":"Feature","properties":{"id":"JPN.12.23","name":"Geisei","level":2,"country":"JPN"},"geometry":{"type":"Polygon","coordinates":[[[133.86458,33.59342],[133.85049,33.58469],[133.84346,33.57678],[133.82943,33.58352],[133.82054,33.57999],[133.81726,33.57479],[133.82181,33.56735],[133.81318,33.55709],[133.80188,33.55017],[133.79408,33.54945],[133.78349,33.53657],[133.78094,33.5291],[133.77,33.51582],[133.77983,33.51697],[133.82005,33.51523],[133.82776,33.52404],[133.836,33.52846],[133.83712,33.52148],[133.85325,33.53053],[133.85653,33.53642],[133.85601,33.54445],[133.85979,33.55861],[133.8687,33.56409],[133.8721,33.57273],[133.8698,33.58447],[133.86458,33.59342]]]}}