{"type":"Feature","properties":{"id":"JPN.20.33","name":"Omaezaki","level":2,"country":"JPN"},"geometry":{"type":"Polygon","coordinates":[[[138.07825,34.64228],[138.1371,34.62279],[138.14902,34.61608],[138.17515,34.60847],[138.19206,34.60027],[138.20632,34.60014],[138.22674,34.59466],[138.23448,34.60566],[138.22184,34.6071],[138.20903,34.6209],[138.20624,34.62067],[138.19386,34.61912],[138.18033,34.62557],[138.17117,34.62427],[138.16796,34.63486],[138.16857,34.64386],[138.18311,34.65957],[138.18251,34.66922],[138.17264,34.67472],[138.17332,34.6818],[138.16327,34.69089],[138.14556,34.69763],[138.1369,34.7006],[138.12474,34.69503],[138.1225,34.69],[138.11183,34.68408],[138.11057,34.67416],[138.10446,34.66561],[138.10198,34.65765],[138.08438,34.66096],[138.08101,34.65724],[138.07825,34.64228]]]}}