{"type":"Feature","properties":{"id":"JPN.15.54","name":"Toyokawa","level":2,"country":"JPN"},"geometry":{"type":"MultiPolygon","coordinates":[[[[137.32409,34.78925],[137.31311,34.79575],[137.30334,34.79294],[137.3064,34.78474],[137.32409,34.78925]]],[[[137.25635,34.86098],[137.25833,34.85012],[137.2654,34.83878],[137.27464,34.83398],[137.28222,34.83538],[137.29558,34.83332],[137.30166,34.82649],[137.28933,34.8239],[137.29758,34.81085],[137.3103,34.8052],[137.31873,34.79253],[137.3246,34.79006],[137.33915,34.7864],[137.34935,34.79274],[137.34895,34.78419],[137.36327,34.79086],[137.37658,34.79218],[137.38658,34.80075],[137.3948,34.7967],[137.40238,34.79754],[137.4049,34.8044],[137.42074,34.81078],[137.43152,34.80983],[137.43892,34.81606],[137.43728,34.82767],[137.43061,34.82486],[137.4231,34.83848],[137.43834,34.84744],[137.44606,34.84426],[137.45582,34.84761],[137.46132,34.85873],[137.45265,34.86397],[137.45993,34.87102],[137.45588,34.8794],[137.4364,34.89706],[137.42304,34.90354],[137.42055,34.90975],[137.40521,34.90372],[137.39803,34.88496],[137.39401,34.88334],[137.38229,34.88789],[137.38049,34.892],[137.36681,34.88958],[137.35209,34.8916],[137.35003,34.89828],[137.32936,34.88754],[137.32323,34.88826],[137.30347,34.87774],[137.29684,34.88629],[137.29145,34.88236],[137.27852,34.88134],[137.26827,34.88525],[137.26306,34.88177],[137.26275,34.87556],[137.25616,34.86932],[137.25635,34.86098]]]]}}