{"type":"Feature","properties":{"id":"JPN.47.24","name":"Nanmoku","level":2,"country":"JPN"},"geometry":{"type":"Polygon","coordinates":[[[138.77144,36.13266],[138.77297,36.13678],[138.76414,36.14319],[138.76481,36.16041],[138.76553,36.16937],[138.75967,36.17591],[138.75993,36.18689],[138.75229,36.18954],[138.74911,36.19488],[138.73725,36.19196],[138.73657,36.20111],[138.72585,36.20485],[138.71805,36.21134],[138.70761,36.21452],[138.68894,36.20919],[138.69034,36.2031],[138.68131,36.19646],[138.67366,36.19977],[138.66493,36.19861],[138.66087,36.20246],[138.64201,36.19872],[138.6367,36.20427],[138.62933,36.20274],[138.62279,36.19693],[138.62942,36.18347],[138.6371,36.17489],[138.61278,36.16857],[138.60484,36.1642],[138.59456,36.16561],[138.58903,36.17054],[138.58962,36.17679],[138.58297,36.17867],[138.57727,36.16807],[138.5933,36.15307],[138.5943,36.14426],[138.60066,36.13563],[138.62216,36.13196],[138.63409,36.13397],[138.63733,36.12434],[138.6451,36.11963],[138.65765,36.11655],[138.66621,36.11719],[138.68745,36.12797],[138.69928,36.126],[138.70646,36.12218],[138.7117,36.12498],[138.72888,36.12597],[138.73786,36.12376],[138.74208,36.11885],[138.75178,36.1234],[138.75706,36.12912],[138.76489,36.12889],[138.77144,36.13266]]]}}