{"type":"Feature","properties":{"id":"JPN.3.17","name":"Yasugi","level":2,"country":"JPN"},"geometry":{"type":"Polygon","coordinates":[[[133.22685,35.47716],[133.222,35.4814],[133.20022,35.46646],[133.18515,35.46087],[133.18739,35.44451],[133.19127,35.4399],[133.19129,35.43249],[133.18203,35.41976],[133.17825,35.39904],[133.17048,35.39513],[133.16851,35.38995],[133.15905,35.3848],[133.14053,35.37893],[133.13612,35.37002],[133.12901,35.36474],[133.11513,35.35888],[133.1055,35.35887],[133.0907,35.3496],[133.08286,35.33969],[133.06503,35.3297],[133.06502,35.312],[133.06081,35.30342],[133.06658,35.29067],[133.06535,35.27864],[133.07316,35.2638],[133.0705,35.25579],[133.07331,35.24987],[133.09191,35.25006],[133.09893,35.24091],[133.10784,35.23859],[133.10814,35.23252],[133.10293,35.22289],[133.10737,35.21441],[133.11479,35.21396],[133.12319,35.20938],[133.14382,35.21146],[133.15171,35.21616],[133.18162,35.23444],[133.19271,35.23604],[133.19812,35.23987],[133.21202,35.2417],[133.22279,35.24911],[133.22819,35.2468],[133.24342,35.25048],[133.25303,35.25994],[133.27521,35.25781],[133.28224,35.2624],[133.2918,35.26077],[133.30254,35.26312],[133.31047,35.26838],[133.30726,35.2819],[133.29951,35.29227],[133.30691,35.30348],[133.30263,35.30536],[133.29257,35.31894],[133.29856,35.3251],[133.29557,35.32887],[133.29689,35.33907],[133.29513,35.3466],[133.30866,35.36649],[133.31597,35.36549],[133.31823,35.3724],[133.32443,35.37428],[133.31902,35.38349],[133.31357,35.38735],[133.31987,35.39757],[133.32156,35.4078],[133.30869,35.43088],[133.30072,35.4363],[133.27202,35.44601],[133.22685,35.47716]]]}}