{"type":"Feature","properties":{"id":"JPN.11.10","name":"Sanuki","level":2,"country":"JPN"},"geometry":{"type":"Polygon","coordinates":[[[134.28815,34.27548],[134.27608,34.28274],[134.26138,34.28324],[134.25581,34.28709],[134.24628,34.30592],[134.25146,34.31159],[134.2652,34.31893],[134.25859,34.33661],[134.25749,34.34521],[134.24929,34.35141],[134.24083,34.34035],[134.23287,34.3391],[134.21853,34.34963],[134.21661,34.36203],[134.21094,34.36937],[134.2042,34.36664],[134.21338,34.34986],[134.20435,34.34313],[134.19787,34.3452],[134.18734,34.34381],[134.185,34.33352],[134.17864,34.3266],[134.16568,34.32607],[134.16525,34.32264],[134.15538,34.31065],[134.16156,34.30258],[134.15504,34.29533],[134.15606,34.28089],[134.1692,34.27891],[134.1631,34.2644],[134.16728,34.2541],[134.16959,34.2377],[134.16508,34.23281],[134.16896,34.2278],[134.1636,34.21474],[134.16282,34.20371],[134.16437,34.18328],[134.15612,34.17186],[134.15544,34.16675],[134.1731,34.17579],[134.19506,34.17187],[134.20873,34.17473],[134.21315,34.17795],[134.21357,34.19112],[134.20694,34.19987],[134.21698,34.20365],[134.21716,34.20927],[134.22888,34.20809],[134.24073,34.21585],[134.25312,34.22136],[134.26414,34.2206],[134.27197,34.21562],[134.27514,34.22847],[134.27282,34.2346],[134.28099,34.24317],[134.27494,34.25201],[134.27712,34.26113],[134.28296,34.26505],[134.28815,34.27548]]]}}