{"type":"Feature","properties":{"id":"JPN.22.15","name":"Ozora","level":2,"country":"JPN"},"geometry":{"type":"Polygon","coordinates":[[[144.05242,43.88784],[144.06565,43.88933],[144.08405,43.88451],[144.08587,43.87482],[144.09395,43.86528],[144.09255,43.85945],[144.106,43.85607],[144.11299,43.85866],[144.13149,43.87407],[144.19127,43.8555],[144.18401,43.84611],[144.19483,43.83974],[144.19712,43.8338],[144.20625,43.82659],[144.21663,43.82255],[144.21417,43.81443],[144.21966,43.801],[144.23354,43.80161],[144.2363,43.79109],[144.23403,43.78684],[144.24566,43.77469],[144.24865,43.76614],[144.24697,43.74737],[144.25302,43.73094],[144.26291,43.71545],[144.27319,43.70864],[144.281,43.70707],[144.31175,43.70535],[144.32838,43.70899],[144.33166,43.7066],[144.33844,43.70885],[144.35711,43.71991],[144.36776,43.72388],[144.37255,43.73692],[144.37198,43.74509],[144.37573,43.74894],[144.37935,43.76147],[144.3863,43.77222],[144.38795,43.78287],[144.37642,43.78268],[144.38363,43.79097],[144.36609,43.8216],[144.36448,43.83037],[144.36667,43.8407],[144.38231,43.84445],[144.3748,43.86108],[144.37778,43.87117],[144.30126,43.89411],[144.29988,43.88395],[144.30475,43.87343],[144.29192,43.87038],[144.28728,43.87457],[144.26264,43.86908],[144.24421,43.90153],[144.23896,43.90321],[144.23456,43.91906],[144.2229,43.92999],[144.22342,43.93408],[144.20945,43.94086],[144.20518,43.95347],[144.19998,43.95992],[144.17332,43.96799],[144.12659,43.93717],[144.12596,43.93286],[144.09215,43.94282],[144.08816,43.93911],[144.07678,43.93676],[144.06347,43.92171],[144.06179,43.90637],[144.05867,43.9063],[144.04654,43.89385],[144.05242,43.88784]]]}}