{"type":"Feature","properties":{"id":"JPN.13.4","name":"Nakatsu","level":2,"country":"JPN"},"geometry":{"type":"Polygon","coordinates":[[[131.27892,33.58084],[131.27356,33.5833],[131.26819,33.59256],[131.25582,33.59898],[131.25882,33.60327],[131.25771,33.61245],[131.24662,33.61162],[131.23874,33.60175],[131.2219,33.60467],[131.20509,33.61679],[131.18683,33.61832],[131.17792,33.60483],[131.17838,33.59682],[131.1727,33.58842],[131.17316,33.57824],[131.18616,33.56786],[131.19057,33.55803],[131.1869,33.54404],[131.17675,33.5344],[131.16671,33.52871],[131.16971,33.52116],[131.16806,33.51615],[131.17736,33.50829],[131.16989,33.50504],[131.16316,33.50846],[131.14816,33.50507],[131.13363,33.50577],[131.13019,33.50242],[131.11897,33.50208],[131.10551,33.50776],[131.07544,33.50534],[131.06765,33.50906],[131.05331,33.50789],[131.0455,33.50991],[131.03574,33.51907],[131.01516,33.50907],[131.00144,33.51218],[130.9899,33.50909],[130.98152,33.50776],[130.97232,33.50515],[130.96159,33.49358],[130.94989,33.48767],[130.94242,33.48564],[130.92982,33.4667],[130.92629,33.45762],[130.92874,33.45221],[130.93624,33.45159],[130.94616,33.44117],[130.94626,33.43367],[130.96574,33.42893],[130.96571,33.42303],[130.9773,33.4119],[130.98403,33.41039],[130.99047,33.40074],[131.00913,33.39238],[131.01217,33.38632],[131.0098,33.38065],[131.0213,33.37197],[131.02512,33.35855],[131.03275,33.36045],[131.05706,33.36079],[131.06035,33.37246],[131.06824,33.38359],[131.08021,33.38382],[131.09041,33.38832],[131.09894,33.38844],[131.10749,33.38046],[131.11628,33.37558],[131.11711,33.37102],[131.12847,33.37198],[131.13442,33.3778],[131.14556,33.37873],[131.15539,33.36417],[131.16,33.36385],[131.16786,33.36997],[131.17487,33.36269],[131.17874,33.3539],[131.18911,33.35638],[131.19818,33.3484],[131.20545,33.3582],[131.21577,33.36146],[131.22563,33.36912],[131.23147,33.37898],[131.22147,33.38696],[131.22266,33.39244],[131.22916,33.39772],[131.22743,33.41197],[131.24278,33.41365],[131.25529,33.41294],[131.25162,33.43553],[131.2465,33.44154],[131.24424,33.45041],[131.24717,33.4555],[131.24099,33.46367],[131.24784,33.4764],[131.25985,33.48084],[131.27312,33.49898],[131.25689,33.525],[131.25253,33.53706],[131.26018,33.55369],[131.27382,33.55532],[131.27649,33.56335],[131.27892,33.58084]]]}}