{"type":"Feature","properties":{"id":"JPN.40.1","name":"Tanohara","level":2,"country":"JPN"},"geometry":{"type":"Polygon","coordinates":[[[141.79914,39.97705],[141.78916,39.95113],[141.7823,39.94287],[141.78649,39.93855],[141.7796,39.92293],[141.77613,39.90244],[141.77088,39.89766],[141.77996,39.89267],[141.82494,39.90217],[141.83018,39.89824],[141.82853,39.892],[141.83139,39.88291],[141.84157,39.87754],[141.84222,39.87267],[141.86782,39.86678],[141.8705,39.8634],[141.89376,39.86218],[141.89634,39.85697],[141.91654,39.86106],[141.92029,39.867],[141.92837,39.86981],[141.94443,39.8821],[141.95961,39.88745],[141.95503,39.89108],[141.9498,39.90842],[141.93991,39.9193],[141.9429,39.92517],[141.94124,39.93403],[141.94563,39.94584],[141.96062,39.94517],[141.95572,39.95883],[141.95427,39.97051],[141.95614,39.98244],[141.94852,39.98946],[141.93352,39.98511],[141.93155,39.97929],[141.92192,39.9737],[141.91634,39.9766],[141.90496,39.97615],[141.88663,39.9684],[141.87652,39.96161],[141.87124,39.97967],[141.85618,39.97646],[141.84884,39.9722],[141.82874,39.97206],[141.81897,39.97538],[141.79914,39.97705]]]}}