{"type":"Feature","properties":{"id":"JPN.12.10","name":"Okawa","level":2,"country":"JPN"},"geometry":{"type":"Polygon","coordinates":[[[133.36831,33.75504],[133.38884,33.75655],[133.39401,33.76072],[133.40571,33.76118],[133.41685,33.76819],[133.42304,33.76511],[133.43751,33.76601],[133.45765,33.77078],[133.46172,33.77461],[133.47818,33.78006],[133.48473,33.789],[133.49318,33.79561],[133.48409,33.80191],[133.48013,33.81106],[133.48269,33.82651],[133.48662,33.82971],[133.48321,33.83299],[133.4643,33.83452],[133.45501,33.83693],[133.44993,33.83446],[133.43249,33.83494],[133.42489,33.83926],[133.41501,33.83988],[133.40083,33.83624],[133.39167,33.82443],[133.36902,33.82933],[133.3558,33.83436],[133.34561,33.82482],[133.33331,33.8213],[133.32633,33.81476],[133.33552,33.80363],[133.34945,33.79813],[133.35906,33.78955],[133.35095,33.78276],[133.36456,33.77338],[133.36378,33.76867],[133.36831,33.75504]]]}}