{"type":"Feature","properties":{"id":"JPN.45.5","name":"Kinkou","level":2,"country":"JPN"},"geometry":{"type":"Polygon","coordinates":[[[130.9262,31.22779],[130.91693,31.23067],[130.91092,31.23946],[130.90355,31.24252],[130.89944,31.25199],[130.88775,31.2506],[130.8753,31.26887],[130.86209,31.27108],[130.86313,31.282],[130.86813,31.29202],[130.86255,31.29837],[130.84541,31.30071],[130.83475,31.30837],[130.8207,31.30698],[130.81191,31.31019],[130.80647,31.30615],[130.80449,31.29954],[130.79313,31.29578],[130.79581,31.29193],[130.79233,31.28301],[130.78726,31.25903],[130.78994,31.25164],[130.78445,31.24543],[130.77446,31.23979],[130.76783,31.22524],[130.77467,31.22447],[130.78922,31.23257],[130.79774,31.23164],[130.80496,31.23499],[130.81063,31.22615],[130.8185,31.22347],[130.82166,31.23801],[130.81872,31.24608],[130.82846,31.24627],[130.83687,31.24107],[130.84278,31.23239],[130.84958,31.21534],[130.83971,31.20988],[130.83143,31.21264],[130.82389,31.20362],[130.8158,31.2028],[130.80796,31.20635],[130.80749,31.19756],[130.81287,31.19554],[130.81617,31.18606],[130.82079,31.18713],[130.83584,31.16173],[130.8463,31.15395],[130.84585,31.14771],[130.83468,31.14154],[130.83203,31.13651],[130.8436,31.1266],[130.85644,31.12612],[130.86326,31.12175],[130.87272,31.12778],[130.88225,31.12986],[130.89034,31.13505],[130.89311,31.14082],[130.9096,31.14901],[130.90775,31.15591],[130.93615,31.17633],[130.94211,31.18391],[130.93842,31.19205],[130.93173,31.19546],[130.91851,31.19645],[130.91047,31.19992],[130.91287,31.2069],[130.92738,31.22087],[130.9262,31.22779]]]}}