{"type":"Feature","properties":{"id":"JPN.27.19","name":"Hannan","level":2,"country":"JPN"},"geometry":{"type":"Polygon","coordinates":[[[135.25071,34.37702],[135.24937,34.37722],[135.22374,34.34783],[135.218,34.34454],[135.20268,34.34269],[135.19313,34.33813],[135.18813,34.33189],[135.19247,34.32898],[135.19162,34.31245],[135.20226,34.31213],[135.20804,34.3082],[135.22181,34.30385],[135.22501,34.30086],[135.23552,34.30364],[135.2466,34.31329],[135.25792,34.31568],[135.27104,34.31247],[135.28255,34.31788],[135.27926,34.32677],[135.26973,34.33681],[135.25969,34.35695],[135.25049,34.36247],[135.25071,34.37702]]]}}