{"type":"Feature","properties":{"id":"JPN.33.30","name":"Sakado","level":2,"country":"JPN"},"geometry":{"type":"Polygon","coordinates":[[[139.35239,35.92819],[139.37216,35.94496],[139.37751,35.94235],[139.3819,35.94925],[139.398,35.95347],[139.39968,35.94809],[139.40963,35.94921],[139.41739,35.95873],[139.42146,35.95577],[139.43311,35.95853],[139.43474,35.94512],[139.45067,35.94834],[139.46769,35.96007],[139.45747,35.97267],[139.45422,35.98006],[139.44757,35.97964],[139.4375,35.9872],[139.43019,35.998],[139.41165,35.99062],[139.40439,35.98537],[139.37936,35.98161],[139.36666,35.97679],[139.35857,35.9766],[139.34888,35.96884],[139.35558,35.95722],[139.35478,35.94661],[139.34199,35.93372],[139.33402,35.93594],[139.32412,35.92904],[139.32752,35.9231],[139.33327,35.91969],[139.34144,35.92042],[139.35239,35.92819]]]}}