{"type":"Feature","properties":{"id":"JPN.29.1","name":"Gobo","level":2,"country":"JPN"},"geometry":{"type":"Polygon","coordinates":[[[135.1995,33.882],[135.19893,33.8925],[135.19105,33.90361],[135.18291,33.90665],[135.17277,33.91383],[135.17138,33.92874],[135.17764,33.935],[135.17388,33.95272],[135.1614,33.9498],[135.15687,33.94212],[135.15956,33.9227],[135.14144,33.91386],[135.15426,33.8803],[135.15258,33.8756],[135.15892,33.86723],[135.15998,33.86002],[135.16526,33.85221],[135.16425,33.84389],[135.17364,33.84041],[135.17454,33.83233],[135.18481,33.8271],[135.18581,33.81969],[135.1991,33.81301],[135.20296,33.82376],[135.20176,33.82997],[135.2083,33.83808],[135.20241,33.84208],[135.20043,33.85376],[135.184,33.85848],[135.18938,33.86807],[135.20008,33.86828],[135.20989,33.86419],[135.21594,33.86712],[135.21104,33.87404],[135.20111,33.87332],[135.1995,33.882]]]}}