{"type":"Feature","properties":{"id":"JPN.32.19","name":"Hadano","level":2,"country":"JPN"},"geometry":{"type":"Polygon","coordinates":[[[139.25119,35.35409],[139.26709,35.35622],[139.27514,35.3728],[139.29163,35.37333],[139.29038,35.3814],[139.27569,35.38637],[139.25221,35.3821],[139.25081,35.39107],[139.25829,35.39763],[139.25476,35.40518],[139.24742,35.4127],[139.23874,35.41783],[139.23011,35.43783],[139.23122,35.44098],[139.2283,35.45223],[139.22873,35.45705],[139.2161,35.46123],[139.20749,35.45922],[139.19385,35.45104],[139.17898,35.44743],[139.17667,35.45149],[139.16339,35.45403],[139.15554,35.44583],[139.1414,35.44415],[139.14145,35.43514],[139.14846,35.4202],[139.14625,35.40724],[139.15005,35.40407],[139.15028,35.39192],[139.14453,35.38805],[139.14412,35.38166],[139.14913,35.37281],[139.15742,35.3653],[139.16032,35.35648],[139.17091,35.35861],[139.17396,35.35121],[139.18046,35.346],[139.1883,35.35177],[139.20546,35.36127],[139.21758,35.35171],[139.22236,35.35366],[139.23362,35.35129],[139.24433,35.35534],[139.25119,35.35409]]]}}