{"type":"Feature","properties":{"id":"JPN.7.48","name":"Koga","level":2,"country":"JPN"},"geometry":{"type":"Polygon","coordinates":[[[130.46735,33.75377],[130.45826,33.73635],[130.44713,33.72503],[130.45912,33.71916],[130.46858,33.70787],[130.46728,33.69565],[130.49151,33.69235],[130.50007,33.69743],[130.50837,33.68699],[130.51932,33.69273],[130.52022,33.70075],[130.53286,33.7098],[130.54472,33.71017],[130.54829,33.71763],[130.55869,33.72005],[130.55372,33.72797],[130.54774,33.73061],[130.54102,33.73793],[130.50919,33.74035],[130.48078,33.75196],[130.46735,33.75377]]]}}