{"type":"Feature","properties":{"id":"JPN.39.32","name":"Tamakawa","level":2,"country":"JPN"},"geometry":{"type":"Polygon","coordinates":[[[140.38851,37.24546],[140.39165,37.2328],[140.3966,37.22702],[140.39316,37.22256],[140.39721,37.22175],[140.40074,37.21262],[140.39467,37.20304],[140.40079,37.19698],[140.39883,37.19197],[140.40724,37.18262],[140.41517,37.17974],[140.41878,37.18865],[140.43088,37.18944],[140.43247,37.19361],[140.44973,37.19426],[140.4591,37.19297],[140.45894,37.19923],[140.47622,37.20332],[140.49,37.19511],[140.49618,37.19343],[140.49905,37.19995],[140.51045,37.21368],[140.51408,37.22191],[140.50864,37.22934],[140.51165,37.23866],[140.51884,37.25143],[140.51931,37.25676],[140.51103,37.24882],[140.50147,37.24969],[140.49084,37.24669],[140.48557,37.23935],[140.48531,37.22505],[140.47105,37.22649],[140.4576,37.22398],[140.44613,37.22915],[140.4371,37.22698],[140.42584,37.22846],[140.4234,37.24089],[140.40997,37.24182],[140.39849,37.24665],[140.38851,37.24546]]]}}