{"type":"Feature","properties":{"id":"JPN.22.59","name":"Toyotomi","level":2,"country":"JPN"},"geometry":{"type":"Polygon","coordinates":[[[141.57825,45.17609],[141.59078,45.14719],[141.66348,45.03133],[141.6752,45.049],[141.73491,45.07994],[141.74853,45.0807],[141.76509,45.07397],[141.7681,45.06924],[141.76865,45.05752],[141.77528,45.05769],[141.80221,45.04849],[141.8095,45.05185],[141.81968,45.04888],[141.83615,45.05128],[141.86813,45.08512],[141.88181,45.07874],[141.8973,45.07759],[141.91566,45.08098],[141.92285,45.08018],[141.93245,45.08418],[141.94585,45.07604],[141.95969,45.07895],[141.96983,45.07262],[141.97577,45.07473],[141.9818,45.08324],[141.98808,45.08626],[141.99456,45.08259],[142.00522,45.09338],[142.00419,45.10055],[141.9922,45.10117],[141.98652,45.10834],[141.98754,45.12379],[142.00637,45.13657],[142.01428,45.13888],[142.01936,45.14641],[142.0115,45.15426],[142.00961,45.16469],[142.00503,45.1736],[142.00534,45.18086],[141.99218,45.18399],[141.99279,45.19183],[141.97827,45.20394],[141.99268,45.21122],[142.00231,45.2236],[141.99675,45.23582],[141.99416,45.23195],[141.97904,45.23209],[141.96455,45.22501],[141.9441,45.22612],[141.93747,45.22242],[141.92445,45.20966],[141.90302,45.19525],[141.90199,45.17683],[141.86299,45.17632],[141.86333,45.18956],[141.84683,45.19345],[141.83241,45.18783],[141.82279,45.19367],[141.83655,45.20073],[141.82151,45.20588],[141.82192,45.21161],[141.79877,45.19989],[141.76986,45.2281],[141.78382,45.23506],[141.76716,45.25902],[141.76736,45.26998],[141.76321,45.27404],[141.74698,45.26688],[141.73448,45.26505],[141.73787,45.25531],[141.72993,45.24687],[141.73121,45.23891],[141.71302,45.23133],[141.69598,45.24051],[141.68128,45.24036],[141.6575,45.23444],[141.6565,45.22373],[141.64345,45.21901],[141.6329,45.20993],[141.62515,45.21036],[141.61668,45.20526],[141.59647,45.20098],[141.59303,45.19433],[141.60379,45.18749],[141.59868,45.17797],[141.59238,45.17258],[141.57825,45.17609]]]}}