{"type":"Feature","properties":{"id":"JPN.22.80","name":"Shiranuka","level":2,"country":"JPN"},"geometry":{"type":"Polygon","coordinates":[[[143.79266,43.20364],[143.79342,43.19856],[143.77704,43.18662],[143.77559,43.17544],[143.76777,43.16305],[143.77465,43.15432],[143.76807,43.13194],[143.76039,43.12815],[143.75474,43.12039],[143.76595,43.11963],[143.77448,43.12178],[143.79372,43.1213],[143.80317,43.12319],[143.81085,43.11864],[143.81157,43.1099],[143.82009,43.09875],[143.83404,43.09678],[143.84042,43.08985],[143.85203,43.09202],[143.86763,43.08736],[143.88391,43.08918],[143.89544,43.08326],[143.90375,43.07035],[143.91814,43.06346],[143.91911,43.05684],[143.92797,43.05207],[143.92451,43.04617],[143.91442,43.04093],[143.91873,43.0249],[143.9121,43.02249],[143.90613,43.0137],[143.8988,43.0107],[143.90271,42.99544],[143.91056,42.99085],[143.91438,42.98103],[143.92499,42.97158],[143.93279,42.96789],[143.94981,42.96916],[143.96202,42.96041],[143.9747,42.95399],[143.99134,42.93815],[143.98776,42.93274],[143.99168,42.92506],[144.00478,42.92015],[144.03974,42.93763],[144.08067,42.95288],[144.09103,42.95253],[144.10135,42.9559],[144.12559,42.96917],[144.14456,42.9765],[144.1828,42.98809],[144.22842,42.99746],[144.22224,43.00585],[144.21372,43.00662],[144.22312,43.02835],[144.16699,43.04228],[144.15582,43.05982],[144.15181,43.05643],[144.14022,43.05501],[144.1201,43.06041],[144.11518,43.05551],[144.09577,43.06335],[144.08753,43.07489],[144.08871,43.08105],[144.0797,43.09692],[144.07909,43.11753],[144.06452,43.1255],[144.05104,43.12807],[144.03313,43.13968],[144.03476,43.16204],[144.01994,43.17476],[144.00216,43.17794],[143.99233,43.18332],[143.98801,43.199],[143.99161,43.20468],[143.98597,43.21276],[143.98427,43.22743],[143.97456,43.24055],[143.96402,43.24572],[143.9621,43.24991],[143.96599,43.25955],[143.96111,43.2674],[143.96957,43.28309],[143.97783,43.2853],[143.98779,43.29296],[143.99221,43.30648],[144.00675,43.3123],[144.00991,43.32204],[144.02058,43.32649],[144.01743,43.33294],[144.02602,43.33719],[144.02379,43.34458],[144.03361,43.35131],[144.0316,43.35965],[144.02096,43.37134],[144.00812,43.37523],[143.98881,43.36944],[143.98381,43.36492],[143.96613,43.36168],[143.96052,43.35638],[143.95066,43.35639],[143.95139,43.3505],[143.94381,43.34807],[143.9272,43.33714],[143.91015,43.33494],[143.90645,43.32893],[143.89603,43.32438],[143.89786,43.31777],[143.88972,43.31528],[143.88054,43.30637],[143.86525,43.30489],[143.84575,43.28452],[143.83272,43.28826],[143.82145,43.28797],[143.82679,43.2791],[143.82211,43.2703],[143.82723,43.26222],[143.82013,43.2606],[143.81224,43.25357],[143.8115,43.24704],[143.80226,43.24883],[143.79966,43.231],[143.79367,43.22986],[143.78941,43.21958],[143.79721,43.20743],[143.79266,43.20364]]]}}