{"type":"Feature","properties":{"id":"JPN.13.2","name":"Bungo Oono","level":2,"country":"JPN"},"geometry":{"type":"Polygon","coordinates":[[[131.42121,32.81192],[131.43127,32.81837],[131.43697,32.82863],[131.45906,32.82998],[131.47515,32.83723],[131.48189,32.83893],[131.49414,32.8506],[131.50489,32.85361],[131.52309,32.85611],[131.5273,32.86077],[131.53843,32.86466],[131.54275,32.87269],[131.56428,32.88437],[131.58185,32.87901],[131.59055,32.88127],[131.59513,32.89065],[131.60692,32.89871],[131.607,32.90569],[131.61226,32.91105],[131.60785,32.92068],[131.61486,32.92402],[131.62939,32.91929],[131.626,32.92827],[131.61906,32.9306],[131.63079,32.94162],[131.63895,32.93997],[131.64781,32.95564],[131.65917,32.96028],[131.662,32.96336],[131.65706,32.97933],[131.64527,32.99625],[131.64377,33.00156],[131.63524,33.00939],[131.63167,33.01857],[131.63234,33.02461],[131.64087,33.03434],[131.64652,33.03099],[131.65872,33.03709],[131.66065,33.04835],[131.65225,33.05843],[131.65349,33.06639],[131.66094,33.07879],[131.67847,33.08587],[131.6628,33.0906],[131.65429,33.08267],[131.64296,33.08271],[131.64121,33.08714],[131.6282,33.09011],[131.60495,33.10247],[131.5939,33.10219],[131.58784,33.09754],[131.57762,33.10038],[131.56828,33.11003],[131.55941,33.11115],[131.55446,33.11756],[131.54222,33.11659],[131.53939,33.11121],[131.52561,33.10655],[131.52172,33.10246],[131.5064,33.1003],[131.4965,33.09193],[131.50197,33.08711],[131.4953,33.07628],[131.47489,33.07036],[131.45971,33.07545],[131.45551,33.08322],[131.45652,33.09432],[131.44403,33.09359],[131.44072,33.08802],[131.42362,33.07922],[131.41984,33.0811],[131.41873,33.09206],[131.40446,33.081],[131.40202,33.07384],[131.40441,33.0654],[131.3959,33.06054],[131.40237,33.05119],[131.39732,33.03999],[131.38857,33.03757],[131.39201,33.03111],[131.37881,33.02959],[131.38261,33.01608],[131.38726,33.01783],[131.39612,33.01013],[131.40706,33.00832],[131.41811,33.00287],[131.42097,32.98857],[131.41706,32.98493],[131.42118,32.96727],[131.40918,32.94829],[131.40711,32.93502],[131.39867,32.9288],[131.40123,32.92191],[131.39744,32.91085],[131.39317,32.90851],[131.39809,32.89602],[131.40078,32.88115],[131.38883,32.87019],[131.39703,32.86132],[131.38702,32.84713],[131.37385,32.83851],[131.36217,32.83403],[131.34967,32.83214],[131.34706,32.82797],[131.35063,32.81691],[131.34864,32.81068],[131.3592,32.80406],[131.36663,32.80366],[131.37829,32.80947],[131.40022,32.81349],[131.42121,32.81192]]]}}