{"type":"Feature","properties":{"id":"JPN.7.11","name":"Oonojo","level":2,"country":"JPN"},"geometry":{"type":"Polygon","coordinates":[[[130.48567,33.56019],[130.47784,33.55253],[130.4737,33.55317],[130.46671,33.56279],[130.46151,33.5619],[130.47096,33.54948],[130.46893,33.53789],[130.47895,33.5245],[130.47499,33.51455],[130.4554,33.50075],[130.45034,33.4988],[130.45341,33.48846],[130.45583,33.47055],[130.46626,33.46635],[130.47346,33.46382],[130.48202,33.46455],[130.49,33.47047],[130.48799,33.47211],[130.48312,33.49034],[130.48441,33.49964],[130.48922,33.50429],[130.48619,33.51334],[130.49481,33.51968],[130.48935,33.53045],[130.49954,33.53098],[130.51432,33.53698],[130.50829,33.54267],[130.50938,33.54722],[130.49877,33.56067],[130.48567,33.56019]]]}}