{"type":"Feature","properties":{"id":"JPN.11.2","name":"Syoudoshima","level":2,"country":"JPN"},"geometry":{"type":"Polygon","coordinates":[[[134.19975,34.48257],[134.21146,34.48188],[134.21695,34.47397],[134.2284,34.48058],[134.23348,34.4761],[134.24224,34.45865],[134.23429,34.44392],[134.22628,34.44193],[134.22684,34.43656],[134.23613,34.43829],[134.23696,34.42987],[134.22575,34.42676],[134.23195,34.41473],[134.23928,34.41525],[134.25067,34.42348],[134.24706,34.43063],[134.25153,34.4392],[134.26282,34.44933],[134.25959,34.45452],[134.26706,34.46371],[134.28854,34.47341],[134.29616,34.47966],[134.30104,34.4766],[134.31354,34.47549],[134.3173,34.46476],[134.30104,34.45966],[134.29015,34.46232],[134.2837,34.46044],[134.28445,34.45271],[134.29221,34.44688],[134.30012,34.45619],[134.31441,34.45465],[134.31954,34.45796],[134.33298,34.43531],[134.33992,34.43832],[134.33534,34.44787],[134.34883,34.46007],[134.3538,34.47606],[134.34384,34.48273],[134.34279,34.48786],[134.35204,34.49216],[134.34758,34.50206],[134.35619,34.5111],[134.35468,34.52335],[134.36003,34.52948],[134.35513,34.5388],[134.34777,34.53928],[134.34783,34.55576],[134.35097,34.56388],[134.33246,34.5632],[134.32889,34.55599],[134.32286,34.55316],[134.31188,34.52284],[134.30246,34.51809],[134.2873,34.51773],[134.27926,34.51945],[134.26609,34.51192],[134.25917,34.51265],[134.25051,34.50931],[134.24067,34.51169],[134.2328,34.50812],[134.23131,34.50306],[134.22348,34.49488],[134.20675,34.48876],[134.19975,34.48257]]]}}