{"type":"Feature","properties":{"id":"JPN.23.15","name":"Minamiechizen","level":2,"country":"JPN"},"geometry":{"type":"Polygon","coordinates":[[[136.28074,35.65863],[136.29042,35.66583],[136.28916,35.67173],[136.29893,35.67881],[136.29192,35.68407],[136.31038,35.71053],[136.32269,35.71563],[136.32052,35.72293],[136.32696,35.73152],[136.32502,35.74466],[136.3184,35.75098],[136.32166,35.7653],[136.32795,35.7751],[136.34676,35.77625],[136.35709,35.78683],[136.35121,35.79639],[136.3535,35.8009],[136.34643,35.8072],[136.34946,35.81281],[136.34032,35.82272],[136.33086,35.82025],[136.32516,35.82391],[136.31937,35.81809],[136.30184,35.82887],[136.28555,35.82045],[136.27291,35.82377],[136.25786,35.8253],[136.25964,35.83768],[136.25591,35.84215],[136.24123,35.84554],[136.22387,35.856],[136.21124,35.8568],[136.20685,35.85956],[136.18193,35.85666],[136.17507,35.85019],[136.17414,35.84332],[136.15887,35.83398],[136.15313,35.81693],[136.13458,35.81011],[136.1299,35.82486],[136.13157,35.82807],[136.12646,35.8432],[136.11478,35.84689],[136.10269,35.84166],[136.09997,35.84446],[136.08263,35.84357],[136.077,35.85003],[136.06035,35.84916],[136.05421,35.85253],[136.05629,35.86021],[136.04474,35.86038],[136.03466,35.8707],[136.02249,35.87436],[136.01968,35.87895],[136.01123,35.87236],[136.03873,35.85056],[136.05187,35.83706],[136.07144,35.82347],[136.0764,35.81165],[136.0877,35.79782],[136.08984,35.79174],[136.0998,35.77916],[136.09831,35.76524],[136.11111,35.76593],[136.11526,35.76221],[136.11854,35.75185],[136.13262,35.73733],[136.13199,35.72269],[136.14879,35.71065],[136.14712,35.69927],[136.15035,35.69772],[136.17436,35.70367],[136.19128,35.70236],[136.1985,35.68957],[136.20804,35.6877],[136.21181,35.68245],[136.21947,35.68435],[136.22768,35.68047],[136.23441,35.68246],[136.24465,35.67379],[136.25037,35.67625],[136.25748,35.67128],[136.26403,35.67106],[136.28053,35.66128],[136.28074,35.65863]]]}}