{"type":"Feature","properties":{"id":"JPN.19.46","name":"Miyada","level":2,"country":"JPN"},"geometry":{"type":"Polygon","coordinates":[[[137.82829,35.80618],[137.82536,35.80103],[137.80465,35.78954],[137.80932,35.78139],[137.81808,35.77878],[137.8287,35.76956],[137.84307,35.76449],[137.847,35.76007],[137.85728,35.76015],[137.86087,35.74793],[137.86686,35.75148],[137.87469,35.74762],[137.91104,35.74982],[137.96394,35.75049],[137.95866,35.76072],[137.96105,35.77183],[137.95998,35.77825],[137.9511,35.77112],[137.92673,35.77603],[137.90888,35.78186],[137.88113,35.78468],[137.872,35.79543],[137.86845,35.80376],[137.86243,35.80611],[137.84427,35.80525],[137.83364,35.80781],[137.82829,35.80618]]]}}