{"type":"Feature","properties":{"id":"JPN.8.7","name":"Minami Aso","level":2,"country":"JPN"},"geometry":{"type":"Polygon","coordinates":[[[130.96675,32.90327],[130.94864,32.87578],[130.95742,32.87303],[130.97249,32.87551],[130.98479,32.86776],[130.97809,32.86253],[130.97258,32.85665],[130.97937,32.84993],[130.98005,32.84059],[130.97185,32.83443],[130.97917,32.82311],[130.97655,32.81497],[130.98978,32.81357],[130.99592,32.80467],[130.995,32.79888],[131.00286,32.78879],[131.01437,32.78574],[131.03036,32.7893],[131.03846,32.78366],[131.05003,32.7893],[131.07902,32.79528],[131.08524,32.79113],[131.10826,32.7919],[131.11522,32.79555],[131.11106,32.81168],[131.11565,32.83047],[131.10703,32.83238],[131.10483,32.85646],[131.09454,32.87372],[131.09763,32.88333],[131.09023,32.8847],[131.06647,32.88034],[131.06118,32.88537],[131.03611,32.89712],[131.01999,32.89726],[131.01861,32.90313],[130.98764,32.90986],[130.98835,32.90274],[130.97917,32.9],[130.96675,32.90327]]]}}