{"type":"Feature","properties":{"id":"JPN.9.5","name":"Hinokage","level":2,"country":"JPN"},"geometry":{"type":"Polygon","coordinates":[[[131.50848,32.77424],[131.51077,32.79011],[131.51747,32.8008],[131.49345,32.81585],[131.48468,32.82288],[131.47515,32.83723],[131.45906,32.82998],[131.43697,32.82863],[131.43127,32.81837],[131.42121,32.81192],[131.42003,32.79794],[131.4155,32.78732],[131.40626,32.77197],[131.40738,32.76968],[131.40102,32.75339],[131.40046,32.73897],[131.3886,32.72897],[131.38012,32.71585],[131.36785,32.71415],[131.36539,32.70627],[131.35775,32.69793],[131.35059,32.70003],[131.33454,32.69781],[131.32296,32.70648],[131.31785,32.69412],[131.32814,32.6809],[131.3263,32.67191],[131.31814,32.66071],[131.31507,32.64417],[131.31111,32.63829],[131.31008,32.62945],[131.31683,32.62511],[131.32908,32.61165],[131.34723,32.6124],[131.35721,32.6085],[131.35627,32.59519],[131.36424,32.58414],[131.37395,32.56411],[131.38068,32.56241],[131.39638,32.56877],[131.40504,32.56568],[131.40885,32.56092],[131.42125,32.56378],[131.42878,32.55989],[131.43263,32.56533],[131.44024,32.56894],[131.44085,32.5767],[131.44819,32.58749],[131.44604,32.59376],[131.45002,32.59777],[131.44867,32.60663],[131.45214,32.61361],[131.44867,32.62662],[131.43497,32.63364],[131.437,32.64791],[131.44046,32.65499],[131.43434,32.66186],[131.43982,32.66786],[131.44799,32.67192],[131.44686,32.67793],[131.45196,32.68412],[131.45347,32.69203],[131.46555,32.70105],[131.47569,32.70464],[131.48308,32.7177],[131.48449,32.73023],[131.4814,32.73791],[131.49003,32.7479],[131.48853,32.75663],[131.48199,32.76006],[131.48849,32.76696],[131.48974,32.77365],[131.50848,32.77424]]]}}