{"type":"Feature","properties":{"id":"JPN.44.11","name":"Shinkami Gotou","level":2,"country":"JPN"},"geometry":{"type":"MultiPolygon","coordinates":[[[[128.93718,32.92566],[128.93072,32.91804],[128.93861,32.90944],[128.94737,32.90566],[128.95446,32.90985],[128.95386,32.91676],[128.94735,32.9246],[128.93718,32.92566]]],[[[128.96321,32.93244],[128.95749,32.92757],[128.96274,32.91898],[128.96902,32.92998],[128.96321,32.93244]]],[[[128.98997,32.933],[128.98555,32.92917],[128.98684,32.92018],[128.9777,32.91878],[128.98827,32.90818],[128.98058,32.90696],[128.99058,32.89432],[128.97801,32.89565],[128.97153,32.90342],[128.96448,32.89688],[128.97039,32.88141],[128.97497,32.8783],[128.97241,32.87197],[128.98104,32.87163],[128.98581,32.8664],[128.99522,32.86935],[129.00531,32.8643],[129.01283,32.86858],[129.01846,32.86541],[129.0163,32.85822],[129.0201,32.8465],[129.02568,32.84455],[129.03033,32.85372],[129.02613,32.87468],[129.02904,32.87752],[129.02509,32.89296],[129.03297,32.89691],[129.01561,32.92388],[129.01102,32.92588],[129.00201,32.91955],[128.99817,32.92757],[128.98997,32.933]]],[[[128.99007,32.96571],[128.98722,32.96127],[128.97817,32.95824],[128.98044,32.95214],[128.99477,32.95241],[128.99676,32.962],[128.99007,32.96571]]],[[[129.0319,33.0149],[129.02226,33.01247],[129.01605,33.01421],[129.01041,33.00997],[129.02539,33.00794],[129.0319,33.0149]]],[[[129.18893,33.01997],[129.18747,33.01466],[129.17761,33.01578],[129.17948,33.0073],[129.19656,33.00773],[129.19605,33.01763],[129.18893,33.01997]]],[[[129.11287,33.16428],[129.10735,33.15897],[129.10679,33.14913],[129.10207,33.14264],[129.09832,33.12574],[129.09428,33.12142],[129.10439,33.11196],[129.09807,33.10446],[129.10933,33.10155],[129.10553,33.09341],[129.10776,33.08835],[129.1016,33.08005],[129.08937,33.07864],[129.08562,33.07572],[129.08049,33.05243],[129.08442,33.04377],[129.07843,33.04028],[129.08563,33.02253],[129.07033,33.0192],[129.06596,33.03986],[129.0582,33.04069],[129.04997,33.03627],[129.0423,33.02772],[129.04506,33.01495],[129.04121,33.0034],[129.04795,32.99275],[129.04364,32.98678],[129.05615,32.9812],[129.05114,32.97294],[129.04021,32.97658],[129.02793,32.96116],[129.01913,32.97664],[129.0017,32.96937],[128.99702,32.96482],[128.99993,32.95795],[128.99765,32.95004],[128.99952,32.94442],[129.00674,32.94019],[129.01303,32.94793],[129.01701,32.93938],[129.023,32.93388],[129.03832,32.93995],[129.04078,32.93158],[129.03157,32.92702],[129.03603,32.92172],[129.05045,32.9216],[129.05188,32.91079],[129.05873,32.90672],[129.05257,32.90121],[129.04235,32.90939],[129.03911,32.89964],[129.04321,32.89276],[129.05682,32.89296],[129.05619,32.88644],[129.04337,32.87906],[129.04763,32.86413],[129.04383,32.86002],[129.04736,32.85298],[129.04504,32.84825],[129.0456,32.83172],[129.05161,32.81878],[129.06344,32.81696],[129.06841,32.82766],[129.06792,32.83749],[129.05692,32.84739],[129.06568,32.8558],[129.07762,32.8616],[129.08752,32.85554],[129.09505,32.85532],[129.10022,32.86017],[129.09465,32.87238],[129.09519,32.87979],[129.08798,32.88015],[129.09148,32.89146],[129.08283,32.8942],[129.08463,32.90395],[129.09366,32.90384],[129.09559,32.91925],[129.10323,32.92787],[129.10933,32.92663],[129.11249,32.94992],[129.11826,32.93848],[129.12843,32.93954],[129.14198,32.93833],[129.14301,32.94682],[129.14808,32.95613],[129.16912,32.96451],[129.17214,32.97052],[129.18212,32.97133],[129.18363,32.97854],[129.17687,32.98706],[129.17772,32.99955],[129.16478,33.00813],[129.1583,33.00023],[129.14489,33.00308],[129.13489,32.99963],[129.13255,32.99173],[129.11813,32.98605],[129.10712,32.98477],[129.09749,32.98086],[129.09247,32.99456],[129.09277,33.003],[129.08954,33.01767],[129.09764,33.02469],[129.09125,33.03848],[129.09842,33.04185],[129.10119,33.05573],[129.10896,33.06374],[129.11234,33.08302],[129.11698,33.08924],[129.12083,33.10668],[129.11692,33.11505],[129.11182,33.11515],[129.10381,33.12237],[129.11401,33.14221],[129.11168,33.15049],[129.11801,33.15783],[129.11287,33.16428]]]]}}