{"type":"Feature","properties":{"id":"JPN.6.19","name":"Arita","level":2,"country":"JPN"},"geometry":{"type":"Polygon","coordinates":[[[129.87268,33.16521],[129.88607,33.16146],[129.90594,33.1581],[129.91153,33.16217],[129.91775,33.16004],[129.92801,33.16402],[129.93862,33.16537],[129.92656,33.17414],[129.91715,33.17155],[129.91822,33.18256],[129.912,33.18627],[129.91233,33.19753],[129.90509,33.20121],[129.90636,33.20688],[129.89739,33.22366],[129.8793,33.22554],[129.87269,33.23114],[129.86943,33.24108],[129.83701,33.2352],[129.81409,33.23637],[129.80991,33.23036],[129.81308,33.22121],[129.8069,33.21117],[129.81003,33.20235],[129.81651,33.1979],[129.81715,33.18454],[129.83516,33.17443],[129.85157,33.1773],[129.85777,33.17093],[129.86937,33.16908],[129.87268,33.16521]]]}}