{"type":"Feature","properties":{"id":"JPN.19.54","name":"Toyooka","level":2,"country":"JPN"},"geometry":{"type":"Polygon","coordinates":[[[137.99108,35.49318],[137.99395,35.50348],[137.99839,35.50544],[138.00373,35.51893],[138.00875,35.54212],[138.01286,35.5481],[138.01013,35.55519],[137.99314,35.56402],[137.97576,35.57975],[137.96687,35.57787],[137.95778,35.57201],[137.94004,35.56934],[137.92459,35.5781],[137.9177,35.57393],[137.90369,35.57173],[137.89682,35.56666],[137.89454,35.5575],[137.8878,35.54265],[137.87807,35.53046],[137.89306,35.52523],[137.89929,35.51818],[137.90834,35.51296],[137.91606,35.50481],[137.93448,35.50968],[137.95309,35.50579],[137.96187,35.51021],[137.97601,35.49399],[137.98768,35.48726],[137.99108,35.49318]]]}}