{"type":"Feature","properties":{"id":"JPN.2.3","name":"Shoo","level":2,"country":"JPN"},"geometry":{"type":"Polygon","coordinates":[[[134.1763,35.09229],[134.16587,35.0949],[134.15082,35.09505],[134.14746,35.10339],[134.13134,35.10309],[134.10901,35.08368],[134.10416,35.08361],[134.10105,35.07004],[134.10526,35.06721],[134.10231,35.05058],[134.09176,35.05437],[134.08497,35.04683],[134.08149,35.03293],[134.08436,35.01936],[134.08813,35.01166],[134.10005,35.01724],[134.10581,35.01474],[134.1373,35.01913],[134.14011,35.02173],[134.13954,35.03359],[134.13575,35.04719],[134.16071,35.04837],[134.17228,35.0438],[134.17908,35.05416],[134.17689,35.06246],[134.18265,35.06802],[134.17007,35.0768],[134.1763,35.09229]]]}}