{"type":"Feature","properties":{"id":"JPN.33.51","name":"Sayama","level":2,"country":"JPN"},"geometry":{"type":"Polygon","coordinates":[[[139.36089,35.85938],[139.36405,35.84223],[139.3728,35.84247],[139.37235,35.849],[139.38963,35.85264],[139.39347,35.83982],[139.40743,35.8403],[139.41946,35.81783],[139.43125,35.81797],[139.43264,35.82153],[139.44979,35.83057],[139.44915,35.83245],[139.46337,35.8436],[139.46562,35.8374],[139.47605,35.83993],[139.45878,35.85905],[139.46579,35.86708],[139.462,35.87786],[139.45397,35.87616],[139.4413,35.88489],[139.43296,35.88399],[139.42787,35.89143],[139.42292,35.89227],[139.4117,35.90091],[139.40155,35.89567],[139.38807,35.88242],[139.38945,35.8757],[139.37471,35.86836],[139.36495,35.85917],[139.36089,35.85938]]]}}