{"type":"Feature","properties":{"id":"JPN.22.31","name":"Higashikagura","level":2,"country":"JPN"},"geometry":{"type":"Polygon","coordinates":[[[142.56092,43.63076],[142.57617,43.63493],[142.60302,43.62484],[142.62976,43.62585],[142.59093,43.64726],[142.57324,43.65332],[142.56052,43.65466],[142.54324,43.67379],[142.5189,43.68698],[142.49946,43.69396],[142.47319,43.70008],[142.4557,43.70722],[142.44902,43.71392],[142.42032,43.72285],[142.40304,43.73151],[142.39135,43.72257],[142.40996,43.68975],[142.4304,43.67584],[142.43455,43.67962],[142.49645,43.63769],[142.50305,43.64039],[142.55735,43.64645],[142.56092,43.63076]]]}}