{"type":"Feature","properties":{"id":"JPN.2.4","name":"Niimi","level":2,"country":"JPN"},"geometry":{"type":"Polygon","coordinates":[[[133.60102,34.95287],[133.60742,34.9591],[133.62164,34.96159],[133.61916,34.9727],[133.60693,34.98807],[133.60785,34.99444],[133.59768,35.00145],[133.59051,34.9929],[133.58297,34.99868],[133.58946,35.00743],[133.59885,35.01354],[133.60031,35.02065],[133.58754,35.0247],[133.58305,35.03348],[133.58409,35.04149],[133.59089,35.04595],[133.58672,35.05561],[133.58902,35.08188],[133.57626,35.09091],[133.57424,35.10005],[133.57569,35.112],[133.58264,35.11372],[133.59055,35.13823],[133.57985,35.14207],[133.568,35.14908],[133.55673,35.14876],[133.53858,35.15144],[133.53579,35.15777],[133.54145,35.16337],[133.52611,35.18289],[133.51918,35.18291],[133.51634,35.19052],[133.50041,35.19237],[133.49611,35.18671],[133.48544,35.1864],[133.47484,35.18202],[133.46697,35.17516],[133.44756,35.1713],[133.43805,35.17307],[133.41557,35.18472],[133.40744,35.18588],[133.39464,35.17733],[133.39336,35.16915],[133.39852,35.16358],[133.40036,35.15327],[133.40514,35.14293],[133.41122,35.13875],[133.41183,35.12115],[133.39999,35.11506],[133.38699,35.11312],[133.38276,35.11501],[133.36668,35.11016],[133.35487,35.10077],[133.34727,35.1056],[133.33822,35.10656],[133.32552,35.09347],[133.30283,35.09958],[133.29903,35.1038],[133.29094,35.10036],[133.28886,35.07445],[133.28342,35.06595],[133.27691,35.06611],[133.26914,35.05768],[133.26693,35.05243],[133.27447,35.04498],[133.291,35.03596],[133.29688,35.02473],[133.30347,35.01662],[133.3157,35.01243],[133.32121,35.00363],[133.31922,34.99831],[133.32173,34.98793],[133.31084,34.97464],[133.30308,34.97204],[133.30489,34.96496],[133.29726,34.956],[133.30945,34.93705],[133.30187,34.92891],[133.30484,34.91772],[133.29755,34.90947],[133.29525,34.89556],[133.3011,34.88445],[133.31681,34.86718],[133.32403,34.86436],[133.32312,34.85927],[133.33066,34.85593],[133.35336,34.87744],[133.35828,34.87472],[133.37992,34.8735],[133.38929,34.86927],[133.3991,34.87518],[133.40454,34.87392],[133.41488,34.87681],[133.4251,34.88651],[133.43482,34.88124],[133.45259,34.87566],[133.46511,34.87677],[133.47284,34.88579],[133.47595,34.87835],[133.48379,34.87208],[133.48941,34.87505],[133.51315,34.86869],[133.52154,34.86964],[133.52606,34.87694],[133.53561,34.87689],[133.54351,34.88188],[133.55053,34.88089],[133.56185,34.8869],[133.56976,34.89793],[133.56178,34.91354],[133.5683,34.92165],[133.56838,34.92904],[133.58612,34.92962],[133.59009,34.93649],[133.58414,34.94684],[133.59081,34.95117],[133.60102,34.95287]]]}}