{"type":"Feature","properties":{"id":"JPN.1.22","name":"Hiroshima","level":2,"country":"JPN"},"geometry":{"type":"MultiPolygon","coordinates":[[[[132.44259,34.32589],[132.43219,34.31949],[132.43365,34.31514],[132.42514,34.30249],[132.43339,34.29773],[132.44156,34.29799],[132.44585,34.31749],[132.44259,34.32589]]],[[[132.48177,34.34692],[132.47687,34.34588],[132.48074,34.33166],[132.48678,34.33658],[132.48177,34.34692]]],[[[132.35709,34.34466],[132.35878,34.34528],[132.3587,34.34536],[132.35708,34.34467],[132.35709,34.34466]]],[[[132.35502,34.34883],[132.35419,34.35386],[132.35011,34.35344],[132.35502,34.34883]]],[[[132.51896,34.35783],[132.51037,34.35353],[132.51917,34.35656],[132.51896,34.35783]]],[[[132.51917,34.35656],[132.52187,34.34412],[132.53009,34.33368],[132.53281,34.31869],[132.53644,34.31475],[132.55082,34.31267],[132.55537,34.31552],[132.55666,34.32286],[132.55121,34.3348],[132.55435,34.34413],[132.54397,34.36462],[132.53803,34.35813],[132.52813,34.36013],[132.51917,34.35656]]],[[[132.54401,34.58365],[132.53852,34.58322],[132.53077,34.58845],[132.53095,34.59399],[132.52484,34.60638],[132.51938,34.60698],[132.51182,34.59643],[132.49935,34.5937],[132.49818,34.59896],[132.48035,34.61176],[132.47242,34.61477],[132.46442,34.61384],[132.45665,34.60324],[132.43894,34.592],[132.42585,34.60318],[132.41529,34.59913],[132.40468,34.60235],[132.40005,34.60389],[132.39014,34.59163],[132.38729,34.58311],[132.39068,34.57107],[132.38668,34.55425],[132.37481,34.55099],[132.36767,34.54498],[132.35258,34.55453],[132.34277,34.55187],[132.33103,34.55524],[132.29446,34.54835],[132.28845,34.54336],[132.27895,34.54227],[132.26952,34.53537],[132.26556,34.53587],[132.24921,34.52966],[132.23955,34.51696],[132.2424,34.51043],[132.22728,34.5096],[132.21503,34.51421],[132.20569,34.50977],[132.20339,34.49909],[132.19609,34.49639],[132.1889,34.49826],[132.2,34.49093],[132.20328,34.48473],[132.19669,34.47762],[132.19349,34.46794],[132.19614,34.45316],[132.17855,34.44265],[132.19138,34.43516],[132.19095,34.42432],[132.19561,34.41586],[132.21539,34.41505],[132.22897,34.43114],[132.23566,34.43114],[132.24511,34.42326],[132.251,34.4244],[132.25475,34.41405],[132.28133,34.40956],[132.28439,34.38972],[132.30008,34.38426],[132.30343,34.39268],[132.29956,34.4073],[132.31139,34.41926],[132.31296,34.41008],[132.32428,34.40584],[132.317,34.38126],[132.3236,34.37961],[132.34234,34.36634],[132.34593,34.35757],[132.36031,34.35572],[132.36471,34.34744],[132.37694,34.35234],[132.37487,34.35993],[132.39755,34.36305],[132.41321,34.35721],[132.41878,34.36003],[132.43342,34.35319],[132.44341,34.34055],[132.44982,34.34082],[132.44994,34.3513],[132.47121,34.35336],[132.47853,34.35672],[132.49199,34.35349],[132.49638,34.35701],[132.50617,34.35572],[132.51469,34.36262],[132.51839,34.36091],[132.5274,34.36849],[132.53105,34.37605],[132.54617,34.38605],[132.558,34.38515],[132.56691,34.38166],[132.56606,34.37608],[132.57874,34.37449],[132.5812,34.38076],[132.60131,34.38026],[132.62289,34.37313],[132.6314,34.36159],[132.62751,34.35316],[132.64095,34.35206],[132.6442,34.36172],[132.65362,34.36874],[132.64933,34.38359],[132.64431,34.38876],[132.64646,34.39593],[132.64037,34.39906],[132.64434,34.4131],[132.65216,34.42234],[132.66607,34.42762],[132.66027,34.441],[132.65252,34.44286],[132.6475,34.4376],[132.63573,34.44336],[132.63325,34.45002],[132.62402,34.44627],[132.61544,34.44652],[132.60792,34.45655],[132.60044,34.45754],[132.60252,34.46806],[132.61023,34.47839],[132.60089,34.4838],[132.60937,34.49039],[132.61891,34.49095],[132.62827,34.49826],[132.63109,34.50573],[132.64669,34.50679],[132.64917,34.51942],[132.67369,34.53043],[132.68422,34.52681],[132.69313,34.52938],[132.6961,34.53583],[132.68688,34.54136],[132.69208,34.54626],[132.6876,34.55667],[132.68988,34.56183],[132.68329,34.56552],[132.68561,34.57211],[132.69409,34.5839],[132.69292,34.58985],[132.67911,34.60398],[132.66483,34.60692],[132.65984,34.60111],[132.65129,34.59943],[132.64572,34.60203],[132.63387,34.59589],[132.6245,34.60005],[132.61359,34.60119],[132.60864,34.59629],[132.6082,34.58604],[132.59619,34.58534],[132.59026,34.58158],[132.59081,34.57523],[132.57814,34.56402],[132.57319,34.56319],[132.56919,34.57256],[132.56055,34.57686],[132.55073,34.57829],[132.54401,34.58365]],[[132.53233,34.4212],[132.54072,34.41767],[132.53364,34.40787],[132.52775,34.38841],[132.51923,34.38309],[132.51622,34.37503],[132.5014,34.37603],[132.49841,34.39664],[132.50408,34.40439],[132.51434,34.40668],[132.5187,34.41492],[132.53233,34.4212]]]]}}