{"type":"Feature","properties":{"id":"JPN.38.1","name":"Shichinohe","level":2,"country":"JPN"},"geometry":{"type":"Polygon","coordinates":[[[141.0067,40.81661],[140.99611,40.81501],[140.98061,40.80619],[140.97561,40.79166],[140.95811,40.78004],[140.96111,40.77274],[140.95342,40.76558],[140.93954,40.7595],[140.92025,40.7617],[140.91052,40.75707],[140.9057,40.75105],[140.90123,40.73836],[140.90984,40.72918],[140.92631,40.72667],[140.92917,40.72162],[140.95317,40.7187],[140.96302,40.71317],[140.97896,40.69762],[140.99059,40.6935],[140.99893,40.68123],[141.00373,40.6707],[141.02749,40.6644],[141.04594,40.66465],[141.05083,40.66118],[141.05498,40.65065],[141.06259,40.6432],[141.08314,40.63313],[141.09004,40.63532],[141.10165,40.63453],[141.11822,40.63757],[141.12652,40.64277],[141.14407,40.63913],[141.14864,40.64566],[141.14552,40.65683],[141.15701,40.66323],[141.16138,40.67249],[141.1711,40.6724],[141.17282,40.68314],[141.17595,40.68958],[141.17258,40.69794],[141.18554,40.71117],[141.19632,40.71448],[141.2144,40.72579],[141.22403,40.72615],[141.23837,40.73183],[141.24874,40.74571],[141.25807,40.75065],[141.27085,40.74979],[141.27151,40.75347],[141.25369,40.75489],[141.25538,40.77281],[141.24809,40.77595],[141.24013,40.77492],[141.2382,40.76944],[141.231,40.76736],[141.22927,40.75826],[141.2187,40.75665],[141.20896,40.76327],[141.19205,40.76479],[141.18543,40.76833],[141.189,40.77843],[141.18014,40.78606],[141.16262,40.78683],[141.1617,40.79426],[141.1477,40.79676],[141.1354,40.80402],[141.11912,40.80217],[141.0997,40.80554],[141.08826,40.80065],[141.07002,40.80257],[141.0533,40.79871],[141.04073,40.80377],[141.03035,40.79922],[141.01617,40.80256],[141.0067,40.81661]]]}}