{"type":"Feature","properties":{"id":"JPN.7.57","name":"Nakama","level":2,"country":"JPN"},"geometry":{"type":"Polygon","coordinates":[[[130.70356,33.80126],[130.71655,33.8073],[130.72527,33.80327],[130.73111,33.81258],[130.74307,33.81608],[130.74285,33.82002],[130.72971,33.82535],[130.7288,33.83069],[130.71846,33.83445],[130.70165,33.84193],[130.70279,33.83494],[130.69568,33.83011],[130.69127,33.8341],[130.68539,33.83062],[130.67721,33.8305],[130.66852,33.82326],[130.66975,33.81963],[130.67449,33.82152],[130.68065,33.81109],[130.6879,33.81262],[130.69262,33.80668],[130.70057,33.80647],[130.70356,33.80126]]]}}