{"type":"Feature","properties":{"id":"JPN.33.46","name":"Hasuda","level":2,"country":"JPN"},"geometry":{"type":"Polygon","coordinates":[[[139.69196,35.99903],[139.68703,36.00412],[139.67576,35.99906],[139.6645,36.00729],[139.66203,36.012],[139.65046,36.0104],[139.64864,36.03134],[139.63648,36.03198],[139.62632,36.02767],[139.60424,36.03679],[139.59457,36.03389],[139.58819,36.0289],[139.59561,36.02724],[139.61164,36.0212],[139.62228,36.00928],[139.63507,36.00622],[139.63694,35.9985],[139.6448,35.99368],[139.64223,35.9697],[139.64887,35.96222],[139.65353,35.96806],[139.66607,35.9756],[139.68434,35.97561],[139.6956,35.99108],[139.69196,35.99903]]]}}