{"type":"Feature","properties":{"id":"JPN.22.144","name":"Takikawa","level":2,"country":"JPN"},"geometry":{"type":"Polygon","coordinates":[[[141.96186,43.66907],[141.94693,43.67239],[141.93132,43.66881],[141.92359,43.66203],[141.91498,43.66207],[141.92139,43.65323],[141.91216,43.64992],[141.90698,43.64469],[141.9161,43.63795],[141.9156,43.63071],[141.90485,43.62828],[141.89261,43.63127],[141.88054,43.6206],[141.88176,43.60693],[141.88506,43.60382],[141.87925,43.59354],[141.88355,43.58106],[141.878,43.56762],[141.89207,43.54998],[141.88957,43.53944],[141.9024,43.53249],[141.91015,43.54601],[141.92572,43.55044],[141.93385,43.55046],[141.94728,43.56057],[141.96308,43.56353],[141.96353,43.55766],[141.97814,43.5584],[141.98394,43.56498],[141.98666,43.57593],[141.99516,43.58319],[141.99424,43.59812],[142.01715,43.61447],[142.02672,43.6166],[142.04371,43.62439],[142.05975,43.61675],[142.062,43.62491],[142.0675,43.62826],[142.08006,43.62953],[142.08405,43.64216],[142.0653,43.63134],[142.05375,43.63083],[142.0452,43.63552],[142.02351,43.63493],[142.00788,43.63989],[142.00438,43.64845],[141.97413,43.66179],[141.9744,43.66683],[141.96186,43.66907]]]}}