{"type":"Feature","properties":{"id":"JPN.7.6","name":"Fukutsu","level":2,"country":"JPN"},"geometry":{"type":"Polygon","coordinates":[[[130.55511,33.75052],[130.54208,33.76392],[130.54508,33.77208],[130.53865,33.77828],[130.52863,33.78067],[130.52082,33.77495],[130.51672,33.78078],[130.50143,33.79173],[130.49844,33.804],[130.50516,33.80948],[130.49787,33.82298],[130.5002,33.83094],[130.49375,33.83697],[130.48962,33.84528],[130.48253,33.84493],[130.47973,33.8507],[130.48214,33.84388],[130.4801,33.83369],[130.47472,33.82054],[130.46977,33.81461],[130.46031,33.80976],[130.4462,33.80869],[130.45145,33.80256],[130.44538,33.79292],[130.45025,33.78482],[130.46106,33.78825],[130.46915,33.77969],[130.47043,33.76754],[130.46735,33.75377],[130.48078,33.75196],[130.50919,33.74035],[130.54102,33.73793],[130.54774,33.73061],[130.55398,33.73997],[130.55511,33.75052]]]}}