{"type":"Feature","properties":{"id":"IRN.24.5","name":"Rezvanshahr","level":2,"country":"IRN"},"geometry":{"type":"Polygon","coordinates":[[[48.80003,37.39196],[48.86892,37.42168],[48.93281,37.4414],[49.01059,37.47419],[49.05976,37.48058],[49.10504,37.48002],[49.16365,37.47558],[49.1981,37.49561],[49.18514,37.52537],[49.18032,37.55207],[49.19123,37.57647],[49.16314,37.59319],[49.09697,37.63876],[49.06021,37.67107],[49.01254,37.64391],[48.98698,37.63474],[48.89864,37.61252],[48.85836,37.5978],[48.8153,37.58502],[48.77947,37.56724],[48.69419,37.50807],[48.7153,37.47419],[48.75641,37.43001],[48.80003,37.39196]]]}}