{"type":"Feature","properties":{"id":"IRN.30.13","name":"Bardsir","level":2,"country":"IRN"},"geometry":{"type":"Polygon","coordinates":[[[56.74595,29.39261],[56.76818,29.38872],[56.79762,29.39344],[56.8679,29.44428],[56.92846,29.45595],[56.96791,29.45567],[57.00013,29.44594],[57.03735,29.43038],[57.09263,29.4165],[57.17292,29.40399],[57.22236,29.4001],[57.24514,29.40316],[57.26931,29.41038],[57.2707,29.43567],[57.27709,29.44788],[57.29792,29.45122],[57.31264,29.46622],[57.27875,29.49705],[57.27459,29.51761],[57.28959,29.54066],[57.29736,29.574],[57.29236,29.60844],[57.27986,29.629],[57.22931,29.66734],[57.17625,29.704],[57.12486,29.75789],[57.11486,29.78706],[57.11597,29.82178],[57.12097,29.85456],[57.11875,29.87484],[57.11945,29.92565],[57.1056,30.00936],[57.07882,30.00648],[57.0446,30.00956],[57.00424,30.00797],[56.99776,30.00501],[56.9611,30.0088],[56.91402,30.00789],[56.83401,30.02012],[56.79457,30.02179],[56.76707,30.02567],[56.71845,30.02484],[56.69012,30.02762],[56.63706,30.02457],[56.51955,30.03596],[56.41788,30.06596],[56.35288,30.09234],[56.29038,30.12763],[56.24843,30.16179],[56.20398,30.14401],[56.19537,30.1929],[56.18704,30.19846],[56.11815,30.18096],[56.0512,30.15541],[56.02537,30.14068],[56.0087,30.11762],[56.00314,30.0954],[56.00564,30.0829],[56.02981,30.06235],[56.06565,30.04873],[56.07704,30.03846],[56.07565,30.02651],[56.05509,30.01068],[56.04426,29.99429],[56.0387,29.97234],[56.03787,29.94401],[56.0308,29.90348],[56.01953,29.8579],[56.01703,29.83734],[56.08231,29.83484],[56.10926,29.84623],[56.13398,29.86262],[56.1562,29.87317],[56.20037,29.8715],[56.25454,29.8754],[56.26343,29.85984],[56.2651,29.82595],[56.27482,29.80845],[56.28704,29.79845],[56.32205,29.78095],[56.35677,29.75678],[56.38482,29.71262],[56.45233,29.68234],[56.45566,29.65206],[56.43483,29.59261],[56.43538,29.57539],[56.46705,29.57623],[56.49511,29.56233],[56.53011,29.53484],[56.549,29.51317],[56.57789,29.46511],[56.614,29.43344],[56.63789,29.4265],[56.68151,29.42483],[56.7104,29.4115],[56.72456,29.40038],[56.74595,29.39261]]]}}