{"type":"Feature","properties":{"id":"IRN.8.16","name":"Robatkarim","level":2,"country":"IRN"},"geometry":{"type":"Polygon","coordinates":[[[51.1239,35.54969],[51.11397,35.55964],[51.09347,35.5547],[51.03236,35.56553],[50.99986,35.56247],[50.93902,35.53913],[50.92902,35.52748],[50.89707,35.47608],[50.94041,35.45914],[50.95402,35.4483],[50.99375,35.44775],[51.0668,35.46136],[51.08153,35.45163],[51.09724,35.45562],[51.1923,35.42499],[51.19805,35.43057],[51.20348,35.45886],[51.21042,35.47025],[51.18903,35.48108],[51.17792,35.49497],[51.14903,35.47636],[51.14042,35.48608],[51.14347,35.50053],[51.15792,35.50997],[51.15792,35.52748],[51.1239,35.54969]]]}}