{"type":"Feature","properties":{"id":"IRN.8.15","name":"Varamin","level":2,"country":"IRN"},"geometry":{"type":"Polygon","coordinates":[[[51.4535,35.11052],[51.49488,35.10441],[51.58155,35.04885],[51.58989,35.02774],[51.61433,35.01107],[51.63766,35.00746],[51.68878,35.01246],[51.73323,35.00163],[51.81295,34.94996],[51.90907,34.90023],[51.9649,34.86524],[52.00157,34.91856],[52.03574,34.99996],[52.04463,35.04968],[52.04296,35.07219],[52.03463,35.09052],[52.0074,35.11663],[51.9549,35.1508],[51.93768,35.18135],[51.90018,35.23414],[51.88184,35.25497],[51.87385,35.27444],[51.79017,35.27524],[51.71911,35.28239],[51.67427,35.27536],[51.66613,35.29184],[51.66711,35.30969],[51.68211,35.31691],[51.67461,35.3358],[51.64544,35.36414],[51.67629,35.39146],[51.63371,35.41455],[51.62711,35.40469],[51.60211,35.38441],[51.58572,35.37802],[51.55655,35.37857],[51.51516,35.37108],[51.49599,35.37636],[51.48655,35.33858],[51.48877,35.30302],[51.49571,35.28774],[51.51572,35.26858],[51.53738,35.22246],[51.54482,35.19239],[51.49877,35.14607],[51.4535,35.11052]]]}}