{"type":"Feature","properties":{"id":"IRN.27.6","name":"Sarakhs","level":2,"country":"IRN"},"geometry":{"type":"Polygon","coordinates":[[[61.17205,35.94673],[61.13933,35.95198],[61.12927,35.96702],[61.14403,35.98153],[61.16667,35.99083],[61.17333,36.00806],[61.16639,36.02194],[61.1675,36.04056],[61.19222,36.05417],[61.18314,36.06717],[61.20729,36.09199],[61.216,36.11075],[61.21061,36.12774],[61.22513,36.14056],[61.21567,36.14894],[61.22644,36.16658],[61.21624,36.19517],[61.20448,36.19983],[61.1914,36.22786],[61.18927,36.26167],[61.1729,36.29048],[61.16145,36.2968],[61.16045,36.33057],[61.14911,36.33721],[61.15748,36.35499],[61.15111,36.36194],[61.1425,36.39278],[61.16635,36.41359],[61.16662,36.44124],[61.16224,36.45247],[61.17576,36.46416],[61.16806,36.48389],[61.15675,36.48642],[61.16863,36.52058],[61.18222,36.52577],[61.17565,36.53758],[61.18524,36.54819],[61.186,36.56432],[61.17778,36.59056],[61.16311,36.61508],[61.14654,36.6336],[61.14619,36.64649],[61.12886,36.6443],[60.9044,36.63459],[60.67522,36.62221],[60.60872,36.62796],[60.54472,36.62854],[60.48885,36.62599],[60.36062,36.62949],[60.44169,36.55749],[60.41613,36.54416],[60.40558,36.53166],[60.41975,36.50582],[60.41808,36.49749],[60.3878,36.48527],[60.38308,36.46749],[60.3628,36.46166],[60.31252,36.4336],[60.28946,36.4261],[60.24224,36.42388],[60.20752,36.41138],[60.24585,36.38943],[60.30296,36.3382],[60.34669,36.30443],[60.3753,36.2861],[60.38863,36.27249],[60.36113,36.25165],[60.35697,36.23776],[60.36113,36.21359],[60.3728,36.1797],[60.39753,36.15276],[60.41613,36.11165],[60.42086,36.08275],[60.41558,36.0547],[60.42447,36.04998],[60.45391,36.05304],[60.47225,36.05109],[60.48559,36.03637],[60.48697,35.99998],[60.50392,35.98831],[60.53948,35.98025],[60.55568,35.95042],[60.56503,35.95858],[60.59198,35.96969],[60.61337,35.98969],[60.63254,35.99804],[60.67504,35.99304],[60.70976,35.9822],[60.76143,35.97387],[60.8106,35.97108],[60.84782,35.97164],[60.96116,35.94776],[60.98394,35.94053],[61.00617,35.9272],[61.05366,35.90414],[61.13839,35.89525],[61.16034,35.91275],[61.17205,35.94673]]]}}