{"type":"Feature","properties":{"id":"IRN.11.9","name":"Dasht-e-Azadegan","level":2,"country":"IRN"},"geometry":{"type":"Polygon","coordinates":[[[48.30498,31.67251],[48.27428,31.6796],[48.25886,31.69241],[48.24543,31.73255],[48.23753,31.74792],[48.19934,31.78321],[48.17496,31.79078],[48.14261,31.79134],[48.1224,31.78671],[48.1016,31.81173],[48.09252,31.83217],[48.07449,31.85287],[48.03418,31.91337],[48.01992,31.94149],[47.99844,31.967],[47.98178,31.99235],[47.93179,32.04325],[47.88907,32.07196],[47.71766,31.9863],[47.71157,31.9706],[47.72509,31.96296],[47.73171,31.93926],[47.75923,31.91214],[47.78334,31.90579],[47.78876,31.88743],[47.80986,31.88137],[47.79867,31.85846],[47.80534,31.84258],[47.85257,31.81822],[47.86585,31.78361],[47.8189,31.6838],[47.8617,31.66828],[47.90081,31.65745],[47.92682,31.64287],[47.94671,31.63706],[47.98377,31.62],[48.011,31.59737],[48.03364,31.56976],[48.08168,31.54796],[48.10005,31.53613],[48.10866,31.52314],[48.1371,31.49693],[48.16661,31.48673],[48.2074,31.46776],[48.24224,31.47235],[48.27802,31.44439],[48.31739,31.40178],[48.33783,31.4338],[48.35822,31.44463],[48.38062,31.44895],[48.4007,31.4672],[48.41618,31.47372],[48.43045,31.48735],[48.43527,31.50217],[48.45899,31.51393],[48.44272,31.52306],[48.41912,31.54518],[48.38776,31.5824],[48.37161,31.61251],[48.33454,31.64806],[48.30498,31.67251]]]}}