{"type":"Feature","properties":{"id":"IRN.22.14","name":"Mianeh","level":2,"country":"IRN"},"geometry":{"type":"Polygon","coordinates":[[[47.22495,37.5528],[47.233,37.54001],[47.23328,37.52363],[47.21939,37.50807],[47.22551,37.49446],[47.29606,37.47029],[47.2994,37.45918],[47.26412,37.40641],[47.26995,37.39501],[47.29107,37.38529],[47.29245,37.37501],[47.27634,37.36474],[47.26773,37.3489],[47.30162,37.33223],[47.30551,37.31223],[47.28329,37.30279],[47.27218,37.27806],[47.2969,37.27085],[47.31746,37.24529],[47.3519,37.21057],[47.35746,37.19584],[47.34912,37.17251],[47.43413,37.15806],[47.45746,37.1639],[47.50719,37.18501],[47.52024,37.18362],[47.55358,37.16334],[47.57469,37.14612],[47.58997,37.12584],[47.63386,37.07917],[47.65886,37.09834],[47.66831,37.0989],[47.68747,37.0864],[47.71997,37.09362],[47.72942,37.08418],[47.7597,37.07612],[47.77303,37.08139],[47.77887,37.13222],[47.79359,37.14445],[47.84248,37.16918],[47.87193,37.17473],[47.89804,37.1739],[47.94693,37.16557],[47.98332,37.14778],[47.99933,37.11222],[48.0336,37.14528],[48.0561,37.15251],[48.0811,37.15084],[48.09971,37.15584],[48.11694,37.18834],[48.15027,37.22112],[48.2075,37.22946],[48.23778,37.23779],[48.27583,37.23751],[48.29472,37.24529],[48.3325,37.24251],[48.33945,37.25751],[48.33528,37.2664],[48.30806,37.2764],[48.27139,37.31334],[48.24417,37.32696],[48.24556,37.34168],[48.23139,37.35196],[48.22556,37.36612],[48.19139,37.38112],[48.14944,37.41612],[48.14583,37.43335],[48.15611,37.47529],[48.14194,37.48418],[48.11138,37.49224],[48.10027,37.50585],[48.06082,37.51473],[48.05305,37.53335],[48.05805,37.54446],[48.07888,37.56502],[48.07916,37.57836],[48.06777,37.59502],[48.02165,37.61224],[48.01888,37.61808],[48.02777,37.66113],[48.06305,37.70641],[48.0636,37.7228],[48.07527,37.73391],[48.11527,37.73919],[48.13527,37.75224],[48.14749,37.78058],[48.1511,37.80975],[48.1461,37.8178],[48.11471,37.83031],[48.10471,37.84919],[48.0886,37.85364],[48.07388,37.84753],[48.05277,37.85253],[48.05027,37.8653],[48.03777,37.87697],[47.9994,37.89496],[47.97749,37.87586],[47.94443,37.87475],[47.89804,37.86364],[47.87859,37.84225],[47.86359,37.83336],[47.8522,37.79836],[47.80386,37.80059],[47.77553,37.78864],[47.75025,37.79475],[47.70525,37.77919],[47.69275,37.78724],[47.66914,37.77169],[47.6183,37.75058],[47.58913,37.74697],[47.55969,37.73919],[47.51996,37.74364],[47.50691,37.74225],[47.46385,37.7553],[47.45246,37.7553],[47.41718,37.74447],[47.39412,37.75614],[47.37662,37.75974],[47.31718,37.75364],[47.29523,37.75864],[47.27217,37.75336],[47.25245,37.75724],[47.22439,37.75224],[47.21411,37.7303],[47.20689,37.67335],[47.21384,37.63391],[47.24051,37.57752],[47.24134,37.55974],[47.22495,37.5528]]]}}