{"type":"Feature","properties":{"id":"IRN.13.4","name":"Chardavol","level":2,"country":"IRN"},"geometry":{"type":"Polygon","coordinates":[[[46.44687,33.81048],[46.46715,33.81242],[46.49521,33.8002],[46.5116,33.80354],[46.53354,33.77131],[46.54076,33.74797],[46.5941,33.70408],[46.68383,33.65408],[46.70272,33.64909],[46.75689,33.6263],[46.80328,33.60297],[46.86161,33.58353],[46.84578,33.61048],[46.88467,33.62019],[46.90439,33.61575],[46.94245,33.62047],[46.97495,33.60409],[46.98023,33.59297],[47.03357,33.59269],[47.0219,33.62297],[47.03135,33.64575],[47.0719,33.6877],[47.06246,33.69658],[47.06801,33.70992],[47.0894,33.69658],[47.10968,33.70631],[47.15579,33.70298],[47.17885,33.7227],[47.19996,33.72547],[47.21274,33.71826],[47.23413,33.72853],[47.24191,33.72575],[47.25802,33.74603],[47.27802,33.73019],[47.30386,33.72381],[47.32441,33.73103],[47.34886,33.73381],[47.35997,33.72937],[47.37664,33.73464],[47.40803,33.7352],[47.42358,33.7552],[47.4372,33.76381],[47.45442,33.78465],[47.45414,33.79881],[47.47748,33.82047],[47.49053,33.82631],[47.50637,33.82214],[47.5147,33.83215],[47.50637,33.85631],[47.50276,33.86798],[47.50609,33.88799],[47.49859,33.89715],[47.50692,33.90715],[47.48386,33.92493],[47.47998,33.94215],[47.4372,33.95104],[47.41719,33.95104],[47.40386,33.93576],[47.39136,33.93048],[47.36969,33.94465],[47.32497,33.96271],[47.3133,33.95271],[47.31969,33.93909],[47.37747,33.88493],[47.38664,33.86131],[47.38303,33.85381],[47.36052,33.8427],[47.3433,33.81603],[47.31886,33.82103],[47.30913,33.81214],[47.30774,33.79631],[47.29525,33.78854],[47.2808,33.78965],[47.24913,33.80381],[47.21385,33.80243],[47.17718,33.81687],[47.13746,33.81464],[47.11274,33.83854],[47.09273,33.82436],[47.05218,33.83326],[47.03079,33.81437],[46.99718,33.81159],[46.99884,33.78186],[46.97523,33.74214],[46.9619,33.74437],[46.94467,33.76048],[46.92439,33.76853],[46.90023,33.74353],[46.87384,33.73381],[46.85828,33.73381],[46.82939,33.74909],[46.77994,33.76714],[46.76272,33.77131],[46.73939,33.74269],[46.72411,33.74214],[46.69522,33.75715],[46.66799,33.79326],[46.62132,33.83075],[46.54188,33.86964],[46.50132,33.89798],[46.47187,33.91076],[46.35576,33.97049],[46.29853,33.99548],[46.29186,33.98242],[46.29131,33.95896],[46.29992,33.95409],[46.31603,33.92076],[46.41354,33.8627],[46.42409,33.85437],[46.42548,33.81464],[46.44687,33.81048]]]}}