{"type":"Feature","properties":{"id":"IRN.11.4","name":"Shadegan","level":2,"country":"IRN"},"geometry":{"type":"Polygon","coordinates":[[[48.69074,30.35704],[48.6993,30.34191],[48.69714,30.32619],[48.71077,30.31624],[48.72969,30.31502],[48.73571,30.30139],[48.78557,30.30407],[48.79937,30.31456],[48.80884,30.33055],[48.82099,30.33541],[48.84387,30.33183],[48.86862,30.31688],[48.8811,30.32742],[48.87634,30.34245],[48.882,30.35893],[48.9047,30.38138],[48.91195,30.39744],[48.92388,30.40758],[48.93969,30.41214],[48.96551,30.41034],[49.01168,30.39888],[49.05251,30.42218],[49.05202,30.43182],[49.03283,30.4436],[49.02816,30.45375],[49.00514,30.46356],[49.0033,30.47998],[49.00826,30.49884],[49.00116,30.50786],[48.97339,30.5668],[48.92283,30.61624],[48.91894,30.6254],[48.94339,30.67097],[48.9595,30.74013],[48.96356,30.78051],[48.98629,30.82619],[49.00179,30.84671],[49.00687,30.86823],[48.9947,30.88887],[48.98837,30.90792],[48.90258,30.89569],[48.86723,30.89644],[48.84084,30.91561],[48.81866,30.94431],[48.80468,30.94733],[48.7791,30.94248],[48.75986,30.96101],[48.73814,30.96188],[48.72101,30.95125],[48.68934,30.91693],[48.66623,30.90787],[48.61764,30.93671],[48.55846,30.94825],[48.54173,30.94856],[48.48612,30.97612],[48.46217,30.9783],[48.41489,30.98761],[48.37869,30.99072],[48.36056,30.9833],[48.35883,30.95969],[48.34794,30.93942],[48.34883,30.92061],[48.36577,30.90962],[48.37685,30.92581],[48.39388,30.92082],[48.39994,30.89017],[48.41599,30.8957],[48.4413,30.89307],[48.45401,30.88417],[48.44813,30.87171],[48.43404,30.87341],[48.41261,30.8491],[48.42686,30.83966],[48.45505,30.85658],[48.4693,30.8503],[48.47298,30.8347],[48.45402,30.82902],[48.4355,30.81245],[48.43478,30.79597],[48.42663,30.77444],[48.42603,30.75013],[48.39215,30.72739],[48.3418,30.68505],[48.32296,30.66118],[48.32803,30.64262],[48.34597,30.62627],[48.33018,30.62018],[48.32863,30.6067],[48.35141,30.61156],[48.36398,30.58962],[48.37769,30.55448],[48.39104,30.50544],[48.42648,30.41655],[48.44418,30.38943],[48.47612,30.37362],[48.50926,30.37161],[48.51085,30.38192],[48.52797,30.39525],[48.57442,30.39334],[48.58759,30.3789],[48.59163,30.36309],[48.60201,30.35764],[48.62796,30.38244],[48.63441,30.39548],[48.64932,30.39382],[48.66458,30.37438],[48.68185,30.36946],[48.69074,30.35704]]]}}