{"type":"Feature","properties":{"id":"IRN.19.3","name":"Abhar","level":2,"country":"IRN"},"geometry":{"type":"MultiPolygon","coordinates":[[[[49.12004,36.42944],[49.0956,36.44638],[49.08143,36.47166],[49.0606,36.49582],[49.007,36.52748],[48.96006,36.46605],[48.93933,36.39852],[48.89198,36.33008],[48.89281,36.29582],[48.91448,36.2586],[48.93476,36.24332],[48.93809,36.23498],[49.01615,36.24943],[49.03449,36.25832],[49.05088,36.25998],[49.0831,36.27221],[49.09254,36.25221],[49.11199,36.23943],[49.14088,36.23387],[49.16505,36.24471],[49.15088,36.27665],[49.13477,36.27638],[49.1131,36.2661],[49.10032,36.27499],[49.10199,36.28527],[49.13115,36.30249],[49.1631,36.3386],[49.16727,36.36193],[49.1406,36.39888],[49.1306,36.40638],[49.12004,36.42944]]],[[[49.15171,35.92998],[49.17394,35.95165],[49.18616,35.95804],[49.20894,35.98221],[49.22366,35.98525],[49.25922,35.97192],[49.302,35.97582],[49.35395,36.00498],[49.39784,36.04637],[49.41284,36.07387],[49.41617,36.09554],[49.41089,36.13665],[49.42895,36.17332],[49.43367,36.19304],[49.41534,36.21776],[49.41173,36.24054],[49.39311,36.25998],[49.39145,36.27165],[49.41756,36.3086],[49.4245,36.32721],[49.3945,36.32971],[49.37089,36.3386],[49.34811,36.35805],[49.34617,36.37972],[49.32922,36.38971],[49.30672,36.38638],[49.29255,36.35333],[49.25144,36.31805],[49.24561,36.29916],[49.26172,36.27165],[49.27061,36.24916],[49.27227,36.23138],[49.26616,36.21054],[49.24588,36.18609],[49.22922,36.1786],[49.19164,36.1746],[49.1633,36.17641],[49.16015,36.15739],[49.10549,36.16505],[49.01921,36.16777],[48.96504,36.17749],[48.95198,36.18971],[48.94809,36.18221],[48.91976,36.15554],[48.91948,36.13137],[48.94892,36.1036],[48.95004,36.07554],[48.94615,36.06054],[48.90337,35.98248],[48.92198,35.94553],[48.9342,35.93054],[48.95337,35.91776],[49.00782,35.90443],[49.03226,35.88276],[49.0581,35.87887],[49.07588,35.88998],[49.077,35.90159],[49.06671,35.91804],[49.08754,35.92942],[49.11866,35.93248],[49.15171,35.92998]]]]}}