{"type":"Feature","properties":{"id":"IRN.8.8","name":"Paveh","level":2,"country":"IRN"},"geometry":{"type":"Polygon","coordinates":[[[51.76739,35.5583],[51.80183,35.55692],[51.85434,35.63858],[51.87879,35.68859],[51.88906,35.71554],[51.8874,35.74109],[51.87129,35.7597],[51.84164,35.7823],[51.83323,35.78914],[51.81656,35.77386],[51.79295,35.78581],[51.74684,35.78387],[51.71906,35.77693],[51.69711,35.77581],[51.67621,35.76873],[51.688,35.73639],[51.69669,35.70064],[51.69335,35.68176],[51.70562,35.66724],[51.73959,35.64698],[51.75168,35.6233],[51.78034,35.60097],[51.76105,35.58544],[51.76739,35.5583]]]}}