{"type":"Feature","properties":{"id":"IRN.14.6","name":"Bastak","level":2,"country":"IRN"},"geometry":{"type":"Polygon","coordinates":[[[54.97782,27.43447],[54.88782,27.44174],[54.7692,27.44868],[54.72281,27.45368],[54.68614,27.46229],[54.64114,27.46785],[54.50058,27.46201],[54.44502,27.45202],[54.41168,27.45729],[54.35307,27.45868],[54.28696,27.44868],[54.23668,27.43646],[54.15778,27.42145],[54.10945,27.40812],[54.01556,27.36617],[53.97333,27.35423],[53.9675,27.34507],[53.96611,27.32284],[53.97083,27.30701],[53.99639,27.27312],[54.01583,27.27424],[54.035,27.23506],[54.02306,27.21339],[53.99278,27.18979],[53.93333,27.12368],[53.85777,27.08924],[53.82749,27.06228],[53.8311,27.02729],[53.89999,26.98478],[53.91999,26.97756],[53.97916,26.96145],[54.00694,26.96312],[54.02972,26.95867],[54.10861,26.95117],[54.16,26.94228],[54.17889,26.93479],[54.22918,26.92506],[54.27723,26.92561],[54.29557,26.92895],[54.35473,26.93311],[54.38001,26.93172],[54.41502,26.93395],[54.4378,26.93089],[54.50585,26.91534],[54.51863,26.9145],[54.56141,26.92284],[54.60891,26.93589],[54.66591,26.96389],[54.7067,26.99548],[54.72548,27.01961],[54.75771,27.03305],[54.75442,27.04368],[54.77671,27.08144],[54.81779,27.12228],[54.84781,27.12395],[54.89865,27.13284],[54.96726,27.1295],[55.05088,27.1159],[55.1506,27.09673],[55.16866,27.09701],[55.21255,27.10312],[55.25366,27.10173],[55.31756,27.09062],[55.3395,27.0834],[55.36061,27.14035],[55.37895,27.14729],[55.39172,27.1659],[55.37506,27.182],[55.33561,27.19812],[55.32256,27.19812],[55.23977,27.18312],[55.21144,27.18145],[55.17866,27.19035],[55.16477,27.2059],[55.14616,27.23451],[55.13199,27.23701],[55.09727,27.23173],[55.06782,27.23146],[54.99992,27.22645],[54.95559,27.22534],[54.94532,27.22756],[54.92143,27.25728],[54.89504,27.28062],[54.93615,27.2984],[54.94199,27.32034],[54.94448,27.34645],[54.96504,27.36117],[54.97115,27.3859],[54.97782,27.43447]]]}}