{"type":"Feature","properties":{"id":"IRN.30.23","name":"Sirjan","level":2,"country":"IRN"},"geometry":{"type":"Polygon","coordinates":[[[56.43538,29.57539],[56.43483,29.59261],[56.45566,29.65206],[56.45233,29.68234],[56.38482,29.71262],[56.35677,29.75678],[56.32205,29.78095],[56.28704,29.79845],[56.27482,29.80845],[56.2651,29.82595],[56.26343,29.85984],[56.25454,29.8754],[56.20037,29.8715],[56.1562,29.87317],[56.13398,29.86262],[56.10926,29.84623],[56.08231,29.83484],[56.01703,29.83734],[56.01953,29.8579],[56.0308,29.90348],[56.01425,29.90734],[55.9912,29.92596],[55.9737,29.95706],[55.96064,29.96929],[55.90758,29.99179],[55.84258,30.00929],[55.81508,30.00901],[55.7848,29.99929],[55.75591,29.97873],[55.6798,29.95206],[55.63035,29.93318],[55.58951,29.91012],[55.53007,29.86095],[55.50284,29.83484],[55.46368,29.80983],[55.4284,29.79095],[55.32978,29.75345],[55.26116,29.7254],[55.23922,29.7104],[55.16894,29.67011],[55.14394,29.64567],[55.13505,29.62067],[55.13949,29.58567],[55.13533,29.55317],[55.11116,29.51428],[55.07227,29.48539],[55.04643,29.4765],[54.94726,29.44983],[54.95393,29.44289],[54.98393,29.39483],[55.0131,29.36788],[55.08143,29.32789],[55.1256,29.29122],[55.16422,29.25372],[55.19977,29.20344],[55.26228,29.09455],[55.27505,29.04566],[55.28061,28.9951],[55.27255,28.96121],[55.262,28.89982],[55.24811,28.8426],[55.24366,28.78231],[55.24783,28.74704],[55.29339,28.74732],[55.33395,28.74065],[55.39451,28.72315],[55.42756,28.70954],[55.44756,28.69648],[55.50006,28.69204],[55.53701,28.69731],[55.58368,28.71954],[55.61757,28.72732],[55.64007,28.73649],[55.72063,28.77954],[55.81563,28.81954],[55.90119,28.84843],[55.97981,28.87009],[56.0237,28.87955],[56.05481,28.8793],[56.07426,28.90093],[56.12509,28.93399],[56.14092,28.94871],[56.14176,28.96232],[56.12703,29.01398],[56.11453,29.06594],[56.10981,29.12177],[56.12481,29.14927],[56.14926,29.16649],[56.17787,29.18066],[56.21871,29.2115],[56.24871,29.25538],[56.2776,29.33622],[56.28343,29.36927],[56.28177,29.39233],[56.2726,29.42344],[56.3001,29.48317],[56.30955,29.49733],[56.32955,29.50678],[56.35593,29.50927],[56.37399,29.51678],[56.38149,29.52567],[56.38899,29.55372],[56.43538,29.57539]]]}}