{"type":"Feature","properties":{"id":"SWZ.2.11","name":"Inkhundla Tikhuba","level":2,"country":"SWZ"},"geometry":{"type":"Polygon","coordinates":[[[31.94944,-26.5129],[31.96779,-26.53354],[31.97599,-26.54724],[31.98541,-26.57516],[31.99502,-26.58745],[32.01327,-26.63061],[32.0208,-26.67841],[32.01988,-26.70883],[32.01651,-26.7243],[32.01152,-26.75898],[32.01055,-26.77992],[32.02123,-26.80718],[32.03489,-26.80715],[32.04524,-26.81692],[32.06023,-26.81716],[32.06548,-26.81177],[32.09297,-26.8048],[32.10551,-26.8098],[32.10839,-26.82102],[32.11942,-26.83805],[32.13462,-26.84026],[32.13499,-26.52725],[32.10579,-26.46557],[32.08248,-26.46926],[32.07482,-26.48393],[32.06454,-26.48655],[32.05616,-26.47917],[32.03791,-26.48858],[32.00002,-26.48458],[31.99183,-26.49099],[31.96718,-26.49321],[31.94944,-26.5129]]]}}