{"type":"Feature","properties":{"id":"ROU.21","name":"Maramures","level":1,"country":"ROU"},"geometry":{"type":"Polygon","coordinates":[[[24.94238,47.71556],[24.87779,47.71874],[24.79366,47.80447],[24.66147,47.85388],[24.64928,47.89522],[24.56163,47.94054],[24.42851,47.95253],[24.34718,47.92088],[24.23101,47.89703],[24.13117,47.91454],[24.09479,47.93793],[23.97728,47.96229],[23.87661,47.93444],[23.78008,47.98751],[23.71052,47.98508],[23.56324,48.00575],[23.48548,47.97423],[23.54945,47.88902],[23.63001,47.83809],[23.62066,47.8162],[23.47917,47.74303],[23.41447,47.73259],[23.27184,47.74923],[23.25882,47.70195],[23.32677,47.68918],[23.35954,47.64257],[23.32367,47.58526],[23.26797,47.53808],[23.21722,47.53534],[23.11681,47.57648],[23.03615,47.48671],[22.96881,47.4445],[22.99842,47.41625],[23.09046,47.40429],[23.14058,47.41695],[23.24533,47.41643],[23.4571,47.36517],[23.63352,47.36745],[23.76204,47.30487],[23.81295,47.31652],[23.84147,47.33324],[24.00751,47.32461],[24.10714,47.41091],[24.12094,47.45155],[24.22491,47.4732],[24.29627,47.53772],[24.38335,47.56211],[24.57094,47.53216],[24.75919,47.5365],[24.87076,47.58283],[24.95623,47.58229],[25.01582,47.59648],[25.02186,47.63224],[24.94238,47.71556]]]}}