{"type":"Feature","properties":{"id":"ROU.37","name":"Buzau","level":1,"country":"ROU"},"geometry":{"type":"Polygon","coordinates":[[[26.38044,45.80294],[26.39501,45.74982],[26.32861,45.61809],[26.28468,45.60285],[26.23455,45.62556],[26.18892,45.57453],[26.10045,45.5644],[26.04599,45.48226],[26.17404,45.38653],[26.21363,45.31855],[26.20866,45.28333],[26.26215,45.21822],[26.33403,45.2129],[26.46917,45.11761],[26.48947,45.02475],[26.57794,44.97741],[26.54735,44.91628],[26.60389,44.86507],[26.66021,44.83597],[26.89994,44.82667],[27.00035,44.80254],[27.03662,44.82207],[27.10504,44.80657],[27.12432,44.76021],[27.18948,44.77288],[27.20065,44.81941],[27.20344,44.87297],[27.17817,44.9185],[27.23806,44.93814],[27.27015,45.03916],[27.20592,45.06867],[27.20514,45.10681],[27.16416,45.13228],[27.16292,45.17146],[27.07869,45.15952],[27.06412,45.2014],[27.16716,45.23796],[27.30477,45.23445],[27.30973,45.28613],[27.3872,45.30845],[27.42347,45.38653],[27.30756,45.39653],[27.27609,45.43485],[27.13781,45.46782],[27.06381,45.45069],[27.00624,45.48182],[26.9758,45.53332],[26.90707,45.54523],[26.83147,45.52838],[26.75483,45.56332],[26.66936,45.6212],[26.56895,45.62476],[26.53216,45.65039],[26.42462,45.77318],[26.38044,45.80294]]]}}