{"type":"Feature","properties":{"id":"ROU.42","name":"Tulcea","level":1,"country":"ROU"},"geometry":{"type":"Polygon","coordinates":[[[28.78541,44.67967],[28.80844,44.72687],[28.92384,44.7578],[28.9524,44.82665],[28.88152,44.8697],[28.86354,44.92231],[28.88006,44.95478],[28.96022,44.9877],[29.04518,45.00483],[29.10174,44.98029],[29.05209,44.94465],[29.04412,44.86555],[29.06031,44.83234],[29.12599,44.85248],[29.13868,44.80402],[29.09816,44.77538],[28.97495,44.74494],[28.99488,44.71113],[29.1561,44.78441],[29.511,44.8205],[29.56178,44.82026],[29.61118,44.84931],[29.67652,45.1446],[29.65903,45.21589],[29.67228,45.27295],[29.65026,45.34612],[29.5697,45.39496],[29.43064,45.43041],[29.32212,45.44384],[29.22817,45.42374],[29.17432,45.38896],[29.06952,45.3608],[28.96648,45.31987],[28.92989,45.2791],[28.81631,45.32607],[28.76153,45.28184],[28.77869,45.23109],[28.71006,45.22696],[28.57705,45.24809],[28.49416,45.27889],[28.40517,45.29507],[28.33024,45.32292],[28.26688,45.44048],[28.21515,45.45037],[28.19082,45.41702],[28.12488,45.42803],[28.03021,45.39542],[27.98675,45.29233],[28.07553,45.24822],[28.13077,45.2377],[28.0977,45.18417],[28.17795,45.13466],[28.13144,45.08903],[28.14136,44.95979],[28.12503,44.8916],[28.08007,44.84078],[28.05481,44.77701],[28.14522,44.78255],[28.19563,44.76815],[28.28205,44.71053],[28.32526,44.71774],[28.34686,44.76094],[28.40448,44.76094],[28.45489,44.71774],[28.5269,44.69613],[28.67093,44.71053],[28.78541,44.67967]]]}}