{"type":"Feature","properties":{"id":"ITA.31","name":"Siena","level":1,"country":"ITA"},"geometry":{"type":"Polygon","coordinates":[[[11.95271,43.1738],[11.8839,43.16026],[11.82741,43.22118],[11.75208,43.23596],[11.6906,43.27343],[11.65903,43.32082],[11.56931,43.36238],[11.53552,43.39295],[11.53662,43.45186],[11.47499,43.48307],[11.45286,43.51584],[11.39751,43.54824],[11.36266,43.52573],[11.2985,43.5192],[11.19402,43.48669],[11.17559,43.51715],[11.11101,43.49615],[11.05054,43.53775],[10.97594,43.52105],[10.95212,43.45223],[11.00481,43.38325],[10.99814,43.34722],[10.95531,43.32539],[10.99447,43.26942],[10.98891,43.2399],[10.92929,43.23206],[10.91165,43.16256],[11.00231,43.17885],[11.05955,43.17655],[11.06021,43.12222],[11.08091,43.08797],[11.15763,43.0803],[11.21652,43.09255],[11.2965,43.07929],[11.36101,43.08325],[11.35893,42.99961],[11.39681,42.96683],[11.44937,42.95404],[11.50797,42.9801],[11.56813,42.96967],[11.61188,42.94787],[11.63501,42.79975],[11.74723,42.79848],[11.80805,42.81335],[11.88902,42.85039],[11.93166,42.87168],[11.9514,42.8933],[11.93217,42.9272],[11.97781,43.04636],[11.92751,43.07639],[11.91776,43.12243],[11.95271,43.1738]]]}}