{"type":"Feature","properties":{"id":"LUX.1.1","name":"Weiswampach","level":2,"country":"LUX"},"geometry":{"type":"Polygon","coordinates":[[[6.00986,50.10655],[6.00553,50.10233],[6.00698,50.09806],[6.02693,50.09434],[6.05562,50.09895],[6.07569,50.11016],[6.09547,50.12736],[6.10335,50.12957],[6.11228,50.13602],[6.11744,50.14697],[6.12568,50.15012],[6.11523,50.15506],[6.11978,50.16335],[6.10245,50.17055],[6.09399,50.16929],[6.08507,50.17201],[6.07921,50.17079],[6.08052,50.16266],[6.07879,50.1565],[6.07201,50.15739],[6.06344,50.15334],[6.04573,50.15769],[6.04642,50.15287],[6.05241,50.14521],[6.0282,50.12978],[6.02338,50.12279],[6.01632,50.12157],[6.01358,50.11614],[6.01389,50.10772],[6.00986,50.10655]]]}}