{"type":"Feature","properties":{"id":"MEX.24","name":"Guanajuato","level":1,"country":"MEX"},"geometry":{"type":"Polygon","coordinates":[[[-99.79062,21.41911],[-99.87847,21.4558],[-99.95862,21.4591],[-100.07613,21.55429],[-100.24269,21.60509],[-100.40397,21.67775],[-100.45575,21.64814],[-100.47849,21.5977],[-100.49921,21.51362],[-100.52251,21.49698],[-100.62731,21.49176],[-100.89779,21.6947],[-100.96145,21.75035],[-101.09116,21.77247],[-101.20159,21.75366],[-101.25973,21.77195],[-101.28567,21.80389],[-101.28841,21.8473],[-101.32598,21.87293],[-101.37394,21.86094],[-101.44938,21.82213],[-101.52054,21.84094],[-101.57971,21.77846],[-101.57878,21.73108],[-101.53336,21.66839],[-101.53827,21.63687],[-101.61506,21.58468],[-101.64012,21.55341],[-101.63687,21.51667],[-101.57465,21.42427],[-101.57268,21.34759],[-101.61144,21.29415],[-101.68751,21.23607],[-101.77195,21.23007],[-101.81298,21.17633],[-101.85504,21.14837],[-101.88321,21.09814],[-101.94822,21.02151],[-102.04563,20.87247],[-102.08795,20.79067],[-102.08511,20.72933],[-101.9769,20.62856],[-101.98062,20.55528],[-102.06072,20.46826],[-102.09968,20.38682],[-101.9956,20.40315],[-101.9493,20.36604],[-101.93245,20.25194],[-101.90507,20.20332],[-101.82858,20.20988],[-101.68958,20.20125],[-101.63842,20.23442],[-101.60782,20.32031],[-101.5363,20.33488],[-101.48034,20.33111],[-101.45434,20.30708],[-101.38282,20.28703],[-101.38654,20.25566],[-101.43409,20.22476],[-101.41145,20.19283],[-101.41972,20.05361],[-101.35342,20.05475],[-101.23482,20.03035],[-101.1941,20.0348],[-101.16335,20.10156],[-101.10548,20.08596],[-101.04543,20.09981],[-100.99892,20.08999],[-100.98636,20.02343],[-101.04496,19.99222],[-101.01716,19.95129],[-100.91448,19.92519],[-100.85857,19.94462],[-100.82963,19.97563],[-100.77464,19.91046],[-100.72669,19.93713],[-100.56076,19.94715],[-100.54298,19.91109],[-100.46743,19.9594],[-100.39601,19.96426],[-100.37885,20.0057],[-100.39875,20.07428],[-100.38092,20.12063],[-100.3493,20.12244],[-100.28599,20.21339],[-100.32744,20.23127],[-100.374,20.27246],[-100.39472,20.32165],[-100.46877,20.40191],[-100.48464,20.4356],[-100.4911,20.5434],[-100.55838,20.65812],[-100.5652,20.73977],[-100.52686,20.81258],[-100.51569,20.88105],[-100.47394,20.95061],[-100.43911,20.96983],[-100.41151,20.91221],[-100.32216,20.8963],[-100.2538,20.93252],[-100.22351,20.92493],[-100.18321,20.87898],[-100.1058,20.91666],[-100.07789,20.99257],[-100.07272,21.08879],[-100.05247,21.15824],[-100.01262,21.19276],[-99.95981,21.20119],[-99.91408,21.18801],[-99.88379,21.15948],[-99.8269,21.15835],[-99.72546,21.22429],[-99.71967,21.27007],[-99.79253,21.29141],[-99.79062,21.41911]]]}}