{"type":"Feature","properties":{"id":"IRQ.5.1","name":"Al-Daur","level":2,"country":"IRQ"},"geometry":{"type":"Polygon","coordinates":[[[44.34674,34.71388],[44.31391,34.69389],[44.28392,34.70746],[44.2261,34.74315],[44.14972,34.82024],[44.12049,34.8362],[44.09256,34.79566],[44.06934,34.74748],[44.0734,34.7173],[44.04032,34.6848],[44.01478,34.68364],[43.97996,34.65636],[43.94455,34.6105],[43.88593,34.54724],[43.84298,34.51822],[43.80641,34.5246],[43.76926,34.52228],[43.78203,34.46308],[43.78435,34.41142],[43.82034,34.36498],[43.86445,34.32435],[43.88709,34.29707],[43.96719,34.29475],[44.0351,34.29707],[44.1831,34.29011],[44.35897,34.28779],[44.49073,34.2843],[44.50841,34.2869],[44.48928,34.33471],[44.50105,34.37664],[44.504,34.43328],[44.49885,34.4524],[44.51429,34.47815],[44.52072,34.55853],[44.48405,34.60717],[44.39003,34.66869],[44.37261,34.67217],[44.34674,34.71388]]]}}