{"type":"Feature","properties":{"id":"IRQ.4.6","name":"Al-Mosul","level":2,"country":"IRQ"},"geometry":{"type":"Polygon","coordinates":[[[43.52208,36.38277],[43.50033,36.40485],[43.50769,36.42928],[43.52643,36.43363],[43.51539,36.47847],[43.48628,36.47412],[43.4314,36.50222],[43.39727,36.53669],[43.33102,36.54472],[43.34474,36.56312],[43.31763,36.56915],[43.29321,36.54974],[43.26209,36.54003],[43.22193,36.54204],[43.20821,36.55007],[43.18546,36.54472],[43.19148,36.46441],[43.20186,36.44467],[43.19951,36.4082],[43.17107,36.4005],[43.15233,36.4102],[43.12958,36.43865],[43.12155,36.38912],[43.08128,36.38379],[42.98968,36.38438],[42.95696,36.42127],[42.95874,36.4641],[42.92186,36.48194],[42.86951,36.47599],[42.83204,36.49265],[42.77433,36.48254],[42.74578,36.49265],[42.73983,36.5105],[42.74162,36.55392],[42.71723,36.55392],[42.68405,36.49309],[42.6812,36.46848],[42.69829,36.44854],[42.73738,36.42268],[42.73369,36.40978],[42.68028,36.40472],[42.64851,36.39505],[42.62732,36.36512],[42.6066,36.3223],[42.6439,36.30756],[42.62825,36.28914],[42.60016,36.28638],[42.56885,36.24862],[42.567,36.22698],[42.58082,36.19843],[42.64897,36.20396],[42.64252,36.18784],[42.60292,36.15192],[42.60154,36.12337],[42.61581,36.10818],[42.61812,36.08239],[42.60568,36.06029],[42.57253,36.02622],[42.62456,36.01839],[42.65035,36.00319],[42.73415,35.97741],[42.73185,35.93228],[42.79355,35.92123],[42.83407,35.88117],[42.86447,35.94241],[42.89808,35.90465],[42.92479,35.89498],[42.98465,35.90097],[43.02287,35.88715],[43.05924,35.92261],[43.09102,35.89728],[43.0528,35.86413],[43.05188,35.84801],[43.0726,35.83236],[43.07674,35.81072],[43.097,35.78217],[43.09516,35.72323],[43.13015,35.71954],[43.08595,35.68363],[43.06403,35.64169],[43.10257,35.62455],[43.14255,35.6424],[43.26676,35.62955],[43.28103,35.63383],[43.3103,35.66881],[43.35884,35.68237],[43.37383,35.71807],[43.36598,35.74519],[43.37526,35.79802],[43.39239,35.83656],[43.43808,35.86226],[43.4495,35.88725],[43.4495,35.93864],[43.41024,35.93864],[43.38097,35.95363],[43.37169,35.98004],[43.34184,35.98631],[43.33113,36.02111],[43.30079,36.04609],[43.28473,36.11078],[43.29187,36.1322],[43.25528,36.13532],[43.25841,36.16862],[43.21892,36.182],[43.19985,36.20609],[43.17107,36.26298],[43.19081,36.27603],[43.21993,36.27569],[43.23231,36.31953],[43.24368,36.33224],[43.28116,36.33626],[43.29822,36.35098],[43.34474,36.36871],[43.38221,36.39849],[43.3976,36.39983],[43.43776,36.3734],[43.49196,36.35299],[43.52208,36.38277]]]}}