{"type":"Feature","properties":{"id":"MEX.19.376","name":"La Reforma","level":2,"country":"MEX"},"geometry":{"type":"Polygon","coordinates":[[[-97.85937,16.56567],[-97.8396,16.57802],[-97.84188,16.5933],[-97.82686,16.59683],[-97.80427,16.58854],[-97.79841,16.60069],[-97.81749,16.61281],[-97.81826,16.62459],[-97.82127,16.62956],[-97.80945,16.64621],[-97.79741,16.65721],[-97.81748,16.67831],[-97.80605,16.70314],[-97.79838,16.71528],[-97.81639,16.737],[-97.80748,16.74267],[-97.82513,16.75451],[-97.83681,16.74671],[-97.84576,16.74399],[-97.84229,16.72987],[-97.83702,16.71707],[-97.8467,16.71236],[-97.85736,16.71864],[-97.87449,16.71658],[-97.89283,16.71157],[-97.89511,16.68698],[-97.89358,16.68087],[-97.90007,16.66407],[-97.90818,16.66171],[-97.92874,16.66058],[-97.94066,16.64353],[-97.9204,16.61322],[-97.9196,16.60948],[-97.93474,16.56458],[-97.86928,16.57708],[-97.85937,16.56567]]]}}