{"type":"Feature","properties":{"id":"MEX.20.6","name":"Epatlán","level":2,"country":"MEX"},"geometry":{"type":"Polygon","coordinates":[[[-98.33738,18.59882],[-98.34063,18.6099],[-98.35164,18.61254],[-98.35426,18.61923],[-98.35028,18.63221],[-98.34026,18.63465],[-98.35531,18.64283],[-98.36118,18.64112],[-98.37218,18.65234],[-98.38074,18.65949],[-98.38479,18.65808],[-98.39193,18.66761],[-98.4153,18.65311],[-98.41595,18.64732],[-98.41065,18.64169],[-98.39744,18.64098],[-98.39757,18.62964],[-98.41019,18.60551],[-98.40032,18.60391],[-98.39434,18.59663],[-98.3998,18.59048],[-98.39264,18.58307],[-98.38484,18.58067],[-98.38734,18.5731],[-98.38349,18.56504],[-98.37357,18.56747],[-98.36354,18.57334],[-98.35288,18.58429],[-98.33889,18.58992],[-98.33738,18.59882]]]}}