{"type":"Feature","properties":{"id":"MEX.25.76","name":"Eduardo Neri","level":2,"country":"MEX"},"geometry":{"type":"Polygon","coordinates":[[[-99.79854,17.97848],[-99.78921,17.96576],[-99.7897,17.95707],[-99.795,17.93949],[-99.79376,17.93516],[-99.79677,17.90169],[-99.80796,17.8956],[-99.8221,17.89796],[-99.80875,17.891],[-99.80798,17.87597],[-99.81626,17.85259],[-99.81642,17.84192],[-99.80614,17.83427],[-99.8043,17.82508],[-99.81278,17.82036],[-99.81801,17.81137],[-99.81946,17.80107],[-99.81432,17.79487],[-99.80224,17.79244],[-99.79623,17.78194],[-99.79253,17.76916],[-99.7964,17.76484],[-99.79725,17.74899],[-99.77719,17.74436],[-99.78736,17.72919],[-99.78242,17.71402],[-99.77455,17.71755],[-99.76491,17.7107],[-99.74453,17.71112],[-99.73623,17.71509],[-99.71976,17.71642],[-99.69726,17.72393],[-99.68754,17.72198],[-99.68246,17.72521],[-99.66044,17.72695],[-99.64374,17.71969],[-99.65228,17.70773],[-99.65122,17.70282],[-99.65478,17.67118],[-99.64227,17.67288],[-99.63629,17.67842],[-99.63026,17.67722],[-99.61657,17.6872],[-99.61623,17.67683],[-99.63309,17.59884],[-99.62498,17.60074],[-99.61843,17.5975],[-99.60416,17.5986],[-99.59659,17.60145],[-99.57633,17.60442],[-99.55209,17.60165],[-99.52291,17.6066],[-99.51029,17.61009],[-99.5016,17.60743],[-99.49746,17.60061],[-99.46684,17.59202],[-99.45893,17.63147],[-99.44813,17.65513],[-99.44353,17.70577],[-99.42908,17.73354],[-99.40368,17.7392],[-99.38921,17.74438],[-99.39338,17.7606],[-99.40242,17.78299],[-99.40202,17.80979],[-99.41482,17.83272],[-99.43187,17.85568],[-99.44547,17.85321],[-99.47208,17.85933],[-99.48382,17.8659],[-99.48474,17.87103],[-99.5,17.86655],[-99.51483,17.85796],[-99.54151,17.85256],[-99.56177,17.85944],[-99.56373,17.86719],[-99.55987,17.87635],[-99.56022,17.89855],[-99.55839,17.91227],[-99.55251,17.91192],[-99.53618,17.91634],[-99.53314,17.92552],[-99.52496,17.92893],[-99.51832,17.9349],[-99.51506,17.94598],[-99.51715,17.9526],[-99.5125,17.9569],[-99.49413,17.95966],[-99.4854,17.95547],[-99.47702,17.95879],[-99.48768,17.96902],[-99.48164,17.97871],[-99.47426,17.98032],[-99.45855,17.99027],[-99.44986,17.98953],[-99.45172,18.00959],[-99.44945,18.01471],[-99.45329,18.02583],[-99.46244,18.02767],[-99.46371,18.03312],[-99.47567,18.03539],[-99.4811,18.01835],[-99.48797,18.0188],[-99.4905,18.0094],[-99.48909,17.99417],[-99.49953,17.99301],[-99.49527,17.98618],[-99.51323,17.97836],[-99.51716,17.97838],[-99.52472,17.96921],[-99.52743,17.96162],[-99.53507,17.96093],[-99.5438,17.96834],[-99.56048,17.95996],[-99.5697,17.96779],[-99.57375,17.95627],[-99.57077,17.94543],[-99.57615,17.93148],[-99.5941,17.93993],[-99.6038,17.93557],[-99.6133,17.93808],[-99.6186,17.92957],[-99.62316,17.93368],[-99.62583,17.94555],[-99.63,17.95051],[-99.63595,17.95463],[-99.66731,17.96077],[-99.67712,17.95764],[-99.6942,17.96361],[-99.70186,17.97148],[-99.71633,17.97572],[-99.72309,17.98078],[-99.73174,17.9813],[-99.74354,17.97641],[-99.74988,17.98454],[-99.76124,17.99381],[-99.76537,18.00412],[-99.77593,18.0035],[-99.784,17.99537],[-99.80006,17.99844],[-99.80143,17.99016],[-99.79502,17.98195],[-99.79854,17.97848]]]}}