{"type":"Feature","properties":{"id":"MEX.5.6","name":"Ignacio Zaragoza","level":2,"country":"MEX"},"geometry":{"type":"Polygon","coordinates":[[[-108.02288,29.77739],[-108.02441,29.70522],[-108.02301,29.70227],[-108.00525,29.69116],[-107.99341,29.67406],[-107.98523,29.67283],[-107.96751,29.67837],[-107.9517,29.67554],[-107.94072,29.68056],[-107.94872,29.66093],[-107.95559,29.61896],[-107.95824,29.55549],[-107.93544,29.55557],[-107.92669,29.55056],[-107.91974,29.49407],[-107.89583,29.48963],[-107.90396,29.50216],[-107.89277,29.50825],[-107.89257,29.51567],[-107.88277,29.51769],[-107.87107,29.50846],[-107.85948,29.50816],[-107.84698,29.52478],[-107.83422,29.53028],[-107.82763,29.52776],[-107.81409,29.52898],[-107.80315,29.51482],[-107.79947,29.50558],[-107.78501,29.48798],[-107.77194,29.48292],[-107.72176,29.48137],[-107.71227,29.44598],[-107.60165,29.41353],[-107.58042,29.41922],[-107.56452,29.48335],[-107.54883,29.47431],[-107.53821,29.46502],[-107.52576,29.47028],[-107.51659,29.4839],[-107.50694,29.48296],[-107.48443,29.48853],[-107.45466,29.50578],[-107.42643,29.51242],[-107.40091,29.51232],[-107.39924,29.52342],[-107.39353,29.52488],[-107.39564,29.53433],[-107.39246,29.53968],[-107.40407,29.54875],[-107.39741,29.5576],[-107.3986,29.56675],[-107.38841,29.57062],[-107.38514,29.58786],[-107.38095,29.59303],[-107.38109,29.60399],[-107.38497,29.6149],[-107.38335,29.62755],[-107.38964,29.65479],[-107.37139,29.66529],[-107.39263,29.6619],[-107.40449,29.65375],[-107.42311,29.64752],[-107.41494,29.66354],[-107.41462,29.67194],[-107.4092,29.67653],[-107.41905,29.68633],[-107.41994,29.69603],[-107.40823,29.70808],[-107.42174,29.70874],[-107.42634,29.72372],[-107.43383,29.72768],[-107.43926,29.74121],[-107.44614,29.74932],[-107.43892,29.75554],[-107.44433,29.76628],[-107.44644,29.78652],[-107.45182,29.79664],[-107.52613,29.77167],[-107.52568,29.77482],[-107.50979,29.78208],[-107.49149,29.83591],[-107.48781,29.8393],[-107.49867,29.8523],[-107.50443,29.85368],[-107.5154,29.86388],[-107.52177,29.86674],[-107.52667,29.87633],[-107.53219,29.8783],[-107.54699,29.87216],[-107.55351,29.8736],[-107.57424,29.89061],[-107.57455,29.9071],[-107.597,29.92278],[-107.61148,29.91897],[-107.61551,29.92746],[-107.60671,29.92979],[-107.62819,29.945],[-107.63391,29.95305],[-107.64758,29.96018],[-107.73649,29.95908],[-107.79213,29.96064],[-107.79441,30.0312],[-107.82008,30.03198],[-107.82564,30.0286],[-107.83222,30.03327],[-107.83725,30.02847],[-107.85687,30.03272],[-107.87499,30.04019],[-107.88693,30.05144],[-107.89693,30.04523],[-107.89548,30.0292],[-107.90129,30.00968],[-107.92579,30.01824],[-107.94749,30.02581],[-107.95187,30.02013],[-107.97196,30.02641],[-107.98827,30.02516],[-107.98993,30.0167],[-108.01277,29.99893],[-108.00499,29.99627],[-108.00488,29.98164],[-107.99468,29.96983],[-107.98878,29.95031],[-107.99481,29.94826],[-107.98879,29.93801],[-107.99576,29.93124],[-107.9889,29.92508],[-107.98553,29.915],[-107.99792,29.90558],[-108.00083,29.89928],[-107.99653,29.88752],[-108.00421,29.8856],[-107.99856,29.87652],[-108.00013,29.86464],[-108.00781,29.85585],[-108.02196,29.83067],[-108.02386,29.81964],[-108.01916,29.80069],[-108.02723,29.78708],[-108.02288,29.77739]]]}}