{"type":"Feature","properties":{"id":"MEX.26.47","name":"Huejutla de Reyes","level":2,"country":"MEX"},"geometry":{"type":"Polygon","coordinates":[[[-98.3167,21.08861],[-98.30235,21.09644],[-98.29925,21.08935],[-98.2869,21.09647],[-98.29293,21.10156],[-98.29219,21.11831],[-98.28399,21.12043],[-98.27935,21.12681],[-98.28217,21.13642],[-98.28119,21.14146],[-98.29554,21.14829],[-98.29573,21.15527],[-98.28315,21.16397],[-98.27858,21.17258],[-98.27887,21.18286],[-98.27563,21.18884],[-98.28718,21.1943],[-98.29615,21.18796],[-98.30085,21.18],[-98.30944,21.185],[-98.31586,21.18688],[-98.32115,21.18126],[-98.34073,21.1698],[-98.34211,21.16077],[-98.35368,21.1598],[-98.35814,21.15629],[-98.36497,21.16174],[-98.38022,21.15512],[-98.3873,21.16216],[-98.4032,21.15442],[-98.41644,21.15498],[-98.41709,21.1604],[-98.42401,21.16726],[-98.43011,21.17279],[-98.44677,21.17981],[-98.4494,21.18667],[-98.44667,21.19962],[-98.45963,21.2048],[-98.45289,21.21003],[-98.46651,21.2199],[-98.47966,21.22389],[-98.48081,21.23067],[-98.46926,21.23416],[-98.46836,21.24965],[-98.477,21.25236],[-98.48701,21.25067],[-98.49901,21.25223],[-98.50226,21.246],[-98.51654,21.24427],[-98.52374,21.24382],[-98.52565,21.23724],[-98.53952,21.23222],[-98.54473,21.22464],[-98.54728,21.20614],[-98.53687,21.20238],[-98.5335,21.1966],[-98.52672,21.19701],[-98.51777,21.19037],[-98.51676,21.17448],[-98.49659,21.16449],[-98.4922,21.15805],[-98.49346,21.1464],[-98.50662,21.12449],[-98.52136,21.1254],[-98.52448,21.11507],[-98.53462,21.11041],[-98.55365,21.11019],[-98.55531,21.1211],[-98.54979,21.13197],[-98.55638,21.15018],[-98.56143,21.15449],[-98.57324,21.14131],[-98.58095,21.13749],[-98.58157,21.12571],[-98.59123,21.12551],[-98.60504,21.13094],[-98.6146,21.12199],[-98.61465,21.10185],[-98.61713,21.09378],[-98.60077,21.08343],[-98.60408,21.07487],[-98.59067,21.07627],[-98.57733,21.06527],[-98.5758,21.05783],[-98.56583,21.06469],[-98.55765,21.06483],[-98.5476,21.05292],[-98.53649,21.04421],[-98.53001,21.043],[-98.50709,21.05088],[-98.49763,21.05753],[-98.48073,21.0554],[-98.47735,21.04569],[-98.47087,21.03945],[-98.46104,21.04018],[-98.45064,21.04426],[-98.41596,21.04384],[-98.40343,21.04676],[-98.40349,21.05662],[-98.39319,21.06363],[-98.38088,21.06508],[-98.3821,21.07121],[-98.39297,21.08114],[-98.38611,21.09043],[-98.37519,21.09095],[-98.3734,21.09958],[-98.35453,21.10246],[-98.35031,21.09773],[-98.33988,21.10043],[-98.34249,21.10549],[-98.32987,21.11183],[-98.3314,21.10312],[-98.32702,21.0927],[-98.3167,21.08861]]]}}