{"type":"Feature","properties":{"id":"MEX.20.126","name":"Chigmecatitlán","level":2,"country":"MEX"},"geometry":{"type":"Polygon","coordinates":[[[-98.00424,18.65663],[-98.0124,18.65965],[-98.02457,18.66941],[-98.0453,18.66338],[-98.06215,18.66579],[-98.07059,18.65894],[-98.08088,18.65732],[-98.09276,18.6461],[-98.10248,18.64654],[-98.11297,18.63921],[-98.11298,18.63567],[-98.10612,18.62882],[-98.09559,18.62581],[-98.07714,18.63453],[-98.06204,18.63334],[-98.05391,18.63745],[-98.05105,18.64513],[-98.0213,18.6418],[-98.01732,18.65041],[-98.00424,18.65663]]]}}