{"type":"Feature","properties":{"id":"MEX.19.299","name":"Asunción Tlacolulita","level":2,"country":"MEX"},"geometry":{"type":"Polygon","coordinates":[[[-95.76272,16.34244],[-95.82821,16.31448],[-95.7954,16.27957],[-95.80459,16.27248],[-95.81213,16.25087],[-95.80827,16.21229],[-95.80205,16.21295],[-95.79118,16.2041],[-95.79405,16.1955],[-95.79164,16.18728],[-95.80181,16.18234],[-95.80584,16.17558],[-95.80516,16.1494],[-95.76433,16.08202],[-95.73512,16.07836],[-95.73063,16.0909],[-95.73013,16.0997],[-95.72352,16.11183],[-95.72984,16.11701],[-95.7456,16.1557],[-95.75264,16.1638],[-95.74797,16.17731],[-95.75819,16.1932],[-95.7538,16.19494],[-95.74177,16.18928],[-95.734,16.19326],[-95.74403,16.22209],[-95.74464,16.23058],[-95.76558,16.23895],[-95.76994,16.24537],[-95.76255,16.24991],[-95.7855,16.26071],[-95.77732,16.2683],[-95.75117,16.28092],[-95.74464,16.28097],[-95.73711,16.28611],[-95.71635,16.28086],[-95.69533,16.33627],[-95.76272,16.34244]]]}}