{"type":"Feature","properties":{"id":"MEX.19.394","name":"Santiago Xiacuí","level":2,"country":"MEX"},"geometry":{"type":"Polygon","coordinates":[[[-96.34921,17.27156],[-96.35365,17.29196],[-96.35427,17.30089],[-96.36329,17.31229],[-96.37936,17.30368],[-96.3975,17.30552],[-96.41145,17.30305],[-96.4155,17.29975],[-96.42749,17.29494],[-96.43464,17.29588],[-96.44437,17.2947],[-96.45114,17.2889],[-96.45957,17.28809],[-96.43819,17.27837],[-96.43613,17.25929],[-96.42953,17.25834],[-96.42422,17.24801],[-96.41079,17.23895],[-96.3967,17.23788],[-96.36179,17.2309],[-96.35873,17.24264],[-96.3571,17.26507],[-96.34921,17.27156]]]}}