{"type":"Feature","properties":{"id":"MEX.19.113","name":"Santiago Minas","level":2,"country":"MEX"},"geometry":{"type":"Polygon","coordinates":[[[-97.38126,16.45253],[-97.3791,16.44262],[-97.37215,16.43115],[-97.36538,16.42919],[-97.36066,16.41865],[-97.35192,16.4199],[-97.34527,16.41698],[-97.33372,16.42302],[-97.33071,16.41555],[-97.32239,16.41672],[-97.32048,16.41121],[-97.32859,16.40576],[-97.3281,16.39831],[-97.31146,16.40205],[-97.32047,16.38696],[-97.30972,16.38718],[-97.29605,16.39175],[-97.29086,16.38316],[-97.28448,16.38865],[-97.26228,16.37523],[-97.25849,16.36994],[-97.25211,16.37762],[-97.24141,16.37008],[-97.23093,16.37294],[-97.22598,16.37393],[-97.22136,16.3902],[-97.20456,16.40536],[-97.20656,16.41756],[-97.2043,16.42092],[-97.19149,16.42552],[-97.17856,16.4246],[-97.17505,16.43755],[-97.16017,16.45848],[-97.16475,16.47622],[-97.17892,16.47737],[-97.18945,16.47132],[-97.21301,16.48535],[-97.22875,16.49184],[-97.24199,16.4941],[-97.24798,16.49113],[-97.26435,16.49469],[-97.27419,16.49307],[-97.27873,16.4968],[-97.2868,16.49568],[-97.29884,16.49905],[-97.30214,16.49047],[-97.31793,16.48009],[-97.32735,16.4766],[-97.33003,16.46606],[-97.3419,16.46601],[-97.36921,16.46132],[-97.38126,16.45253]]]}}