{"type":"Feature","properties":{"id":"MEX.19.474","name":"San Andrés Zautla","level":2,"country":"MEX"},"geometry":{"type":"Polygon","coordinates":[[[-96.85375,17.15602],[-96.84675,17.16622],[-96.84584,17.17352],[-96.8417,17.17878],[-96.84123,17.18725],[-96.83557,17.18973],[-96.81843,17.18723],[-96.82126,17.1943],[-96.8271,17.19728],[-96.836,17.20807],[-96.84757,17.21124],[-96.84678,17.21664],[-96.83607,17.21915],[-96.84611,17.22196],[-96.85046,17.21405],[-96.8641,17.20977],[-96.86432,17.20349],[-96.8768,17.20875],[-96.90782,17.21399],[-96.92386,17.20326],[-96.9353,17.2031],[-96.97909,17.17688],[-96.9827,17.17776],[-96.98347,17.15176],[-96.96365,17.15125],[-96.95251,17.16136],[-96.92469,17.16396],[-96.90042,17.16344],[-96.89363,17.16891],[-96.88803,17.17908],[-96.87146,17.18114],[-96.86517,17.1778],[-96.87123,17.14297],[-96.85375,17.15602]]]}}