{"type":"Feature","properties":{"id":"MEX.9.3","name":"Miguel Auza","level":2,"country":"MEX"},"geometry":{"type":"Polygon","coordinates":[[[-103.56315,24.25716],[-103.55649,24.242],[-103.56258,24.23111],[-103.56191,24.22294],[-103.56538,24.208],[-103.55926,24.19841],[-103.56606,24.18522],[-103.57956,24.17846],[-103.60577,24.15115],[-103.62201,24.11746],[-103.63597,24.11029],[-103.66036,24.14933],[-103.69523,24.13029],[-103.74564,24.08897],[-103.74841,24.07776],[-103.75807,24.07223],[-103.75249,24.06789],[-103.7496,24.04864],[-103.74227,24.04181],[-103.73221,24.04131],[-103.72029,24.0295],[-103.7072,24.02611],[-103.70151,24.01196],[-103.68698,24.00021],[-103.67671,23.99493],[-103.66899,23.99616],[-103.65762,23.98895],[-103.62809,23.9865],[-103.61974,23.99174],[-103.6121,23.98165],[-103.5973,23.98957],[-103.58538,23.99047],[-103.56713,23.98683],[-103.57116,24.00823],[-103.53711,24.01472],[-103.51967,24.00183],[-103.51597,24.00551],[-103.49852,24.00285],[-103.4749,23.99493],[-103.45326,23.99906],[-103.44769,24.00226],[-103.43831,24.00079],[-103.43568,23.98594],[-103.41742,23.98906],[-103.41325,23.96879],[-103.37751,23.97129],[-103.33917,24.00913],[-103.30976,23.98506],[-103.30049,23.97746],[-103.2605,24.0655],[-103.26668,24.07356],[-103.38781,24.24234],[-103.41544,24.30889],[-103.42833,24.31799],[-103.41955,24.32302],[-103.4296,24.35431],[-103.43314,24.35842],[-103.43681,24.34705],[-103.44893,24.33862],[-103.44834,24.3326],[-103.45828,24.32734],[-103.4627,24.32047],[-103.47169,24.32157],[-103.48406,24.31834],[-103.48686,24.31068],[-103.485,24.30093],[-103.50455,24.29577],[-103.50676,24.28796],[-103.52376,24.28896],[-103.53124,24.29391],[-103.53782,24.29036],[-103.5477,24.29146],[-103.56835,24.28637],[-103.56744,24.27027],[-103.56315,24.25716]]]}}