{"type":"Feature","properties":{"id":"MEX.11.8","name":"Tampacán","level":2,"country":"MEX"},"geometry":{"type":"Polygon","coordinates":[[[-98.76584,21.32422],[-98.75216,21.31376],[-98.73576,21.31274],[-98.74336,21.33376],[-98.7358,21.33473],[-98.73196,21.34288],[-98.71542,21.34523],[-98.69785,21.36596],[-98.68725,21.38304],[-98.67649,21.39086],[-98.68599,21.4073],[-98.67631,21.42528],[-98.66434,21.43358],[-98.66551,21.44311],[-98.66279,21.45139],[-98.67742,21.44749],[-98.68012,21.4626],[-98.68999,21.46077],[-98.68989,21.4578],[-98.71185,21.45978],[-98.71657,21.47508],[-98.72366,21.47785],[-98.74584,21.47327],[-98.7507,21.48445],[-98.75731,21.48494],[-98.75164,21.49695],[-98.76035,21.49664],[-98.78132,21.50471],[-98.79025,21.50088],[-98.7875,21.49472],[-98.79259,21.48984],[-98.79837,21.46971],[-98.79705,21.45947],[-98.81251,21.45332],[-98.82502,21.44134],[-98.83093,21.43217],[-98.81716,21.42516],[-98.81553,21.41009],[-98.81208,21.40016],[-98.80479,21.39574],[-98.80065,21.39948],[-98.79196,21.39642],[-98.78774,21.3871],[-98.78032,21.37921],[-98.76576,21.37295],[-98.76424,21.36276],[-98.76994,21.35654],[-98.76419,21.35093],[-98.7671,21.33606],[-98.76584,21.32422]]]}}