{"type":"Feature","properties":{"id":"MEX.12.5","name":"Soto la Marina","level":2,"country":"MEX"},"geometry":{"type":"Polygon","coordinates":[[[-98.21278,23.29303],[-98.20589,23.3228],[-98.21089,23.34739],[-98.19888,23.34909],[-98.18267,23.35784],[-98.16636,23.3539],[-98.12975,23.34949],[-98.12649,23.36685],[-98.12042,23.37014],[-98.09828,23.36598],[-98.09016,23.36287],[-98.08919,23.35246],[-98.07975,23.34528],[-98.07133,23.34273],[-98.06117,23.34349],[-98.04863,23.33355],[-98.03377,23.33303],[-98.02884,23.34002],[-98.01675,23.34372],[-98.00641,23.34212],[-97.98704,23.3024],[-97.96466,23.29932],[-97.96144,23.28964],[-97.94592,23.2885],[-97.943,23.29711],[-97.93363,23.30067],[-97.93023,23.3082],[-97.91262,23.31503],[-97.90862,23.30878],[-97.9019,23.30852],[-97.88758,23.31641],[-97.89019,23.29999],[-97.86787,23.29694],[-97.86262,23.29774],[-97.85973,23.31484],[-97.85326,23.31759],[-97.85576,23.32798],[-97.83762,23.32629],[-97.83627,23.33369],[-97.81709,23.33821],[-97.80831,23.33138],[-97.81173,23.31133],[-97.80211,23.30978],[-97.80592,23.29209],[-97.78948,23.28878],[-97.7919,23.27356],[-97.78411,23.27633],[-97.76932,23.27235],[-97.77039,23.33204],[-97.769,23.3782],[-97.76533,23.42956],[-97.74208,23.66879],[-97.73809,23.76034],[-97.7335,23.7672],[-97.73602,23.79677],[-97.73753,23.92199],[-97.73568,23.98489],[-97.72383,24.14029],[-97.70707,24.31733],[-97.69445,24.40719],[-97.68626,24.45608],[-97.68071,24.47878],[-97.6901,24.47743],[-97.74306,24.47836],[-97.74794,24.45106],[-97.76846,24.44205],[-97.7745,24.42461],[-97.79951,24.41417],[-97.82026,24.41415],[-97.83514,24.41918],[-97.84393,24.43397],[-98.01956,24.32225],[-98.01942,24.26297],[-98.0019,24.23365],[-98.03561,24.23347],[-98.03715,24.19761],[-98.05989,24.19747],[-98.05987,24.18466],[-98.07468,24.17013],[-98.00101,24.12253],[-98.04893,24.1229],[-98.049,24.11473],[-98.13292,24.11507],[-98.13546,24.08613],[-98.1418,24.07681],[-98.13997,24.05688],[-98.20044,24.05648],[-98.19758,24.04792],[-98.18818,24.03663],[-98.19414,24.01497],[-98.19453,24.0029],[-98.21086,24.00755],[-98.22065,23.99904],[-98.22953,23.99582],[-98.23543,23.98666],[-98.23772,23.97375],[-98.23374,23.96518],[-98.21684,23.96573],[-98.20859,23.97123],[-98.19777,23.97455],[-98.19198,23.97274],[-98.18831,23.96199],[-98.2063,23.96135],[-98.2228,23.95001],[-98.23782,23.95197],[-98.24139,23.93247],[-98.25139,23.92522],[-98.26341,23.92555],[-98.48173,23.81697],[-98.457,23.77336],[-98.46291,23.7211],[-98.49546,23.72472],[-98.5046,23.64683],[-98.4965,23.64961],[-98.48837,23.63576],[-98.49418,23.63396],[-98.49558,23.62389],[-98.51311,23.60811],[-98.46885,23.56529],[-98.46886,23.55498],[-98.45502,23.56585],[-98.44863,23.55976],[-98.46258,23.5473],[-98.42959,23.51814],[-98.42153,23.50676],[-98.43024,23.49597],[-98.43121,23.4907],[-98.42148,23.48501],[-98.41511,23.47702],[-98.42633,23.47319],[-98.42211,23.46346],[-98.43022,23.46023],[-98.43857,23.4515],[-98.43476,23.44635],[-98.44729,23.41366],[-98.40641,23.40819],[-98.40505,23.41508],[-98.36687,23.41007],[-98.35509,23.382],[-98.36475,23.33531],[-98.29903,23.28075],[-98.28639,23.28676],[-98.28197,23.29619],[-98.26227,23.29015],[-98.25183,23.29726],[-98.24125,23.29214],[-98.24045,23.2833],[-98.21278,23.29303]]]}}