{"type":"Feature","properties":{"id":"MEX.4.24","name":"Jiménez","level":2,"country":"MEX"},"geometry":{"type":"Polygon","coordinates":[[[-100.74657,28.8462],[-100.7656,28.86539],[-100.72434,28.91123],[-100.68679,28.91531],[-100.68537,28.92477],[-100.70216,28.92902],[-100.70111,28.93813],[-100.67053,28.93121],[-100.64792,28.94075],[-100.65171,28.94415],[-100.64698,28.95643],[-100.65062,28.96224],[-100.64637,28.96748],[-100.64851,28.98291],[-100.64567,28.9879],[-100.65104,29.00834],[-100.65631,29.0181],[-100.66367,29.05055],[-100.66442,29.07468],[-100.67361,29.09998],[-100.68441,29.11139],[-100.70879,29.11889],[-100.72447,29.12728],[-100.73877,29.14034],[-100.73704,29.14771],[-100.74685,29.15455],[-100.76351,29.1601],[-100.76411,29.16542],[-100.77608,29.1727],[-100.76625,29.1849],[-100.76701,29.19571],[-100.77603,29.19975],[-100.77383,29.21057],[-100.78517,29.22787],[-100.79165,29.2256],[-100.79703,29.23394],[-100.79427,29.2421],[-100.80576,29.25206],[-100.8162,29.25364],[-100.81285,29.26145],[-100.83488,29.26159],[-100.85509,29.27572],[-100.86325,29.27584],[-100.87924,29.2815],[-100.87216,29.27383],[-100.86077,29.25515],[-100.85702,29.23814],[-100.84886,29.23919],[-100.84887,29.2228],[-100.85938,29.22171],[-100.85945,29.20904],[-100.87963,29.21008],[-100.87968,29.22798],[-100.89392,29.22545],[-100.91066,29.22584],[-100.9208,29.21973],[-100.94479,29.22398],[-100.94797,29.21479],[-100.95405,29.21144],[-100.94763,29.19347],[-100.95178,29.18858],[-101.00401,29.18871],[-101.00454,29.16007],[-101.04245,29.16024],[-101.04771,29.15493],[-101.33935,29.1829],[-101.34785,29.07236],[-101.20703,29.06006],[-101.11349,29.0495],[-101.12252,28.85645],[-101.15842,28.77024],[-101.14952,28.76931],[-101.14507,28.77341],[-101.13259,28.76966],[-101.11671,28.77459],[-101.10492,28.76994],[-101.09588,28.77217],[-101.08238,28.76353],[-101.05825,28.76255],[-101.05308,28.76064],[-101.01709,28.74067],[-101.00842,28.73783],[-100.99384,28.73729],[-100.97922,28.73432],[-100.94105,28.72987],[-100.92764,28.72942],[-100.91244,28.73152],[-100.90226,28.73615],[-100.87688,28.75491],[-100.86688,28.76998],[-100.84905,28.77535],[-100.84189,28.78277],[-100.84922,28.79596],[-100.84845,28.80212],[-100.83768,28.81434],[-100.81787,28.82701],[-100.79687,28.8295],[-100.78155,28.83411],[-100.77286,28.84806],[-100.76684,28.85018],[-100.74657,28.8462]]]}}