{"type":"Feature","properties":{"id":"MEX.19.395","name":"Santo Domingo de Morelos","level":2,"country":"MEX"},"geometry":{"type":"Polygon","coordinates":[[[-96.58278,15.87147],[-96.60225,15.86548],[-96.63135,15.87468],[-96.63001,15.87915],[-96.63663,15.88672],[-96.63923,15.90078],[-96.66723,15.87162],[-96.7023,15.84125],[-96.70422,15.83675],[-96.69058,15.8241],[-96.68812,15.82604],[-96.6763,15.81086],[-96.67442,15.79652],[-96.66288,15.78512],[-96.65772,15.78811],[-96.63871,15.78922],[-96.63632,15.78692],[-96.61988,15.7882],[-96.5905,15.79872],[-96.56627,15.79641],[-96.56813,15.80499],[-96.57344,15.81087],[-96.57814,15.82842],[-96.58841,15.83756],[-96.58394,15.84437],[-96.58311,15.85492],[-96.58776,15.85748],[-96.58278,15.87147]]]}}