{"type":"Feature","properties":{"id":"MEX.4.20","name":"Matamoros","level":2,"country":"MEX"},"geometry":{"type":"Polygon","coordinates":[[[-103.34137,25.41014],[-103.33763,25.39718],[-103.33692,25.37134],[-103.32835,25.37107],[-103.31146,25.38213],[-103.30708,25.38967],[-103.26593,25.41478],[-103.16442,25.41149],[-103.16069,25.40684],[-103.14536,25.40684],[-103.13826,25.40247],[-103.13802,25.39344],[-103.10966,25.39059],[-103.09414,25.47569],[-103.08417,25.47429],[-103.08122,25.50152],[-103.08973,25.50249],[-103.08196,25.54765],[-103.08622,25.54817],[-103.08707,25.57048],[-103.08466,25.57523],[-103.09512,25.59975],[-103.08058,25.6027],[-103.0745,25.59709],[-103.03209,25.63485],[-103.03047,25.64258],[-103.06345,25.64931],[-103.07423,25.61939],[-103.10549,25.64258],[-103.11181,25.65273],[-103.12157,25.65447],[-103.1362,25.67031],[-103.14914,25.6698],[-103.15561,25.67386],[-103.19896,25.68005],[-103.20527,25.75793],[-103.21511,25.75356],[-103.22664,25.7616],[-103.22086,25.77618],[-103.2279,25.77583],[-103.23152,25.76328],[-103.25,25.74231],[-103.25161,25.73563],[-103.26702,25.72707],[-103.27309,25.71154],[-103.27847,25.70788],[-103.29399,25.70683],[-103.29639,25.71805],[-103.31,25.72197],[-103.3026,25.73229],[-103.30291,25.74453],[-103.31269,25.74395],[-103.32645,25.7356],[-103.33017,25.73003],[-103.33924,25.7254],[-103.35284,25.71655],[-103.33939,25.7079],[-103.35499,25.69986],[-103.35543,25.69139],[-103.35534,25.679],[-103.34846,25.67214],[-103.34624,25.65528],[-103.3469,25.64161],[-103.36615,25.62607],[-103.27474,25.61294],[-103.25957,25.5795],[-103.29061,25.58507],[-103.29246,25.57641],[-103.3027,25.5795],[-103.34219,25.42211],[-103.34137,25.41014]]]}}