{"type":"Feature","properties":{"id":"MEX.30.112","name":"Juan Rodríguez Clara","level":2,"country":"MEX"},"geometry":{"type":"Polygon","coordinates":[[[-95.25992,18.12349],[-95.27105,18.11261],[-95.28387,18.11718],[-95.27351,18.12482],[-95.28176,18.12785],[-95.30266,18.12375],[-95.30886,18.13173],[-95.32483,18.1331],[-95.32348,18.14169],[-95.3297,18.14761],[-95.35369,18.16098],[-95.3575,18.17008],[-95.36776,18.16908],[-95.37672,18.17612],[-95.38071,18.16588],[-95.38874,18.17786],[-95.39838,18.17882],[-95.40453,18.16994],[-95.41646,18.1714],[-95.42307,18.16289],[-95.44669,18.15594],[-95.4591,18.17524],[-95.48004,18.19331],[-95.48788,18.18555],[-95.49436,18.16701],[-95.50451,18.16112],[-95.51083,18.15059],[-95.51089,18.14288],[-95.51734,18.12795],[-95.51814,18.11765],[-95.51369,18.11166],[-95.50168,18.10354],[-95.49862,18.09038],[-95.4693,18.05867],[-95.44763,18.02877],[-95.43069,18.02035],[-95.43264,18.00988],[-95.439,18.00546],[-95.44228,17.99608],[-95.43552,17.98402],[-95.44628,17.97372],[-95.43937,17.97119],[-95.43358,17.95979],[-95.44289,17.94966],[-95.45153,17.94918],[-95.45065,17.93998],[-95.44352,17.94057],[-95.4591,17.92151],[-95.4671,17.92884],[-95.4769,17.91935],[-95.47928,17.90875],[-95.49148,17.91011],[-95.49982,17.90803],[-95.50418,17.90169],[-95.51576,17.90185],[-95.5229,17.8984],[-95.52215,17.88817],[-95.5132,17.87706],[-95.50179,17.8777],[-95.49026,17.87373],[-95.48141,17.86043],[-95.47761,17.8589],[-95.48037,17.84429],[-95.49562,17.84425],[-95.48978,17.83597],[-95.48109,17.83534],[-95.47541,17.82883],[-95.47241,17.81768],[-95.47256,17.80434],[-95.47522,17.80144],[-95.47245,17.78269],[-95.46858,17.77362],[-95.45579,17.76996],[-95.44316,17.77197],[-95.43843,17.75577],[-95.43441,17.75312],[-95.42329,17.76998],[-95.42022,17.77824],[-95.41208,17.78336],[-95.39996,17.78386],[-95.3983,17.78732],[-95.37293,17.79569],[-95.36205,17.79045],[-95.3634,17.79985],[-95.35119,17.80281],[-95.34773,17.81698],[-95.32858,17.81721],[-95.322,17.81113],[-95.30584,17.80862],[-95.30736,17.79897],[-95.3016,17.79637],[-95.29216,17.80413],[-95.27766,17.81073],[-95.27723,17.82026],[-95.28324,17.84048],[-95.27806,17.85513],[-95.27843,17.8721],[-95.27327,17.87684],[-95.26191,17.87908],[-95.25583,17.8771],[-95.23718,17.87868],[-95.23488,17.8924],[-95.24123,17.89466],[-95.24147,17.91334],[-95.24745,17.9201],[-95.24624,17.92983],[-95.23903,17.93464],[-95.23745,17.94401],[-95.24038,17.948],[-95.23951,17.96857],[-95.24429,17.97838],[-95.23714,17.98156],[-95.23011,17.97433],[-95.21759,17.97123],[-95.20817,17.98593],[-95.19953,17.98143],[-95.1959,17.98538],[-95.1976,17.99623],[-95.2045,18.00351],[-95.2082,18.01892],[-95.19726,18.02401],[-95.19799,18.03691],[-95.2025,18.04147],[-95.20899,18.0389],[-95.21343,18.0307],[-95.22196,18.04384],[-95.22291,18.05115],[-95.2328,18.04826],[-95.24234,18.053],[-95.2452,18.06045],[-95.22818,18.06255],[-95.23505,18.07313],[-95.22639,18.08735],[-95.24062,18.09968],[-95.24925,18.10468],[-95.25992,18.12349]]]}}