{"type":"Feature","properties":{"id":"MEX.31.47","name":"Pueblo Nuevo Solistahuacán","level":2,"country":"MEX"},"geometry":{"type":"Polygon","coordinates":[[[-92.97208,17.28204],[-92.97007,17.26102],[-92.96323,17.25729],[-92.96325,17.23523],[-92.95128,17.23547],[-92.94991,17.2413],[-92.9366,17.23456],[-92.94654,17.21756],[-92.95885,17.21795],[-92.9582,17.21116],[-92.94229,17.20391],[-92.94221,17.19671],[-92.96475,17.19722],[-92.96705,17.16806],[-92.94029,17.16021],[-92.94104,17.14684],[-92.93467,17.1419],[-92.91099,17.13463],[-92.89923,17.13601],[-92.89552,17.14678],[-92.88121,17.14602],[-92.87293,17.1404],[-92.86333,17.13901],[-92.84695,17.14221],[-92.83985,17.14618],[-92.83647,17.15691],[-92.82548,17.15386],[-92.82456,17.16241],[-92.8115,17.18131],[-92.81269,17.18569],[-92.80356,17.19355],[-92.80632,17.20557],[-92.79262,17.20539],[-92.79305,17.20128],[-92.78439,17.19141],[-92.79231,17.18746],[-92.78101,17.18141],[-92.77732,17.19054],[-92.7837,17.21331],[-92.79751,17.21823],[-92.78691,17.22453],[-92.80356,17.23647],[-92.81065,17.23646],[-92.8092,17.24597],[-92.81383,17.28053],[-92.82586,17.28404],[-92.83276,17.2925],[-92.83384,17.26976],[-92.85411,17.27324],[-92.85294,17.27799],[-92.86413,17.29152],[-92.87659,17.29962],[-92.87344,17.3081],[-92.87623,17.31594],[-92.91778,17.31597],[-92.90778,17.28542],[-92.9005,17.2732],[-92.92243,17.27486],[-92.92442,17.25975],[-92.91666,17.25281],[-92.9217,17.2453],[-92.93462,17.25205],[-92.94546,17.26103],[-92.96377,17.28763],[-92.97208,17.28204]]]}}