{"type":"Feature","properties":{"id":"MEX.30.80","name":"Las Vigas de Ramírez","level":2,"country":"MEX"},"geometry":{"type":"Polygon","coordinates":[[[-97.03425,19.62555],[-97.03077,19.63689],[-97.02576,19.63956],[-97.02946,19.6476],[-97.02278,19.65127],[-97.0326,19.65713],[-97.04814,19.65841],[-97.06415,19.65628],[-97.06389,19.66127],[-97.05691,19.6705],[-97.06833,19.68503],[-97.07872,19.68397],[-97.07479,19.67497],[-97.08081,19.6663],[-97.08699,19.66689],[-97.09077,19.65696],[-97.11522,19.6572],[-97.11655,19.65068],[-97.15097,19.64633],[-97.15576,19.63858],[-97.1498,19.62963],[-97.15174,19.62204],[-97.16706,19.61593],[-97.14502,19.59972],[-97.14104,19.59503],[-97.12598,19.59742],[-97.12486,19.58759],[-97.12778,19.57546],[-97.11737,19.56254],[-97.10041,19.54788],[-97.09494,19.54763],[-97.09136,19.55547],[-97.09736,19.56238],[-97.09511,19.56801],[-97.08648,19.56666],[-97.08768,19.5753],[-97.09331,19.58289],[-97.08029,19.594],[-97.05651,19.60555],[-97.05067,19.61247],[-97.04102,19.61518],[-97.04141,19.62417],[-97.03425,19.62555]]]}}