{"type":"Feature","properties":{"id":"MEX.30.57","name":"Veracruz","level":2,"country":"MEX"},"geometry":{"type":"MultiPolygon","coordinates":[[[[-96.09227,19.17376],[-96.09098,19.17525],[-96.09204,19.17679],[-96.09227,19.17376]]],[[[-96.33939,19.24185],[-96.33953,19.23106],[-96.32697,19.2178],[-96.33482,19.20558],[-96.33232,19.19878],[-96.31969,19.19872],[-96.3147,19.19131],[-96.30877,19.19196],[-96.30958,19.17516],[-96.3127,19.16946],[-96.31056,19.15877],[-96.29922,19.15903],[-96.26657,19.13736],[-96.26356,19.13327],[-96.25708,19.14045],[-96.24399,19.14491],[-96.22213,19.1192],[-96.21076,19.12424],[-96.2087,19.10953],[-96.2019,19.1095],[-96.19035,19.10267],[-96.17887,19.1051],[-96.17395,19.10218],[-96.16702,19.1095],[-96.14966,19.10951],[-96.1401,19.14109],[-96.12937,19.14624],[-96.13152,19.16518],[-96.11833,19.1717],[-96.12401,19.18117],[-96.12385,19.19227],[-96.13203,19.20322],[-96.12345,19.20816],[-96.12556,19.21599],[-96.13348,19.218],[-96.1555,19.21565],[-96.16581,19.21977],[-96.17359,19.22645],[-96.1742,19.23712],[-96.18177,19.25044],[-96.18915,19.25066],[-96.19673,19.25713],[-96.20766,19.25925],[-96.22156,19.26538],[-96.22627,19.25522],[-96.22425,19.24353],[-96.22703,19.2354],[-96.22643,19.22082],[-96.24142,19.2255],[-96.25695,19.2417],[-96.25373,19.24294],[-96.27299,19.2648],[-96.2801,19.2592],[-96.28683,19.2599],[-96.29111,19.2435],[-96.30929,19.23506],[-96.31977,19.23294],[-96.32368,19.23732],[-96.33939,19.24185]]]]}}