{"type":"Feature","properties":{"id":"MEX.22.37","name":"La Magdalena Tlaltelulco","level":2,"country":"MEX"},"geometry":{"type":"Polygon","coordinates":[[[-98.2099,19.28927],[-98.21526,19.27836],[-98.20597,19.27591],[-98.20882,19.26947],[-98.19806,19.26527],[-98.19487,19.25835],[-98.18885,19.25806],[-98.18388,19.25772],[-98.18199,19.27004],[-98.17301,19.2685],[-98.17103,19.27373],[-98.16131,19.27345],[-98.17668,19.28397],[-98.18645,19.28674],[-98.18754,19.29667],[-98.19521,19.30247],[-98.20433,19.28852],[-98.2099,19.28927]]]}}