{"type":"Feature","properties":{"id":"MEX.30.205","name":"Omealca","level":2,"country":"MEX"},"geometry":{"type":"Polygon","coordinates":[[[-96.62821,18.63193],[-96.61243,18.65584],[-96.61786,18.66111],[-96.61527,18.67747],[-96.60819,18.67555],[-96.60147,18.68088],[-96.59183,18.68008],[-96.5904,18.68978],[-96.59861,18.69292],[-96.59851,18.70175],[-96.59143,18.70531],[-96.57671,18.70362],[-96.56688,18.7077],[-96.56783,18.71944],[-96.57995,18.7246],[-96.57894,18.73071],[-96.5874,18.73189],[-96.58418,18.7388],[-96.5768,18.73882],[-96.58869,18.74182],[-96.606,18.7402],[-96.62754,18.74202],[-96.63332,18.74698],[-96.64194,18.74485],[-96.65481,18.75153],[-96.66163,18.74525],[-96.66792,18.75025],[-96.68552,18.74452],[-96.70842,18.74604],[-96.72627,18.74424],[-96.73338,18.73954],[-96.75298,18.74624],[-96.76594,18.7469],[-96.77911,18.75076],[-96.79944,18.75057],[-96.81156,18.75495],[-96.82133,18.76245],[-96.84604,18.76605],[-96.85724,18.75808],[-96.87001,18.76257],[-96.87709,18.77339],[-96.88393,18.77865],[-96.89388,18.7805],[-96.90433,18.78609],[-96.90861,18.78097],[-96.90631,18.77254],[-96.91534,18.76097],[-96.90197,18.75141],[-96.8957,18.75062],[-96.89295,18.74214],[-96.8849,18.74495],[-96.87181,18.75235],[-96.86165,18.74691],[-96.84718,18.74389],[-96.84293,18.75263],[-96.83475,18.74559],[-96.82885,18.74477],[-96.82051,18.73653],[-96.81239,18.73879],[-96.80555,18.72794],[-96.79269,18.71337],[-96.78512,18.71019],[-96.78428,18.70316],[-96.77228,18.69394],[-96.76458,18.69718],[-96.76046,18.69335],[-96.7469,18.69471],[-96.73319,18.68774],[-96.72352,18.67959],[-96.72167,18.67266],[-96.7082,18.65815],[-96.70235,18.6561],[-96.68414,18.64426],[-96.68103,18.64843],[-96.68402,18.65675],[-96.68302,18.66969],[-96.66972,18.66128],[-96.65915,18.65049],[-96.655,18.6513],[-96.64581,18.64039],[-96.63152,18.63554],[-96.62821,18.63193]]]}}