{"type":"Feature","properties":{"id":"MEX.20.143","name":"Tecamachalco","level":2,"country":"MEX"},"geometry":{"type":"Polygon","coordinates":[[[-97.74011,18.76867],[-97.72973,18.78394],[-97.73072,18.79302],[-97.71227,18.81165],[-97.70769,18.82146],[-97.70128,18.82506],[-97.69004,18.82532],[-97.68761,18.82006],[-97.67955,18.8201],[-97.66814,18.82585],[-97.66067,18.82346],[-97.65576,18.82917],[-97.65342,18.84119],[-97.6425,18.85402],[-97.65578,18.8603],[-97.65879,18.86838],[-97.66575,18.86808],[-97.66966,18.87919],[-97.6763,18.88229],[-97.66972,18.89354],[-97.67702,18.8963],[-97.66999,18.90792],[-97.69337,18.90769],[-97.69419,18.91314],[-97.71106,18.91903],[-97.72589,18.9332],[-97.72128,18.94645],[-97.71325,18.95277],[-97.72221,18.95789],[-97.72669,18.94831],[-97.74627,18.95506],[-97.74609,18.95295],[-97.75233,18.93882],[-97.75227,18.92366],[-97.7614,18.91423],[-97.76618,18.90371],[-97.77817,18.88779],[-97.7877,18.8958],[-97.79154,18.88104],[-97.80372,18.85158],[-97.79369,18.84274],[-97.80204,18.82837],[-97.78643,18.81316],[-97.77135,18.80648],[-97.78374,18.7823],[-97.77416,18.78502],[-97.76373,18.78016],[-97.75421,18.78151],[-97.74011,18.76867]]]}}