{"type":"Feature","properties":{"id":"MEX.22.45","name":"Natívitas","level":2,"country":"MEX"},"geometry":{"type":"Polygon","coordinates":[[[-98.33984,19.18612],[-98.34271,19.17794],[-98.32379,19.16882],[-98.31217,19.1904],[-98.30207,19.19775],[-98.30435,19.20156],[-98.30314,19.2163],[-98.29876,19.22059],[-98.30496,19.22203],[-98.3071,19.22975],[-98.3154,19.23825],[-98.32481,19.23993],[-98.33278,19.24468],[-98.33244,19.25159],[-98.32422,19.25231],[-98.31989,19.26203],[-98.30225,19.26311],[-98.29844,19.28282],[-98.31493,19.28677],[-98.32076,19.29244],[-98.32844,19.28668],[-98.32448,19.28075],[-98.33841,19.27218],[-98.34901,19.27079],[-98.34974,19.27022],[-98.3555,19.26311],[-98.35871,19.24985],[-98.37302,19.25506],[-98.37804,19.25458],[-98.37727,19.24746],[-98.3704,19.23602],[-98.36455,19.23313],[-98.36892,19.22612],[-98.35186,19.219],[-98.34416,19.2053],[-98.33068,19.20015],[-98.33984,19.18612]]]}}