{"type":"Feature","properties":{"id":"MEX.28.20","name":"Coatlán del Río","level":2,"country":"MEX"},"geometry":{"type":"Polygon","coordinates":[[[-99.46619,18.75377],[-99.49441,18.72054],[-99.48454,18.69944],[-99.48073,18.68455],[-99.47382,18.66393],[-99.46442,18.64367],[-99.45901,18.65161],[-99.4531,18.64327],[-99.44157,18.64876],[-99.44845,18.65976],[-99.4357,18.6753],[-99.44201,18.68392],[-99.46297,18.69217],[-99.46818,18.69594],[-99.45829,18.70663],[-99.43916,18.70071],[-99.42383,18.72988],[-99.41341,18.74511],[-99.40345,18.74826],[-99.39354,18.7391],[-99.38387,18.73956],[-99.37857,18.74353],[-99.391,18.75257],[-99.39941,18.75811],[-99.42435,18.80788],[-99.4267,18.82469],[-99.45097,18.77252],[-99.46332,18.76719],[-99.46619,18.75377]]]}}