{"type":"Feature","properties":{"id":"MEX.19.378","name":"San Mateo Piñas","level":2,"country":"MEX"},"geometry":{"type":"Polygon","coordinates":[[[-96.29214,16.03495],[-96.30895,16.03056],[-96.32013,16.03031],[-96.33353,16.02466],[-96.35065,16.02644],[-96.36737,16.04328],[-96.38019,16.04559],[-96.38511,16.03703],[-96.39231,16.0319],[-96.38573,16.02672],[-96.3867,16.02039],[-96.39881,16.00764],[-96.3923,15.9993],[-96.40623,15.9907],[-96.41205,15.9652],[-96.39954,15.96464],[-96.39323,15.95618],[-96.38563,15.95465],[-96.38799,15.94524],[-96.39291,15.93994],[-96.39466,15.93026],[-96.39187,15.92389],[-96.38032,15.923],[-96.377,15.91957],[-96.35213,15.90375],[-96.33876,15.9094],[-96.33309,15.91882],[-96.3162,15.91386],[-96.29584,15.91226],[-96.28972,15.91365],[-96.28279,15.90632],[-96.27489,15.91006],[-96.27384,15.91772],[-96.26309,15.91871],[-96.27602,15.92561],[-96.27695,15.91813],[-96.29652,15.92454],[-96.29294,15.93236],[-96.29433,15.93839],[-96.28025,15.94493],[-96.26991,15.94424],[-96.25904,15.95407],[-96.2556,15.96134],[-96.26509,15.96326],[-96.26978,15.96904],[-96.28079,15.97049],[-96.28111,15.97503],[-96.2737,15.9851],[-96.27847,15.99565],[-96.2924,15.99614],[-96.29671,16.00355],[-96.31058,16.0084],[-96.31014,16.01259],[-96.29742,16.01156],[-96.29214,16.03495]]]}}