{"type":"Feature","properties":{"id":"MEX.9.28","name":"Jerez","level":2,"country":"MEX"},"geometry":{"type":"Polygon","coordinates":[[[-102.84323,22.83803],[-102.84006,22.84728],[-102.84756,22.85384],[-102.85916,22.84737],[-102.86632,22.85075],[-102.85876,22.86037],[-102.86091,22.865],[-102.85628,22.8811],[-102.85842,22.89009],[-102.86903,22.89739],[-102.8901,22.9043],[-102.89721,22.90452],[-102.91995,22.90808],[-102.91851,22.9161],[-102.92791,22.92074],[-102.94046,22.91655],[-102.94375,22.90973],[-102.96261,22.90134],[-102.96746,22.90296],[-102.98192,22.89802],[-102.99014,22.9026],[-103.00035,22.91939],[-103.00516,22.92227],[-103.01383,22.91443],[-103.02509,22.92094],[-103.03728,22.92324],[-103.0483,22.90228],[-103.07707,22.91573],[-103.08112,22.91269],[-103.09161,22.91783],[-103.10776,22.90782],[-103.11443,22.88562],[-103.1248,22.88143],[-103.12437,22.87182],[-103.13384,22.86422],[-103.13878,22.86475],[-103.14637,22.85773],[-103.15757,22.85299],[-103.16611,22.86043],[-103.16854,22.87734],[-103.20316,22.88697],[-103.2043,22.8652],[-103.19371,22.86129],[-103.19211,22.85622],[-103.19817,22.85068],[-103.19731,22.83997],[-103.21132,22.83398],[-103.21842,22.83623],[-103.22142,22.82743],[-103.22963,22.82107],[-103.23089,22.81086],[-103.24312,22.80883],[-103.23644,22.79121],[-103.24078,22.77551],[-103.24407,22.77224],[-103.24359,22.75985],[-103.23524,22.75065],[-103.23967,22.74758],[-103.2445,22.73096],[-103.23662,22.72658],[-103.24025,22.72002],[-103.2338,22.71099],[-103.23192,22.70263],[-103.22229,22.70087],[-103.21616,22.6953],[-103.20702,22.68929],[-103.20095,22.69411],[-103.18875,22.68191],[-103.17674,22.69125],[-103.17041,22.69335],[-103.16203,22.68715],[-103.15295,22.69061],[-103.14359,22.68026],[-103.15688,22.67401],[-103.14447,22.65907],[-103.13763,22.65539],[-103.13654,22.64812],[-103.11965,22.63787],[-103.11342,22.65224],[-103.10386,22.64969],[-103.09619,22.64218],[-103.0862,22.64091],[-103.08414,22.62221],[-103.07921,22.61176],[-103.08126,22.602],[-103.08684,22.596],[-103.09447,22.59365],[-103.09776,22.57977],[-103.10931,22.57209],[-103.10545,22.56321],[-103.08479,22.55501],[-103.07831,22.55536],[-103.06223,22.55101],[-103.05536,22.53894],[-103.06383,22.52444],[-103.05409,22.50659],[-103.0424,22.51691],[-103.0378,22.52791],[-103.02398,22.51832],[-103.01364,22.51581],[-103.00748,22.52831],[-103.00027,22.52594],[-102.99438,22.51822],[-102.9758,22.51202],[-102.97324,22.50466],[-102.96713,22.50369],[-102.95561,22.49617],[-102.94102,22.50826],[-102.9267,22.50862],[-102.91852,22.5121],[-102.91919,22.521],[-102.92373,22.53541],[-102.92945,22.5408],[-102.91814,22.54587],[-102.91107,22.55925],[-102.89051,22.55607],[-102.87725,22.541],[-102.87139,22.53988],[-102.86367,22.54827],[-102.85371,22.55076],[-102.84516,22.54725],[-102.83928,22.55057],[-102.82922,22.54945],[-102.82575,22.54424],[-102.81449,22.54418],[-102.80984,22.55612],[-102.81092,22.56064],[-102.82068,22.56589],[-102.81796,22.5834],[-102.80816,22.5953],[-102.79366,22.60104],[-102.78947,22.59527],[-102.77759,22.6057],[-102.78305,22.62911],[-102.78748,22.63324],[-102.78458,22.65538],[-102.78686,22.65757],[-102.78737,22.67498],[-102.78828,22.68129],[-102.78113,22.68785],[-102.78048,22.6979],[-102.77182,22.70681],[-102.76195,22.72213],[-102.76967,22.72843],[-102.77836,22.73022],[-102.78199,22.74068],[-102.77927,22.7514],[-102.78437,22.75935],[-102.77937,22.76569],[-102.75993,22.76663],[-102.75787,22.77514],[-102.76099,22.78079],[-102.77226,22.78134],[-102.79296,22.79467],[-102.80931,22.79498],[-102.80888,22.80516],[-102.81772,22.80268],[-102.84419,22.81049],[-102.84583,22.81829],[-102.84056,22.82112],[-102.84323,22.83803]]]}}