{"type":"Feature","properties":{"id":"MEX.10.5","name":"Los Ramones","level":2,"country":"MEX"},"geometry":{"type":"Polygon","coordinates":[[[-99.45859,25.83885],[-99.46232,25.83305],[-99.47859,25.82033],[-99.49039,25.81643],[-99.50314,25.84691],[-99.56053,25.83117],[-99.56066,25.83794],[-99.55101,25.84097],[-99.55365,25.8492],[-99.53956,25.85589],[-99.5387,25.90161],[-99.62743,25.86375],[-99.63503,25.86927],[-99.66233,25.90021],[-99.66756,25.91649],[-99.67791,25.92995],[-99.70685,25.90301],[-99.70031,25.8953],[-99.70812,25.88796],[-99.69461,25.87016],[-99.68576,25.86514],[-99.67878,25.85563],[-99.66673,25.84719],[-99.67458,25.83616],[-99.68146,25.82075],[-99.68367,25.79735],[-99.68033,25.79121],[-99.66206,25.78099],[-99.7176,25.72583],[-99.71844,25.72725],[-99.75804,25.73576],[-99.76661,25.69519],[-99.77372,25.6837],[-99.77855,25.68115],[-99.78207,25.67142],[-99.76674,25.66637],[-99.76475,25.65346],[-99.7511,25.65149],[-99.74914,25.62805],[-99.73899,25.62474],[-99.74032,25.62004],[-99.74046,25.56582],[-99.73487,25.55033],[-99.71088,25.54439],[-99.69799,25.52989],[-99.69377,25.51771],[-99.68762,25.51626],[-99.68711,25.50415],[-99.69297,25.49641],[-99.70105,25.49262],[-99.71188,25.50074],[-99.7182,25.49936],[-99.72228,25.48508],[-99.7288,25.48165],[-99.73197,25.47136],[-99.74124,25.4735],[-99.7663,25.4459],[-99.77003,25.43262],[-99.78518,25.42997],[-99.69885,25.37891],[-99.70277,25.42339],[-99.6905,25.42214],[-99.68278,25.42413],[-99.68026,25.3949],[-99.67472,25.39849],[-99.66429,25.39624],[-99.67107,25.4751],[-99.64967,25.4768],[-99.6478,25.45497],[-99.64018,25.45381],[-99.64186,25.47033],[-99.62965,25.47122],[-99.63203,25.49766],[-99.59485,25.50009],[-99.59333,25.49082],[-99.58287,25.48767],[-99.57137,25.4927],[-99.56559,25.48795],[-99.54965,25.48812],[-99.54297,25.4809],[-99.53796,25.46739],[-99.53206,25.46477],[-99.53079,25.45456],[-99.5226,25.44715],[-99.51462,25.45382],[-99.51554,25.46123],[-99.49666,25.46879],[-99.48894,25.46159],[-99.47371,25.46119],[-99.46696,25.45699],[-99.45806,25.46086],[-99.46596,25.48515],[-99.45986,25.4878],[-99.43984,25.47849],[-99.4242,25.4768],[-99.42458,25.50084],[-99.4117,25.49974],[-99.4134,25.51639],[-99.41758,25.53124],[-99.42632,25.53011],[-99.43221,25.53656],[-99.42117,25.60039],[-99.41763,25.60038],[-99.41393,25.62323],[-99.46123,25.68823],[-99.41901,25.7148],[-99.44153,25.74303],[-99.42614,25.75368],[-99.40259,25.76169],[-99.40182,25.77158],[-99.4188,25.78939],[-99.45859,25.83885]]]}}