{"type":"Feature","properties":{"id":"MEX.5.16","name":"Matamoros","level":2,"country":"MEX"},"geometry":{"type":"Polygon","coordinates":[[[-105.69081,26.86236],[-105.69237,26.85611],[-105.6891,26.83895],[-105.69578,26.83878],[-105.70098,26.83089],[-105.67964,26.82934],[-105.66701,26.83164],[-105.65949,26.82845],[-105.6487,26.81269],[-105.66761,26.80363],[-105.67082,26.80876],[-105.68768,26.80161],[-105.68945,26.79765],[-105.6728,26.78263],[-105.67994,26.7786],[-105.67799,26.76293],[-105.71536,26.7467],[-105.73792,26.75374],[-105.76494,26.7501],[-105.79426,26.69877],[-105.7813,26.70745],[-105.76967,26.70723],[-105.7615,26.71288],[-105.74634,26.71387],[-105.73508,26.69208],[-105.72891,26.6979],[-105.7048,26.65291],[-105.68988,26.65719],[-105.68271,26.65053],[-105.67537,26.63696],[-105.67095,26.63523],[-105.67488,26.61767],[-105.64553,26.61661],[-105.63252,26.61969],[-105.60937,26.61373],[-105.60101,26.61485],[-105.61949,26.68351],[-105.549,26.54658],[-105.49609,26.54285],[-105.49723,26.53063],[-105.49022,26.51927],[-105.47151,26.5087],[-105.46759,26.52605],[-105.4386,26.52834],[-105.43056,26.52383],[-105.40343,26.51752],[-105.38924,26.52402],[-105.38444,26.5386],[-105.44218,26.55223],[-105.4021,26.59469],[-105.33926,26.64512],[-105.34158,26.65614],[-105.32879,26.66446],[-105.33024,26.68015],[-105.33857,26.68346],[-105.34787,26.7003],[-105.35044,26.71894],[-105.34937,26.73803],[-105.3394,26.74652],[-105.34127,26.75513],[-105.33327,26.76788],[-105.32243,26.76713],[-105.32133,26.77845],[-105.32983,26.78363],[-105.33614,26.79194],[-105.32154,26.80361],[-105.33987,26.83698],[-105.35392,26.84043],[-105.35668,26.83474],[-105.36727,26.84041],[-105.38432,26.84204],[-105.38492,26.84874],[-105.41566,26.85712],[-105.44044,26.85524],[-105.45314,26.8564],[-105.4567,26.86124],[-105.44272,26.86916],[-105.48832,26.88717],[-105.53634,26.91527],[-105.55126,26.90774],[-105.56879,26.89717],[-105.56885,26.88503],[-105.57465,26.87624],[-105.58717,26.87283],[-105.60063,26.87943],[-105.60266,26.8715],[-105.61079,26.87035],[-105.61909,26.88113],[-105.62485,26.88172],[-105.62936,26.89359],[-105.67482,26.87821],[-105.6869,26.87829],[-105.69081,26.86236]]]}}