{"type":"Feature","properties":{"id":"MEX.9.43","name":"Guadalupe","level":2,"country":"MEX"},"geometry":{"type":"Polygon","coordinates":[[[-102.23352,23.02494],[-102.26283,23.00724],[-102.26149,22.98893],[-102.29415,22.98638],[-102.32451,22.98499],[-102.33181,22.97783],[-102.34202,22.97227],[-102.34272,22.95589],[-102.35989,22.95593],[-102.36045,22.9462],[-102.37187,22.94724],[-102.37137,22.95478],[-102.39049,22.95117],[-102.41011,22.95458],[-102.41585,22.90413],[-102.39093,22.90014],[-102.39389,22.89664],[-102.39515,22.87272],[-102.4033,22.86244],[-102.4047,22.84776],[-102.4092,22.84621],[-102.41517,22.83509],[-102.43073,22.83528],[-102.43581,22.82327],[-102.43928,22.82219],[-102.45357,22.80261],[-102.48467,22.80115],[-102.51304,22.78178],[-102.51944,22.78406],[-102.52755,22.77963],[-102.53006,22.77392],[-102.53932,22.77641],[-102.54117,22.76393],[-102.54582,22.75275],[-102.55472,22.75019],[-102.55544,22.73891],[-102.56402,22.72974],[-102.55708,22.71561],[-102.55675,22.70717],[-102.57316,22.69066],[-102.57075,22.68536],[-102.57293,22.67183],[-102.59682,22.66945],[-102.59735,22.665],[-102.61638,22.63181],[-102.63153,22.6327],[-102.6572,22.61725],[-102.65064,22.60214],[-102.62598,22.60512],[-102.61357,22.60208],[-102.61019,22.61105],[-102.60145,22.61279],[-102.59142,22.60774],[-102.57874,22.60599],[-102.56867,22.60108],[-102.54949,22.60763],[-102.55149,22.60108],[-102.56211,22.5816],[-102.56054,22.56877],[-102.56252,22.55957],[-102.55073,22.55778],[-102.54144,22.55147],[-102.51112,22.53984],[-102.49801,22.54166],[-102.49464,22.54712],[-102.49923,22.55835],[-102.50508,22.56108],[-102.49865,22.57149],[-102.50626,22.57256],[-102.49919,22.58349],[-102.48809,22.58036],[-102.48181,22.58185],[-102.47422,22.57771],[-102.46698,22.59623],[-102.47261,22.62354],[-102.4498,22.6155],[-102.4448,22.61012],[-102.42842,22.6005],[-102.43356,22.6231],[-102.4231,22.63463],[-102.41052,22.62955],[-102.39979,22.66206],[-102.38797,22.66139],[-102.37355,22.67129],[-102.37166,22.67781],[-102.36124,22.67617],[-102.36972,22.70175],[-102.38054,22.70042],[-102.3925,22.72404],[-102.40292,22.7636],[-102.39498,22.76358],[-102.38353,22.79575],[-102.39902,22.79674],[-102.39965,22.81119],[-102.36986,22.80264],[-102.21732,22.83452],[-102.20751,22.83664],[-102.21254,22.85413],[-102.19698,22.88264],[-102.22815,22.99652],[-102.23352,23.02494]]]}}