{"type":"Feature","properties":{"id":"MEX.19.529","name":"San Juan Ozolotepec","level":2,"country":"MEX"},"geometry":{"type":"Polygon","coordinates":[[[-96.29411,16.12455],[-96.30591,16.10012],[-96.30972,16.08847],[-96.2959,16.08514],[-96.2831,16.08545],[-96.26542,16.07808],[-96.2686,16.05097],[-96.24079,16.03796],[-96.23629,16.03092],[-96.22413,16.02311],[-96.21484,16.02907],[-96.21059,16.02133],[-96.18719,16.01655],[-96.18572,16.00869],[-96.17684,16.00938],[-96.16931,16.01521],[-96.16699,16.03468],[-96.17142,16.04321],[-96.16138,16.04451],[-96.1499,16.04294],[-96.1423,16.04566],[-96.13605,16.0591],[-96.13185,16.07555],[-96.13124,16.08704],[-96.13391,16.09585],[-96.12395,16.11209],[-96.1194,16.11423],[-96.11353,16.13931],[-96.10745,16.14678],[-96.08717,16.15618],[-96.10261,16.16255],[-96.12059,16.15007],[-96.14874,16.15361],[-96.17201,16.16248],[-96.17973,16.1627],[-96.19339,16.16989],[-96.20747,16.16443],[-96.21758,16.17364],[-96.21735,16.18526],[-96.25011,16.18671],[-96.25457,16.1869],[-96.27441,16.16488],[-96.29411,16.12455]],[[-96.1983,16.11978],[-96.19712,16.11614],[-96.17455,16.11252],[-96.16216,16.10525],[-96.16508,16.09473],[-96.16293,16.08743],[-96.17551,16.07564],[-96.1794,16.06634],[-96.17917,16.05447],[-96.19159,16.05487],[-96.2083,16.05056],[-96.21646,16.05332],[-96.2302,16.06341],[-96.21502,16.08414],[-96.23272,16.09869],[-96.24319,16.11699],[-96.22463,16.12983],[-96.20808,16.1458],[-96.1983,16.11978]]]}}