{"type":"Feature","properties":{"id":"MEX.5.42","name":"Temósachic","level":2,"country":"MEX"},"geometry":{"type":"Polygon","coordinates":[[[-107.90946,29.25848],[-107.90613,29.25853],[-107.90578,29.22473],[-107.83447,29.23889],[-107.83412,29.18538],[-107.78104,29.18514],[-107.77869,29.14284],[-107.90985,29.13761],[-107.96958,29.16697],[-107.98139,29.11883],[-107.99243,29.12104],[-107.99724,29.0769],[-108.00631,29.03427],[-107.95298,29.02413],[-107.94589,28.95687],[-108.0928,28.96065],[-108.08085,28.91651],[-108.07517,28.90865],[-108.0946,28.88374],[-108.16033,28.8747],[-108.15824,28.87026],[-108.14215,28.8536],[-108.13668,28.83656],[-108.16028,28.84066],[-108.16393,28.83934],[-108.17293,28.82614],[-108.17702,28.83773],[-108.17339,28.84854],[-108.21693,28.84176],[-108.22394,28.82544],[-108.20689,28.80238],[-108.1855,28.81449],[-108.16557,28.79302],[-108.185,28.7869],[-108.18099,28.77413],[-108.17018,28.76387],[-108.35692,28.75884],[-108.32974,28.71992],[-108.35493,28.68765],[-108.4525,28.7204],[-108.4642,28.73065],[-108.47394,28.72894],[-108.47639,28.71877],[-108.46835,28.71352],[-108.47209,28.69832],[-108.48725,28.69805],[-108.4954,28.69414],[-108.51041,28.69441],[-108.5148,28.70344],[-108.52427,28.70414],[-108.5292,28.71044],[-108.53649,28.7112],[-108.54512,28.70607],[-108.55363,28.69645],[-108.55966,28.69944],[-108.56668,28.69544],[-108.5749,28.71239],[-108.58382,28.71632],[-108.58391,28.66593],[-108.57898,28.65734],[-108.58015,28.63245],[-108.5644,28.61271],[-108.56195,28.5923],[-108.55564,28.58726],[-108.55163,28.57777],[-108.53129,28.55667],[-108.53186,28.53897],[-108.52329,28.50591],[-108.50767,28.50822],[-108.5048,28.49336],[-108.5137,28.48449],[-108.51347,28.47291],[-108.52039,28.45976],[-108.51744,28.45562],[-108.50414,28.45444],[-108.51363,28.4396],[-108.51554,28.42628],[-108.48898,28.37512],[-108.4797,28.36955],[-108.44842,28.34768],[-108.40422,28.35177],[-108.36365,28.33061],[-108.3636,28.33668],[-108.37228,28.35039],[-108.36105,28.34957],[-108.35696,28.33887],[-108.34897,28.34989],[-108.33578,28.35214],[-108.33019,28.34838],[-108.32408,28.35292],[-108.31047,28.3533],[-108.30183,28.34604],[-108.29267,28.34405],[-108.28668,28.34908],[-108.27451,28.35113],[-108.26692,28.34572],[-108.25519,28.35099],[-108.23672,28.35254],[-108.2296,28.34636],[-108.22478,28.32637],[-108.21186,28.32154],[-108.20499,28.32926],[-108.1875,28.33326],[-108.1786,28.32862],[-108.1709,28.32838],[-108.16812,28.31714],[-108.15521,28.3013],[-108.1486,28.30312],[-108.13374,28.30141],[-108.12986,28.30875],[-108.11926,28.31465],[-108.09677,28.31438],[-108.09499,28.32057],[-108.05858,28.37548],[-108.01227,28.39598],[-108.02795,28.40773],[-108.01124,28.42208],[-107.96516,28.43281],[-107.96331,28.45282],[-107.92126,28.50871],[-107.9384,28.54384],[-107.91252,28.53833],[-107.91073,28.55692],[-107.88776,28.55256],[-107.87318,28.55118],[-107.86958,28.55445],[-107.8509,28.54099],[-107.8416,28.55584],[-107.84528,28.57964],[-107.83877,28.58154],[-107.84628,28.59121],[-107.8498,28.60671],[-107.84446,28.62798],[-107.84195,28.63138],[-107.85293,28.64117],[-107.83658,28.64407],[-107.83837,28.65507],[-107.83933,28.66698],[-107.83613,28.67016],[-107.8321,28.69729],[-107.84874,28.74928],[-107.86392,28.78596],[-107.85715,28.80701],[-107.85851,28.82492],[-107.85287,28.82868],[-107.85733,28.84221],[-107.85302,28.84871],[-107.87527,28.85286],[-107.82933,28.91484],[-107.81969,28.91216],[-107.82896,28.88325],[-107.81191,28.88383],[-107.81048,28.88871],[-107.79905,28.89466],[-107.77734,28.88704],[-107.78557,28.90653],[-107.79496,28.91768],[-107.80034,28.92905],[-107.78803,28.92702],[-107.78445,28.93919],[-107.77385,28.94724],[-107.74632,28.95409],[-107.73619,28.97158],[-107.73314,28.98484],[-107.72633,28.9854],[-107.70024,28.97512],[-107.67393,28.97519],[-107.66501,28.97143],[-107.65411,28.95458],[-107.64472,28.95527],[-107.63937,28.96044],[-107.62977,28.96053],[-107.59401,28.9514],[-107.58597,28.95582],[-107.56487,28.97718],[-107.57049,28.98547],[-107.57921,28.98888],[-107.58129,28.99907],[-107.57447,29.00306],[-107.57254,29.01128],[-107.57736,29.0168],[-107.57345,29.02802],[-107.57681,29.03838],[-107.57062,29.05336],[-107.58179,29.0552],[-107.58822,29.0707],[-107.61722,29.08212],[-107.63668,29.09722],[-107.6183,29.10809],[-107.60861,29.12375],[-107.61158,29.13124],[-107.60131,29.17987],[-107.64761,29.15517],[-107.66358,29.15613],[-107.66858,29.16639],[-107.67834,29.17017],[-107.68997,29.16845],[-107.69961,29.1631],[-107.70995,29.17051],[-107.70668,29.17702],[-107.7092,29.18996],[-107.70209,29.20211],[-107.73173,29.2294],[-107.73886,29.2237],[-107.76188,29.23353],[-107.76766,29.24078],[-107.77455,29.23619],[-107.79624,29.23063],[-107.81043,29.23547],[-107.81936,29.22949],[-107.83283,29.23872],[-107.8334,29.24334],[-107.84391,29.25689],[-107.84452,29.24532],[-107.84966,29.24457],[-107.86636,29.25514],[-107.88491,29.2526],[-107.8912,29.25726],[-107.90296,29.25937],[-107.90946,29.25848]]]}}