{"type":"Feature","properties":{"id":"MEX.8.54","name":"Etchojoa","level":2,"country":"MEX"},"geometry":{"type":"Polygon","coordinates":[[[-109.59143,26.84802],[-109.59129,26.86673],[-109.57504,26.86704],[-109.57508,26.86219],[-109.53,26.86231],[-109.53017,26.90106],[-109.49872,26.90273],[-109.49856,26.96236],[-109.5186,26.96245],[-109.51857,26.97149],[-109.54903,26.97149],[-109.54887,26.98356],[-109.55947,26.98389],[-109.55943,26.99884],[-109.53884,26.99892],[-109.53897,27.01731],[-109.55155,27.01721],[-109.5515,27.03402],[-109.54588,27.0383],[-109.54538,27.05275],[-109.55019,27.06808],[-109.55819,27.06923],[-109.55679,27.07749],[-109.5653,27.08888],[-109.57878,27.09449],[-109.58168,27.10069],[-109.58167,27.16397],[-109.61289,27.16342],[-109.62744,27.16862],[-109.6295,27.18413],[-109.63909,27.18007],[-109.67275,27.22473],[-109.68359,27.21821],[-109.68365,27.23545],[-109.69538,27.23994],[-109.70756,27.23994],[-109.70792,27.22221],[-109.72055,27.22564],[-109.72504,27.23021],[-109.73211,27.22567],[-109.74456,27.2224],[-109.75837,27.22277],[-109.76319,27.22616],[-109.82014,27.22618],[-109.82017,27.21712],[-109.80997,27.21702],[-109.80978,27.20778],[-109.78963,27.20778],[-109.78976,27.2023],[-109.7281,27.20253],[-109.72834,27.10758],[-109.73327,27.0984],[-109.74835,27.0984],[-109.74821,27.08199],[-109.80373,27.08196],[-109.81006,27.08005],[-109.80994,27.04368],[-109.85052,27.04384],[-109.85089,27.00708],[-109.87139,27.00706],[-109.87146,26.97501],[-109.88519,26.9751],[-109.89852,26.97132],[-109.90266,26.98943],[-109.90002,26.99371],[-109.9189,26.99597],[-109.91652,27.00313],[-109.90952,27.0078],[-109.93986,27.00934],[-109.94623,27.00446],[-109.94438,26.99168],[-109.9305,26.9743],[-109.91445,26.95805],[-109.89457,26.93048],[-109.89008,26.92247],[-109.88491,26.90556],[-109.87174,26.91294],[-109.74232,26.91393],[-109.74049,26.90501],[-109.71788,26.90501],[-109.71258,26.90045],[-109.69822,26.90042],[-109.69212,26.89511],[-109.69988,26.8803],[-109.69461,26.87104],[-109.68136,26.87104],[-109.67637,26.8668],[-109.63132,26.86622],[-109.6313,26.84808],[-109.59143,26.84802]]]}}