{"type":"Feature","properties":{"id":"MEX.5.2","name":"Namiquipa","level":2,"country":"MEX"},"geometry":{"type":"Polygon","coordinates":[[[-107.26217,29.07113],[-107.25814,29.07012],[-107.22384,29.11944],[-107.17193,29.1146],[-107.16192,29.11565],[-107.16081,29.10837],[-107.11531,29.11042],[-107.10559,29.13661],[-107.11429,29.15202],[-107.0744,29.1682],[-107.07094,29.19805],[-107.05781,29.19703],[-107.05852,29.15114],[-106.9992,29.12021],[-106.99089,29.12365],[-106.97099,29.12394],[-106.96047,29.11152],[-106.92209,29.12323],[-106.87775,29.08516],[-106.80847,29.14227],[-106.81918,29.14942],[-106.82253,29.21342],[-106.8058,29.21541],[-106.76495,29.21517],[-106.77981,29.26409],[-106.81551,29.26322],[-106.82664,29.26051],[-106.82662,29.27079],[-106.70869,29.27611],[-106.70869,29.26809],[-106.68513,29.26836],[-106.68495,29.25656],[-106.67238,29.25406],[-106.67512,29.24394],[-106.68025,29.238],[-106.66122,29.23006],[-106.64148,29.23342],[-106.63748,29.22672],[-106.62844,29.2268],[-106.62825,29.20965],[-106.60247,29.20996],[-106.58985,29.20761],[-106.58453,29.20026],[-106.56464,29.19518],[-106.55528,29.20852],[-106.54913,29.2121],[-106.53992,29.27234],[-106.58695,29.27719],[-106.5831,29.32576],[-106.57135,29.35741],[-106.59586,29.35831],[-106.60164,29.37766],[-106.59333,29.383],[-106.59725,29.40024],[-106.58687,29.41036],[-106.58463,29.42567],[-106.58892,29.43568],[-106.58933,29.45984],[-106.58556,29.46823],[-106.55733,29.47017],[-106.55848,29.53863],[-106.51113,29.54733],[-106.48352,29.56356],[-106.48208,29.56717],[-106.53564,29.56412],[-106.65377,29.57096],[-106.66549,29.56283],[-106.67589,29.55848],[-106.68435,29.5508],[-106.7072,29.54433],[-106.71466,29.54418],[-106.74039,29.55085],[-106.74752,29.53774],[-106.74695,29.52297],[-106.76065,29.51625],[-106.77095,29.53911],[-106.78045,29.5394],[-106.78852,29.5444],[-106.81309,29.54378],[-106.826,29.54824],[-106.83803,29.54862],[-106.85709,29.53689],[-106.86213,29.52436],[-106.87565,29.51695],[-106.88908,29.51652],[-106.90667,29.52252],[-106.9241,29.5182],[-106.92605,29.52665],[-106.97864,29.52155],[-107,29.55377],[-107.00394,29.55153],[-107.02437,29.5519],[-107.0372,29.54926],[-107.05108,29.5533],[-107.06306,29.54163],[-107.07549,29.53613],[-107.08595,29.53638],[-107.08645,29.54392],[-107.07637,29.5465],[-107.07138,29.55807],[-107.0804,29.56342],[-107.0869,29.57343],[-107.18662,29.55312],[-107.20728,29.55744],[-107.2275,29.55719],[-107.23938,29.56347],[-107.27593,29.54817],[-107.28914,29.55041],[-107.29845,29.55513],[-107.31366,29.55529],[-107.33005,29.55051],[-107.34034,29.55026],[-107.3432,29.5428],[-107.35834,29.52778],[-107.36245,29.5193],[-107.3737,29.51459],[-107.40091,29.51232],[-107.42643,29.51242],[-107.45466,29.50578],[-107.48443,29.48853],[-107.50694,29.48296],[-107.51659,29.4839],[-107.52576,29.47028],[-107.53821,29.46502],[-107.54883,29.47431],[-107.56452,29.48335],[-107.58042,29.41922],[-107.58518,29.39934],[-107.5821,29.39621],[-107.58932,29.36688],[-107.5608,29.36327],[-107.57232,29.32063],[-107.5716,29.31389],[-107.57513,29.2957],[-107.60131,29.17987],[-107.61158,29.13124],[-107.60861,29.12375],[-107.6183,29.10809],[-107.63668,29.09722],[-107.61722,29.08212],[-107.58822,29.0707],[-107.58179,29.0552],[-107.57062,29.05336],[-107.57681,29.03838],[-107.57345,29.02802],[-107.57736,29.0168],[-107.57254,29.01128],[-107.57447,29.00306],[-107.58129,28.99907],[-107.57921,28.98888],[-107.57049,28.98547],[-107.56487,28.97718],[-107.58597,28.95582],[-107.59401,28.9514],[-107.58165,28.94438],[-107.57508,28.93655],[-107.58671,28.92921],[-107.58929,28.92293],[-107.58079,28.91095],[-107.57215,28.916],[-107.57044,28.89966],[-107.55358,28.8999],[-107.55354,28.89181],[-107.5442,28.89025],[-107.51603,28.90348],[-107.49322,28.9076],[-107.47415,28.87792],[-107.51844,28.85018],[-107.53969,28.80684],[-107.52378,28.80031],[-107.52474,28.78473],[-107.51918,28.76501],[-107.45402,28.75295],[-107.45834,28.76389],[-107.45292,28.78384],[-107.44801,28.79162],[-107.44305,28.79851],[-107.43175,28.79926],[-107.43198,28.8105],[-107.44098,28.82062],[-107.42442,28.8308],[-107.43357,28.84432],[-107.43133,28.84866],[-107.43389,28.86089],[-107.44413,28.87439],[-107.43996,28.88599],[-107.44861,28.91244],[-107.42005,28.91476],[-107.42818,28.94688],[-107.45731,28.94671],[-107.45755,28.97472],[-107.4349,28.97522],[-107.43095,28.99881],[-107.41284,28.9992],[-107.39419,29.00602],[-107.39091,28.99966],[-107.37935,28.99812],[-107.36471,28.99969],[-107.34426,28.99464],[-107.33618,29.024],[-107.34883,29.03668],[-107.35699,29.05036],[-107.35645,29.06024],[-107.33243,29.0565],[-107.32235,29.08064],[-107.26217,29.07113]]]}}