{"type":"Feature","properties":{"id":"MEX.20.212","name":"Piaxtla","level":2,"country":"MEX"},"geometry":{"type":"Polygon","coordinates":[[[-98.28167,17.95956],[-98.27836,17.96067],[-98.27484,17.97354],[-98.28884,17.97118],[-98.29372,17.97859],[-98.2941,17.99177],[-98.28582,17.9946],[-98.29415,18.00458],[-98.29354,18.01646],[-98.29608,18.02634],[-98.30093,18.0327],[-98.30009,18.03928],[-98.29361,18.04151],[-98.2756,18.04157],[-98.26676,18.04521],[-98.26016,18.04133],[-98.25643,18.03083],[-98.24921,18.02417],[-98.2444,18.02701],[-98.23814,18.03863],[-98.2195,18.03116],[-98.20814,18.03815],[-98.20841,18.04359],[-98.21075,18.06148],[-98.20726,18.06841],[-98.19949,18.07001],[-98.19871,18.08298],[-98.20324,18.09235],[-98.20972,18.09671],[-98.20787,18.11632],[-98.20124,18.12778],[-98.21296,18.14129],[-98.21438,18.14573],[-98.20356,18.14909],[-98.19407,18.14817],[-98.19429,18.16634],[-98.20045,18.17359],[-98.1993,18.1834],[-98.21814,18.19136],[-98.22266,18.20193],[-98.23504,18.21443],[-98.24457,18.21618],[-98.25466,18.20716],[-98.25594,18.19742],[-98.26751,18.19856],[-98.27622,18.1784],[-98.28447,18.18348],[-98.29423,18.18264],[-98.30095,18.18646],[-98.30995,18.19718],[-98.32713,18.20339],[-98.33672,18.20293],[-98.34235,18.19754],[-98.34718,18.18546],[-98.35988,18.1765],[-98.3525,18.14352],[-98.34001,18.13875],[-98.34415,18.13149],[-98.32681,18.12946],[-98.32761,18.12103],[-98.3031,18.12835],[-98.2919,18.12991],[-98.28857,18.11622],[-98.26922,18.11671],[-98.24786,18.09853],[-98.23883,18.0955],[-98.238,18.07945],[-98.24699,18.07193],[-98.24469,18.06694],[-98.2562,18.0592],[-98.27112,18.06191],[-98.27609,18.05951],[-98.29659,18.05891],[-98.30548,18.05571],[-98.30748,18.04878],[-98.33579,18.04164],[-98.34427,18.03509],[-98.35991,18.03597],[-98.36728,18.03424],[-98.36515,18.02522],[-98.3442,18.02611],[-98.33958,18.03174],[-98.32751,18.03697],[-98.31803,18.02803],[-98.32225,18.01977],[-98.3242,18.00835],[-98.31808,17.99835],[-98.32307,17.98544],[-98.31664,17.96735],[-98.30129,17.9601],[-98.28678,17.95371],[-98.28167,17.95956]]]}}