{"type":"Feature","properties":{"id":"MEX.9.49","name":"Valparaíso","level":2,"country":"MEX"},"geometry":{"type":"Polygon","coordinates":[[[-104.34884,22.40972],[-104.35353,22.40132],[-104.35004,22.38641],[-104.32532,22.38075],[-104.29313,22.36513],[-104.28574,22.35637],[-104.29256,22.34432],[-104.2856,22.34566],[-104.26659,22.34325],[-104.25474,22.34879],[-104.25667,22.35933],[-104.25509,22.37328],[-104.25935,22.37805],[-104.25444,22.39248],[-104.24098,22.41277],[-104.23001,22.41455],[-104.22572,22.41934],[-104.21495,22.42277],[-104.20704,22.4217],[-104.2016,22.41628],[-104.19919,22.4073],[-104.1777,22.38963],[-104.16709,22.38762],[-104.16464,22.39186],[-104.17442,22.42084],[-104.17886,22.42743],[-104.17225,22.44042],[-104.17956,22.45005],[-104.19012,22.44609],[-104.1951,22.44763],[-104.19987,22.45631],[-104.19574,22.4622],[-104.18498,22.46462],[-104.1973,22.47712],[-104.20233,22.48872],[-104.19023,22.50761],[-104.17805,22.5053],[-104.17056,22.50723],[-104.16316,22.51444],[-104.152,22.51465],[-104.14982,22.50974],[-104.13983,22.50333],[-104.12455,22.50248],[-104.11522,22.49959],[-104.11257,22.50923],[-104.12077,22.51563],[-104.10658,22.52325],[-104.10352,22.53109],[-104.08802,22.53337],[-104.07772,22.53231],[-104.0688,22.522],[-104.07416,22.51566],[-104.06938,22.50902],[-104.07171,22.503],[-104.05659,22.4928],[-104.05152,22.46739],[-104.05745,22.45577],[-104.05767,22.44757],[-104.06357,22.44126],[-104.06164,22.4258],[-104.06648,22.42689],[-104.07285,22.42026],[-104.07682,22.40719],[-104.07619,22.39878],[-104.08101,22.38978],[-104.07539,22.38313],[-104.07878,22.37691],[-104.09489,22.37631],[-104.09735,22.35782],[-104.08369,22.35783],[-104.07531,22.36439],[-104.06458,22.36331],[-104.05679,22.37209],[-104.04875,22.37644],[-104.02933,22.37108],[-104.02318,22.36449],[-104.01206,22.3708],[-104.01268,22.37855],[-104.00325,22.38993],[-104.00632,22.4028],[-104.00325,22.41028],[-103.99283,22.41049],[-103.98639,22.41483],[-103.985,22.42308],[-103.97647,22.42726],[-103.97556,22.43619],[-103.96057,22.43318],[-103.95866,22.45109],[-103.94933,22.46179],[-103.93795,22.46276],[-103.93779,22.4752],[-103.93167,22.47707],[-103.93981,22.48894],[-103.93308,22.48909],[-103.94558,22.5041],[-103.94994,22.50287],[-103.96182,22.5091],[-103.9662,22.51723],[-103.97433,22.51624],[-103.98483,22.51914],[-103.99377,22.52991],[-104.00557,22.5366],[-103.99888,22.5436],[-103.98009,22.54062],[-103.98217,22.54951],[-103.99067,22.55695],[-103.99389,22.56453],[-103.99017,22.57304],[-103.98999,22.58249],[-103.98329,22.58547],[-103.98888,22.59247],[-103.99643,22.5908],[-104.00621,22.59547],[-104.01807,22.59699],[-104.02701,22.61318],[-104.02595,22.62423],[-104.03329,22.63411],[-104.0277,22.63952],[-104.02747,22.64842],[-104.01951,22.65265],[-104.01551,22.66891],[-104.02614,22.67432],[-104.03424,22.67052],[-104.04327,22.67189],[-104.04751,22.6856],[-104.05947,22.68748],[-104.07335,22.69406],[-104.06415,22.70696],[-104.05107,22.70782],[-104.04775,22.71215],[-104.05591,22.72398],[-104.03598,22.73404],[-104.02569,22.74328],[-104.01193,22.74793],[-104.00776,22.74425],[-103.99193,22.748],[-103.98911,22.74184],[-103.97861,22.74672],[-103.97065,22.74568],[-103.95097,22.74732],[-103.94038,22.75025],[-103.93136,22.74523],[-103.92346,22.7485],[-103.90934,22.75012],[-103.89833,22.72828],[-103.89112,22.73516],[-103.87511,22.73716],[-103.858,22.73335],[-103.8546,22.7297],[-103.82661,22.73494],[-103.81675,22.72846],[-103.80558,22.73157],[-103.78139,22.72982],[-103.77467,22.73387],[-103.76923,22.72726],[-103.76907,22.72039],[-103.75481,22.71955],[-103.75199,22.71165],[-103.75131,22.69505],[-103.7632,22.67702],[-103.76356,22.66268],[-103.75867,22.65842],[-103.76165,22.65046],[-103.76846,22.64333],[-103.7652,22.62951],[-103.76086,22.6258],[-103.77345,22.6115],[-103.8196,22.59558],[-103.82521,22.58797],[-103.83344,22.58577],[-103.8431,22.57906],[-103.85533,22.57495],[-103.86074,22.56509],[-103.85223,22.55627],[-103.85416,22.54944],[-103.86688,22.5447],[-103.87151,22.53817],[-103.87519,22.52158],[-103.86832,22.51657],[-103.86232,22.50189],[-103.86399,22.49144],[-103.87107,22.47247],[-103.88119,22.47472],[-103.88288,22.45455],[-103.87843,22.45136],[-103.8761,22.44118],[-103.89025,22.4418],[-103.8947,22.43816],[-103.88487,22.43059],[-103.87318,22.42476],[-103.87303,22.416],[-103.86598,22.41523],[-103.86931,22.40126],[-103.8862,22.4002],[-103.88345,22.39002],[-103.89246,22.38803],[-103.89927,22.37717],[-103.89574,22.36411],[-103.90786,22.36205],[-103.91184,22.35226],[-103.9213,22.34788],[-103.91998,22.33561],[-103.92602,22.33162],[-103.92368,22.32387],[-103.91579,22.31131],[-103.91613,22.30008],[-103.91364,22.28485],[-103.91395,22.27221],[-103.91788,22.26197],[-103.90768,22.25461],[-103.90166,22.23708],[-103.88614,22.22618],[-103.88109,22.2061],[-103.88509,22.19642],[-103.87689,22.19214],[-103.87312,22.1784],[-103.86294,22.16688],[-103.85779,22.18816],[-103.84408,22.22207],[-103.84228,22.25032],[-103.84487,22.26255],[-103.83984,22.26629],[-103.82862,22.28661],[-103.83666,22.30429],[-103.84116,22.32262],[-103.84596,22.33035],[-103.84543,22.34276],[-103.83746,22.352],[-103.83062,22.35519],[-103.81753,22.36789],[-103.81115,22.37675],[-103.81301,22.38392],[-103.8087,22.39875],[-103.81326,22.40554],[-103.81009,22.41272],[-103.81018,22.42729],[-103.80626,22.44183],[-103.79918,22.45216],[-103.79561,22.46502],[-103.78698,22.47777],[-103.7838,22.48883],[-103.78487,22.50572],[-103.77739,22.52493],[-103.77385,22.54641],[-103.7691,22.55579],[-103.75529,22.55422],[-103.7445,22.5585],[-103.73845,22.57196],[-103.72656,22.57415],[-103.71152,22.56455],[-103.70085,22.56303],[-103.68179,22.5548],[-103.67259,22.56113],[-103.66101,22.54714],[-103.65157,22.55648],[-103.64617,22.55483],[-103.63623,22.56002],[-103.61853,22.56367],[-103.61023,22.55952],[-103.60915,22.56265],[-103.59414,22.56059],[-103.58358,22.56129],[-103.57026,22.56975],[-103.55995,22.56059],[-103.55255,22.56666],[-103.53751,22.57051],[-103.53247,22.55937],[-103.52114,22.55251],[-103.51842,22.55611],[-103.50271,22.55517],[-103.49574,22.55718],[-103.48345,22.55545],[-103.47619,22.56573],[-103.46822,22.56699],[-103.46648,22.59437],[-103.46193,22.5978],[-103.46296,22.60571],[-103.45889,22.60972],[-103.44505,22.61354],[-103.44293,22.62917],[-103.43632,22.62946],[-103.42774,22.62333],[-103.41509,22.62874],[-103.41273,22.63726],[-103.41655,22.64397],[-103.40901,22.64705],[-103.39253,22.66275],[-103.38402,22.66164],[-103.37922,22.65323],[-103.36327,22.63911],[-103.35828,22.63852],[-103.34057,22.64912],[-103.32808,22.6482],[-103.31569,22.64193],[-103.30705,22.64418],[-103.30157,22.63932],[-103.29993,22.64925],[-103.29037,22.66079],[-103.28929,22.67159],[-103.27772,22.67702],[-103.25475,22.67657],[-103.24136,22.67972],[-103.2236,22.67881],[-103.22305,22.68725],[-103.21616,22.6953],[-103.22229,22.70087],[-103.23192,22.70263],[-103.2338,22.71099],[-103.24025,22.72002],[-103.23662,22.72658],[-103.2445,22.73096],[-103.23967,22.74758],[-103.23524,22.75065],[-103.24359,22.75985],[-103.24407,22.77224],[-103.24078,22.77551],[-103.23644,22.79121],[-103.24312,22.80883],[-103.23089,22.81086],[-103.22963,22.82107],[-103.22142,22.82743],[-103.21842,22.83623],[-103.21132,22.83398],[-103.19731,22.83997],[-103.19817,22.85068],[-103.19211,22.85622],[-103.19371,22.86129],[-103.2043,22.8652],[-103.20316,22.88697],[-103.21573,22.88865],[-103.22531,22.90127],[-103.24429,22.90285],[-103.24049,22.91212],[-103.23392,22.91924],[-103.22686,22.93776],[-103.22078,22.94708],[-103.22417,22.95514],[-103.2482,22.96774],[-103.24134,23.00966],[-103.26014,23.00857],[-103.26838,23.01098],[-103.28025,23.01829],[-103.2796,23.02362],[-103.29372,23.03668],[-103.30213,23.03127],[-103.31887,23.03562],[-103.32564,23.04089],[-103.33864,23.04465],[-103.34651,23.05258],[-103.36186,23.0549],[-103.37395,23.0601],[-103.38226,23.05719],[-103.38603,23.05174],[-103.39457,23.05062],[-103.39859,23.06105],[-103.4136,23.07417],[-103.41688,23.08275],[-103.42776,23.09728],[-103.424,23.10266],[-103.4323,23.12084],[-103.44265,23.11983],[-103.45032,23.11257],[-103.46041,23.11754],[-103.47559,23.11716],[-103.481,23.12257],[-103.48811,23.12163],[-103.51179,23.12543],[-103.50874,23.15185],[-103.51759,23.16263],[-103.53543,23.15615],[-103.54406,23.15799],[-103.54954,23.15143],[-103.561,23.14986],[-103.56664,23.15689],[-103.57583,23.16101],[-103.58357,23.15992],[-103.58868,23.15219],[-103.59581,23.1547],[-103.62132,23.14112],[-103.6252,23.12784],[-103.63285,23.11963],[-103.63277,23.1122],[-103.64926,23.10135],[-103.66612,23.09837],[-103.67274,23.10233],[-103.67607,23.11246],[-103.68296,23.11408],[-103.6975,23.10746],[-103.71213,23.11017],[-103.72666,23.10725],[-103.73421,23.10196],[-103.74836,23.10186],[-103.76108,23.09934],[-103.76657,23.09309],[-103.76584,23.08073],[-103.78148,23.07611],[-103.78487,23.08079],[-103.80656,23.07475],[-103.81572,23.06607],[-103.83011,23.06425],[-103.84181,23.06609],[-103.87855,23.06122],[-103.88602,23.04483],[-103.88537,23.03583],[-103.89043,23.0332],[-103.90689,23.03863],[-103.90387,23.0611],[-103.9172,23.06029],[-103.93678,23.05169],[-103.94433,23.06185],[-103.9491,23.05991],[-103.96253,23.06612],[-103.98187,23.06478],[-103.99323,23.07332],[-104.00124,23.06151],[-104.01435,23.05749],[-104.0167,23.05336],[-104.03504,23.05178],[-104.04633,23.03964],[-104.05723,23.03432],[-104.05629,23.02842],[-104.06833,23.02229],[-104.08798,23.02939],[-104.0999,23.0199],[-104.10153,23.02943],[-104.10787,23.03156],[-104.12724,23.02688],[-104.12403,23.01809],[-104.12394,23.00628],[-104.11871,22.99305],[-104.13027,22.97851],[-104.15393,22.97179],[-104.1628,22.97495],[-104.16823,22.96422],[-104.16427,22.94931],[-104.1653,22.94175],[-104.1541,22.93784],[-104.15545,22.93094],[-104.14996,22.92162],[-104.1439,22.92242],[-104.13476,22.91603],[-104.13206,22.90443],[-104.12292,22.90343],[-104.1075,22.8848],[-104.10952,22.87835],[-104.1063,22.85689],[-104.11593,22.85534],[-104.11543,22.848],[-104.10891,22.84257],[-104.10431,22.8336],[-104.11021,22.82252],[-104.10624,22.81314],[-104.09437,22.80073],[-104.10022,22.79483],[-104.09218,22.78852],[-104.09375,22.77885],[-104.08007,22.76991],[-104.08209,22.7645],[-104.09529,22.75924],[-104.1072,22.7686],[-104.11938,22.76226],[-104.13061,22.76383],[-104.13926,22.76842],[-104.15738,22.75968],[-104.18218,22.75827],[-104.19139,22.77072],[-104.19961,22.77648],[-104.2097,22.77974],[-104.22104,22.77942],[-104.2264,22.76241],[-104.23735,22.74978],[-104.25078,22.748],[-104.25837,22.73893],[-104.26634,22.73654],[-104.26915,22.72086],[-104.26669,22.71255],[-104.27763,22.70241],[-104.2796,22.69524],[-104.27444,22.6851],[-104.27954,22.67431],[-104.28833,22.66353],[-104.28073,22.65339],[-104.28183,22.64584],[-104.26927,22.63582],[-104.27366,22.62709],[-104.28329,22.6217],[-104.27254,22.60498],[-104.26053,22.59617],[-104.26141,22.5862],[-104.27059,22.58896],[-104.27817,22.58307],[-104.27887,22.5766],[-104.28929,22.56014],[-104.28885,22.55297],[-104.30241,22.55805],[-104.31118,22.55401],[-104.31006,22.54614],[-104.32106,22.53552],[-104.3195,22.51766],[-104.31436,22.5071],[-104.30283,22.49202],[-104.29613,22.47299],[-104.29903,22.4617],[-104.31149,22.44925],[-104.31543,22.44815],[-104.32019,22.43009],[-104.32748,22.42933],[-104.33572,22.42029],[-104.34446,22.41757],[-104.34884,22.40972]]]}}