{"type":"Feature","properties":{"id":"MEX.31.52","name":"La Trinitaria","level":2,"country":"MEX"},"geometry":{"type":"Polygon","coordinates":[[[-91.51527,16.14072],[-91.52225,16.134],[-91.52723,16.14249],[-91.52084,16.14434],[-91.5554,16.16978],[-91.55372,16.15977],[-91.5813,16.15936],[-91.60326,16.13468],[-91.61393,16.13786],[-91.62397,16.13049],[-91.63308,16.14139],[-91.64231,16.13228],[-91.64183,16.12432],[-91.65596,16.1235],[-91.66174,16.13601],[-91.66205,16.14282],[-91.67514,16.1412],[-91.682,16.15202],[-91.69331,16.14966],[-91.69546,16.1453],[-91.70639,16.14766],[-91.71146,16.14155],[-91.72048,16.14364],[-91.73571,16.13192],[-91.75395,16.13991],[-91.76656,16.15439],[-91.78222,16.16286],[-91.78993,16.16501],[-91.8008,16.17452],[-91.81052,16.16975],[-91.81309,16.15858],[-91.82398,16.16139],[-91.81644,16.18936],[-91.80683,16.18749],[-91.80269,16.19282],[-91.83226,16.20697],[-91.84044,16.18931],[-91.85105,16.18695],[-91.84823,16.17798],[-91.86269,16.16973],[-91.85635,16.15915],[-91.86318,16.15687],[-91.87783,16.17293],[-91.88299,16.18584],[-91.89189,16.17877],[-91.89114,16.16937],[-91.88067,16.16295],[-91.87058,16.14801],[-91.88129,16.14025],[-91.89389,16.15334],[-91.89592,16.16778],[-91.91341,16.16768],[-91.9145,16.16463],[-91.93354,16.16749],[-91.93429,16.15978],[-91.95482,16.16339],[-91.96725,16.16385],[-91.96963,16.17278],[-91.98175,16.16379],[-91.99668,16.16595],[-92.00106,16.17141],[-92.02252,16.17767],[-92.0259,16.16476],[-92.05057,16.16551],[-92.04594,16.15965],[-92.06613,16.16026],[-92.08283,16.15411],[-92.07714,16.1415],[-92.08726,16.12959],[-92.0953,16.10182],[-92.10055,16.09206],[-92.0957,16.08993],[-92.08586,16.07437],[-92.09122,16.06576],[-92.10891,16.05713],[-92.14243,16.07848],[-92.16551,16.04948],[-92.17543,16.04944],[-92.17758,16.03451],[-92.16835,16.02936],[-92.17502,16.02297],[-92.1778,16.01401],[-92.18868,16.01369],[-92.19793,16.01782],[-92.2069,16.01436],[-92.20573,16.00519],[-92.19063,16.0034],[-92.20564,15.99244],[-92.19521,15.9811],[-92.20206,15.97415],[-92.19895,15.96466],[-92.18176,15.96998],[-92.17714,15.95322],[-92.18917,15.94766],[-92.18705,15.94224],[-92.17063,15.93379],[-92.16112,15.93794],[-92.14867,15.92774],[-92.13132,15.92504],[-92.11806,15.91378],[-92.11866,15.90219],[-92.10719,15.8997],[-92.09777,15.88532],[-92.09289,15.88279],[-92.07856,15.88411],[-92.07083,15.8739],[-92.06861,15.86628],[-92.05121,15.86198],[-92.05129,15.85199],[-92.04176,15.85233],[-92.03056,15.84661],[-92.01648,15.84871],[-92.01033,15.84396],[-92.00081,15.84724],[-91.99595,15.84273],[-91.96915,15.8502],[-91.96155,15.84521],[-91.95301,15.82544],[-91.92476,15.80698],[-91.91664,15.8051],[-91.91556,15.78295],[-91.91991,15.77934],[-91.93015,15.77819],[-91.93579,15.76395],[-91.93177,15.7552],[-91.92188,15.75152],[-91.73138,16.07402],[-91.38178,16.07435],[-91.40786,16.10696],[-91.39976,16.11531],[-91.4234,16.11751],[-91.42932,16.11145],[-91.43707,16.11341],[-91.44707,16.10845],[-91.44295,16.09612],[-91.45395,16.09491],[-91.47601,16.09591],[-91.47615,16.10992],[-91.48098,16.11735],[-91.49394,16.11801],[-91.49588,16.12878],[-91.5012,16.13706],[-91.51527,16.14072]]]}}