{"type":"Feature","properties":{"id":"MEX.19.436","name":"San Pedro Mártir Yucuxaco","level":2,"country":"MEX"},"geometry":{"type":"Polygon","coordinates":[[[-97.69992,17.46729],[-97.70135,17.45526],[-97.69818,17.44522],[-97.67986,17.42782],[-97.66698,17.4181],[-97.66237,17.40822],[-97.65494,17.40307],[-97.64277,17.41207],[-97.60994,17.41357],[-97.59744,17.42299],[-97.58413,17.42217],[-97.57441,17.42763],[-97.57802,17.43599],[-97.59279,17.4479],[-97.59685,17.45376],[-97.61237,17.458],[-97.61537,17.4701],[-97.62396,17.48619],[-97.62428,17.49893],[-97.6398,17.50163],[-97.68563,17.47711],[-97.69992,17.46729]]]}}