{"type":"Feature","properties":{"id":"MEX.25.47","name":"Teloloapan","level":2,"country":"MEX"},"geometry":{"type":"Polygon","coordinates":[[[-100.06812,18.59121],[-100.07175,18.59369],[-100.08241,18.58795],[-100.07073,18.58282],[-100.06889,18.56444],[-100.07684,18.54876],[-100.06873,18.52897],[-100.06815,18.52047],[-100.05154,18.50479],[-100.03518,18.49374],[-100.03143,18.48641],[-100.03525,18.48008],[-100.00705,18.48378],[-100.00064,18.47483],[-100.00238,18.46763],[-99.9993,18.45999],[-100.0041,18.45616],[-100.03258,18.45662],[-100.03553,18.44947],[-100.03189,18.44034],[-100.02054,18.43701],[-100.01807,18.42554],[-100.02754,18.42285],[-100.02518,18.41295],[-100.01486,18.4078],[-100.03939,18.40422],[-100.04592,18.3984],[-100.03947,18.38524],[-100.04827,18.38133],[-100.06728,18.38226],[-100.06174,18.36786],[-100.05538,18.35993],[-100.06976,18.34609],[-100.07517,18.34334],[-100.07918,18.33457],[-100.07433,18.31902],[-100.08831,18.3034],[-100.09505,18.29026],[-100.0722,18.28347],[-100.06332,18.27811],[-100.06036,18.27135],[-100.07585,18.26664],[-100.07043,18.25858],[-100.07298,18.24728],[-100.08362,18.23299],[-100.08241,18.22432],[-100.08938,18.22195],[-100.10099,18.21237],[-100.09317,18.20504],[-100.08302,18.21516],[-100.05529,18.2112],[-100.05469,18.21843],[-100.04422,18.21581],[-100.03285,18.22255],[-100.02905,18.23521],[-100.01341,18.23532],[-100.00756,18.22829],[-100.00318,18.23682],[-99.99103,18.23914],[-99.97491,18.2311],[-99.96563,18.23155],[-99.97012,18.24176],[-99.9665,18.24951],[-99.95629,18.24406],[-99.94909,18.23631],[-99.93814,18.23563],[-99.91573,18.23075],[-99.91791,18.21332],[-99.95507,18.21958],[-99.95851,18.2102],[-99.96429,18.21175],[-99.98655,18.21135],[-99.99408,18.20174],[-99.99872,18.20061],[-100.00447,18.20824],[-100.01868,18.20872],[-100.01683,18.19983],[-100.01041,18.19557],[-100.00073,18.17821],[-99.99922,18.16943],[-99.98663,18.16717],[-99.97916,18.17807],[-99.97585,18.18714],[-99.95891,18.18387],[-99.94786,18.17551],[-99.94024,18.17509],[-99.91688,18.18206],[-99.91298,18.19662],[-99.90425,18.20677],[-99.90488,18.21118],[-99.90578,18.21832],[-99.8981,18.22957],[-99.88088,18.22295],[-99.87188,18.24683],[-99.85367,18.23908],[-99.84964,18.22392],[-99.84406,18.21691],[-99.8466,18.20603],[-99.83285,18.20172],[-99.82618,18.21817],[-99.81311,18.22121],[-99.79798,18.24183],[-99.7994,18.26335],[-99.81379,18.26841],[-99.80681,18.28092],[-99.80529,18.29239],[-99.79324,18.29251],[-99.79135,18.29941],[-99.78114,18.30652],[-99.76409,18.31168],[-99.75801,18.31806],[-99.75002,18.31879],[-99.74735,18.3106],[-99.74175,18.30858],[-99.74083,18.31703],[-99.73407,18.31926],[-99.73177,18.31136],[-99.72359,18.30823],[-99.71262,18.31309],[-99.71042,18.32292],[-99.69304,18.32202],[-99.6775,18.32634],[-99.67366,18.31603],[-99.66635,18.31211],[-99.66675,18.30484],[-99.65802,18.30506],[-99.63177,18.29659],[-99.62655,18.30483],[-99.61414,18.30949],[-99.62487,18.32995],[-99.63576,18.33188],[-99.6507,18.34173],[-99.65191,18.35065],[-99.64251,18.35663],[-99.644,18.36682],[-99.65312,18.36981],[-99.66427,18.3808],[-99.67631,18.38674],[-99.67012,18.40289],[-99.67172,18.40661],[-99.68963,18.41513],[-99.6911,18.40969],[-99.70181,18.4127],[-99.7058,18.40334],[-99.71226,18.40142],[-99.73807,18.38332],[-99.75765,18.37494],[-99.76324,18.37694],[-99.76948,18.38512],[-99.78004,18.38928],[-99.78548,18.38533],[-99.78714,18.37382],[-99.79272,18.37424],[-99.79668,18.38655],[-99.80655,18.39573],[-99.81349,18.40552],[-99.81129,18.42774],[-99.81268,18.43882],[-99.81925,18.44145],[-99.82428,18.43317],[-99.83189,18.43109],[-99.83467,18.43701],[-99.84332,18.43842],[-99.8429,18.44804],[-99.8615,18.46158],[-99.86861,18.47039],[-99.88025,18.47039],[-99.88777,18.47419],[-99.89622,18.48408],[-99.9047,18.48751],[-99.91505,18.47698],[-99.92416,18.4717],[-99.91034,18.46643],[-99.91047,18.4554],[-99.92011,18.45091],[-99.92529,18.44357],[-99.93911,18.43533],[-99.92584,18.41966],[-99.94002,18.41598],[-99.94198,18.42679],[-99.95248,18.42658],[-99.95448,18.43977],[-99.94169,18.4485],[-99.94749,18.46346],[-99.94424,18.4686],[-99.95249,18.47242],[-99.95049,18.48011],[-99.96169,18.49073],[-99.96786,18.50432],[-99.97389,18.50548],[-99.97009,18.51462],[-99.953,18.52546],[-99.96233,18.53087],[-99.95037,18.54195],[-99.95758,18.54468],[-99.96167,18.55298],[-99.98969,18.5697],[-99.99822,18.56361],[-100.00365,18.5675],[-99.9993,18.58358],[-100.01061,18.59035],[-100.01513,18.59968],[-100.02153,18.60373],[-100.03357,18.60617],[-100.03758,18.59659],[-100.0636,18.5855],[-100.06812,18.59121]]]}}