{"type":"Feature","properties":{"id":"MEX.30.28","name":"Coatzacoalcos","level":2,"country":"MEX"},"geometry":{"type":"Polygon","coordinates":[[[-94.59723,18.19347],[-94.60729,18.19705],[-94.61521,18.21099],[-94.62618,18.21131],[-94.6384,18.17997],[-94.63903,18.17314],[-94.63258,18.15906],[-94.61986,18.15382],[-94.60677,18.15498],[-94.60084,18.15229],[-94.60145,18.14332],[-94.59714,18.13797],[-94.60157,18.13156],[-94.59653,18.12655],[-94.58488,18.12159],[-94.57534,18.12342],[-94.56331,18.13074],[-94.56018,18.13613],[-94.54589,18.13769],[-94.53736,18.14215],[-94.53085,18.13478],[-94.51654,18.1292],[-94.51344,18.11695],[-94.51584,18.11252],[-94.52473,18.11189],[-94.51996,18.10091],[-94.51263,18.10009],[-94.49495,18.10748],[-94.47779,18.10791],[-94.47009,18.1119],[-94.4656,18.10345],[-94.45542,18.10682],[-94.44733,18.102],[-94.44023,18.11103],[-94.43631,18.10835],[-94.43647,18.09394],[-94.42408,18.09804],[-94.41465,18.09773],[-94.41351,18.09207],[-94.39786,18.08373],[-94.39947,18.07783],[-94.39109,18.07249],[-94.38528,18.07312],[-94.3723,18.08179],[-94.35021,18.06679],[-94.34452,18.06098],[-94.3374,18.06498],[-94.32319,18.07585],[-94.3144,18.0871],[-94.31081,18.09726],[-94.30124,18.09576],[-94.29948,18.08823],[-94.29098,18.08349],[-94.28592,18.07346],[-94.2681,18.07619],[-94.25735,18.06977],[-94.24017,18.08687],[-94.24135,18.11803],[-94.2329,18.12878],[-94.22346,18.13579],[-94.22828,18.15302],[-94.23549,18.16226],[-94.23323,18.1672],[-94.24233,18.1831],[-94.24009,18.188],[-94.29322,18.17539],[-94.37375,18.16132],[-94.40611,18.15952],[-94.45323,18.1519],[-94.47552,18.15058],[-94.50744,18.15329],[-94.53979,18.16121],[-94.56337,18.17111],[-94.58778,18.18562],[-94.59723,18.19347]]]}}