{"type":"Feature","properties":{"id":"MEX.27.70","name":"Chapa de Mota","level":2,"country":"MEX"},"geometry":{"type":"Polygon","coordinates":[[[-99.43269,19.87526],[-99.44834,19.85895],[-99.45482,19.85513],[-99.46083,19.86811],[-99.46113,19.87693],[-99.47308,19.87766],[-99.4781,19.88366],[-99.5033,19.89138],[-99.54046,19.89152],[-99.54846,19.88996],[-99.55597,19.87966],[-99.54636,19.87359],[-99.54365,19.86692],[-99.56097,19.86845],[-99.55941,19.87329],[-99.56926,19.8789],[-99.57093,19.88467],[-99.58067,19.88799],[-99.60023,19.88871],[-99.59958,19.89557],[-99.61741,19.89845],[-99.62044,19.90421],[-99.63333,19.89285],[-99.65516,19.89631],[-99.66684,19.88762],[-99.66198,19.87482],[-99.66268,19.86813],[-99.67083,19.8466],[-99.67041,19.84058],[-99.6641,19.83093],[-99.66,19.83271],[-99.64357,19.81957],[-99.63668,19.81846],[-99.61504,19.82292],[-99.61985,19.80424],[-99.59999,19.78268],[-99.5921,19.77769],[-99.60794,19.76455],[-99.61378,19.74815],[-99.59665,19.74887],[-99.58874,19.73825],[-99.5818,19.73375],[-99.57642,19.73817],[-99.55423,19.73853],[-99.54795,19.7443],[-99.54133,19.74463],[-99.53408,19.75586],[-99.51398,19.74987],[-99.50849,19.73543],[-99.49246,19.73302],[-99.4925,19.75212],[-99.48994,19.75836],[-99.48297,19.76083],[-99.48606,19.77033],[-99.48105,19.77215],[-99.47912,19.78224],[-99.47336,19.79536],[-99.46378,19.81133],[-99.44963,19.81508],[-99.45803,19.82355],[-99.45595,19.8289],[-99.44613,19.83763],[-99.438,19.83545],[-99.42069,19.84104],[-99.42909,19.86242],[-99.43009,19.87086],[-99.43269,19.87526]]]}}