{"type":"Feature","properties":{"id":"MEX.22.10","name":"Ixtenco","level":2,"country":"MEX"},"geometry":{"type":"Polygon","coordinates":[[[-97.87029,19.27059],[-97.89684,19.29173],[-97.91726,19.2834],[-97.9245,19.27561],[-97.93888,19.26884],[-97.94942,19.25986],[-97.95825,19.25669],[-97.96773,19.24759],[-97.98482,19.24297],[-97.97711,19.23893],[-97.96046,19.23796],[-97.95723,19.24045],[-97.93428,19.23882],[-97.92635,19.24075],[-97.91322,19.22785],[-97.90188,19.22871],[-97.89787,19.23809],[-97.87781,19.24155],[-97.86514,19.25395],[-97.85405,19.25733],[-97.87029,19.27059]]]}}