{"type":"Feature","properties":{"id":"MEX.8.50","name":"Bacoachi","level":2,"country":"MEX"},"geometry":{"type":"Polygon","coordinates":[[[-109.7563,30.54011],[-109.77335,30.553],[-109.77429,30.57976],[-109.86641,30.61115],[-109.85731,30.62871],[-109.83225,30.62556],[-109.78732,30.63438],[-109.81077,30.66312],[-109.81426,30.69052],[-109.84017,30.70794],[-109.83779,30.71652],[-109.83835,30.74832],[-109.86501,30.76649],[-109.86546,30.81929],[-109.88242,30.84442],[-109.90665,30.84414],[-109.96771,30.86843],[-109.97054,30.89888],[-109.97813,30.89467],[-110.13458,30.80115],[-110.1317,30.76929],[-110.15345,30.76833],[-110.16506,30.76506],[-110.1756,30.73517],[-110.19044,30.73475],[-110.19077,30.72559],[-110.2439,30.71552],[-110.21487,30.68208],[-110.19361,30.65166],[-110.13601,30.5932],[-110.12101,30.57501],[-110.09205,30.5727],[-110.09102,30.54706],[-110.07555,30.53061],[-110.04977,30.52522],[-110.03991,30.51468],[-110.03212,30.50001],[-110.02721,30.52084],[-109.99961,30.51602],[-109.96527,30.51242],[-109.95797,30.51709],[-109.87037,30.51632],[-109.86441,30.46212],[-109.85369,30.46943],[-109.7402,30.46795],[-109.74591,30.50001],[-109.7563,30.54011]]]}}