{"type":"Feature","properties":{"id":"MEX.19.53","name":"San Miguel Tilquiápam","level":2,"country":"MEX"},"geometry":{"type":"Polygon","coordinates":[[[-96.59704,16.74395],[-96.58358,16.73436],[-96.57622,16.74093],[-96.55736,16.73684],[-96.55212,16.7291],[-96.54198,16.72639],[-96.52571,16.73664],[-96.51562,16.73742],[-96.51296,16.75601],[-96.52327,16.76218],[-96.55207,16.80628],[-96.56069,16.82645],[-96.55673,16.84473],[-96.58032,16.83993],[-96.59531,16.79134],[-96.60051,16.77948],[-96.60438,16.77974],[-96.60744,16.76239],[-96.60273,16.74905],[-96.59704,16.74395]]]}}