{"type":"Feature","properties":{"id":"MEX.33.35","name":"Peto","level":2,"country":"MEX"},"geometry":{"type":"Polygon","coordinates":[[[-88.69061,20.08986],[-88.69009,20.10493],[-88.67472,20.10463],[-88.67456,20.12689],[-88.64572,20.12108],[-88.64347,20.16768],[-88.64079,20.18389],[-88.6147,20.17982],[-88.61266,20.19701],[-88.63267,20.20246],[-88.64435,20.20718],[-88.66977,20.21089],[-88.66631,20.24916],[-88.70043,20.25223],[-88.69922,20.26684],[-88.7067,20.26745],[-88.71064,20.27318],[-88.73391,20.28412],[-88.75716,20.28867],[-88.75277,20.30789],[-88.75545,20.31087],[-88.77072,20.31074],[-88.7703,20.30096],[-88.77625,20.29213],[-88.78677,20.29219],[-88.79495,20.28749],[-88.79728,20.26737],[-88.79244,20.25399],[-88.79767,20.24474],[-88.7948,20.23444],[-88.80451,20.23561],[-88.80546,20.22982],[-88.82644,20.23152],[-88.82759,20.22367],[-88.81846,20.22394],[-88.81513,20.21633],[-88.82589,20.20873],[-88.83176,20.19366],[-88.89992,20.20115],[-88.89917,20.20834],[-88.91206,20.21015],[-88.91447,20.19243],[-88.90218,20.18964],[-88.90579,20.16301],[-88.92898,20.16276],[-88.96847,20.16691],[-88.99624,20.17021],[-88.99884,20.1467],[-88.9918,20.14616],[-88.99299,20.12472],[-88.98469,20.12377],[-88.98782,20.09445],[-88.97644,20.09047],[-88.97877,20.0775],[-88.97729,20.07188],[-88.96761,20.06763],[-88.96915,20.05406],[-88.97675,20.03785],[-88.99629,20.04082],[-88.99971,20.03274],[-88.96713,19.99058],[-88.94628,19.98707],[-88.94189,19.98094],[-88.94529,19.96897],[-88.9342,19.96544],[-88.93393,19.96091],[-88.91732,19.96018],[-88.9192,19.94277],[-88.90935,19.94184],[-88.91666,19.8831],[-88.91233,19.88206],[-88.91951,19.86688],[-88.92558,19.86903],[-88.93474,19.85787],[-88.94037,19.85982],[-88.9649,19.86293],[-88.95868,19.89026],[-88.98491,19.8934],[-88.99006,19.87558],[-88.99691,19.82032],[-88.9733,19.81868],[-88.97359,19.82395],[-88.95451,19.82289],[-88.95639,19.81682],[-88.95808,19.81047],[-88.94385,19.81344],[-88.94543,19.79195],[-88.92951,19.79095],[-88.92029,19.80397],[-88.9111,19.80094],[-88.90821,19.82066],[-88.90348,19.83105],[-88.89759,19.83686],[-88.90049,19.86111],[-88.87912,19.86239],[-88.88019,19.87812],[-88.83304,19.87823],[-88.82593,19.87993],[-88.82041,19.89047],[-88.82982,19.89855],[-88.82728,19.91092],[-88.8165,19.90447],[-88.81614,19.9155],[-88.80974,19.92599],[-88.81018,19.94495],[-88.80564,19.95383],[-88.79838,19.95252],[-88.79802,19.97493],[-88.79077,19.97202],[-88.79048,19.99213],[-88.78442,19.99524],[-88.7835,20.00818],[-88.77118,20.00767],[-88.77147,20.01346],[-88.74247,20.01509],[-88.70018,20.01036],[-88.69475,20.03004],[-88.6918,20.02921],[-88.68489,20.07741],[-88.6908,20.07703],[-88.69061,20.08986]]]}}