{"type":"Feature","properties":{"id":"MEX.19.36","name":"Magdalena Peñasco","level":2,"country":"MEX"},"geometry":{"type":"Polygon","coordinates":[[[-97.60989,17.25288],[-97.61261,17.22219],[-97.5787,17.17539],[-97.57752,17.18566],[-97.57382,17.19008],[-97.57256,17.19388],[-97.54572,17.20745],[-97.51274,17.23927],[-97.50239,17.23446],[-97.49171,17.23493],[-97.49018,17.2413],[-97.48986,17.2655],[-97.4958,17.27049],[-97.5011,17.26999],[-97.52137,17.29048],[-97.54025,17.29034],[-97.53849,17.29471],[-97.54463,17.29418],[-97.54421,17.28734],[-97.5502,17.27502],[-97.56144,17.26567],[-97.60989,17.25288]]]}}