{"type":"Feature","properties":{"id":"MEX.15.38","name":"Sayula","level":2,"country":"MEX"},"geometry":{"type":"Polygon","coordinates":[[[-103.66151,19.93595],[-103.66276,19.92759],[-103.65858,19.92259],[-103.6563,19.91196],[-103.66335,19.91028],[-103.66911,19.90227],[-103.66897,19.89106],[-103.67478,19.88598],[-103.68686,19.88937],[-103.69501,19.88655],[-103.69871,19.87816],[-103.68685,19.86529],[-103.6744,19.86669],[-103.67569,19.8563],[-103.66761,19.84819],[-103.65898,19.8497],[-103.63241,19.84417],[-103.63045,19.83838],[-103.63375,19.82818],[-103.64964,19.83172],[-103.65089,19.8197],[-103.64701,19.81456],[-103.65202,19.80326],[-103.6271,19.7902],[-103.62307,19.7782],[-103.60875,19.7729],[-103.58977,19.77247],[-103.58321,19.7653],[-103.57667,19.7743],[-103.56478,19.77237],[-103.55813,19.77633],[-103.54357,19.77426],[-103.55058,19.79398],[-103.56139,19.80535],[-103.56577,19.81876],[-103.55842,19.8249],[-103.55787,19.83703],[-103.54599,19.84072],[-103.54737,19.84617],[-103.54199,19.85448],[-103.54143,19.86395],[-103.5119,19.85413],[-103.51413,19.86236],[-103.5095,19.8764],[-103.50898,19.88519],[-103.50025,19.89223],[-103.49933,19.89751],[-103.50199,19.90083],[-103.49966,19.91129],[-103.5137,19.91285],[-103.51354,19.92516],[-103.52421,19.92643],[-103.52346,19.94902],[-103.54189,19.93743],[-103.55164,19.92806],[-103.56129,19.92539],[-103.57287,19.90883],[-103.56815,19.90386],[-103.57045,19.89545],[-103.57933,19.89289],[-103.58012,19.90574],[-103.59337,19.9109],[-103.59713,19.90899],[-103.60645,19.92879],[-103.61341,19.92973],[-103.60946,19.9086],[-103.62174,19.92116],[-103.64629,19.93104],[-103.64564,19.93456],[-103.66151,19.93595]]]}}