{"type":"Feature","properties":{"id":"MEX.30.170","name":"Santiago Sochiapan","level":2,"country":"MEX"},"geometry":{"type":"Polygon","coordinates":[[[-95.53008,17.57099],[-95.54904,17.56569],[-95.55388,17.56715],[-95.55409,17.58043],[-95.55866,17.58201],[-95.56668,17.59742],[-95.54295,17.61109],[-95.52532,17.61898],[-95.51119,17.62833],[-95.52018,17.64004],[-95.52335,17.64801],[-95.5342,17.63733],[-95.54812,17.63452],[-95.54648,17.64278],[-95.55125,17.65259],[-95.55948,17.64958],[-95.5657,17.65124],[-95.59182,17.63597],[-95.59674,17.65996],[-95.60352,17.68407],[-95.61204,17.68191],[-95.62641,17.68384],[-95.6258,17.69253],[-95.63684,17.6891],[-95.65126,17.69489],[-95.65966,17.71779],[-95.65517,17.71932],[-95.66066,17.73207],[-95.67463,17.72752],[-95.68295,17.74925],[-95.68656,17.75063],[-95.72015,17.72109],[-95.73533,17.71723],[-95.74904,17.72265],[-95.75215,17.69694],[-95.75812,17.69787],[-95.75981,17.68618],[-95.76658,17.68696],[-95.76864,17.6734],[-95.76681,17.66928],[-95.77364,17.6294],[-95.77337,17.62383],[-95.77366,17.60585],[-95.78038,17.61112],[-95.78905,17.61086],[-95.79618,17.60603],[-95.80349,17.6071],[-95.80876,17.59319],[-95.79562,17.58623],[-95.78943,17.59492],[-95.79109,17.60343],[-95.77148,17.5997],[-95.77156,17.58869],[-95.75886,17.58498],[-95.7449,17.58599],[-95.72956,17.57106],[-95.72199,17.54924],[-95.72175,17.53964],[-95.70879,17.5319],[-95.69971,17.52243],[-95.69104,17.52495],[-95.6893,17.53491],[-95.66494,17.53537],[-95.65967,17.53883],[-95.64847,17.53989],[-95.64449,17.54654],[-95.63715,17.54884],[-95.61997,17.541],[-95.60803,17.54499],[-95.59931,17.54367],[-95.59583,17.53779],[-95.5867,17.53489],[-95.57758,17.53899],[-95.57264,17.54864],[-95.568,17.55133],[-95.55943,17.54704],[-95.55555,17.55864],[-95.54612,17.55416],[-95.53967,17.56057],[-95.532,17.55583],[-95.52514,17.56167],[-95.53008,17.57099]]]}}