{"type":"Feature","properties":{"id":"MEX.16.89","name":"Marcos Castellanos","level":2,"country":"MEX"},"geometry":{"type":"Polygon","coordinates":[[[-103.05028,19.99658],[-103.04935,19.99067],[-103.03478,19.96791],[-103.02938,19.96744],[-103.01548,19.95975],[-103.01076,19.96703],[-102.99991,19.97513],[-102.99381,19.98389],[-102.97793,19.98719],[-102.95846,19.99538],[-102.95121,19.99656],[-102.94362,19.98413],[-102.93362,19.98611],[-102.92213,19.98216],[-102.90887,19.97073],[-102.90262,19.96686],[-102.88558,19.97023],[-102.88205,19.97577],[-102.88926,19.98603],[-102.88293,20.00352],[-102.86583,20.00431],[-102.8695,20.01782],[-102.88253,20.0313],[-102.87895,20.04748],[-102.88066,20.0625],[-102.8785,20.06841],[-102.88979,20.06859],[-102.89704,20.07224],[-102.92433,20.07021],[-102.93443,20.0788],[-102.93838,20.0755],[-102.94697,20.08142],[-102.95441,20.08276],[-102.94547,20.10537],[-102.94707,20.11789],[-102.94412,20.13083],[-102.95641,20.1411],[-102.96228,20.13862],[-102.96446,20.12714],[-102.97476,20.12531],[-102.99892,20.12619],[-103.00482,20.1382],[-103.03246,20.13645],[-103.03133,20.12675],[-103.04441,20.1236],[-103.04259,20.1152],[-103.0348,20.11639],[-103.03462,20.10388],[-103.04171,20.09064],[-103.03062,20.07812],[-103.03104,20.06592],[-103.02445,20.05237],[-103.02817,20.0447],[-103.02436,20.03356],[-103.03019,20.02951],[-103.04107,20.0133],[-103.04561,20.01129],[-103.04421,20.00016],[-103.05028,19.99658]]]}}