{"type":"Feature","properties":{"id":"MEX.27.56","name":"Atlautla","level":2,"country":"MEX"},"geometry":{"type":"Polygon","coordinates":[[[-98.78754,19.05676],[-98.77785,19.04774],[-98.78269,19.03785],[-98.79105,19.02747],[-98.79141,19.0226],[-98.77618,19.01409],[-98.77201,19.00844],[-98.78693,18.99656],[-98.793,18.99474],[-98.81129,18.9665],[-98.82495,18.95882],[-98.8242,18.95486],[-98.81685,18.94326],[-98.79945,18.94029],[-98.78849,18.96161],[-98.78876,18.96953],[-98.77636,18.97415],[-98.76885,18.98647],[-98.76794,18.99562],[-98.75569,18.98793],[-98.74363,18.9878],[-98.73621,18.99206],[-98.72093,18.98759],[-98.69108,18.99694],[-98.66626,19.0013],[-98.6522,19.00599],[-98.63295,19.01555],[-98.62752,19.0224],[-98.61987,19.03506],[-98.62979,19.0436],[-98.62697,19.04983],[-98.63123,19.05903],[-98.63023,19.06779],[-98.6393,19.07744],[-98.64719,19.08603],[-98.67955,19.08686],[-98.69004,19.0779],[-98.69847,19.07435],[-98.71079,19.07586],[-98.72285,19.08225],[-98.72908,19.07749],[-98.74211,19.07904],[-98.76129,19.07119],[-98.7642,19.07928],[-98.78313,19.0693],[-98.78754,19.05676]]]}}