{"type":"Feature","properties":{"id":"MRT.11.1","name":"Timbedgha","level":2,"country":"MRT"},"geometry":{"type":"Polygon","coordinates":[[[-7.8263,15.7899],[-7.8264,15.9908],[-7.8515,16.1624],[-7.8747,16.3554],[-7.8254,16.558],[-7.8988,16.6143],[-8.1159,16.843],[-8.2787,17.0284],[-8.4906,16.8112],[-8.6447,16.6502],[-8.7504,16.5359],[-8.6708,16.5096],[-8.644,16.4407],[-8.6456,16.4172],[-8.5807,16.303],[-8.5955,16.2701],[-8.5402,16.054],[-8.4411,15.8755],[-8.4155,15.6865],[-8.3524,15.5008],[-7.6596,15.5066],[-7.659,15.6413],[-7.8263,15.7899]]]}}