{"type":"Feature","properties":{"id":"CHN.31","name":"Heilongjiang","level":1,"country":"CHN"},"geometry":{"type":"Polygon","coordinates":[[[131.25285,43.46917],[131.16691,43.52107],[131.19202,43.58863],[131.17032,43.7811],[131.21734,43.90848],[131.21776,44.01607],[131.26447,44.05421],[131.06583,44.68203],[131.02139,44.74688],[130.97157,44.77561],[130.93343,44.84171],[131.00826,44.85628],[131.05157,44.90904],[131.11006,44.91953],[131.15802,44.90171],[131.259,44.92816],[131.32948,44.96764],[131.4195,44.95896],[131.60905,45.0897],[131.60523,45.16464],[131.62776,45.19848],[131.72315,45.21533],[131.81803,45.33279],[131.87074,45.32633],[131.9004,45.2729],[131.96965,45.23383],[132.83978,45.05916],[132.95336,45.02439],[133.02385,45.05834],[133.11542,45.12304],[133.1272,45.15538],[133.09754,45.24354],[133.14022,45.43542],[133.20213,45.51128],[133.41349,45.57334],[133.42765,45.61525],[133.4878,45.68667],[133.44305,45.70967],[133.48491,45.76847],[133.47726,45.8201],[133.51436,45.87927],[133.60304,45.89865],[133.65813,45.93451],[133.71931,46.07931],[133.68737,46.14184],[133.74101,46.15904],[133.79352,46.21429],[133.90245,46.25899],[133.86338,46.33929],[133.92602,46.37131],[133.92147,46.41014],[133.85439,46.44466],[133.84933,46.48029],[133.90245,46.57364],[133.98803,46.62517],[134.0148,46.66503],[134.04467,46.772],[134.02048,46.83404],[134.06275,46.90685],[134.06916,46.98124],[134.12425,47.07051],[134.19711,47.08516],[134.22729,47.11775],[134.18977,47.17294],[134.19721,47.20534],[134.15412,47.25789],[134.18357,47.3275],[134.24507,47.3551],[134.29281,47.40972],[134.41498,47.43922],[134.48464,47.43018],[134.5606,47.48181],[134.62427,47.54963],[134.68266,47.58785],[134.69289,47.6489],[134.77258,47.71073],[134.76979,47.74102],[134.69651,47.79507],[134.64577,47.8963],[134.59905,47.91069],[134.56691,47.9855],[134.56722,48.04038],[134.68297,48.13551],[134.70085,48.26153],[134.61135,48.28543],[134.54262,48.35731],[134.45312,48.34418],[134.38635,48.38134],[134.20621,48.35966],[134.05717,48.32718],[133.98245,48.28517],[133.87754,48.2753],[133.72127,48.24476],[133.68551,48.20207],[133.60552,48.17163],[133.55994,48.11329],[133.46372,48.08952],[133.32368,48.10011],[133.18518,48.12482],[133.09196,48.10678],[133.02468,48.05244],[132.94075,48.02671],[132.86479,47.98565],[132.82066,47.94237],[132.77487,47.93377],[132.67462,47.95061],[132.65881,47.86982],[132.57364,47.78223],[132.58036,47.74799],[132.52466,47.70753],[132.45324,47.71053],[132.33242,47.73652],[132.25077,47.72536],[132.16168,47.69001],[132.02536,47.69787],[131.89431,47.67001],[131.703,47.69616],[131.63065,47.66686],[131.57743,47.66856],[131.475,47.73448],[131.41837,47.74262],[131.21011,47.70921],[131.12918,47.68123],[131.02335,47.68228],[130.9418,47.71797],[130.9417,47.8206],[130.90698,47.88426],[130.85737,47.92777],[130.68239,48.05035],[130.66337,48.11644],[130.75277,48.18962],[130.77386,48.24419],[130.81944,48.28189],[130.82212,48.33377],[130.77964,48.35638],[130.7383,48.42981],[130.75959,48.46792],[130.71588,48.49906],[130.63929,48.47725],[130.60767,48.57673],[130.5408,48.59835],[130.53325,48.63579],[130.67433,48.87082],[130.56488,48.85588],[130.48664,48.86369],[130.46535,48.89133],[130.3868,48.89629],[130.24934,48.86451],[130.2018,48.8826],[129.91344,49.03954],[129.92068,49.08186],[129.84151,49.1092],[129.82466,49.17416],[129.75563,49.18429],[129.71118,49.27415],[129.57176,49.27984],[129.539,49.30371],[129.52773,49.38484],[129.50241,49.41078],[129.4034,49.43068],[129.37146,49.41058],[129.36206,49.34981],[129.31607,49.34412],[129.24558,49.38593],[129.1939,49.3897],[129.13602,49.35415],[129.05055,49.37668],[129.01459,49.43109],[128.87919,49.47972],[128.78659,49.46546],[128.75021,49.48453],[128.79951,49.53186],[128.79692,49.57248],[128.66618,49.60948],[128.62867,49.57532],[128.55125,49.58845],[128.38351,49.57935],[128.34476,49.54799],[128.26786,49.55879],[128.1983,49.53899],[128.09247,49.54158],[127.9916,49.59873],[127.90731,49.58023],[127.83088,49.59387],[127.722,49.6486],[127.67999,49.73919],[127.64428,49.76714],[127.53865,49.78993],[127.50811,49.82234],[127.534,49.92248],[127.49442,49.97318],[127.48667,50.02563],[127.57018,50.13022],[127.57839,50.22055],[127.40481,50.27595],[127.33066,50.3282],[127.35851,50.41512],[127.28895,50.46602],[127.36481,50.55475],[127.34399,50.62776],[127.29495,50.66642],[127.28735,50.75101],[127.22074,50.78817],[127.14426,50.90351],[127.03233,50.97245],[126.93177,51.06378],[126.90541,51.16427],[126.91632,51.23277],[126.98117,51.30886],[126.95461,51.32958],[126.82371,51.26555],[126.81415,51.32493],[126.89751,51.36196],[126.90195,51.401],[126.8003,51.41896],[126.80743,51.53422],[126.70057,51.56272],[126.67514,51.58838],[126.72372,51.63589],[126.71359,51.72318],[126.64791,51.74126],[126.44606,51.98254],[126.44735,52.01879],[126.51443,52.04254],[126.55598,52.13064],[126.53117,52.15266],[126.31671,52.19976],[126.31222,52.22795],[126.4212,52.2873],[126.31573,52.31621],[126.34369,52.39138],[126.27599,52.46329],[126.20034,52.46708],[126.21233,52.53305],[126.08277,52.59335],[126.00924,52.56839],[125.97317,52.63157],[126.05265,52.6725],[126.03513,52.72712],[126.10407,52.75446],[126.0667,52.78319],[125.97694,52.765],[125.86744,52.84936],[125.83736,52.90672],[125.66869,52.87796],[125.64709,52.90091],[125.72429,52.95276],[125.73355,52.98165],[125.65019,53.02338],[125.62136,53.06214],[125.52131,53.04242],[125.42809,53.09469],[125.12743,53.20655],[125.01943,53.21073],[124.80135,53.15516],[124.72017,53.14882],[124.67867,53.19934],[124.52819,53.21035],[124.4082,53.23569],[124.34252,53.27249],[124.29343,53.35129],[124.23271,53.38165],[124.12181,53.35269],[124.01737,53.40703],[123.97055,53.45519],[123.8502,53.49498],[123.73217,53.50376],[123.63956,53.55125],[123.49477,53.56009],[123.48552,53.52599],[123.25256,53.56779],[123.1536,53.51312],[123.00255,53.50733],[122.85966,53.47395],[122.47121,53.46475],[122.4016,53.45095],[122.33784,53.49131],[122.1687,53.46914],[122.08162,53.42951],[121.88897,53.43059],[121.64103,53.38491],[121.51215,53.32982],[121.41328,53.31734],[121.45231,53.28817],[121.60718,53.24073],[121.65111,53.20414],[121.69281,53.12727],[121.76542,53.09495],[121.80019,53.02359],[121.69152,52.90835],[121.50274,52.77469],[121.17393,52.59498],[121.19718,52.5646],[121.32555,52.53199],[121.49091,52.44468],[121.69235,52.38853],[121.83125,52.26937],[121.91114,52.25831],[122.01791,52.28311],[122.09728,52.36171],[122.17366,52.47964],[122.20766,52.49018],[122.33861,52.4537],[122.39887,52.38109],[122.45395,52.34905],[122.49178,52.29484],[122.56981,52.2658],[122.73073,52.2489],[122.77512,52.20002],[122.72484,52.15664],[122.64495,52.13594],[122.63766,52.09496],[122.75419,51.84748],[122.76132,51.80247],[122.7067,51.734],[122.71445,51.70168],[122.83553,51.56776],[122.83894,51.51055],[122.88437,51.44813],[122.95625,51.38606],[123.08813,51.31248],[123.17887,51.31635],[123.27168,51.26669],[123.43834,51.2731],[123.50257,51.25977],[123.56965,51.2039],[123.66241,51.19967],[123.78876,51.23282],[123.80829,51.29062],[123.86627,51.31343],[124.0044,51.30173],[124.16207,51.32837],[124.28433,51.28333],[124.35079,51.27863],[124.43812,51.31036],[124.50189,51.36059],[124.66622,51.33527],[124.76255,51.36573],[124.82063,51.36586],[124.87665,51.41965],[124.94026,51.44521],[124.95452,51.48921],[125.06062,51.53437],[125.06826,51.59437],[125.12754,51.61574],[125.33331,51.58274],[125.48664,51.5074],[125.57691,51.38932],[125.64797,51.34322],[125.71949,51.25372],[125.84341,51.20623],[125.8707,51.14476],[125.98438,51.10422],[126.05627,50.98027],[126.00102,50.90175],[125.9464,50.8878],[125.91224,50.83628],[125.82403,50.7668],[125.75401,50.75434],[125.80858,50.69598],[125.80941,50.56224],[125.64668,50.45268],[125.58668,50.44106],[125.53077,50.39305],[125.50632,50.31414],[125.46436,50.29251],[125.45367,50.23197],[125.41842,50.19461],[125.34308,50.16469],[125.26443,50.10573],[125.25171,50.04304],[125.29523,50.01447],[125.18846,49.94186],[125.22577,49.91827],[125.23476,49.84797],[125.18288,49.81122],[125.22329,49.78699],[125.21957,49.66813],[125.13064,49.63656],[125.2357,49.55439],[125.21854,49.51972],[125.26737,49.43848],[125.24004,49.39006],[125.25368,49.34288],[125.22247,49.28547],[125.22288,49.22005],[125.15813,49.15111],[125.06253,49.13685],[125.03116,49.16413],[124.86393,49.1754],[124.82228,49.11571],[124.82156,49.06088],[124.78642,49.01486],[124.69816,48.84945],[124.62183,48.74199],[124.61625,48.66757],[124.53806,48.57169],[124.54411,48.46681],[124.5207,48.36904],[124.55946,48.31488],[124.56225,48.23618],[124.52814,48.19094],[124.52049,48.12869],[124.42556,48.17437],[124.39265,48.26367],[124.32717,48.33219],[124.30077,48.49187],[124.23405,48.53084],[124.07794,48.44831],[123.72695,48.19106],[123.57755,48.05433],[123.48738,48.00756],[123.29328,47.94565],[123.20683,47.81383],[123.09541,47.75494],[122.79734,47.64355],[122.72298,47.59779],[122.56537,47.53116],[122.49473,47.41023],[122.40522,47.33169],[122.50077,47.23748],[122.57405,47.13113],[122.65032,47.0863],[122.79734,47.03372],[122.99625,46.84029],[123.07262,46.79583],[123.18683,46.76164],[123.26703,46.8173],[123.33049,46.83265],[123.37999,46.89807],[123.46846,46.87466],[123.48939,46.8173],[123.61331,46.8411],[123.60871,46.77464],[123.53611,46.69198],[123.39725,46.59783],[123.29152,46.58636],[123.09417,46.62196],[123.01971,46.61235],[122.98891,46.40657],[123.03412,46.34658],[123.16166,46.22007],[123.25835,46.26508],[123.35612,46.23516],[123.76173,46.25992],[123.86601,46.29113],[123.91939,46.27234],[124.00109,46.11241],[124.03406,46.01848],[123.97944,45.97812],[123.99784,45.91472],[124.06197,45.87167],[124.01784,45.78173],[124.05515,45.73173],[124.1031,45.70969],[124.14103,45.6322],[124.22356,45.63551],[124.28418,45.54552],[124.33229,45.54727],[124.39559,45.45149],[124.45579,45.46358],[124.50292,45.42325],[124.56307,45.41526],[124.61186,45.44792],[124.87246,45.4486],[124.89789,45.5273],[124.95122,45.49495],[125.02775,45.49836],[125.04377,45.45154],[125.10351,45.39532],[125.30742,45.41697],[125.37481,45.39847],[125.43248,45.47725],[125.52121,45.47102],[125.60379,45.50456],[125.69872,45.51092],[125.71365,45.41444],[125.70492,45.35971],[125.73003,45.31765],[125.84072,45.23481],[126.15047,45.14117],[126.24292,45.15611],[126.42105,45.22845],[126.55934,45.24675],[126.78899,45.14934],[126.9527,45.1342],[126.98918,45.05542],[127.07662,44.934],[127.06985,44.90072],[126.99879,44.86357],[126.97828,44.8261],[127.03228,44.73055],[127.04499,44.59823],[127.08902,44.58973],[127.14726,44.65469],[127.19459,44.65516],[127.23309,44.61596],[127.3752,44.64883],[127.55927,44.57379],[127.58082,44.54271],[127.51302,44.51827],[127.51721,44.46176],[127.49282,44.41091],[127.61762,44.27223],[127.60981,44.22009],[127.71472,44.16149],[127.74438,44.08563],[127.84959,44.05592],[128.00473,44.09597],[128.05206,44.12578],[128.04297,44.34071],[128.15526,44.353],[128.20693,44.44049],[128.35871,44.50168],[128.41876,44.4501],[128.45069,44.31554],[128.43674,44.21932],[128.44594,44.15395],[128.52878,44.0801],[128.55358,44.01478],[128.63151,43.91218],[128.69404,43.86895],[128.74742,43.80219],[128.76447,43.70906],[128.81816,43.65871],[128.88286,43.55615],[129.0149,43.53967],[129.22894,43.6084],[129.21571,43.73826],[129.24925,43.78617],[129.36221,43.81076],[129.4173,43.83952],[129.53492,43.87032],[129.75242,43.87417],[129.79283,43.90053],[129.80213,43.96548],[129.91293,44.0216],[130.00011,43.98357],[130.03318,43.85562],[130.10362,43.84544],[130.168,43.91001],[130.28019,43.96445],[130.31094,44.03204],[130.34489,44.03372],[130.3328,43.92781],[130.35869,43.8766],[130.37171,43.79722],[130.41336,43.74878],[130.41409,43.66917],[130.5887,43.62773],[130.79784,43.51145],[130.83721,43.44924],[130.91659,43.45048],[130.99462,43.50773],[131.04134,43.50032],[131.10366,43.44288],[131.14949,43.43611],[131.25285,43.46917]]]}}