{"type":"Feature","properties":{"id":"CHN.18","name":"Sichuan","level":1,"country":"CHN"},"geometry":{"type":"Polygon","coordinates":[[[108.51837,32.19757],[108.47941,32.25028],[108.36758,32.2655],[108.29135,32.25118],[108.23673,32.26266],[108.18769,32.23535],[108.05178,32.22661],[108.01592,32.20331],[108.00305,32.1499],[107.96006,32.15835],[107.84353,32.22816],[107.77294,32.31072],[107.6592,32.38862],[107.54716,32.39234],[107.45962,32.40864],[107.44831,32.52223],[107.37053,32.51982],[107.28413,32.45293],[107.20217,32.45277],[107.06998,32.52293],[107.09298,32.5955],[107.09623,32.66925],[107.06533,32.70831],[107.01086,32.71955],[106.93454,32.71273],[106.81336,32.72084],[106.71259,32.73782],[106.60396,32.67553],[106.5187,32.66984],[106.44682,32.64659],[106.36398,32.63868],[106.28186,32.59545],[106.22895,32.59196],[106.1149,32.64883],[106.0565,32.71356],[106.0609,32.7712],[106.10281,32.8482],[106.08234,32.87352],[105.87548,32.84471],[105.81342,32.76211],[105.72448,32.75978],[105.63327,32.70746],[105.56827,32.73046],[105.55132,32.80588],[105.49855,32.9074],[105.43091,32.91148],[105.38523,32.87422],[105.38636,32.82337],[105.43525,32.77356],[105.38652,32.72278],[105.26999,32.6417],[105.21304,32.66336],[105.14679,32.60835],[105.08829,32.59997],[105.03181,32.63868],[104.89833,32.61183],[104.84097,32.63982],[104.64543,32.65788],[104.5584,32.68834],[104.48399,32.73904],[104.4057,32.80937],[104.34188,32.82019],[104.28886,32.84789],[104.27646,32.88231],[104.32126,32.95272],[104.37759,32.95876],[104.41423,33.02274],[104.40586,33.06328],[104.32824,33.14036],[104.29661,33.19343],[104.28059,33.27205],[104.30777,33.30283],[104.38291,33.32649],[104.29289,33.36357],[104.22705,33.42271],[104.17466,33.49015],[104.17445,33.56165],[104.15631,33.62402],[104.09301,33.66854],[103.91514,33.68329],[103.80362,33.67123],[103.74512,33.67603],[103.65944,33.71053],[103.55299,33.70123],[103.52276,33.71412],[103.55862,33.80688],[103.51842,33.81075],[103.4363,33.76972],[103.35067,33.75569],[103.27197,33.76517],[103.18417,33.8221],[103.19316,33.88377],[103.15188,33.92201],[103.14211,33.96155],[103.15239,34.10851],[103.12009,34.16861],[103.00057,34.21398],[102.9306,34.29558],[102.78182,34.27419],[102.70828,34.21419],[102.5978,34.16546],[102.5748,34.13952],[102.63594,34.11027],[102.61764,34.0835],[102.47719,34.07417],[102.4406,34.05973],[102.40613,33.9987],[102.37197,33.97596],[102.31937,33.98736],[102.20258,33.96051],[102.17121,33.94175],[102.25756,33.83812],[102.24738,33.79768],[102.29952,33.78083],[102.34314,33.72518],[102.32485,33.65342],[102.35601,33.6094],[102.40288,33.59407],[102.48184,33.54015],[102.45455,33.51284],[102.48184,33.46504],[102.38629,33.4098],[102.27875,33.37776],[102.22893,33.3237],[102.16997,33.31388],[102.13096,33.28466],[102.09938,33.22224],[102.00424,33.2188],[101.86369,33.12263],[101.85588,33.18402],[101.82565,33.23485],[101.83216,33.26921],[101.88911,33.32866],[101.92322,33.40639],[101.92218,33.44426],[101.88601,33.49749],[101.88399,33.54633],[101.81805,33.59942],[101.78793,33.59322],[101.77754,33.53005],[101.76607,33.47121],[101.69109,33.42029],[101.66876,33.38285],[101.66514,33.3204],[101.72695,33.26779],[101.64365,33.12777],[101.60975,33.11751],[101.52458,33.19591],[101.44516,33.23585],[101.40154,33.225],[101.3865,33.1833],[101.33793,33.20195],[101.22,33.17061],[101.16414,33.12808],[101.12487,33.00178],[101.13143,32.93835],[101.23194,32.85771],[101.23659,32.80751],[101.17081,32.68834],[101.1121,32.66777],[101.04947,32.6756],[100.98369,32.63868],[100.90219,32.63046],[100.83486,32.66346],[100.69709,32.68573],[100.64293,32.5945],[100.63503,32.52618],[100.60304,32.45122],[100.53121,32.4034],[100.46863,32.45525],[100.47302,32.48528],[100.56092,32.56334],[100.50868,32.62835],[100.4985,32.66909],[100.39943,32.75839],[100.36114,32.73991],[100.255,32.72581],[100.22317,32.6369],[100.14203,32.64759],[100.11904,32.67087],[100.14901,32.72242],[100.15862,32.78226],[100.13661,32.8475],[100.08369,32.88544],[100.0469,32.93548],[99.95083,32.94414],[99.86024,33.02765],[99.84097,32.95701],[99.76929,32.92176],[99.76262,32.84699],[99.72893,32.75767],[99.69855,32.74462],[99.50941,32.83544],[99.39686,32.85278],[99.36322,32.87722],[99.28937,32.88714],[99.22529,32.99892],[99.10065,33.07245],[98.90686,33.13935],[98.85209,33.17488],[98.77292,33.30272],[98.7785,33.35026],[98.73571,33.48977],[98.68853,33.53113],[98.66336,33.58981],[98.63329,33.60772],[98.64585,33.67616],[98.5796,33.74269],[98.45795,33.84011],[98.38472,33.86357],[98.30168,33.84584],[98.27021,33.8586],[98.25124,33.91705],[98.21181,33.93945],[98.03493,33.95979],[97.81907,33.86419],[97.74507,33.86486],[97.73825,33.94643],[97.69567,34.00524],[97.6318,33.98782],[97.61025,33.93088],[97.44995,33.88204],[97.38355,33.86987],[97.36484,33.82579],[97.39471,33.73668],[97.39052,33.61139],[97.47739,33.56224],[97.49289,33.49894],[97.5393,33.45372],[97.62157,33.44556],[97.7243,33.40613],[97.6841,33.34799],[97.61568,33.32838],[97.57516,33.26402],[97.50054,33.19436],[97.47646,33.1203],[97.50426,33.04561],[97.46871,32.98254],[97.40029,32.9577],[97.36096,32.89704],[97.38417,32.77919],[97.43067,32.70033],[97.57423,32.62137],[97.66373,32.5599],[97.71572,32.54419],[98.01415,32.46451],[98.08056,32.40469],[98.12309,32.4003],[98.20577,32.35565],[98.22019,32.25219],[98.30959,32.12871],[98.3747,32.08042],[98.39351,32.04014],[98.45299,31.9841],[98.44498,31.908],[98.42085,31.87818],[98.4455,31.80362],[98.55872,31.67711],[98.59215,31.59882],[98.84103,31.39684],[98.88495,31.35408],[98.80304,31.25789],[98.7678,31.23037],[98.68269,31.31592],[98.63794,31.30928],[98.61138,31.25618],[98.62027,31.18794],[98.69313,31.12474],[98.72134,31.06642],[98.80304,30.99098],[98.77509,30.90222],[98.89859,30.77872],[98.9543,30.74787],[98.95327,30.70823],[98.90536,30.66381],[98.93182,30.57956],[98.93275,30.4907],[98.96071,30.45998],[98.98675,30.14436],[99.03409,30.05532],[99.03678,29.97561],[99.05631,29.91533],[99.00546,29.82009],[98.98675,29.6509],[99.042,29.56246],[99.059,29.41805],[99.04882,29.38774],[99.06251,29.30829],[99.10881,29.22377],[99.10406,29.09228],[99.12106,28.96467],[99.09925,28.85604],[99.12458,28.74967],[99.1177,28.70871],[99.16948,28.60249],[99.17837,28.48224],[99.16256,28.43816],[99.22695,28.33941],[99.27366,28.30732],[99.27475,28.27732],[99.38151,28.18453],[99.41644,28.25476],[99.38864,28.33432],[99.39624,28.46707],[99.37112,28.50077],[99.39314,28.54278],[99.5029,28.57937],[99.53437,28.68081],[99.59907,28.75732],[99.62868,28.81462],[99.70475,28.84465],[99.72428,28.81897],[99.73234,28.74502],[99.82841,28.67257],[99.84562,28.60381],[99.93388,28.56937],[100.00096,28.4562],[100.06834,28.384],[100.14307,28.34158],[100.16203,28.23626],[100.0469,28.18709],[100.02917,28.1449],[100.05883,28.06614],[100.0947,28.01896],[100.15955,27.96439],[100.20208,27.89879],[100.29593,27.85262],[100.30326,27.78048],[100.34915,27.74673],[100.40951,27.829],[100.46429,27.84724],[100.5326,27.81626],[100.57167,27.83626],[100.62541,27.89726],[100.66092,27.8751],[100.87212,27.56199],[100.86695,27.49465],[100.94085,27.43473],[100.99175,27.33081],[101.00384,27.19751],[101.03717,27.17829],[101.08079,27.20121],[101.17282,27.19105],[101.14146,27.04486],[101.1612,27.01678],[101.34242,26.87105],[101.37069,26.77465],[101.40945,26.72945],[101.44996,26.77364],[101.50288,26.76643],[101.49466,26.70558],[101.41245,26.56967],[101.4512,26.53063],[101.54417,26.49497],[101.58959,26.44221],[101.64365,26.34948],[101.57998,26.30692],[101.57254,26.24421],[101.59492,26.20869],[101.67662,26.2277],[101.76374,26.17634],[101.77568,26.10652],[101.84953,26.03485],[101.92156,26.09887],[102.11256,26.08443],[102.14568,26.13215],[102.22242,26.18685],[102.25209,26.22886],[102.35833,26.26258],[102.40055,26.31181],[102.50292,26.33767],[102.56814,26.37865],[102.62648,26.34514],[102.60994,26.26021],[102.66782,26.22587],[102.72027,26.23762],[102.76699,26.29341],[102.84554,26.32721],[102.8782,26.36506],[102.95142,26.34514],[103.00325,26.40035],[102.99581,26.48541],[103.03395,26.50216],[103.05793,26.55724],[103.03054,26.60179],[103.03126,26.64396],[102.9753,26.83113],[102.90135,26.92474],[102.89959,27.00306],[102.8782,27.03197],[102.91385,27.1123],[102.88946,27.29149],[102.95483,27.42078],[102.97742,27.3889],[103.12077,27.41226],[103.14722,27.43442],[103.16045,27.49719],[103.21812,27.56687],[103.28505,27.58085],[103.28613,27.63371],[103.41475,27.74291],[103.50855,27.86453],[103.51423,27.97145],[103.48922,28.03775],[103.43465,28.06816],[103.45904,28.13477],[103.53841,28.18451],[103.5718,28.24319],[103.66626,28.26329],[103.70895,28.21588],[103.7892,28.25556],[103.88031,28.32574],[103.85979,28.40085],[103.79525,28.53118],[103.83669,28.60492],[103.90883,28.6336],[103.9526,28.61497],[104.05678,28.63048],[104.09218,28.61272],[104.14019,28.63342],[104.29274,28.63226],[104.35253,28.64575],[104.41423,28.64011],[104.43996,28.60536],[104.37154,28.56518],[104.33496,28.56952],[104.25005,28.53079],[104.2685,28.3338],[104.29413,28.31049],[104.3765,28.28231],[104.41733,28.23931],[104.40534,28.19766],[104.44461,28.09989],[104.42787,28.07534],[104.33382,28.04674],[104.32844,28.02307],[104.37537,27.96168],[104.48249,27.89099],[104.60476,27.84585],[104.70237,27.88295],[104.78599,27.87448],[104.8974,27.90111],[104.95828,27.95654],[104.96618,28.0478],[105.01739,28.08524],[105.05574,28.08813],[105.17191,28.06167],[105.20327,28.00155],[105.28239,28.00075],[105.26875,27.91843],[105.22813,27.85579],[105.27697,27.7874],[105.29696,27.72175],[105.36078,27.76001],[105.4798,27.78389],[105.5245,27.77464],[105.64692,27.67813],[105.71193,27.69149],[105.73973,27.71573],[105.84308,27.71937],[105.87595,27.74521],[106.03919,27.75681],[106.10358,27.78807],[106.20678,27.76735],[106.2476,27.77523],[106.34538,27.83494],[106.31478,27.91579],[106.29897,28.00044],[106.21525,28.05609],[106.19934,28.12425],[106.10942,28.17472],[106.00896,28.14025],[105.90623,28.15058],[105.87564,28.17422],[105.8806,28.23569],[105.8468,28.26915],[105.74779,28.30569],[105.66723,28.3183],[105.65575,28.44111],[105.62056,28.48242],[105.66366,28.53363],[105.68319,28.58345],[105.73012,28.60366],[105.77321,28.58885],[105.89191,28.60931],[105.9315,28.70647],[105.98442,28.75354],[106.07831,28.66926],[106.15371,28.6236],[106.1888,28.58461],[106.26869,28.55663],[106.33866,28.48012],[106.37214,28.52278],[106.38243,28.57249],[106.29804,28.67244],[106.25737,28.79385],[106.26032,28.86932],[106.17929,28.91568],[106.12513,28.91609],[106.00844,28.9734],[105.87796,28.92004],[105.79512,28.93653],[105.74531,28.99477],[105.72402,29.11766],[105.73384,29.15409],[105.70061,29.2237],[105.70805,29.29095],[105.64459,29.26966],[105.58873,29.2887],[105.50584,29.29147],[105.42238,29.33356],[105.40517,29.42996],[105.31484,29.4696],[105.29262,29.51047],[105.29107,29.58478],[105.32415,29.62827],[105.41169,29.70317],[105.4461,29.69615],[105.49452,29.73175],[105.55147,29.74762],[105.55752,29.80392],[105.65234,29.85702],[105.70996,29.86751],[105.71301,29.95683],[105.74996,30.0113],[105.7389,30.03264],[105.55721,30.14759],[105.57044,30.18898],[105.64831,30.21392],[105.628,30.25655],[105.65374,30.28146],[105.70867,30.2741],[105.72826,30.3296],[105.79171,30.42336],[105.85342,30.42987],[105.90499,30.39737],[105.99883,30.38512],[106.12472,30.34233],[106.16425,30.31603],[106.19066,30.26373],[106.23903,30.22025],[106.30486,30.26288],[106.38491,30.26358],[106.44868,30.32389],[106.50175,30.31265],[106.53234,30.33766],[106.61781,30.2687],[106.63972,30.19738],[106.71729,30.05928],[106.77036,30.03657],[106.95934,30.06403],[107.03293,30.05786],[107.12926,30.14095],[107.19463,30.21847],[107.22873,30.23816],[107.26708,30.32588],[107.37213,30.49987],[107.41652,30.52674],[107.47761,30.6095],[107.48835,30.65779],[107.45559,30.70973],[107.45668,30.76086],[107.50758,30.822],[107.55894,30.84295],[107.62085,30.83737],[107.7363,30.88318],[107.76906,30.82742],[107.81154,30.79802],[107.84988,30.80962],[107.92952,30.87266],[107.95153,30.92566],[107.93169,30.94878],[108.00677,31.03862],[108.04357,31.18572],[108.03313,31.22223],[108.14206,31.28396],[108.19405,31.33093],[108.19095,31.36581],[108.22309,31.4679],[108.32319,31.49937],[108.4068,31.56603],[108.44964,31.6529],[108.5162,31.70827],[108.5007,31.79083],[108.42266,31.85253],[108.28696,31.92216],[108.26779,31.97291],[108.34474,32.07355],[108.4192,32.10001],[108.36117,32.16718],[108.38897,32.18429],[108.51837,32.19757]]]}}