{"type":"Feature","properties":{"id":"CHN.11","name":"Xinjiang","level":1,"country":"CHN"},"geometry":{"type":"Polygon","coordinates":[[[96.36634,42.72292],[96.35064,42.74091],[96.3372,42.86648],[96.29431,42.93327],[95.90849,43.21455],[95.85496,43.28454],[95.83284,43.4089],[95.69248,43.63054],[95.58924,43.86949],[95.51027,43.97913],[95.32755,44.00667],[95.32145,44.14842],[95.37943,44.28712],[95.03681,44.25497],[94.90576,44.29425],[94.69823,44.3435],[94.58806,44.4361],[94.43013,44.50447],[94.33846,44.51212],[94.27748,44.58958],[94.19501,44.65433],[93.97507,44.65996],[93.87451,44.71422],[93.714,44.87458],[93.52528,44.95126],[93.42058,44.95509],[93.341,44.98485],[93.24416,44.98155],[93.16571,45.00764],[92.94506,45.00583],[92.86103,45.03787],[92.75272,45.03798],[92.63851,45.0156],[92.47511,44.99746],[92.39646,45.01312],[92.19368,45.01451],[92.10841,45.05818],[92.0094,45.07622],[91.91907,45.06557],[91.74699,45.07244],[91.66296,45.05953],[91.52178,45.07746],[91.45605,45.13745],[91.36655,45.11425],[91.24914,45.1297],[91.18434,45.15383],[91.13504,45.19786],[91.0568,45.21755],[90.97515,45.21486],[90.90549,45.18598],[90.85764,45.21507],[90.85443,45.27062],[90.79656,45.29284],[90.79046,45.3377],[90.73796,45.44172],[90.65114,45.49314],[90.69661,45.73003],[90.71077,45.7522],[90.91924,45.95007],[91.00244,46.02184],[90.99592,46.11372],[90.94879,46.16829],[90.89619,46.30203],[90.93577,46.34387],[91.03561,46.52907],[91.0475,46.56641],[90.99592,46.59463],[91.01556,46.7032],[91.00481,46.74043],[90.92533,46.81314],[90.93278,46.87479],[90.88513,46.94473],[90.82818,46.9823],[90.7424,46.99186],[90.71212,47.0147],[90.46872,47.30892],[90.48722,47.37819],[90.44815,47.40403],[90.44123,47.49305],[90.38159,47.53839],[90.32744,47.62304],[90.3448,47.65864],[90.20972,47.69575],[90.08285,47.7561],[90.05216,47.8107],[90.04461,47.87977],[89.94669,47.88318],[89.88907,47.82432],[89.7513,47.82432],[89.72339,47.87816],[89.65528,47.89982],[89.57565,47.97604],[89.5418,48.03102],[89.4092,48.02312],[89.33427,48.03237],[89.24399,47.98023],[89.04555,47.99299],[88.93233,48.09696],[88.80541,48.10595],[88.70919,48.16636],[88.63581,48.17585],[88.58077,48.21199],[88.55876,48.28809],[88.56512,48.34299],[88.50269,48.39255],[88.4167,48.3941],[88.33211,48.45399],[88.23563,48.49319],[88.16597,48.49373],[88.05197,48.54319],[88.01662,48.5398],[87.94283,48.59949],[88.06385,48.68261],[88.03378,48.72912],[87.97549,48.75599],[87.90759,48.75883],[87.80589,48.80059],[87.79607,48.83976],[87.73788,48.86937],[87.7569,48.92037],[87.8726,48.96802],[87.87224,49.00409],[87.82191,49.02874],[87.83555,49.10073],[87.81632,49.16584],[87.71638,49.15886],[87.52528,49.11979],[87.47557,49.0876],[87.40043,49.07101],[87.11632,49.12977],[86.97545,49.09241],[86.88734,49.10682],[86.7275,48.99034],[86.71805,48.91252],[86.78946,48.83914],[86.73918,48.78354],[86.7445,48.70354],[86.6211,48.60316],[86.56508,48.52732],[86.43062,48.48588],[86.33383,48.4904],[86.19203,48.41823],[86.006,48.42955],[85.78368,48.40759],[85.71867,48.35883],[85.58638,48.14125],[85.56179,48.03066],[85.51538,47.92028],[85.59543,47.62407],[85.57998,47.52377],[85.60023,47.4632],[85.67036,47.38434],[85.67899,47.27489],[85.65966,47.20653],[85.55682,47.17875],[85.49864,47.05183],[85.43213,47.05312],[85.20511,47.03372],[85.16739,46.993],[85.03536,46.91497],[84.95939,46.89089],[84.91604,46.85055],[84.73961,46.81477],[84.74959,46.88246],[84.73166,46.94776],[84.66355,46.98385],[84.52102,46.9698],[84.4218,46.9931],[84.26584,47.00013],[84.15908,46.99326],[84.06963,46.96442],[83.90535,46.97396],[83.52449,47.0671],[83.35339,47.14498],[83.22198,47.1719],[83.15036,47.21154],[83.0469,47.21466],[83.01352,47.19459],[83.00546,47.06979],[82.98551,46.94251],[82.83895,46.73245],[82.74744,46.49334],[82.70785,46.43417],[82.67436,46.33113],[82.56827,46.19651],[82.54187,46.1315],[82.48895,45.9017],[82.44751,45.82542],[82.37221,45.73416],[82.29149,45.53319],[82.36265,45.4812],[82.51303,45.46575],[82.61571,45.43542],[82.63385,45.33935],[82.58522,45.17683],[82.53975,45.12366],[82.47582,45.1157],[82.42745,45.13725],[82.29459,45.2282],[82.19176,45.2222],[82.00045,45.15352],[81.95012,45.14448],[81.87534,45.18107],[81.80728,45.18872],[81.78145,45.26664],[81.73928,45.33806],[81.66523,45.34798],[81.54203,45.29331],[81.14417,45.20468],[81.06252,45.17223],[80.97602,45.16107],[80.85386,45.1265],[80.69712,45.14365],[80.53682,45.10107],[80.4251,45.09213],[80.36505,45.0432],[80.29053,45.04624],[80.21901,45.02604],[80.14759,45.03446],[80.06171,45.01896],[79.92466,44.93168],[79.85821,44.90372],[79.86864,44.84936],[79.99174,44.79365],[80.03938,44.7905],[80.21829,44.81809],[80.31451,44.78032],[80.47615,44.73541],[80.49196,44.70172],[80.37631,44.67128],[80.38375,44.60281],[80.33787,44.49403],[80.33291,44.41739],[80.37301,44.27022],[80.34603,44.15891],[80.3451,44.1031],[80.39233,44.06548],[80.41269,43.99323],[80.47615,43.91024],[80.71273,43.45887],[80.69423,43.39472],[80.64286,43.32622],[80.73546,43.28888],[80.78817,43.16825],[80.77339,43.11293],[80.71076,43.10479],[80.66002,43.13282],[80.57589,43.11941],[80.49786,43.07618],[80.36815,43.02846],[80.35513,43.00058],[80.40773,42.95469],[80.52194,42.92544],[80.52669,42.86839],[80.47615,42.8639],[80.31678,42.81561],[80.2649,42.82367],[80.22749,42.79098],[80.18893,42.70158],[80.14005,42.62296],[80.16237,42.55239],[80.21209,42.47875],[80.19472,42.4463],[80.2187,42.35494],[80.2495,42.30995],[80.26841,42.23797],[80.21033,42.18952],[80.22459,42.12557],[80.25653,42.08436],[80.23121,42.03369],[80.18191,42.02098],[79.93086,42.02328],[79.84291,42.00183],[79.81283,41.97762],[79.78327,41.90509],[79.74751,41.87975],[79.61099,41.86763],[79.411,41.77859],[79.30413,41.78755],[79.17453,41.72262],[79.08874,41.70255],[78.97619,41.6418],[78.89744,41.62627],[78.80731,41.57845],[78.67213,41.53845],[78.61921,41.47809],[78.51038,41.45442],[78.3599,41.37753],[78.33933,41.34404],[78.35969,41.28746],[78.25035,41.20054],[78.17603,41.1055],[78.07496,41.03951],[77.8667,41.06406],[77.79756,41.0547],[77.66557,41.00127],[77.47489,40.98205],[77.33298,41.02065],[77.24317,41.00566],[77.11884,41.01166],[77.00773,41.04421],[76.86097,41.01321],[76.76682,40.94469],[76.77085,40.86712],[76.74687,40.83446],[76.67421,40.79544],[76.6308,40.72889],[76.62419,40.62755],[76.55639,40.56569],[76.49893,40.46461],[76.44911,40.41552],[76.33015,40.34808],[76.29935,40.35568],[76.27341,40.43412],[76.24416,40.4412],[76.15135,40.36813],[76.07611,40.39195],[75.96242,40.35733],[75.92149,40.30912],[75.85855,40.29635],[75.75055,40.30834],[75.68182,40.2917],[75.64017,40.36731],[75.66694,40.45025],[75.61082,40.51288],[75.60565,40.56941],[75.55986,40.63287],[75.48183,40.61411],[75.19389,40.44125],[75.13808,40.46389],[75.03907,40.4411],[74.9661,40.45929],[74.87918,40.50507],[74.83536,40.51164],[74.7874,40.42074],[74.85386,40.35883],[74.83092,40.31992],[74.70576,40.33129],[74.5654,40.24695],[74.47662,40.17243],[74.36986,40.10582],[74.27229,40.09383],[74.1676,40.10639],[74.06952,40.06779],[74.00399,40.06081],[73.95789,40.02143],[73.94404,39.97007],[73.8932,39.91813],[73.88544,39.87653],[73.82302,39.80568],[73.82953,39.74698],[73.89351,39.71039],[73.92678,39.59288],[73.88307,39.5612],[73.82074,39.46819],[73.63264,39.44834],[73.64132,39.33528],[73.60226,39.23577],[73.6314,39.1751],[73.67378,39.14263],[73.69817,39.07842],[73.81599,38.99377],[73.80958,38.93266],[73.73992,38.92693],[73.68897,38.89109],[73.6837,38.85494],[73.73589,38.80042],[73.73641,38.72167],[73.77227,38.67462],[73.79739,38.60284],[73.93288,38.52967],[74.0289,38.52724],[74.05877,38.54703],[74.03727,38.59847],[74.0844,38.61403],[74.14042,38.66922],[74.24377,38.6502],[74.3342,38.667],[74.47662,38.61206],[74.64612,38.56111],[74.69645,38.52398],[74.77635,38.51067],[74.83288,38.46365],[74.83825,38.37942],[74.77107,38.29154],[74.77128,38.19627],[74.79071,38.08145],[74.80994,38.05321],[74.88042,38.02166],[74.89282,37.99401],[74.88321,37.84387],[74.96517,37.76746],[74.88611,37.65346],[74.89189,37.59921],[74.94522,37.54856],[75.03586,37.50639],[75.10397,37.44061],[75.16413,37.40064],[75.09178,37.37844],[75.06842,37.31214],[74.93292,37.27251],[74.91267,37.23899],[74.78327,37.21967],[74.72146,37.29778],[74.62328,37.2308],[74.59,37.24336],[74.48727,37.22595],[74.45667,37.17732],[74.38226,37.17205],[74.36614,37.14776],[74.4144,37.10784],[74.47662,37.08314],[74.54235,37.02167],[74.66245,37.05448],[74.71919,37.01645],[74.79257,37.01516],[74.892,36.92098],[74.9105,36.96255],[74.97685,36.98428],[75.10015,36.99412],[75.19513,36.94888],[75.3513,36.91578],[75.3945,36.86426],[75.41052,36.74732],[75.49258,36.72071],[75.50798,36.74763],[75.57051,36.76675],[75.64978,36.75404],[75.79055,36.68784],[75.87478,36.61947],[75.97658,36.46263],[75.98743,36.42119],[75.96883,36.30197],[76.01441,36.2304],[75.97007,36.20234],[75.97658,36.16275],[75.89431,36.09738],[75.92232,36.03165],[75.98433,35.99563],[76.06143,35.9916],[76.11466,35.94179],[76.13812,35.82665],[76.16603,35.80624],[76.26039,35.81782],[76.31196,35.80965],[76.40312,35.83099],[76.43206,35.8605],[76.56528,35.86546],[76.55112,35.78402],[76.57076,35.75126],[76.67669,35.71379],[76.76341,35.64708],[76.84299,35.64129],[76.89642,35.58961],[76.9358,35.57964],[77.03905,35.58501],[77.1053,35.53799],[77.17754,35.52316],[77.25082,35.5307],[77.41277,35.46941],[77.5122,35.47846],[77.66061,35.4581],[77.74743,35.49432],[77.80035,35.49541],[77.83425,35.45215],[77.88313,35.43107],[77.98587,35.49417],[78.04426,35.49163],[78.05563,35.45288],[78.00984,35.34746],[78.00116,35.26891],[78.0364,35.19424],[78.13004,35.05543],[78.14813,34.94314],[78.21138,34.84826],[78.27319,34.65887],[78.3353,34.59438],[78.37943,34.57867],[78.60733,34.54647],[78.66458,34.52642],[78.75068,34.47128],[78.80173,34.41501],[78.92214,34.3723],[78.95694,34.33996],[79.03769,34.38467],[79.2045,34.43945],[79.33839,34.43082],[79.43415,34.46172],[79.51265,34.47169],[79.60251,34.45867],[79.71734,34.41278],[79.79397,34.43103],[79.8627,34.52123],[79.91376,34.62551],[79.95629,34.68476],[79.95303,34.75783],[79.9167,34.79839],[79.88384,34.9196],[79.92632,34.95474],[80.00099,34.96841],[80.04693,35.01771],[80.01417,35.08592],[80.03664,35.11992],[80.15054,35.21945],[80.17617,35.25325],[80.26288,35.43567],[80.25963,35.51416],[80.31921,35.50925],[80.3881,35.45758],[80.48602,35.40425],[80.65609,35.3843],[80.76611,35.34342],[80.85846,35.34714],[80.97886,35.2934],[81.03689,35.31079],[81.06092,35.38856],[81.21022,35.31691],[81.35734,35.33239],[81.46178,35.31025],[81.54508,35.25178],[81.6042,35.23692],[81.71143,35.24565],[81.92433,35.29221],[82.00221,35.31945],[82.04365,35.36807],[82.08603,35.44799],[82.22225,35.50584],[82.28917,35.54496],[82.31893,35.63374],[82.42818,35.68976],[82.67178,35.65108],[82.71044,35.65018],[82.78459,35.68454],[82.88515,35.68885],[82.9359,35.67408],[82.97843,35.60077],[82.97176,35.49044],[83.09868,35.41277],[83.15671,35.40719],[83.24611,35.42125],[83.35267,35.39399],[83.45261,35.39355],[83.5648,35.36071],[83.61508,35.35901],[83.87067,35.37453],[83.98441,35.41603],[84.05113,35.41174],[84.13319,35.37753],[84.21468,35.38895],[84.56345,35.55948],[84.77765,35.60049],[84.84746,35.63354],[84.92363,35.68932],[85.14977,35.74981],[85.26025,35.7304],[85.38934,35.75671],[85.45203,35.74939],[85.52386,35.71627],[85.56189,35.65741],[85.61977,35.67539],[85.71687,35.75927],[85.76823,35.77257],[85.92993,35.76169],[85.99323,35.78484],[86.08744,35.87559],[86.13317,35.98535],[86.17854,36.02031],[86.21234,36.11594],[86.27239,36.14565],[86.39951,36.17004],[86.45941,36.21944],[86.58958,36.21655],[86.71386,36.23146],[86.78698,36.26027],[87.00082,36.27409],[87.06345,36.29215],[87.19383,36.30396],[87.3456,36.37406],[87.39449,36.37013],[87.50058,36.33654],[87.57091,36.3338],[87.76579,36.35974],[87.85209,36.36295],[87.92454,36.38256],[88.00009,36.42837],[88.14876,36.42842],[88.27676,36.44858],[88.45923,36.44889],[88.52238,36.41432],[88.71172,36.3684],[88.8281,36.37367],[88.88272,36.35019],[88.95827,36.28729],[89.11051,36.26226],[89.22363,36.26358],[89.67781,36.08196],[89.86679,36.0656],[89.91878,36.06979],[89.97201,36.10493],[90.01376,36.25278],[90.09805,36.20487],[90.16569,36.12924],[90.29245,36.11555],[90.62267,36.11113],[90.82937,36.01041],[90.915,36.01333],[91.00595,36.05294],[91.11132,36.07392],[91.13576,36.14064],[91.06104,36.31355],[91.00672,36.50348],[90.93691,36.53017],[90.80529,36.55852],[90.71046,36.63616],[90.68814,36.69848],[90.69,36.77626],[90.71238,36.8215],[90.80777,36.91056],[90.89112,36.93948],[90.96373,36.92963],[91.05499,36.94514],[91.19136,37.00146],[91.28759,37.0135],[91.32562,37.05298],[91.31632,37.11898],[91.23498,37.1954],[91.15168,37.32325],[91.1262,37.4186],[91.07375,37.48795],[90.95722,37.51942],[90.83449,37.60778],[90.67558,37.66979],[90.56897,37.73196],[90.43648,37.77857],[90.41007,37.84699],[90.45136,37.93675],[90.43927,37.99608],[90.19349,38.32567],[90.15091,38.4328],[90.20559,38.46928],[90.31245,38.46579],[90.47823,38.53251],[90.57936,38.60038],[90.636,38.62431],[90.65352,38.67407],[90.73501,38.6732],[90.89495,38.701],[91.01246,38.69867],[91.19881,38.74038],[91.29441,38.74513],[91.4916,38.81727],[91.62865,38.82567],[91.88063,38.87548],[91.97545,38.90677],[92.12273,38.94065],[92.24856,38.98904],[92.3331,39.04986],[92.39444,39.06759],[92.50457,39.07441],[92.81106,39.1264],[92.93596,39.15286],[92.94795,39.45248],[92.77241,39.81054],[92.77742,39.90552],[92.90744,40.07921],[92.91953,40.11807],[92.92588,40.42291],[92.94154,40.47257],[93.03683,40.48985],[93.28633,40.46926],[93.39774,40.51724],[93.50347,40.5476],[93.57747,40.58796],[93.66915,40.68336],[93.75994,40.82332],[94.01104,41.10403],[94.58093,41.58521],[95.05826,41.78856],[95.49198,41.85602],[95.77191,41.82972],[95.86395,41.85502],[95.952,41.9192],[96.03582,41.99529],[96.04099,42.04364],[96.01784,42.13872],[96.04378,42.49989],[96.09091,42.58691],[96.36634,42.72292]]]}}