{"type":"Feature","properties":{"id":"CHE.12.2","name":"Inn","level":2,"country":"CHE"},"geometry":{"type":"MultiPolygon","coordinates":[[[[10.22123,46.61866],[10.21842,46.62051],[10.22168,46.61768],[10.22123,46.61866]]],[[[10.10037,46.6146],[10.12895,46.61076],[10.13618,46.61556],[10.16483,46.62119],[10.18346,46.62884],[10.21678,46.62221],[10.2242,46.63276],[10.242,46.63052],[10.25876,46.61462],[10.2427,46.59619],[10.24724,46.57961],[10.26977,46.58212],[10.29554,46.56389],[10.29633,46.5557],[10.31253,46.55144],[10.32602,46.55581],[10.33961,46.54742],[10.35452,46.5605],[10.36607,46.55956],[10.39868,46.54921],[10.41756,46.55474],[10.45309,46.53558],[10.46195,46.54528],[10.47324,46.54712],[10.47935,46.56043],[10.47654,46.5689],[10.49086,46.59177],[10.48703,46.61998],[10.44894,46.64278],[10.41264,46.6377],[10.3946,46.66291],[10.39267,46.68084],[10.40629,46.70459],[10.41698,46.70684],[10.42074,46.71835],[10.40531,46.73145],[10.43189,46.74944],[10.44414,46.75296],[10.44369,46.772],[10.42631,46.78617],[10.43211,46.79568],[10.45131,46.80112],[10.45841,46.81384],[10.45937,46.82927],[10.4686,46.83528],[10.47426,46.84983],[10.473,46.8794],[10.46823,46.88533],[10.47723,46.89309],[10.48256,46.91031],[10.49118,46.91482],[10.4919,46.93781],[10.46085,46.95283],[10.43694,46.95669],[10.4273,46.96439],[10.43141,46.97723],[10.41571,46.98532],[10.39966,46.99891],[10.39085,47.00022],[10.3776,46.99237],[10.3506,46.98964],[10.33664,46.9725],[10.32763,46.95488],[10.31019,46.94917],[10.30791,46.94012],[10.31539,46.92686],[10.29505,46.92138],[10.26313,46.93105],[10.23872,46.93116],[10.23776,46.92022],[10.22533,46.896],[10.23247,46.88565],[10.22843,46.86759],[10.1935,46.86752],[10.17714,46.85463],[10.1562,46.84902],[10.1209,46.84838],[10.10436,46.84243],[10.09535,46.84945],[10.07934,46.83662],[10.05743,46.81385],[10.03025,46.81079],[10.01807,46.79745],[9.99818,46.79615],[9.98771,46.78464],[9.98661,46.7755],[9.96434,46.76717],[9.96209,46.75828],[9.93331,46.75216],[9.94253,46.73428],[9.94174,46.72789],[9.95858,46.71948],[9.95121,46.7085],[9.9534,46.69695],[9.96211,46.69158],[9.96229,46.68129],[9.99552,46.66691],[10.01774,46.65382],[10.03444,46.65105],[10.0619,46.63632],[10.06101,46.62951],[10.09169,46.62626],[10.10037,46.6146]]]]}}