{"type":"Feature","properties":{"id":"CHE.4.3","name":"Bremgarten","level":2,"country":"CHE"},"geometry":{"type":"Polygon","coordinates":[[[8.23281,47.40768],[8.2253,47.39756],[8.23482,47.36993],[8.22538,47.35476],[8.21552,47.34752],[8.22855,47.34115],[8.23609,47.33146],[8.22785,47.31812],[8.24299,47.3067],[8.2581,47.30129],[8.28757,47.31345],[8.28914,47.3266],[8.27427,47.33955],[8.2886,47.34058],[8.30372,47.34991],[8.32034,47.34859],[8.32075,47.34008],[8.33971,47.32537],[8.3644,47.33328],[8.38069,47.31904],[8.37757,47.30231],[8.39249,47.29501],[8.42084,47.29801],[8.43026,47.30537],[8.43483,47.31987],[8.44648,47.32442],[8.45368,47.33662],[8.43642,47.33074],[8.41875,47.3295],[8.41865,47.34121],[8.40523,47.35059],[8.40722,47.37211],[8.3997,47.3759],[8.38937,47.3823],[8.36744,47.38402],[8.3183,47.37959],[8.30438,47.38478],[8.30688,47.3974],[8.28483,47.41399],[8.23281,47.40768]]]}}