{"type":"Feature","properties":{"id":"HRV.17.9","name":"Općina Nova Bukovica","level":2,"country":"HRV"},"geometry":{"type":"Polygon","coordinates":[[[17.89454,45.66247],[17.87953,45.66785],[17.87472,45.67897],[17.85761,45.68169],[17.8451,45.68006],[17.84021,45.68752],[17.84058,45.69271],[17.83154,45.69403],[17.83449,45.70001],[17.8278,45.70687],[17.82914,45.72015],[17.82457,45.72178],[17.81321,45.71558],[17.79042,45.72153],[17.76761,45.706],[17.78378,45.69409],[17.77017,45.68574],[17.75268,45.68203],[17.7532,45.66702],[17.75137,45.6582],[17.74635,45.65209],[17.74629,45.63262],[17.74097,45.62851],[17.75526,45.62709],[17.77062,45.63277],[17.78455,45.62799],[17.79605,45.62173],[17.80844,45.62452],[17.806,45.63618],[17.81472,45.63472],[17.82146,45.64199],[17.82612,45.65512],[17.83137,45.64984],[17.82532,45.63337],[17.84643,45.63028],[17.84925,45.62787],[17.86252,45.63283],[17.86268,45.64003],[17.87911,45.64502],[17.88601,45.65336],[17.8923,45.65543],[17.89454,45.66247]]]}}