{"type":"Feature","properties":{"id":"HRV.8.17","name":"Općina Klana","level":2,"country":"HRV"},"geometry":{"type":"Polygon","coordinates":[[[14.47603,45.52114],[14.48841,45.53681],[14.47566,45.53377],[14.45762,45.52113],[14.44169,45.51646],[14.43514,45.50948],[14.42743,45.50693],[14.41552,45.50994],[14.40021,45.50077],[14.39434,45.49405],[14.387,45.49357],[14.37896,45.48805],[14.36086,45.48404],[14.35034,45.48555],[14.32277,45.47041],[14.33143,45.46169],[14.32599,45.457],[14.32244,45.44817],[14.32134,45.43572],[14.30925,45.43613],[14.30319,45.42565],[14.31928,45.41767],[14.31402,45.40978],[14.32264,45.39896],[14.32815,45.40018],[14.33962,45.3854],[14.34366,45.39073],[14.35334,45.3937],[14.35363,45.39901],[14.36951,45.40083],[14.37599,45.40994],[14.38346,45.41312],[14.38248,45.4215],[14.39597,45.41528],[14.41157,45.41454],[14.42071,45.4168],[14.42078,45.42958],[14.43706,45.43701],[14.42958,45.4478],[14.4323,45.45652],[14.4405,45.46573],[14.45938,45.47945],[14.46015,45.49985],[14.46505,45.49997],[14.46547,45.51576],[14.47603,45.52114]]]}}