{"type":"Feature","properties":{"id":"HRV.5.16","name":"Grad Krapina","level":2,"country":"HRV"},"geometry":{"type":"Polygon","coordinates":[[[15.93759,46.13697],[15.92814,46.13546],[15.92695,46.13189],[15.9176,46.12701],[15.91339,46.12167],[15.90525,46.12729],[15.90034,46.13866],[15.89108,46.14187],[15.88944,46.15019],[15.89193,46.16146],[15.89658,46.16934],[15.88767,46.17865],[15.89353,46.18693],[15.88421,46.19804],[15.8846,46.20437],[15.87516,46.2055],[15.86718,46.20324],[15.86357,46.19415],[15.84564,46.19132],[15.83468,46.18167],[15.83426,46.17999],[15.85233,46.16259],[15.85207,46.1532],[15.83469,46.1394],[15.81739,46.13111],[15.81982,46.12792],[15.86702,46.1032],[15.87615,46.11246],[15.88412,46.10776],[15.89094,46.11345],[15.90716,46.11707],[15.90708,46.10816],[15.92758,46.11244],[15.94149,46.11201],[15.94206,46.11208],[15.94706,46.11778],[15.94139,46.12098],[15.94994,46.12953],[15.94078,46.13227],[15.93759,46.13697]]]}}