{"type":"Feature","properties":{"id":"HRV.6.13","name":"Općina Saborsko","level":2,"country":"HRV"},"geometry":{"type":"Polygon","coordinates":[[[15.49858,45.01937],[15.47304,45.0335],[15.45725,45.03326],[15.45141,45.02889],[15.41736,45.02999],[15.41348,45.03179],[15.41334,45.04424],[15.40572,45.04933],[15.39619,45.05209],[15.38571,45.04861],[15.38135,45.04178],[15.36736,45.03987],[15.36008,45.04126],[15.35656,45.03706],[15.36465,45.0256],[15.37322,45.02026],[15.3669,45.01615],[15.37992,45.00901],[15.3828,45.00108],[15.39258,44.99497],[15.3966,44.9846],[15.41387,44.97544],[15.41473,44.96811],[15.4202,44.96119],[15.42163,44.95345],[15.43257,44.94083],[15.4481,44.93248],[15.46997,44.92861],[15.48982,44.928],[15.49241,44.93268],[15.50133,44.92861],[15.51168,44.92881],[15.51801,44.93268],[15.51916,44.91904],[15.52751,44.91313],[15.53412,44.9117],[15.5422,44.90521],[15.54279,44.89926],[15.55497,44.88818],[15.57156,44.88742],[15.57251,44.89706],[15.557,44.9012],[15.55139,44.91169],[15.52775,44.92242],[15.53014,44.93772],[15.54017,44.9416],[15.56042,44.96577],[15.55132,44.98484],[15.49858,45.01937]]]}}