{"type":"Feature","properties":{"id":"HRV.19.5","name":"Općina Novo Virje","level":2,"country":"HRV"},"geometry":{"type":"Polygon","coordinates":[[[17.17508,46.11212],[17.16871,46.12141],[17.15241,46.12284],[17.14768,46.12781],[17.13953,46.1255],[17.13766,46.11534],[17.13127,46.10953],[17.12204,46.111],[17.10603,46.11869],[17.10008,46.10695],[17.0931,46.10709],[17.08971,46.10079],[17.07423,46.09951],[17.06779,46.09388],[17.06729,46.08869],[17.07231,46.07984],[17.07848,46.08454],[17.07981,46.09],[17.08571,46.09402],[17.09968,46.08485],[17.10724,46.0901],[17.11595,46.08762],[17.11976,46.08049],[17.14518,46.08095],[17.15098,46.08585],[17.15586,46.07776],[17.17121,46.0859],[17.18663,46.07947],[17.18757,46.08489],[17.19365,46.08764],[17.20094,46.07984],[17.20624,46.0832],[17.2191,46.0827],[17.21818,46.08669],[17.22335,46.09426],[17.21927,46.09768],[17.20948,46.09932],[17.21841,46.10908],[17.21617,46.11304],[17.20609,46.11076],[17.19557,46.11115],[17.18594,46.10658],[17.17593,46.10846],[17.17508,46.11212]]]}}