{"type":"Feature","properties":{"id":"HRV.17.13","name":"Općina Mikleuš","level":2,"country":"HRV"},"geometry":{"type":"Polygon","coordinates":[[[17.73854,45.59988],[17.74773,45.60293],[17.75634,45.6023],[17.76389,45.59712],[17.77097,45.59759],[17.78065,45.59066],[17.79816,45.58972],[17.80992,45.59616],[17.81661,45.59228],[17.83403,45.60108],[17.84512,45.61271],[17.8419,45.61723],[17.84885,45.62075],[17.84925,45.62787],[17.84643,45.63028],[17.82532,45.63337],[17.83137,45.64984],[17.82612,45.65512],[17.82146,45.64199],[17.81472,45.63472],[17.806,45.63618],[17.80844,45.62452],[17.79605,45.62173],[17.78455,45.62799],[17.77062,45.63277],[17.75526,45.62709],[17.74097,45.62851],[17.73262,45.63442],[17.73511,45.62962],[17.71552,45.6081],[17.71784,45.60143],[17.73854,45.59988]]]}}