{"type":"Feature","properties":{"id":"HRV.9.13","name":"Općina Lekenik","level":2,"country":"HRV"},"geometry":{"type":"Polygon","coordinates":[[[16.29738,45.57591],[16.29527,45.5901],[16.28962,45.59605],[16.27415,45.60593],[16.26653,45.60539],[16.26244,45.60203],[16.25086,45.60083],[16.2468,45.59193],[16.23631,45.60241],[16.2335,45.6081],[16.21684,45.60994],[16.19622,45.60879],[16.19471,45.61952],[16.18465,45.63643],[16.16466,45.63916],[16.15118,45.63617],[16.15106,45.63296],[16.14114,45.62116],[16.13201,45.61475],[16.12567,45.6169],[16.10708,45.61457],[16.10982,45.60659],[16.09693,45.60378],[16.09006,45.59641],[16.09618,45.5806],[16.0848,45.57835],[16.06563,45.56918],[16.06181,45.56143],[16.07016,45.55946],[16.07291,45.55368],[16.10455,45.53534],[16.09706,45.52489],[16.10085,45.51487],[16.09659,45.50813],[16.07891,45.50988],[16.07348,45.50672],[16.06291,45.50174],[16.07307,45.48853],[16.05484,45.47942],[16.05871,45.46714],[16.06531,45.45737],[16.07646,45.44876],[16.07984,45.43646],[16.08829,45.43475],[16.09511,45.42895],[16.10371,45.42737],[16.12145,45.43529],[16.11908,45.4399],[16.10999,45.44253],[16.10909,45.45365],[16.09839,45.4625],[16.09164,45.46508],[16.0971,45.47209],[16.10849,45.47566],[16.11701,45.48056],[16.12544,45.47832],[16.14835,45.4785],[16.15518,45.48268],[16.16758,45.48441],[16.17527,45.47882],[16.18383,45.47888],[16.19177,45.49187],[16.20213,45.49735],[16.1997,45.50679],[16.21192,45.50777],[16.21627,45.50432],[16.22804,45.50144],[16.23963,45.50252],[16.23554,45.49329],[16.23384,45.48324],[16.24097,45.48296],[16.24654,45.48743],[16.24854,45.49441],[16.25719,45.49788],[16.26068,45.50251],[16.25315,45.51293],[16.24451,45.5196],[16.24446,45.53134],[16.25381,45.54114],[16.26806,45.54905],[16.2749,45.54787],[16.29119,45.55527],[16.28399,45.56958],[16.28593,45.57302],[16.29738,45.57591]]]}}