{"type":"Feature","properties":{"id":"HRV.14.10","name":"Općina Levanjska Varoš","level":2,"country":"HRV"},"geometry":{"type":"Polygon","coordinates":[[[18.13611,45.25598],[18.13737,45.25946],[18.15122,45.26951],[18.17568,45.28274],[18.1834,45.27936],[18.20744,45.27936],[18.22649,45.27277],[18.24469,45.27785],[18.27009,45.27815],[18.26576,45.28527],[18.25829,45.28624],[18.2546,45.29655],[18.2462,45.30588],[18.22269,45.32027],[18.21235,45.32186],[18.19572,45.33061],[18.18531,45.34731],[18.19636,45.35067],[18.1984,45.35551],[18.19729,45.36618],[18.20184,45.36875],[18.20413,45.37621],[18.19057,45.38007],[18.18471,45.37845],[18.16289,45.38756],[18.15459,45.38838],[18.14903,45.39349],[18.11355,45.36852],[18.10787,45.36186],[18.09894,45.36217],[18.0755,45.35263],[18.0708,45.34331],[18.07217,45.34],[18.08363,45.33952],[18.09224,45.3355],[18.09286,45.33112],[18.10062,45.32476],[18.10128,45.31389],[18.11126,45.31012],[18.11466,45.30537],[18.11391,45.29759],[18.10075,45.29528],[18.09742,45.28811],[18.09103,45.2819],[18.08357,45.27914],[18.07214,45.26572],[18.08298,45.26025],[18.10042,45.25712],[18.11011,45.25282],[18.11523,45.2557],[18.13086,45.2532],[18.13611,45.25598]]]}}