{"type":"Feature","properties":{"id":"HRV.10.14","name":"Općina Gradec","level":2,"country":"HRV"},"geometry":{"type":"Polygon","coordinates":[[[16.46408,45.94705],[16.45595,45.94563],[16.45046,45.92906],[16.45437,45.92665],[16.45383,45.91072],[16.45679,45.90555],[16.45155,45.89604],[16.45684,45.89124],[16.45552,45.87756],[16.46817,45.8711],[16.47452,45.86398],[16.48817,45.87275],[16.49748,45.86975],[16.51657,45.87024],[16.52016,45.87227],[16.53602,45.8735],[16.54076,45.88004],[16.54162,45.8869],[16.55873,45.89507],[16.56357,45.8947],[16.58342,45.88662],[16.58919,45.88992],[16.58943,45.90279],[16.59987,45.90299],[16.60312,45.91491],[16.59759,45.92175],[16.57853,45.93224],[16.57774,45.93942],[16.569,45.94053],[16.56265,45.9466],[16.55233,45.95046],[16.54201,45.95764],[16.53385,45.95896],[16.52218,45.96091],[16.5171,45.95942],[16.51439,45.96856],[16.50076,45.96879],[16.49195,45.96002],[16.47626,45.95273],[16.47473,45.9496],[16.46408,45.94705]]]}}