{"type":"Feature","properties":{"id":"HRV.16.3","name":"Općina Bogdanovci","level":2,"country":"HRV"},"geometry":{"type":"Polygon","coordinates":[[[18.99426,45.22451],[18.99633,45.2252],[19.00133,45.24241],[19.00748,45.25287],[18.99184,45.26352],[18.98461,45.26171],[18.97133,45.26631],[18.97003,45.28959],[18.97808,45.28961],[18.97894,45.29451],[18.97945,45.29921],[18.96866,45.29943],[18.97051,45.31162],[18.96279,45.31807],[18.95697,45.35449],[18.93774,45.35509],[18.93391,45.34917],[18.92546,45.34655],[18.91718,45.34202],[18.90904,45.34273],[18.9071,45.33077],[18.91755,45.32274],[18.92228,45.31565],[18.92971,45.31432],[18.90136,45.30241],[18.89258,45.28761],[18.95382,45.26335],[18.95854,45.25217],[18.95963,45.23721],[18.99426,45.22451]]]}}