{"type":"Feature","properties":{"id":"HRV.10.23","name":"Grad Zaprešić","level":2,"country":"HRV"},"geometry":{"type":"Polygon","coordinates":[[[15.87744,45.86531],[15.87001,45.87624],[15.86214,45.88236],[15.83906,45.88322],[15.82214,45.8781],[15.81856,45.88459],[15.82164,45.88971],[15.81614,45.8963],[15.81051,45.90774],[15.81566,45.91242],[15.8227,45.9253],[15.81695,45.93205],[15.82078,45.93925],[15.81205,45.94214],[15.80885,45.95261],[15.79831,45.95463],[15.78989,45.96108],[15.77286,45.95496],[15.77294,45.95033],[15.77605,45.94247],[15.7854,45.94189],[15.79053,45.93774],[15.78578,45.93034],[15.79461,45.92229],[15.7935,45.91579],[15.79668,45.90902],[15.79397,45.90232],[15.78881,45.90104],[15.78663,45.89283],[15.78848,45.88504],[15.77888,45.88677],[15.77218,45.87012],[15.77492,45.85136],[15.77787,45.84954],[15.77374,45.84075],[15.78362,45.83444],[15.80001,45.83518],[15.82354,45.82684],[15.82276,45.83926],[15.8294,45.84204],[15.84034,45.83959],[15.8513,45.8483],[15.85195,45.85294],[15.86405,45.85248],[15.8735,45.85467],[15.87744,45.86531]]]}}