{"type":"Feature","properties":{"id":"HRV.19.17","name":"Općina Hlebine","level":2,"country":"HRV"},"geometry":{"type":"Polygon","coordinates":[[[16.9309,46.16275],[16.93191,46.15546],[16.92427,46.14606],[16.93585,46.13777],[16.94525,46.13667],[16.95521,46.13283],[16.95844,46.14123],[16.9917,46.13371],[17.00046,46.13609],[17.03018,46.13658],[17.03292,46.13872],[17.04568,46.13654],[17.05263,46.13989],[17.05087,46.15335],[17.04044,46.15947],[17.03924,46.1702],[17.02598,46.17719],[17.02012,46.17374],[17.02079,46.1702],[17.0097,46.16284],[16.99798,46.16685],[16.98661,46.17289],[16.95232,46.16281],[16.9309,46.16275]]]}}