{"type":"Feature","properties":{"id":"IDN.19.4","name":"Bone Bolango","level":2,"country":"IDN"},"geometry":{"type":"Polygon","coordinates":[[[123.53337,0.57687],[123.5207,0.58432],[123.50911,0.58442],[123.5034,0.59144],[123.48779,0.60142],[123.49219,0.61913],[123.48617,0.62651],[123.47688,0.6297],[123.46252,0.63217],[123.45499,0.63548],[123.42899,0.64144],[123.42336,0.63907],[123.39912,0.64088],[123.38423,0.63969],[123.36475,0.65154],[123.35945,0.65137],[123.35453,0.65726],[123.35427,0.6631],[123.34279,0.67513],[123.33897,0.68354],[123.32851,0.68869],[123.32239,0.69854],[123.30243,0.69803],[123.28939,0.69562],[123.2822,0.69911],[123.27365,0.69816],[123.25205,0.71757],[123.24622,0.73455],[123.24765,0.74438],[123.25141,0.75364],[123.23994,0.7557],[123.22952,0.76261],[123.22248,0.76106],[123.21419,0.7627],[123.20746,0.75724],[123.19293,0.75478],[123.17533,0.75643],[123.16801,0.75324],[123.16362,0.75851],[123.15989,0.77605],[123.14893,0.76972],[123.14422,0.77059],[123.13422,0.76517],[123.12548,0.77219],[123.12317,0.78794],[123.09911,0.79573],[123.09112,0.8033],[123.08475,0.80579],[123.07431,0.80585],[123.06986,0.80308],[123.06974,0.79608],[123.06356,0.78062],[123.06602,0.77746],[123.07811,0.77318],[123.07361,0.76371],[123.07665,0.74751],[123.07378,0.74208],[123.07883,0.72801],[123.07571,0.71286],[123.07952,0.69964],[123.07078,0.67523],[123.062,0.6688],[123.05563,0.65254],[123.04267,0.63405],[123.03659,0.62823],[123.04576,0.62033],[123.06068,0.61574],[123.06967,0.60716],[123.06734,0.59778],[123.0611,0.58908],[123.09102,0.58033],[123.08915,0.55239],[123.08008,0.53189],[123.07924,0.52304],[123.08758,0.50898],[123.09654,0.50718],[123.10019,0.50291],[123.09605,0.4855],[123.08687,0.47989],[123.09989,0.47553],[123.10654,0.46686],[123.11618,0.46194],[123.12166,0.45637],[123.12147,0.45149],[123.1319,0.44089],[123.13231,0.43448],[123.13813,0.42459],[123.14634,0.42269],[123.14448,0.41564],[123.15238,0.41372],[123.15235,0.40806],[123.16207,0.39942],[123.17722,0.39902],[123.19453,0.3938],[123.20772,0.37742],[123.21669,0.37203],[123.21593,0.36521],[123.22203,0.3637],[123.22812,0.34847],[123.24139,0.34474],[123.2664,0.32714],[123.26758,0.32229],[123.27677,0.32407],[123.27899,0.31884],[123.29202,0.31572],[123.29583,0.32046],[123.30081,0.316],[123.31421,0.31338],[123.3266,0.3134],[123.34521,0.30626],[123.35469,0.30978],[123.35873,0.31457],[123.3675,0.31206],[123.38134,0.31142],[123.39972,0.31542],[123.41592,0.31178],[123.43539,0.31697],[123.44389,0.32758],[123.45917,0.33763],[123.46896,0.32294],[123.47702,0.31697],[123.48229,0.32185],[123.48083,0.33627],[123.48366,0.33971],[123.48005,0.34687],[123.48034,0.35374],[123.49419,0.35736],[123.49156,0.36565],[123.49673,0.37105],[123.4979,0.38213],[123.51102,0.39634],[123.53002,0.40848],[123.53987,0.42602],[123.55012,0.43346],[123.5474,0.44291],[123.53761,0.44525],[123.52592,0.45361],[123.523,0.49045],[123.54516,0.49683],[123.55229,0.51071],[123.54732,0.52302],[123.53067,0.5344],[123.52793,0.54094],[123.52882,0.55031],[123.53353,0.56532],[123.53337,0.57687]]]}}