{"type":"Feature","properties":{"id":"IDN.31.1","name":"Kolaka Utara","level":2,"country":"IDN"},"geometry":{"type":"MultiPolygon","coordinates":[[[[121.05248,-3.06501],[121.05253,-3.06223],[121.05133,-3.06396],[121.05248,-3.06501]]],[[[121.25285,-3.65935],[121.24793,-3.64586],[121.24369,-3.61789],[121.23719,-3.60407],[121.21951,-3.59411],[121.21181,-3.57908],[121.20187,-3.57008],[121.19362,-3.56903],[121.18608,-3.56332],[121.17117,-3.54128],[121.16018,-3.53884],[121.15163,-3.52208],[121.15422,-3.51605],[121.15063,-3.50534],[121.13741,-3.50238],[121.12009,-3.48759],[121.12663,-3.4807],[121.12253,-3.47068],[121.13181,-3.46863],[121.13715,-3.46018],[121.14471,-3.45985],[121.14972,-3.44562],[121.15523,-3.43614],[121.141,-3.42558],[121.13739,-3.42695],[121.1326,-3.41624],[121.12299,-3.41105],[121.13557,-3.38889],[121.13113,-3.37611],[121.13407,-3.36576],[121.14214,-3.36526],[121.14284,-3.35948],[121.15111,-3.34413],[121.15782,-3.33966],[121.15909,-3.30471],[121.15755,-3.29745],[121.16065,-3.29263],[121.16975,-3.29661],[121.17749,-3.28903],[121.18576,-3.27455],[121.19178,-3.27042],[121.221,-3.2545],[121.22016,-3.2457],[121.22361,-3.23311],[121.22792,-3.22811],[121.25334,-3.22539],[121.27961,-3.22664],[121.29091,-3.24539],[121.30631,-3.28331],[121.31812,-3.30318],[121.33715,-3.32289],[121.35431,-3.33509],[121.36512,-3.34011],[121.4156,-3.35556],[121.42195,-3.35574],[121.44103,-3.35094],[121.42989,-3.3334],[121.42784,-3.32649],[121.4308,-3.29775],[121.43128,-3.2733],[121.43019,-3.24795],[121.43556,-3.22042],[121.44199,-3.16838],[121.43668,-3.15871],[121.42124,-3.14954],[121.41644,-3.14211],[121.41184,-3.1194],[121.41203,-3.10973],[121.40929,-3.10541],[121.39272,-3.10116],[121.38852,-3.09761],[121.38888,-3.08587],[121.38169,-3.07093],[121.36677,-3.05952],[121.36126,-3.05208],[121.36061,-3.04397],[121.36287,-3.02559],[121.36993,-3.00989],[121.35777,-2.97474],[121.34957,-2.97012],[121.33869,-2.95019],[121.32878,-2.93861],[121.32903,-2.9352],[121.33692,-2.92499],[121.35532,-2.90788],[121.35773,-2.89935],[121.35347,-2.88588],[121.34046,-2.85972],[121.33256,-2.83404],[121.31866,-2.80774],[121.30813,-2.80562],[121.29539,-2.80712],[121.28055,-2.81858],[121.2413,-2.82526],[121.23522,-2.82881],[121.23081,-2.83717],[121.23123,-2.84417],[121.22472,-2.8449],[121.22329,-2.85359],[121.21207,-2.85793],[121.20762,-2.85331],[121.20322,-2.85761],[121.19475,-2.85175],[121.18716,-2.83875],[121.17702,-2.83059],[121.17189,-2.81757],[121.16385,-2.81448],[121.15402,-2.81523],[121.13304,-2.79783],[121.12144,-2.79134],[121.08009,-2.77941],[121.06874,-2.78754],[121.06247,-2.78671],[121.05304,-2.79187],[121.03706,-2.79149],[121.02954,-2.79621],[121.02765,-2.808],[121.01942,-2.81983],[120.98827,-2.83133],[120.98666,-2.83689],[120.98865,-2.84536],[120.99512,-2.85262],[120.99682,-2.8698],[121.00508,-2.86807],[121.00125,-2.85492],[120.99395,-2.84904],[120.99162,-2.84077],[120.99687,-2.83607],[121.00212,-2.83913],[121.01636,-2.83792],[121.02732,-2.84949],[121.0327,-2.83964],[121.0271,-2.83175],[121.0356,-2.83059],[121.03204,-2.81637],[121.03697,-2.80744],[121.03918,-2.82107],[121.04364,-2.82434],[121.04305,-2.84742],[121.04473,-2.85521],[121.04896,-2.86113],[121.05023,-2.86985],[121.05774,-2.8725],[121.06076,-2.87681],[121.06682,-2.87363],[121.06211,-2.8591],[121.06564,-2.85396],[121.07417,-2.85661],[121.07829,-2.86518],[121.0761,-2.88249],[121.07211,-2.89072],[121.0801,-2.89581],[121.07856,-2.90673],[121.08171,-2.90887],[121.09066,-2.92334],[121.08498,-2.93252],[121.09031,-2.94485],[121.08222,-2.9476],[121.08174,-2.95719],[121.08487,-2.96704],[121.08149,-2.9719],[121.07311,-2.96455],[121.06428,-2.9681],[121.06914,-2.98349],[121.08187,-2.99764],[121.087,-2.99883],[121.08753,-3.01138],[121.07518,-3.01155],[121.07682,-3.01985],[121.07313,-3.03238],[121.0606,-3.0296],[121.05614,-3.02285],[121.0515,-3.02675],[121.04965,-3.03637],[121.0435,-3.03709],[121.04543,-3.05071],[121.05846,-3.05946],[121.05996,-3.07012],[121.05668,-3.07469],[121.05782,-3.08938],[121.05598,-3.09756],[121.04759,-3.10462],[121.05614,-3.11774],[121.06099,-3.1447],[121.05565,-3.15185],[121.05593,-3.18447],[121.06055,-3.19535],[121.06878,-3.2021],[121.06259,-3.20761],[121.05041,-3.19913],[121.03322,-3.20661],[121.02874,-3.21954],[121.02219,-3.22971],[121.02044,-3.24472],[121.00739,-3.24729],[120.99445,-3.25409],[120.97896,-3.25809],[120.97026,-3.26749],[120.96801,-3.27801],[120.95666,-3.29196],[120.95893,-3.30167],[120.95699,-3.33034],[120.93807,-3.33542],[120.92976,-3.34717],[120.92081,-3.35312],[120.91415,-3.36729],[120.90642,-3.37746],[120.89466,-3.38691],[120.89636,-3.40265],[120.88787,-3.41405],[120.87466,-3.4199],[120.86618,-3.42875],[120.86472,-3.43707],[120.8731,-3.49405],[120.87695,-3.51213],[120.8821,-3.52146],[120.88046,-3.52956],[120.88895,-3.54192],[120.89845,-3.54737],[120.90633,-3.55776],[120.90902,-3.56867],[120.90579,-3.57655],[120.91744,-3.58139],[120.92444,-3.59262],[120.9345,-3.59506],[120.93579,-3.6043],[120.94584,-3.61151],[120.94463,-3.62021],[120.95738,-3.62431],[120.97137,-3.63553],[120.97514,-3.6402],[120.98577,-3.64695],[120.99263,-3.65421],[121.00632,-3.67556],[121.02842,-3.69076],[121.04138,-3.69688],[121.0494,-3.69637],[121.05716,-3.7013],[121.06378,-3.70208],[121.07273,-3.70984],[121.08403,-3.71476],[121.09649,-3.7312],[121.09981,-3.74261],[121.10551,-3.74749],[121.11407,-3.74224],[121.16135,-3.70382],[121.18544,-3.69184],[121.22299,-3.67608],[121.23146,-3.67011],[121.25285,-3.65935]]]]}}