{"type":"Feature","properties":{"id":"IDN.33.19","name":"Merauke","level":2,"country":"IDN"},"geometry":{"type":"MultiPolygon","coordinates":[[[[138.96527,-8.35751],[138.95901,-8.35015],[138.94521,-8.34394],[138.92599,-8.32411],[138.92072,-8.32917],[138.91866,-8.34481],[138.92384,-8.35883],[138.94464,-8.36981],[138.95372,-8.37168],[138.964,-8.36967],[138.96935,-8.36515],[138.96527,-8.35751]]],[[[138.95683,-8.3326],[138.9467,-8.32889],[138.93285,-8.31481],[138.93082,-8.32183],[138.94421,-8.3359],[138.95256,-8.34173],[138.96234,-8.34409],[138.97278,-8.34066],[138.97716,-8.3343],[138.95683,-8.3326]]],[[[138.58282,-8.29804],[138.58176,-8.29171],[138.57208,-8.29366],[138.5643,-8.29806],[138.55643,-8.31158],[138.55421,-8.31996],[138.5565,-8.32653],[138.56578,-8.32233],[138.57033,-8.30688],[138.58282,-8.29804]]],[[[138.99002,-8.2876],[138.97948,-8.28807],[138.97528,-8.29206],[138.95435,-8.2958],[138.93593,-8.30574],[138.93593,-8.31228],[138.94015,-8.31853],[138.94937,-8.32608],[138.95801,-8.32953],[138.97464,-8.3292],[138.97917,-8.3235],[138.9908,-8.31457],[139.00095,-8.29642],[138.99867,-8.28915],[138.99002,-8.2876]]],[[[138.88982,-8.29171],[138.87085,-8.28406],[138.86107,-8.28691],[138.85374,-8.29301],[138.85471,-8.30355],[138.84961,-8.30568],[138.84822,-8.30868],[138.84991,-8.31326],[138.85236,-8.3147],[138.8528,-8.31651],[138.85226,-8.32606],[138.84956,-8.32932],[138.85304,-8.35054],[138.85266,-8.35274],[138.84865,-8.35696],[138.84621,-8.38011],[138.83919,-8.38544],[138.82051,-8.38575],[138.82114,-8.38853],[138.86714,-8.39093],[138.89221,-8.38822],[138.90135,-8.38475],[138.90659,-8.37957],[138.91457,-8.35978],[138.912,-8.34293],[138.9169,-8.31017],[138.91409,-8.297],[138.90256,-8.28849],[138.88982,-8.29171]]],[[[138.87633,-8.27279],[138.8593,-8.26677],[138.85597,-8.26949],[138.88533,-8.2885],[138.89362,-8.28978],[138.90123,-8.28103],[138.89267,-8.26874],[138.87633,-8.27279]]],[[[138.99765,-8.28407],[138.99861,-8.27824],[138.99556,-8.2648],[138.98688,-8.2677],[138.97879,-8.2759],[138.98067,-8.28776],[138.98622,-8.28672],[138.99829,-8.28846],[138.99765,-8.28407]]],[[[138.85591,-8.26861],[138.85849,-8.2664],[138.84715,-8.25656],[138.84998,-8.26485],[138.85591,-8.26861]]],[[[139.44441,-8.24205],[139.44304,-8.2408],[139.44006,-8.24276],[139.4415,-8.24437],[139.44441,-8.24205]]],[[[138.99608,-8.23497],[138.99387,-8.22958],[138.98682,-8.2343],[138.97092,-8.23942],[138.96761,-8.24254],[138.96399,-8.25446],[138.95966,-8.26088],[138.94681,-8.26377],[138.94142,-8.26782],[138.93463,-8.27768],[138.92438,-8.28091],[138.93379,-8.30277],[138.93698,-8.30331],[138.95132,-8.29596],[138.97336,-8.29174],[138.97949,-8.28746],[138.97821,-8.27584],[138.99268,-8.26017],[138.98839,-8.24664],[138.99608,-8.23497]]],[[[138.64725,-8.23484],[138.65137,-8.23357],[138.65775,-8.22415],[138.65622,-8.22035],[138.64407,-8.22791],[138.64725,-8.23484]]],[[[138.88144,-8.27105],[138.89117,-8.26666],[138.88692,-8.25466],[138.88675,-8.23864],[138.87825,-8.23233],[138.86642,-8.21855],[138.85115,-8.20509],[138.84883,-8.20946],[138.84793,-8.24723],[138.84888,-8.25468],[138.86124,-8.26603],[138.87338,-8.27077],[138.88144,-8.27105]]],[[[138.71019,-8.1642],[138.71457,-8.16014],[138.70757,-8.15423],[138.69696,-8.15342],[138.69389,-8.15754],[138.7065,-8.16447],[138.71019,-8.1642]]],[[[138.75011,-8.15271],[138.75815,-8.14561],[138.75528,-8.14387],[138.75011,-8.15271]]],[[[138.81886,-8.15047],[138.82288,-8.14791],[138.81474,-8.13794],[138.79436,-8.14811],[138.77753,-8.15013],[138.77014,-8.15239],[138.74976,-8.16464],[138.7278,-8.16659],[138.71074,-8.1711],[138.69688,-8.17091],[138.68831,-8.1682],[138.67899,-8.17009],[138.67181,-8.21729],[138.66356,-8.23504],[138.6418,-8.25477],[138.62253,-8.26576],[138.59863,-8.28394],[138.58618,-8.29018],[138.58482,-8.29693],[138.57037,-8.3083],[138.56721,-8.32181],[138.55559,-8.32871],[138.5524,-8.33627],[138.55998,-8.34846],[138.56728,-8.35565],[138.61566,-8.36672],[138.64531,-8.36794],[138.66409,-8.37109],[138.67252,-8.36898],[138.68442,-8.37552],[138.70157,-8.37658],[138.70927,-8.38155],[138.72697,-8.38511],[138.74112,-8.3865],[138.76241,-8.38577],[138.79189,-8.38151],[138.79758,-8.37922],[138.82117,-8.38481],[138.83937,-8.38438],[138.8414,-8.37611],[138.84595,-8.37614],[138.84833,-8.35659],[138.85225,-8.35206],[138.84961,-8.34543],[138.85139,-8.34204],[138.84909,-8.32865],[138.85178,-8.32594],[138.85229,-8.3152],[138.84941,-8.31326],[138.84798,-8.3105],[138.84807,-8.30831],[138.8492,-8.30586],[138.85408,-8.30361],[138.85268,-8.29451],[138.85477,-8.29092],[138.86098,-8.28647],[138.87045,-8.28354],[138.85159,-8.26882],[138.84492,-8.26092],[138.84262,-8.24803],[138.84619,-8.19893],[138.83922,-8.17406],[138.82301,-8.149],[138.81886,-8.15047]]],[[[139.58292,-8.13682],[139.58168,-8.13504],[139.58137,-8.13622],[139.58292,-8.13682]]],[[[138.83786,-8.09071],[138.84035,-8.08788],[138.83699,-8.08973],[138.83786,-8.09071]]],[[[138.91699,-7.89683],[138.93803,-7.88665],[138.93228,-7.8834],[138.92471,-7.88683],[138.91699,-7.89683]]],[[[138.99889,-7.72705],[138.99651,-7.72566],[138.99524,-7.72719],[138.99779,-7.72882],[138.99889,-7.72705]]],[[[138.673,-7.36618],[138.66254,-7.36904],[138.62431,-7.37052],[138.56389,-7.38575],[138.53314,-7.3901],[138.49088,-7.39352],[138.46359,-7.39854],[138.42526,-7.40286],[138.37933,-7.41309],[138.36296,-7.4159],[138.35657,-7.41954],[138.34235,-7.42317],[138.30133,-7.43652],[138.28806,-7.43977],[138.28311,-7.44363],[138.26593,-7.44961],[138.26033,-7.45311],[138.21611,-7.47184],[138.20493,-7.48028],[138.19441,-7.48466],[138.1815,-7.49455],[138.17099,-7.49917],[138.15349,-7.51268],[138.1321,-7.52657],[138.1196,-7.5361],[138.10796,-7.54921],[138.10103,-7.55189],[138.09975,-7.55728],[138.08702,-7.56944],[138.08633,-7.57467],[138.07695,-7.57554],[138.07393,-7.58209],[138.06299,-7.58846],[138.03738,-7.61349],[138.02156,-7.6326],[138.01932,-7.63801],[138.00514,-7.65574],[137.98637,-7.68287],[137.97493,-7.70457],[137.96953,-7.73293],[137.9577,-7.73529],[137.95453,-7.74104],[137.94353,-7.7457],[137.92683,-7.76247],[137.92131,-7.77146],[137.90689,-7.78684],[137.90411,-7.79513],[137.89479,-7.8088],[137.89355,-7.81442],[137.88585,-7.82423],[137.87814,-7.84441],[137.86874,-7.85276],[137.86662,-7.862],[137.85986,-7.87036],[137.85866,-7.88117],[137.85042,-7.88866],[137.85185,-7.89244],[137.83638,-7.91528],[137.8358,-7.92317],[137.82898,-7.93307],[137.82898,-7.93919],[137.81999,-7.94865],[137.81708,-7.96217],[137.80476,-7.98566],[137.80006,-8.00039],[137.79836,-8.012],[137.80093,-8.02286],[137.81572,-8.03835],[137.79532,-8.04944],[137.78851,-8.04984],[137.77791,-8.06094],[137.76663,-8.07044],[137.76297,-8.08601],[137.75423,-8.09172],[137.75208,-8.10122],[137.74504,-8.10609],[137.74059,-8.11762],[137.73468,-8.12384],[137.72865,-8.13702],[137.72104,-8.14458],[137.71457,-8.16194],[137.70648,-8.17216],[137.70355,-8.18525],[137.69878,-8.19567],[137.69411,-8.21126],[137.6909,-8.21476],[137.68929,-8.22476],[137.68402,-8.236],[137.68037,-8.2513],[137.67807,-8.26788],[137.67548,-8.27198],[137.67123,-8.29279],[137.66757,-8.29899],[137.66379,-8.31658],[137.6604,-8.34341],[137.66045,-8.35222],[137.649,-8.38324],[137.6431,-8.41298],[137.64027,-8.41758],[137.6427,-8.43092],[137.65508,-8.44605],[137.66223,-8.44689],[137.66484,-8.4395],[137.67268,-8.437],[137.68398,-8.42896],[137.69113,-8.41837],[137.69658,-8.42139],[137.73639,-8.40574],[137.79445,-8.39421],[137.85712,-8.38489],[137.86313,-8.38199],[137.87047,-8.37263],[137.87624,-8.37964],[137.89136,-8.38276],[137.97246,-8.38473],[137.99249,-8.38235],[138.00327,-8.38526],[138.06793,-8.3862],[138.07657,-8.38738],[138.0997,-8.38331],[138.10257,-8.38598],[138.11592,-8.38641],[138.13225,-8.384],[138.14825,-8.38603],[138.16498,-8.38592],[138.1786,-8.38416],[138.18816,-8.38524],[138.20004,-8.384],[138.22269,-8.37841],[138.22885,-8.3847],[138.26389,-8.39189],[138.26155,-8.40575],[138.26532,-8.41942],[138.27283,-8.42222],[138.30334,-8.42488],[138.34103,-8.41969],[138.3676,-8.41306],[138.40385,-8.40083],[138.44603,-8.3818],[138.49136,-8.34646],[138.50076,-8.32948],[138.49957,-8.31776],[138.53514,-8.30472],[138.55371,-8.28729],[138.56763,-8.27727],[138.61505,-8.24951],[138.6194,-8.24284],[138.63435,-8.22838],[138.65303,-8.20471],[138.65979,-8.17449],[138.66621,-8.16275],[138.68163,-8.14646],[138.70253,-8.14601],[138.71739,-8.14802],[138.73596,-8.1537],[138.74843,-8.14909],[138.755,-8.14227],[138.76201,-8.14357],[138.77887,-8.13927],[138.79436,-8.13947],[138.80374,-8.13285],[138.81157,-8.11221],[138.81018,-8.10212],[138.81631,-8.0899],[138.82568,-8.0801],[138.83896,-8.07345],[138.85976,-8.06865],[138.90286,-8.07662],[138.91266,-8.07629],[138.91444,-8.07104],[138.91269,-8.06151],[138.89783,-8.05218],[138.89038,-8.04068],[138.88867,-8.02929],[138.89214,-8.0133],[138.89986,-8.00067],[138.90196,-7.99287],[138.90244,-7.96958],[138.89203,-7.93577],[138.89027,-7.92556],[138.89206,-7.91261],[138.89787,-7.90131],[138.9095,-7.88978],[138.92995,-7.8763],[138.95404,-7.86987],[138.98177,-7.86095],[138.99428,-7.84971],[138.99785,-7.84132],[138.99973,-7.8294],[138.99738,-7.81054],[138.99019,-7.77871],[138.99046,-7.76081],[138.99507,-7.7454],[139.00464,-7.72507],[139.02348,-7.70197],[139.03313,-7.6875],[139.03325,-7.6525],[139.04121,-7.62823],[139.04944,-7.61479],[139.06645,-7.59771],[139.08076,-7.58786],[139.08762,-7.57389],[139.0769,-7.56717],[139.061,-7.56702],[139.04184,-7.56376],[139.0226,-7.55756],[139.00307,-7.5596],[138.98698,-7.55765],[138.96274,-7.55224],[138.95386,-7.55155],[138.93903,-7.54596],[138.9288,-7.53816],[138.91801,-7.53324],[138.91325,-7.52376],[138.90234,-7.5102],[138.89304,-7.49645],[138.88301,-7.47527],[138.87469,-7.45274],[138.8651,-7.43739],[138.84398,-7.41586],[138.82297,-7.39968],[138.81111,-7.39212],[138.80307,-7.38944],[138.77892,-7.37769],[138.77441,-7.37923],[138.76382,-7.37416],[138.74512,-7.37059],[138.74318,-7.3728],[138.72386,-7.36982],[138.70374,-7.3692],[138.68529,-7.36725],[138.67993,-7.36886],[138.673,-7.36618]]],[[[140.05782,-7.2661],[139.8287,-7.45389],[139.21135,-7.32648],[138.66725,-7.21419],[138.67363,-7.22281],[138.6904,-7.23266],[138.70227,-7.23658],[138.71417,-7.23857],[138.73633,-7.25187],[138.77135,-7.26386],[138.79294,-7.2817],[138.7991,-7.29017],[138.813,-7.29779],[138.8553,-7.31048],[138.87004,-7.32126],[138.88997,-7.34125],[138.90013,-7.35523],[138.90506,-7.367],[138.92059,-7.39654],[138.92218,-7.40892],[138.93713,-7.44826],[138.94553,-7.48213],[138.95818,-7.51147],[138.96745,-7.52082],[138.97795,-7.52216],[138.99257,-7.5182],[139.00928,-7.51579],[139.03473,-7.51479],[139.0511,-7.51579],[139.08568,-7.52928],[139.09593,-7.53589],[139.10437,-7.54592],[139.10703,-7.55219],[139.11031,-7.57189],[139.10837,-7.59999],[139.07272,-7.62615],[139.06241,-7.64234],[139.05838,-7.65633],[139.05621,-7.68936],[139.05461,-7.69649],[139.04796,-7.71023],[139.03253,-7.72829],[139.01904,-7.74933],[139.01456,-7.76545],[139.01535,-7.7871],[139.02243,-7.81143],[139.02507,-7.82963],[139.02394,-7.84026],[139.01794,-7.85406],[139.01007,-7.86262],[138.98845,-7.87611],[138.96124,-7.89016],[138.93501,-7.8998],[138.92566,-7.90551],[138.9171,-7.9136],[138.90901,-7.93169],[138.92145,-7.95827],[138.9225,-7.97646],[138.91719,-7.99394],[138.90659,-8.0163],[138.90321,-8.03044],[138.90918,-8.03885],[138.92287,-8.05066],[138.92754,-8.06128],[138.92775,-8.06873],[138.92412,-8.07684],[138.9183,-8.08316],[138.90541,-8.08817],[138.87654,-8.08656],[138.86214,-8.08972],[138.84317,-8.10159],[138.83604,-8.11317],[138.83357,-8.12623],[138.83701,-8.14287],[138.84435,-8.15325],[138.85548,-8.18474],[138.8726,-8.20555],[138.88098,-8.21814],[138.90004,-8.23639],[138.9043,-8.24575],[138.90732,-8.26114],[138.91483,-8.27175],[138.92261,-8.27706],[138.93573,-8.27569],[138.94051,-8.2673],[138.94572,-8.2634],[138.9612,-8.25845],[138.9669,-8.24271],[138.97044,-8.23901],[138.98894,-8.23269],[138.9933,-8.22813],[138.98872,-8.22332],[138.9809,-8.22097],[138.97079,-8.2085],[138.97652,-8.20197],[138.98857,-8.20226],[138.99162,-8.19678],[138.99953,-8.1915],[139.00621,-8.19017],[139.03026,-8.17313],[139.05122,-8.16271],[139.06813,-8.15303],[139.07072,-8.14665],[139.06551,-8.14148],[139.06708,-8.13612],[139.08023,-8.13741],[139.0916,-8.13521],[139.13455,-8.11931],[139.16835,-8.11053],[139.20811,-8.09721],[139.22383,-8.0949],[139.22777,-8.09829],[139.23303,-8.12077],[139.23968,-8.12724],[139.24234,-8.13483],[139.2511,-8.14321],[139.25142,-8.15084],[139.27095,-8.16695],[139.27821,-8.1768],[139.28763,-8.17903],[139.30132,-8.17956],[139.30739,-8.18402],[139.30927,-8.1899],[139.31598,-8.19671],[139.33984,-8.20591],[139.3468,-8.20445],[139.3804,-8.20341],[139.45657,-8.19352],[139.48442,-8.17872],[139.49605,-8.17433],[139.50844,-8.17846],[139.53433,-8.16473],[139.58015,-8.1442],[139.58575,-8.14003],[139.58046,-8.13577],[139.58443,-8.1299],[139.59557,-8.12921],[139.61035,-8.12565],[139.63573,-8.11703],[139.70612,-8.10439],[139.71361,-8.09797],[139.71866,-8.09981],[139.77901,-8.09927],[139.81845,-8.10221],[139.84021,-8.10079],[139.85268,-8.10185],[139.85704,-8.10566],[139.88267,-8.10878],[139.91077,-8.10601],[139.92676,-8.10723],[139.94163,-8.10212],[139.95515,-8.1133],[139.95711,-8.12462],[139.95679,-8.13634],[139.95973,-8.14747],[139.97247,-8.17215],[139.99382,-8.20013],[140.01668,-8.22128],[140.05556,-8.25541],[140.11165,-8.29427],[140.13092,-8.30575],[140.16988,-8.33713],[140.19488,-8.34853],[140.22726,-8.35617],[140.22908,-8.361],[140.22711,-8.36917],[140.22911,-8.37399],[140.24287,-8.39129],[140.26082,-8.40967],[140.30377,-8.44715],[140.33128,-8.46749],[140.33891,-8.47124],[140.34611,-8.47012],[140.35545,-8.47477],[140.36133,-8.4832],[140.3649,-8.49379],[140.37486,-8.50801],[140.39003,-8.52347],[140.42938,-8.55559],[140.43069,-8.56017],[140.44232,-8.57231],[140.46115,-8.58796],[140.50291,-8.6152],[140.50885,-8.62704],[140.51439,-8.64703],[140.51897,-8.65393],[140.51802,-8.65863],[140.52931,-8.6876],[140.57994,-8.75417],[140.59454,-8.7804],[140.5979,-8.79058],[140.61591,-8.8133],[140.6449,-8.84156],[140.64874,-8.84388],[140.66289,-8.85887],[140.68713,-8.87972],[140.70657,-8.89096],[140.72211,-8.90838],[140.74837,-8.9323],[140.752,-8.93456],[140.78963,-8.97364],[140.81973,-9.01581],[140.83566,-9.03223],[140.87151,-9.05984],[140.8998,-9.08965],[140.91048,-9.09261],[140.91962,-9.09146],[140.93578,-9.09393],[140.93939,-9.09667],[140.96236,-9.10291],[140.9669,-9.10612],[140.97752,-9.10761],[140.99647,-9.11535],[141.00001,-9.11824],[141.019,-9.12036],[141.01911,-8.52848],[141.0192,-8.01606],[141.01931,-7.36923],[141.0194,-6.88987],[141,-6.88987],[140.9977,-6.90264],[140.98886,-6.9048],[140.98067,-6.90229],[140.97364,-6.89133],[140.96907,-6.89075],[140.95988,-6.89668],[140.95865,-6.90845],[140.95198,-6.90958],[140.94993,-6.90151],[140.94302,-6.8973],[140.93839,-6.891],[140.93987,-6.88684],[140.95224,-6.87066],[140.95424,-6.86447],[140.94954,-6.8573],[140.94529,-6.87035],[140.93838,-6.8744],[140.92348,-6.87074],[140.91593,-6.87368],[140.91081,-6.86181],[140.90035,-6.85123],[140.89575,-6.84411],[140.90405,-6.84089],[140.91194,-6.83029],[140.9176,-6.82629],[140.91786,-6.82026],[140.91285,-6.81071],[140.90716,-6.80637],[140.90025,-6.80793],[140.88994,-6.8136],[140.88516,-6.81024],[140.8851,-6.8027],[140.86989,-6.7948],[140.87025,-6.79073],[140.87816,-6.78308],[140.8768,-6.77468],[140.88021,-6.76771],[140.89327,-6.76491],[140.89989,-6.75341],[140.89077,-6.75131],[140.8868,-6.73964],[140.88057,-6.73509],[140.86297,-6.73046],[140.85208,-6.72599],[140.8452,-6.7188],[140.85225,-6.70997],[140.85167,-6.69607],[140.84487,-6.68222],[140.84838,-6.68003],[140.86286,-6.68259],[140.86981,-6.67466],[140.86288,-6.66921],[140.86101,-6.65897],[140.87311,-6.65299],[140.85704,-6.64789],[140.85497,-6.64199],[140.85912,-6.6374],[140.87173,-6.63154],[140.87613,-6.62399],[140.87006,-6.61844],[140.85381,-6.61942],[140.84833,-6.61818],[140.42627,-6.96409],[140.05782,-7.2661]]]]}}