{"type":"Feature","properties":{"id":"IDN.9.11","name":"Lampung Barat","level":2,"country":"IDN"},"geometry":{"type":"Polygon","coordinates":[[[103.87495,-4.88405],[103.86558,-4.87061],[103.8663,-4.84822],[103.85395,-4.83534],[103.84874,-4.82745],[103.84011,-4.82159],[103.82369,-4.82081],[103.82278,-4.80656],[103.82545,-4.80093],[103.80437,-4.79254],[103.78041,-4.79592],[103.77665,-4.7893],[103.77394,-4.77333],[103.76138,-4.77512],[103.75029,-4.77941],[103.74239,-4.77957],[103.73835,-4.78571],[103.73134,-4.78658],[103.72845,-4.79211],[103.71796,-4.79359],[103.70825,-4.81425],[103.69058,-4.82656],[103.67895,-4.83095],[103.67706,-4.83559],[103.6633,-4.83834],[103.65581,-4.84753],[103.64383,-4.85166],[103.63654,-4.84932],[103.63403,-4.85311],[103.62337,-4.85951],[103.62267,-4.86456],[103.61584,-4.87001],[103.60196,-4.86776],[103.59189,-4.88493],[103.59326,-4.89476],[103.57962,-4.91083],[103.57125,-4.92614],[103.58432,-4.92388],[103.61079,-4.92553],[103.61912,-4.92903],[103.63989,-4.93331],[103.64192,-4.93727],[103.64972,-4.93698],[103.6599,-4.92723],[103.65872,-4.92063],[103.67629,-4.91106],[103.69185,-4.90593],[103.69363,-4.90297],[103.71112,-4.9041],[103.73194,-4.90889],[103.74191,-4.91612],[103.75161,-4.91837],[103.75352,-4.92747],[103.76298,-4.93412],[103.77216,-4.94463],[103.79322,-4.93511],[103.7929,-4.90065],[103.80633,-4.88082],[103.81762,-4.87532],[103.82009,-4.90621],[103.8271,-4.91387],[103.83852,-4.9178],[103.85252,-4.94123],[103.8582,-4.9419],[103.86086,-4.95327],[103.87281,-4.96494],[103.88969,-4.96036],[103.89593,-4.96698],[103.92143,-4.9757],[103.93158,-4.9828],[103.94059,-4.97728],[103.95664,-4.99357],[103.97409,-4.99763],[103.9816,-5.00161],[103.99584,-5.01592],[104.01214,-5.02449],[104.0227,-5.0438],[104.01886,-5.05313],[104.01737,-5.07004],[104.00878,-5.0821],[104.01683,-5.09303],[104.02949,-5.08351],[104.03436,-5.08428],[104.04334,-5.0907],[104.05826,-5.0921],[104.07932,-5.10923],[104.08309,-5.11589],[104.07934,-5.12862],[104.08359,-5.141],[104.09745,-5.15466],[104.10895,-5.16234],[104.1301,-5.18127],[104.14471,-5.1909],[104.17415,-5.1986],[104.20459,-5.20339],[104.22273,-5.21928],[104.25375,-5.25888],[104.26147,-5.28283],[104.27462,-5.29372],[104.28652,-5.31442],[104.30119,-5.32686],[104.31514,-5.34577],[104.32594,-5.34917],[104.332,-5.35461],[104.33371,-5.36954],[104.34898,-5.38157],[104.37958,-5.33725],[104.38185,-5.32971],[104.39481,-5.25134],[104.39623,-5.23207],[104.4014,-5.22924],[104.4102,-5.20319],[104.40152,-5.18413],[104.40756,-5.17044],[104.41482,-5.17175],[104.43313,-5.17145],[104.44122,-5.16223],[104.4608,-5.15035],[104.47651,-5.14483],[104.49061,-5.13068],[104.49894,-5.12849],[104.50863,-5.12001],[104.51592,-5.1173],[104.52456,-5.11067],[104.53295,-5.10712],[104.55893,-5.08061],[104.56526,-5.07003],[104.57663,-5.06437],[104.58036,-5.05758],[104.57276,-5.04322],[104.56955,-5.02369],[104.56511,-5.02486],[104.5589,-5.01974],[104.55258,-5.02045],[104.53767,-5.0154],[104.5345,-5.02109],[104.52776,-5.02281],[104.51277,-5.02172],[104.49897,-5.01608],[104.49657,-5.00419],[104.4999,-4.99824],[104.49938,-4.98582],[104.50146,-4.97924],[104.49691,-4.97247],[104.50163,-4.95871],[104.50089,-4.95499],[104.49883,-4.94311],[104.47998,-4.93237],[104.4681,-4.93346],[104.45936,-4.94008],[104.44514,-4.94461],[104.43794,-4.93733],[104.43728,-4.92775],[104.44042,-4.92028],[104.42878,-4.91188],[104.4224,-4.90393],[104.4193,-4.89224],[104.41833,-4.87753],[104.41087,-4.86564],[104.40638,-4.8687],[104.38653,-4.87303],[104.3817,-4.86969],[104.36805,-4.87067],[104.36364,-4.86901],[104.3528,-4.87458],[104.34051,-4.86476],[104.33345,-4.87221],[104.31303,-4.88393],[104.30289,-4.8798],[104.29904,-4.87299],[104.29326,-4.86899],[104.29339,-4.86],[104.28662,-4.85569],[104.2808,-4.85713],[104.27854,-4.86915],[104.27189,-4.8754],[104.25505,-4.8802],[104.24412,-4.88165],[104.23984,-4.87959],[104.22945,-4.86735],[104.21506,-4.85849],[104.20276,-4.86236],[104.19443,-4.86203],[104.18657,-4.89161],[104.17424,-4.9081],[104.16498,-4.91715],[104.1627,-4.92201],[104.15212,-4.9253],[104.13515,-4.92206],[104.12218,-4.92392],[104.10753,-4.92311],[104.08854,-4.9166],[104.07063,-4.9071],[104.0652,-4.89272],[104.05761,-4.89001],[104.05137,-4.89381],[104.0473,-4.90086],[104.01061,-4.9066],[103.95981,-4.91086],[103.94722,-4.89781],[103.94336,-4.89718],[103.93173,-4.90234],[103.92827,-4.91642],[103.91801,-4.91164],[103.91372,-4.92018],[103.91881,-4.92787],[103.92493,-4.92894],[103.91823,-4.93757],[103.92299,-4.94268],[103.91791,-4.95148],[103.91587,-4.96002],[103.90918,-4.95289],[103.90275,-4.94981],[103.89993,-4.9417],[103.89037,-4.93609],[103.88528,-4.92766],[103.88115,-4.92636],[103.86143,-4.92668],[103.85252,-4.92328],[103.85122,-4.91924],[103.85765,-4.90998],[103.86467,-4.90443],[103.86454,-4.89443],[103.87495,-4.88405]]]}}