{"type":"Feature","properties":{"id":"IDN.16.12","name":"Jeneponto","level":2,"country":"IDN"},"geometry":{"type":"MultiPolygon","coordinates":[[[[119.59818,-5.64748],[119.5978,-5.64935],[119.60188,-5.64908],[119.60189,-5.64794],[119.59818,-5.64748]]],[[[119.52707,-5.59497],[119.52805,-5.59263],[119.52713,-5.58976],[119.52444,-5.59367],[119.52707,-5.59497]]],[[[119.51773,-5.58774],[119.51438,-5.59063],[119.51826,-5.5935],[119.52018,-5.58927],[119.51773,-5.58774]]],[[[119.93738,-5.38669],[119.93064,-5.39506],[119.91929,-5.40066],[119.90845,-5.42012],[119.8919,-5.42231],[119.87751,-5.43167],[119.87405,-5.43187],[119.86294,-5.44694],[119.86022,-5.44762],[119.85299,-5.46028],[119.84839,-5.46288],[119.83696,-5.48133],[119.83295,-5.49608],[119.83315,-5.50428],[119.81837,-5.51718],[119.81429,-5.52637],[119.81609,-5.53499],[119.80958,-5.53767],[119.80498,-5.54441],[119.8044,-5.5549],[119.79462,-5.55641],[119.79064,-5.56269],[119.78195,-5.56691],[119.7749,-5.5655],[119.75503,-5.56756],[119.74768,-5.56604],[119.73907,-5.56098],[119.73027,-5.56133],[119.72169,-5.555],[119.72129,-5.54962],[119.70651,-5.54508],[119.70094,-5.5307],[119.7048,-5.52251],[119.70304,-5.51097],[119.70572,-5.50622],[119.69933,-5.50119],[119.6864,-5.50053],[119.67198,-5.51449],[119.66494,-5.5075],[119.66288,-5.49358],[119.65834,-5.48643],[119.66402,-5.47821],[119.65151,-5.46918],[119.64191,-5.47067],[119.63113,-5.4754],[119.63876,-5.4584],[119.6483,-5.45282],[119.64478,-5.44429],[119.63617,-5.4312],[119.63281,-5.43492],[119.6124,-5.43734],[119.60826,-5.44097],[119.60017,-5.43954],[119.58352,-5.44115],[119.57343,-5.44686],[119.5564,-5.4404],[119.54188,-5.43347],[119.53642,-5.43524],[119.52993,-5.43191],[119.52422,-5.44043],[119.52356,-5.44606],[119.50574,-5.45703],[119.50963,-5.46875],[119.51752,-5.47528],[119.52154,-5.4854],[119.51363,-5.48937],[119.48682,-5.49242],[119.48861,-5.50506],[119.48717,-5.51096],[119.50532,-5.52326],[119.51103,-5.5368],[119.51595,-5.5472],[119.51179,-5.55348],[119.51765,-5.55881],[119.51029,-5.5652],[119.51278,-5.56929],[119.52335,-5.57424],[119.53385,-5.58601],[119.54217,-5.5837],[119.54689,-5.58661],[119.55769,-5.59832],[119.56345,-5.59996],[119.56902,-5.60569],[119.56379,-5.6121],[119.55747,-5.60514],[119.5505,-5.60357],[119.55006,-5.61327],[119.54671,-5.6228],[119.54718,-5.63806],[119.55675,-5.64852],[119.57458,-5.65805],[119.58763,-5.6459],[119.58758,-5.62651],[119.58362,-5.62172],[119.58505,-5.6147],[119.59166,-5.61311],[119.59373,-5.61792],[119.6035,-5.61713],[119.61206,-5.61283],[119.61653,-5.61696],[119.61704,-5.62513],[119.62797,-5.62468],[119.63787,-5.62942],[119.6502,-5.62837],[119.65412,-5.63892],[119.65992,-5.64819],[119.65675,-5.65447],[119.65041,-5.65417],[119.64053,-5.66025],[119.64083,-5.6721],[119.64736,-5.68213],[119.65887,-5.6836],[119.67295,-5.69488],[119.68512,-5.6965],[119.69248,-5.70084],[119.70461,-5.70294],[119.72982,-5.70225],[119.73945,-5.69817],[119.74588,-5.70085],[119.76433,-5.70296],[119.7943,-5.70071],[119.81042,-5.68831],[119.82232,-5.6732],[119.83905,-5.67259],[119.85003,-5.66515],[119.85439,-5.65645],[119.84434,-5.64916],[119.84389,-5.64157],[119.84004,-5.63454],[119.86256,-5.63352],[119.8606,-5.62728],[119.8662,-5.61754],[119.86694,-5.60892],[119.87491,-5.6138],[119.87676,-5.60798],[119.88807,-5.59579],[119.89539,-5.59403],[119.90451,-5.58456],[119.90734,-5.57679],[119.90869,-5.57005],[119.89814,-5.55719],[119.89067,-5.56247],[119.88277,-5.55671],[119.87439,-5.55658],[119.86628,-5.55286],[119.85627,-5.55433],[119.86144,-5.54053],[119.86252,-5.53054],[119.85845,-5.51928],[119.87601,-5.52739],[119.8734,-5.51871],[119.87594,-5.50933],[119.87414,-5.50424],[119.8786,-5.49944],[119.87963,-5.49066],[119.89629,-5.47674],[119.89919,-5.46157],[119.9064,-5.45582],[119.9123,-5.44276],[119.92349,-5.43495],[119.92626,-5.42026],[119.93686,-5.40809],[119.93738,-5.38669]]]]}}