{"type":"Feature","properties":{"id":"IDN.32.4","name":"Banggai Kepulauan","level":2,"country":"IDN"},"geometry":{"type":"MultiPolygon","coordinates":[[[[123.32164,-1.21841],[123.32601,-1.2015],[123.32568,-1.19053],[123.3197,-1.17829],[123.31229,-1.17415],[123.30403,-1.17713],[123.27919,-1.19577],[123.27893,-1.20564],[123.27477,-1.21564],[123.2803,-1.22169],[123.28099,-1.22873],[123.2856,-1.23798],[123.29458,-1.26951],[123.29424,-1.27495],[123.29944,-1.28374],[123.31097,-1.27322],[123.31603,-1.25003],[123.31532,-1.23527],[123.32164,-1.21841]]],[[[123.17119,-1.14904],[123.16358,-1.1522],[123.16077,-1.18659],[123.15095,-1.19803],[123.14483,-1.21121],[123.13894,-1.20792],[123.13327,-1.19239],[123.12049,-1.17916],[123.109,-1.16282],[123.0981,-1.16245],[123.08525,-1.17033],[123.07431,-1.17023],[123.06027,-1.17553],[123.04592,-1.17869],[123.03293,-1.17782],[123.01747,-1.19007],[123.00228,-1.19367],[122.98479,-1.20394],[122.97777,-1.20344],[122.97182,-1.2162],[122.96709,-1.21519],[122.95463,-1.1947],[122.94589,-1.18546],[122.9371,-1.18239],[122.927,-1.18407],[122.91212,-1.18031],[122.90516,-1.1825],[122.89936,-1.19005],[122.89879,-1.19882],[122.89137,-1.20804],[122.88214,-1.21509],[122.88219,-1.22769],[122.87628,-1.23487],[122.87103,-1.24982],[122.86256,-1.25872],[122.85729,-1.25976],[122.84611,-1.26887],[122.83627,-1.27323],[122.82419,-1.28846],[122.82045,-1.30417],[122.81568,-1.30777],[122.81349,-1.32529],[122.81669,-1.33348],[122.80426,-1.34747],[122.80385,-1.35771],[122.79608,-1.37114],[122.7973,-1.37752],[122.79354,-1.38535],[122.79351,-1.40222],[122.79033,-1.41812],[122.79412,-1.42674],[122.79331,-1.43964],[122.78801,-1.44488],[122.79135,-1.45234],[122.78923,-1.45902],[122.79359,-1.47203],[122.78959,-1.4779],[122.79201,-1.48455],[122.79838,-1.4917],[122.8133,-1.48348],[122.81989,-1.48362],[122.82268,-1.49206],[122.8263,-1.49314],[122.82405,-1.50492],[122.82781,-1.5133],[122.84102,-1.52587],[122.84713,-1.54262],[122.8524,-1.55039],[122.8542,-1.55893],[122.84955,-1.5675],[122.84905,-1.57801],[122.86278,-1.58671],[122.86866,-1.59566],[122.88241,-1.60112],[122.90468,-1.59999],[122.91149,-1.59723],[122.92442,-1.5852],[122.93118,-1.56623],[122.93823,-1.56119],[122.94017,-1.55203],[122.94638,-1.54477],[122.95323,-1.54175],[122.95862,-1.54662],[122.96362,-1.54641],[122.96476,-1.53862],[122.9692,-1.53778],[122.979,-1.52534],[122.98369,-1.52381],[122.99111,-1.51434],[122.99875,-1.51604],[123.00318,-1.50035],[123.00893,-1.50316],[123.01139,-1.49572],[123.01694,-1.49276],[123.02265,-1.4756],[123.02473,-1.46397],[123.0287,-1.45679],[123.02955,-1.4426],[123.0354,-1.43877],[123.03858,-1.41901],[123.04307,-1.41799],[123.05372,-1.39977],[123.05741,-1.38938],[123.0612,-1.38738],[123.07935,-1.36132],[123.08535,-1.35657],[123.08855,-1.34842],[123.09676,-1.34554],[123.0967,-1.34135],[123.1036,-1.33194],[123.11,-1.31412],[123.11928,-1.30936],[123.12187,-1.3186],[123.12993,-1.31323],[123.13514,-1.3014],[123.1418,-1.29731],[123.14999,-1.29684],[123.16115,-1.30246],[123.15924,-1.32607],[123.1569,-1.3292],[123.15601,-1.34393],[123.15845,-1.35274],[123.15641,-1.36853],[123.1609,-1.38377],[123.16924,-1.39519],[123.1637,-1.40154],[123.16707,-1.42184],[123.17264,-1.42827],[123.16696,-1.44644],[123.17232,-1.45336],[123.17287,-1.46422],[123.1765,-1.4702],[123.17447,-1.47598],[123.17856,-1.48476],[123.17597,-1.49839],[123.18052,-1.50065],[123.18484,-1.51437],[123.16858,-1.53585],[123.16088,-1.54111],[123.15322,-1.54207],[123.14471,-1.54628],[123.14323,-1.55113],[123.13102,-1.56081],[123.12603,-1.56846],[123.11918,-1.56469],[123.10744,-1.5666],[123.10644,-1.5722],[123.10006,-1.57973],[123.09783,-1.59257],[123.10149,-1.60376],[123.11143,-1.59118],[123.10876,-1.60517],[123.1149,-1.61225],[123.12988,-1.61196],[123.13309,-1.6074],[123.15069,-1.61711],[123.15526,-1.63131],[123.1533,-1.63668],[123.16296,-1.64021],[123.17172,-1.6285],[123.17684,-1.6345],[123.18225,-1.62632],[123.19423,-1.61426],[123.2076,-1.6173],[123.20603,-1.61045],[123.21585,-1.60434],[123.22467,-1.60153],[123.23174,-1.60202],[123.23161,-1.61752],[123.23366,-1.63276],[123.23683,-1.64424],[123.243,-1.64934],[123.25526,-1.63835],[123.26067,-1.62549],[123.2566,-1.61452],[123.25824,-1.60914],[123.254,-1.6019],[123.24515,-1.59607],[123.23767,-1.60314],[123.23684,-1.59488],[123.24415,-1.58682],[123.24267,-1.57374],[123.23996,-1.56954],[123.23827,-1.55587],[123.24105,-1.54282],[123.24575,-1.54082],[123.24607,-1.52935],[123.25071,-1.51898],[123.24749,-1.51051],[123.24717,-1.49971],[123.25677,-1.48771],[123.25389,-1.47265],[123.25884,-1.467],[123.25696,-1.46148],[123.25641,-1.44253],[123.27143,-1.44404],[123.28236,-1.43679],[123.28372,-1.42002],[123.29965,-1.4104],[123.30296,-1.41397],[123.31137,-1.41466],[123.32247,-1.42601],[123.32115,-1.43573],[123.32542,-1.44301],[123.32886,-1.45446],[123.34089,-1.46521],[123.34095,-1.46955],[123.34804,-1.47339],[123.35536,-1.47321],[123.35258,-1.48327],[123.3555,-1.51405],[123.35376,-1.52323],[123.35896,-1.52422],[123.36518,-1.50054],[123.37111,-1.49802],[123.3805,-1.50287],[123.38867,-1.50225],[123.40446,-1.52175],[123.41155,-1.52262],[123.42601,-1.51514],[123.43665,-1.51993],[123.43963,-1.51739],[123.43765,-1.50681],[123.44327,-1.50642],[123.44981,-1.51561],[123.45761,-1.51519],[123.46314,-1.50323],[123.47002,-1.49785],[123.4694,-1.48649],[123.47302,-1.48055],[123.4708,-1.47005],[123.47394,-1.46058],[123.48618,-1.46995],[123.49731,-1.46668],[123.50396,-1.45986],[123.50891,-1.45988],[123.51885,-1.44526],[123.52424,-1.43394],[123.53,-1.41298],[123.53949,-1.39579],[123.53678,-1.38783],[123.5398,-1.3791],[123.5344,-1.36722],[123.53898,-1.35372],[123.55156,-1.34358],[123.55257,-1.33629],[123.55745,-1.33045],[123.55978,-1.30948],[123.55744,-1.3072],[123.55565,-1.293],[123.55954,-1.28238],[123.55309,-1.27625],[123.5499,-1.27848],[123.54049,-1.27406],[123.5308,-1.27382],[123.51807,-1.26265],[123.51381,-1.26618],[123.49937,-1.27032],[123.48736,-1.2697],[123.48042,-1.2637],[123.47303,-1.24977],[123.46792,-1.24825],[123.45748,-1.24046],[123.44345,-1.23891],[123.4401,-1.24133],[123.43964,-1.25263],[123.44563,-1.26681],[123.42976,-1.26992],[123.42071,-1.26291],[123.41601,-1.25477],[123.40956,-1.2586],[123.4038,-1.25241],[123.4043,-1.24319],[123.41159,-1.23555],[123.41466,-1.22892],[123.40819,-1.2245],[123.40109,-1.23442],[123.39168,-1.22923],[123.39103,-1.22287],[123.38115,-1.22061],[123.36476,-1.2273],[123.3451,-1.25297],[123.33059,-1.26724],[123.32412,-1.28151],[123.32297,-1.29267],[123.31389,-1.30413],[123.30356,-1.3079],[123.29678,-1.30505],[123.28923,-1.30908],[123.29097,-1.31357],[123.27918,-1.32922],[123.28301,-1.34102],[123.28739,-1.34607],[123.28384,-1.35843],[123.27339,-1.36911],[123.26922,-1.37759],[123.26986,-1.38203],[123.26063,-1.38981],[123.24707,-1.39052],[123.2444,-1.39824],[123.23697,-1.39677],[123.23044,-1.39052],[123.23139,-1.38534],[123.23877,-1.38275],[123.23003,-1.37552],[123.22735,-1.35935],[123.21978,-1.35178],[123.21922,-1.36519],[123.20633,-1.34307],[123.20196,-1.33333],[123.19073,-1.31955],[123.18362,-1.32065],[123.18603,-1.30638],[123.1956,-1.29649],[123.19795,-1.28439],[123.19613,-1.27028],[123.19024,-1.26739],[123.19125,-1.25928],[123.21339,-1.27267],[123.22377,-1.26281],[123.22706,-1.24831],[123.22996,-1.24791],[123.23362,-1.23598],[123.24873,-1.22939],[123.24602,-1.22446],[123.2294,-1.21528],[123.22138,-1.20863],[123.21652,-1.19125],[123.20556,-1.18018],[123.19923,-1.17087],[123.1935,-1.15354],[123.18902,-1.15042],[123.17119,-1.14904]]]]}}