{"type":"Feature","properties":{"id":"IDN.16.8","name":"Kota Palopo","level":2,"country":"IDN"},"geometry":{"type":"MultiPolygon","coordinates":[[[[120.20237,-2.96609],[120.20307,-2.96487],[120.19935,-2.96187],[120.20003,-2.96632],[120.20237,-2.96609]]],[[[120.20115,-2.95837],[120.20125,-2.9599],[120.20377,-2.95943],[120.20115,-2.95837]]],[[[120.22983,-2.95263],[120.22418,-2.94701],[120.23278,-2.93997],[120.23048,-2.93417],[120.22228,-2.92729],[120.2157,-2.91275],[120.2208,-2.90255],[120.21701,-2.89636],[120.20833,-2.89462],[120.19946,-2.89021],[120.17972,-2.89173],[120.17166,-2.8867],[120.15942,-2.88927],[120.13998,-2.90328],[120.12375,-2.90967],[120.11402,-2.91142],[120.09816,-2.91832],[120.09415,-2.91777],[120.08343,-2.93199],[120.0796,-2.9309],[120.07084,-2.93492],[120.06084,-2.94866],[120.0558,-2.9532],[120.04829,-2.95401],[120.05092,-2.96033],[120.05906,-2.96772],[120.05262,-2.98279],[120.05623,-2.98767],[120.0718,-3.00098],[120.08429,-3.00641],[120.08315,-3.01227],[120.08597,-3.02173],[120.0829,-3.03107],[120.09314,-3.03567],[120.10004,-3.04744],[120.11246,-3.05621],[120.11766,-3.06541],[120.12353,-3.06907],[120.12672,-3.07562],[120.13427,-3.08026],[120.13878,-3.08685],[120.14851,-3.08096],[120.15032,-3.07281],[120.16021,-3.07182],[120.16373,-3.06883],[120.16563,-3.05728],[120.17786,-3.05366],[120.18926,-3.0545],[120.20759,-3.05962],[120.21599,-3.05671],[120.22947,-3.04325],[120.22372,-3.01956],[120.22182,-3.00758],[120.21236,-2.99384],[120.20305,-2.98986],[120.18818,-2.97712],[120.18907,-2.96833],[120.1994,-2.95729],[120.21626,-2.95698],[120.22983,-2.95263]]]]}}