{"type":"Feature","properties":{"id":"IDN.27.18","name":"Pasaman Barat","level":2,"country":"IDN"},"geometry":{"type":"MultiPolygon","coordinates":[[[[99.36092,0.12358],[99.36247,0.1255],[99.3617,0.12676],[99.35962,0.12514],[99.36092,0.12358]]],[[[99.29479,0.13889],[99.29482,0.14355],[99.29369,0.14438],[99.29247,0.13985],[99.29479,0.13889]]],[[[99.28169,0.17818],[99.27951,0.17296],[99.28371,0.1716],[99.28169,0.17818]]],[[[99.29991,0.18769],[99.29692,0.18692],[99.29858,0.18472],[99.29991,0.18769]]],[[[99.31124,0.19503],[99.3022,0.18694],[99.30446,0.18163],[99.31205,0.18461],[99.31124,0.19503]]],[[[99.28798,0.22769],[99.27968,0.21938],[99.28738,0.20998],[99.2919,0.20909],[99.29614,0.21654],[99.29137,0.22688],[99.28798,0.22769]]],[[[100.03746,-0.0815],[100.03361,-0.06786],[100.03608,-0.06353],[100.03075,-0.05817],[100.03441,-0.05153],[100.0434,-0.04221],[100.04764,-0.03258],[100.02528,-0.01539],[100.02039,-0.01492],[100.01522,-0.00713],[100.01069,0.00654],[99.99808,0.01005],[99.98373,0.02783],[99.97584,0.03009],[99.96646,0.0465],[99.96174,0.05077],[99.95968,0.06231],[99.96677,0.06466],[99.98149,0.07468],[99.98681,0.0838],[99.99305,0.08933],[99.99412,0.09577],[99.99991,0.10227],[100.01082,0.1269],[100.01333,0.14468],[100.01652,0.15561],[100.01366,0.16323],[100.01448,0.16981],[100.01072,0.18748],[100.01382,0.19626],[100.02511,0.21476],[100.02953,0.22631],[100.03084,0.23585],[100.02712,0.25667],[100.01538,0.26218],[100.01286,0.27495],[99.99829,0.27721],[99.98764,0.28234],[99.98169,0.27737],[99.96803,0.27764],[99.96305,0.28476],[99.95548,0.28665],[99.95145,0.29192],[99.93352,0.29371],[99.92802,0.29884],[99.91362,0.30403],[99.89354,0.30403],[99.88057,0.29902],[99.86681,0.29155],[99.85502,0.29418],[99.84775,0.30288],[99.82485,0.30765],[99.82194,0.30404],[99.81079,0.29961],[99.79515,0.29832],[99.79075,0.30186],[99.78871,0.31859],[99.78184,0.3205],[99.76836,0.30994],[99.75664,0.31716],[99.75278,0.32754],[99.75367,0.33587],[99.76024,0.34603],[99.77284,0.34929],[99.77684,0.3586],[99.76201,0.37018],[99.74367,0.3822],[99.75005,0.39728],[99.76978,0.3987],[99.77435,0.40148],[99.77823,0.41869],[99.78467,0.41761],[99.79475,0.41231],[99.80289,0.41632],[99.81522,0.41338],[99.82541,0.41697],[99.83046,0.42793],[99.83041,0.44092],[99.82033,0.46052],[99.80881,0.46507],[99.80642,0.47141],[99.78742,0.48157],[99.7809,0.48217],[99.7577,0.47745],[99.75136,0.47904],[99.73903,0.47478],[99.73513,0.46406],[99.72912,0.45491],[99.72012,0.45236],[99.7087,0.45917],[99.70079,0.46809],[99.68281,0.46919],[99.67632,0.47598],[99.67406,0.48431],[99.66636,0.49111],[99.66535,0.50167],[99.66158,0.50709],[99.66538,0.51618],[99.65555,0.53124],[99.64931,0.53235],[99.64942,0.54015],[99.6383,0.54696],[99.63029,0.54271],[99.61933,0.53012],[99.60834,0.52483],[99.59782,0.52395],[99.59045,0.51597],[99.58337,0.51573],[99.57641,0.51013],[99.55934,0.51057],[99.54689,0.51751],[99.53049,0.52181],[99.51358,0.5394],[99.51978,0.54571],[99.51918,0.55198],[99.50378,0.53948],[99.4896,0.52961],[99.46873,0.52362],[99.46277,0.51638],[99.4459,0.50642],[99.4373,0.49567],[99.42909,0.49197],[99.41179,0.49301],[99.4057,0.48918],[99.39785,0.46493],[99.38833,0.45531],[99.38478,0.44917],[99.36612,0.4314],[99.36087,0.41178],[99.34981,0.38633],[99.33406,0.358],[99.31738,0.33465],[99.31461,0.3335],[99.29733,0.33688],[99.26554,0.33716],[99.24869,0.33251],[99.23673,0.32267],[99.22477,0.30791],[99.19977,0.28959],[99.19433,0.28221],[99.19518,0.27353],[99.19259,0.26977],[99.18396,0.25422],[99.19163,0.25238],[99.19325,0.24208],[99.1919,0.23555],[99.20348,0.23351],[99.20492,0.22537],[99.2209,0.21033],[99.2326,0.21545],[99.23698,0.20774],[99.24359,0.2168],[99.26441,0.20361],[99.26389,0.21508],[99.26744,0.22241],[99.2735,0.22161],[99.28422,0.22457],[99.2852,0.22827],[99.29712,0.22881],[99.30398,0.23527],[99.31439,0.23784],[99.33678,0.23749],[99.35336,0.23192],[99.36176,0.22661],[99.35858,0.22],[99.37749,0.20731],[99.37659,0.1969],[99.37389,0.19086],[99.39242,0.18654],[99.38751,0.17303],[99.39193,0.15995],[99.39826,0.15118],[99.41277,0.15276],[99.42332,0.14715],[99.43339,0.14699],[99.47787,0.13279],[99.6171,0.06593],[99.65365,0.04177],[99.68295,0.01327],[99.68489,0.00782],[99.69119,0.00219],[99.72983,-0.02053],[99.74027,-0.02937],[99.7557,-0.04923],[99.76228,-0.06334],[99.76353,-0.06996],[99.7575,-0.08337],[99.75931,-0.11169],[99.75722,-0.11935],[99.74863,-0.13394],[99.74567,-0.14412],[99.75637,-0.15523],[99.76788,-0.17093],[99.80453,-0.17616],[99.81953,-0.1684],[99.83145,-0.16913],[99.83785,-0.16299],[99.84526,-0.16855],[99.85108,-0.16182],[99.85908,-0.16299],[99.87268,-0.15949],[99.88489,-0.16198],[99.89798,-0.15715],[99.90176,-0.16066],[99.90816,-0.15832],[99.9147,-0.16271],[99.91862,-0.15598],[99.93301,-0.14861],[99.93992,-0.15052],[99.94385,-0.14525],[99.95097,-0.14861],[99.96929,-0.13837],[99.98092,-0.13867],[99.9831,-0.14437],[99.99197,-0.13954],[100.00106,-0.14376],[100.00482,-0.13477],[100.00447,-0.12849],[100.01341,-0.11903],[100.01623,-0.10352],[100.01529,-0.09773],[100.02258,-0.0937],[100.03179,-0.09176],[100.03746,-0.0815]]]]}}