{"type":"Feature","properties":{"id":"GHA.10.24","name":"Akatsi South","level":2,"country":"GHA"},"geometry":{"type":"Polygon","coordinates":[[[0.88528,6.19556],[0.8793,6.19904],[0.8665,6.21206],[0.85604,6.21717],[0.85177,6.22224],[0.83158,6.22228],[0.82538,6.2176],[0.8215,6.21982],[0.82201,6.19851],[0.82058,6.18434],[0.81539,6.18369],[0.80977,6.17616],[0.80251,6.1777],[0.79498,6.17373],[0.79545,6.1816],[0.79267,6.19504],[0.78454,6.19642],[0.77531,6.19172],[0.77583,6.19879],[0.77374,6.20276],[0.7777,6.21186],[0.77672,6.22036],[0.77867,6.22357],[0.7754,6.23589],[0.77783,6.24634],[0.78214,6.25558],[0.78458,6.2663],[0.78258,6.27181],[0.78577,6.27528],[0.7872,6.28419],[0.793,6.29466],[0.7931,6.30692],[0.79055,6.3219],[0.78622,6.33455],[0.77858,6.35096],[0.76851,6.34943],[0.76377,6.34137],[0.75913,6.3505],[0.75574,6.35335],[0.74774,6.35134],[0.73791,6.34671],[0.72818,6.3447],[0.72427,6.3409],[0.71451,6.34211],[0.70795,6.33666],[0.69769,6.33321],[0.69364,6.3176],[0.69448,6.31276],[0.6886,6.30599],[0.68149,6.30828],[0.67714,6.30159],[0.67694,6.2931],[0.68078,6.28562],[0.6861,6.28479],[0.69852,6.26814],[0.69952,6.26534],[0.69858,6.25018],[0.70021,6.24137],[0.70666,6.23254],[0.70636,6.22795],[0.71153,6.22307],[0.71743,6.22305],[0.7138,6.21232],[0.72166,6.18611],[0.71853,6.17595],[0.7221,6.16832],[0.71991,6.16657],[0.72129,6.15798],[0.71877,6.1547],[0.72531,6.14338],[0.72464,6.1306],[0.7174,6.11953],[0.72262,6.11882],[0.73356,6.10242],[0.75225,6.08602],[0.75194,6.07855],[0.75522,6.07146],[0.75448,6.06395],[0.75101,6.06123],[0.75088,6.05449],[0.74499,6.04722],[0.73932,6.04536],[0.73114,6.03434],[0.73184,6.02743],[0.71544,6.01518],[0.71084,6.01477],[0.7112,6.00874],[0.70481,5.99262],[0.70835,5.98911],[0.72569,5.98321],[0.72971,5.97613],[0.74074,5.96887],[0.75458,5.96895],[0.76353,5.95634],[0.76639,5.95492],[0.77166,5.96124],[0.78524,5.9666],[0.79291,5.96332],[0.79892,5.95828],[0.80372,5.96317],[0.81199,5.98329],[0.82094,5.99802],[0.82257,6.00345],[0.82926,6.00121],[0.83024,6.0061],[0.83463,6.00953],[0.85266,6.0033],[0.86073,6.00522],[0.8593,6.03526],[0.84776,6.03456],[0.84011,6.03745],[0.84411,6.04463],[0.8559,6.05814],[0.85697,6.06811],[0.86305,6.06973],[0.88428,6.11792],[0.87785,6.12288],[0.88668,6.13184],[0.88674,6.14296],[0.87766,6.14856],[0.87551,6.15516],[0.87925,6.15796],[0.87407,6.16358],[0.87503,6.17272],[0.87809,6.17675],[0.87936,6.18826],[0.88528,6.19556]]]}}