{"type":"Feature","properties":{"id":"GHA.1.23","name":"East Mamprusi","level":2,"country":"GHA"},"geometry":{"type":"Polygon","coordinates":[[[-0.00675,10.33053],[-0.00562,10.3367],[-0.00933,10.34914],[-0.02036,10.3475],[-0.02194,10.35143],[-0.02824,10.35221],[-0.03547,10.35742],[-0.04113,10.35472],[-0.04738,10.35717],[-0.05138,10.36307],[-0.05635,10.36339],[-0.06305,10.35743],[-0.06741,10.35773],[-0.07603,10.3544],[-0.07655,10.35084],[-0.08276,10.34858],[-0.08723,10.34082],[-0.09883,10.33999],[-0.10056,10.34285],[-0.1163,10.34479],[-0.13599,10.35376],[-0.14329,10.35483],[-0.14826,10.36023],[-0.16286,10.3669],[-0.167,10.36636],[-0.17326,10.37644],[-0.18028,10.37433],[-0.18163,10.38106],[-0.17948,10.39072],[-0.18291,10.39488],[-0.18199,10.39917],[-0.18582,10.40844],[-0.19591,10.41355],[-0.2017,10.42572],[-0.21238,10.43628],[-0.21143,10.45176],[-0.21672,10.46342],[-0.2149,10.47393],[-0.21165,10.48171],[-0.21522,10.48458],[-0.21266,10.48996],[-0.21511,10.50265],[-0.22032,10.50382],[-0.2211,10.51649],[-0.2191,10.52517],[-0.22256,10.53581],[-0.22134,10.54623],[-0.21508,10.5546],[-0.20991,10.55479],[-0.20691,10.5601],[-0.20071,10.5623],[-0.19158,10.57211],[-0.19009,10.57835],[-0.20069,10.58503],[-0.21255,10.58666],[-0.21948,10.59448],[-0.22722,10.59722],[-0.23067,10.60218],[-0.23192,10.61017],[-0.24433,10.64372],[-0.24972,10.64303],[-0.26431,10.63422],[-0.26832,10.63328],[-0.2771,10.63917],[-0.28681,10.63857],[-0.2998,10.63357],[-0.30256,10.62882],[-0.31004,10.62369],[-0.32363,10.62174],[-0.32389,10.62545],[-0.33859,10.61949],[-0.34289,10.62034],[-0.34752,10.61904],[-0.3563,10.62568],[-0.36569,10.62513],[-0.3744,10.62139],[-0.38253,10.61394],[-0.39617,10.60823],[-0.4165,10.60327],[-0.43478,10.60295],[-0.44358,10.5997],[-0.45213,10.60152],[-0.46098,10.60765],[-0.46817,10.61802],[-0.47758,10.61905],[-0.48157,10.62143],[-0.49323,10.62419],[-0.49976,10.62327],[-0.50722,10.60697],[-0.50494,10.6018],[-0.50817,10.5911],[-0.50829,10.56717],[-0.52023,10.55875],[-0.52514,10.5577],[-0.54185,10.56562],[-0.54713,10.56979],[-0.55395,10.57175],[-0.56024,10.57025],[-0.56773,10.56465],[-0.57873,10.54928],[-0.58817,10.54865],[-0.59359,10.54612],[-0.59932,10.54759],[-0.60562,10.55227],[-0.61898,10.55572],[-0.63064,10.55266],[-0.64073,10.55559],[-0.65405,10.54848],[-0.66758,10.52697],[-0.66214,10.50113],[-0.67048,10.481],[-0.6537,10.47045],[-0.65056,10.45876],[-0.65209,10.45164],[-0.65622,10.44346],[-0.6595,10.41702],[-0.63273,10.41856],[-0.61771,10.42178],[-0.61277,10.41117],[-0.61584,10.40383],[-0.61539,10.39538],[-0.61025,10.38908],[-0.60591,10.38734],[-0.5948,10.36943],[-0.59076,10.35901],[-0.59225,10.35575],[-0.59031,10.34816],[-0.58625,10.34583],[-0.56825,10.3415],[-0.56408,10.33829],[-0.55184,10.33606],[-0.54551,10.32901],[-0.53604,10.32426],[-0.53048,10.32414],[-0.52149,10.32745],[-0.5199,10.32179],[-0.51204,10.31921],[-0.50978,10.31056],[-0.50572,10.30785],[-0.50445,10.31793],[-0.49429,10.326],[-0.48877,10.32265],[-0.48396,10.32746],[-0.45535,10.30167],[-0.44055,10.29902],[-0.42749,10.30189],[-0.39462,10.29767],[-0.3859,10.29793],[-0.37812,10.28846],[-0.37173,10.27507],[-0.36363,10.268],[-0.36175,10.26348],[-0.35667,10.26285],[-0.35375,10.26799],[-0.35461,10.27388],[-0.34197,10.27708],[-0.32738,10.28549],[-0.32328,10.28418],[-0.31571,10.29077],[-0.29554,10.29139],[-0.28426,10.28257],[-0.27173,10.27949],[-0.26943,10.27623],[-0.26105,10.27813],[-0.25572,10.28533],[-0.24835,10.28564],[-0.24533,10.28833],[-0.2383,10.28785],[-0.21578,10.27331],[-0.203,10.26581],[-0.19896,10.27341],[-0.19,10.27867],[-0.17886,10.27767],[-0.1764,10.27989],[-0.15886,10.28633],[-0.15494,10.29331],[-0.14264,10.29456],[-0.13112,10.292],[-0.11684,10.28721],[-0.10581,10.27821],[-0.09241,10.27034],[-0.08654,10.28971],[-0.08822,10.29503],[-0.0721,10.29507],[-0.04359,10.283],[-0.0248,10.27122],[-0.02966,10.29939],[-0.02872,10.30835],[-0.02565,10.3144],[-0.02502,10.32133],[-0.02135,10.32258],[-0.019,10.32859],[-0.00675,10.33053]]]}}