{"type":"Feature","properties":{"id":"BFA.36","name":"Tuy","level":1,"country":"BFA"},"geometry":{"type":"Polygon","coordinates":[[[-3.58706,11.75696],[-3.77307,11.7237],[-3.87224,11.77267],[-3.94903,11.85109],[-3.95776,11.73567],[-3.99068,11.63774],[-3.96957,11.54007],[-3.90642,11.46638],[-3.89014,11.38068],[-3.84906,11.35941],[-3.88175,11.19903],[-3.85947,11.14165],[-3.80152,11.14764],[-3.74204,11.07044],[-3.62489,10.96879],[-3.58613,10.9721],[-3.59665,11.02884],[-3.50291,11.12457],[-3.30269,11.17121],[-3.29008,11.22939],[-3.22853,11.31512],[-3.15711,11.34995],[-3.11554,11.32567],[-3.00521,11.3405],[-2.85863,11.28774],[-2.82843,11.43005],[-2.82928,11.51904],[-3.02562,11.57144],[-3.0757,11.56327],[-3.19698,11.48338],[-3.27711,11.45935],[-3.30977,11.54617],[-3.41994,11.6003],[-3.39617,11.67838],[-3.50838,11.71153],[-3.58706,11.75696]]]}}