{"type":"Feature","properties":{"id":"BFA.14","name":"Boulkiemdé","level":1,"country":"BFA"},"geometry":{"type":"Polygon","coordinates":[[[-2.31029,12.64807],[-2.25939,12.53314],[-2.34877,12.46482],[-2.41533,12.44495],[-2.39613,12.22509],[-2.47568,12.15551],[-2.43168,12.1082],[-2.48152,12.06007],[-2.47059,12.00376],[-2.41251,11.99025],[-2.34608,11.93873],[-2.24032,11.96496],[-2.25329,11.90188],[-2.23963,11.90953],[-2.09754,11.94496],[-2.04181,11.98175],[-1.97651,12.04304],[-1.95848,12.10231],[-1.87032,12.14494],[-1.79771,12.22267],[-1.82066,12.34261],[-1.91711,12.33287],[-2.02641,12.26799],[-2.0777,12.29752],[-2.00594,12.44537],[-1.92169,12.46074],[-1.87195,12.43526],[-1.78991,12.47314],[-1.82931,12.58714],[-1.92259,12.62099],[-1.94114,12.67726],[-2.00907,12.70762],[-2.17751,12.69765],[-2.31029,12.64807]]]}}