{"type":"Feature","properties":{"id":"ZWE.10.11","name":"Hurungwe","level":2,"country":"ZWE"},"geometry":{"type":"Polygon","coordinates":[[[29.33235,-17.43043],[29.34862,-17.43365],[29.35071,-17.42345],[29.37404,-17.42415],[29.38371,-17.42815],[29.38555,-17.41314],[29.39776,-17.39142],[29.40596,-17.39708],[29.41905,-17.39345],[29.42297,-17.37064],[29.44187,-17.3861],[29.46397,-17.39334],[29.48012,-17.39344],[29.48739,-17.38657],[29.50446,-17.38598],[29.511,-17.36975],[29.52761,-17.3674],[29.53609,-17.35444],[29.54534,-17.36325],[29.55153,-17.3543],[29.56609,-17.35393],[29.56691,-17.34471],[29.57768,-17.33925],[29.58583,-17.32227],[29.59364,-17.3257],[29.6092,-17.31989],[29.61703,-17.30834],[29.64146,-17.29444],[29.64525,-17.29755],[29.6651,-17.29435],[29.68423,-17.28441],[29.70238,-17.2827],[29.70025,-17.26625],[29.69168,-17.26546],[29.68229,-17.23453],[29.66828,-17.21462],[29.67522,-17.20319],[29.71534,-17.19515],[29.7247,-17.19583],[29.7301,-17.18361],[29.74955,-17.17691],[29.76722,-17.17401],[29.76944,-17.1661],[29.80038,-17.17809],[29.85601,-17.12876],[29.83633,-17.10133],[29.88115,-17.06866],[29.88526,-17.08288],[29.89919,-17.10407],[29.91297,-17.11091],[29.9187,-17.106],[29.93501,-17.1045],[29.94432,-17.10755],[29.95474,-17.09012],[29.95369,-17.07529],[29.96005,-17.06805],[29.95289,-17.0596],[29.96179,-17.05014],[29.95641,-17.03531],[29.96867,-17.02222],[29.96877,-17.00591],[29.97304,-16.99089],[29.98502,-16.96726],[29.99032,-16.95092],[29.97609,-16.94196],[29.97747,-16.92825],[29.98525,-16.90058],[29.98334,-16.89206],[29.9921,-16.88477],[29.98135,-16.87274],[29.9964,-16.87143],[30.00176,-16.85621],[30.01071,-16.85567],[30.02578,-16.82271],[30.03259,-16.81241],[30.02926,-16.80434],[30.03236,-16.78293],[30.02744,-16.76287],[30.01406,-16.7391],[30.00333,-16.69772],[29.99383,-16.69634],[29.98518,-16.67785],[29.97303,-16.66701],[29.97633,-16.65728],[29.96747,-16.64962],[29.97624,-16.63324],[29.97923,-16.61885],[29.97214,-16.60662],[29.97997,-16.60117],[29.97719,-16.59153],[29.98368,-16.58528],[29.97936,-16.57514],[29.99092,-16.52868],[29.97929,-16.51913],[29.98157,-16.50751],[29.99351,-16.50445],[29.99234,-16.49274],[30.00444,-16.48076],[30.00849,-16.46639],[30.00522,-16.45537],[30.0224,-16.43534],[30.01094,-16.42726],[30.01501,-16.41892],[30.02794,-16.4195],[30.0322,-16.40328],[30.0298,-16.39413],[30.04632,-16.39595],[30.04952,-16.38658],[30.05031,-16.36555],[30.06509,-16.34303],[30.06355,-16.33284],[30.07407,-16.32052],[30.08579,-16.31763],[30.0941,-16.29344],[30.09525,-16.27451],[30.09042,-16.25997],[30.09318,-16.24882],[30.09006,-16.228],[30.09557,-16.22785],[30.11993,-16.203],[30.12329,-16.19243],[30.14149,-16.17734],[30.13842,-16.16765],[30.11199,-16.15814],[30.10984,-16.1469],[30.07829,-16.10131],[30.07881,-16.09199],[30.10125,-16.05824],[30.09258,-16.03404],[30.08236,-16.0366],[30.06502,-16.02351],[30.0633,-16.00564],[30.04628,-16.0012],[30.05155,-15.98829],[30.15128,-15.9189],[30.33109,-15.75175],[30.33452,-15.7503],[30.31308,-15.71682],[30.28633,-15.70168],[30.28544,-15.64461],[30.26949,-15.63621],[30.26384,-15.62533],[30.25298,-15.62876],[30.24119,-15.64559],[30.21821,-15.66583],[30.18856,-15.6464],[30.17567,-15.62225],[30.1647,-15.61648],[30.13572,-15.61817],[30.11245,-15.62661],[30.07466,-15.62267],[30.05212,-15.63197],[30.02781,-15.63537],[30.00067,-15.6366],[29.98405,-15.64149],[29.96766,-15.64166],[29.95547,-15.63679],[29.94293,-15.6261],[29.91566,-15.61974],[29.8939,-15.62093],[29.88163,-15.61259],[29.83278,-15.60715],[29.80717,-15.60972],[29.78934,-15.60804],[29.77581,-15.61774],[29.74973,-15.62684],[29.73821,-15.62674],[29.70538,-15.6384],[29.67095,-15.64352],[29.6364,-15.66014],[29.61225,-15.66197],[29.60026,-15.65984],[29.58093,-15.64328],[29.55742,-15.64182],[29.54451,-15.65176],[29.52682,-15.6741],[29.49877,-15.68612],[29.47576,-15.68469],[29.46389,-15.68793],[29.43642,-15.68685],[29.42492,-15.68937],[29.40376,-15.70807],[29.39003,-15.71131],[29.36405,-15.70807],[29.34511,-15.71598],[29.33397,-15.72604],[29.30798,-15.73215],[29.29424,-15.74365],[29.24559,-15.7634],[29.22814,-15.76195],[29.21439,-15.76877],[29.19446,-15.79066],[29.15804,-15.81328],[29.11751,-15.84488],[29.09184,-15.86284],[29.0647,-15.87826],[29.04347,-15.90521],[29.03562,-15.92534],[29.02854,-15.93432],[29.01515,-15.94041],[28.98171,-15.93604],[28.96424,-15.9396],[28.92856,-15.93773],[28.91331,-15.94382],[28.90321,-15.96646],[28.88941,-15.98477],[28.88111,-16.00732],[28.87129,-16.02178],[28.85124,-16.03506],[28.8471,-16.04728],[28.85337,-16.07802],[28.86363,-16.10307],[28.86302,-16.12388],[28.85416,-16.1397],[28.83993,-16.15328],[28.83628,-16.16228],[28.83977,-16.18785],[28.83562,-16.21042],[28.84275,-16.23195],[28.8557,-16.23631],[28.855,-16.25192],[28.8357,-16.27536],[28.82297,-16.30592],[28.8284,-16.31969],[28.84055,-16.32606],[28.84403,-16.33968],[28.84049,-16.34923],[28.85109,-16.36818],[28.8462,-16.37862],[28.9315,-16.37626],[28.99719,-16.37312],[28.99893,-16.37198],[29.1553,-16.36563],[29.21437,-16.45917],[29.07632,-16.76556],[29.07935,-16.81766],[29.12476,-16.9459],[29.09966,-16.95398],[29.09008,-16.94867],[29.05817,-16.94529],[29.0101,-16.97247],[28.99886,-16.96496],[28.99301,-16.97088],[28.97082,-16.96885],[28.95864,-16.98109],[28.9321,-16.99961],[28.92024,-17.01867],[28.90405,-17.02387],[28.874,-17.02145],[28.85439,-17.03634],[28.85565,-17.04257],[28.86915,-17.04932],[28.87312,-17.05997],[28.8866,-17.05602],[28.90141,-17.0668],[28.92079,-17.09858],[28.92472,-17.11707],[28.93221,-17.13204],[28.93777,-17.15999],[28.94795,-17.16553],[28.95609,-17.18072],[28.96181,-17.20353],[28.9775,-17.22112],[28.98655,-17.2249],[29.01767,-17.22456],[29.02737,-17.23625],[29.0488,-17.24007],[29.06668,-17.24901],[29.07321,-17.27136],[29.1057,-17.27018],[29.11659,-17.28435],[29.12776,-17.28535],[29.16243,-17.29952],[29.18609,-17.30484],[29.21342,-17.3055],[29.22839,-17.29659],[29.24218,-17.30342],[29.25147,-17.31717],[29.27086,-17.33121],[29.2785,-17.35238],[29.27605,-17.37071],[29.28017,-17.38126],[29.29497,-17.3905],[29.3195,-17.41269],[29.32839,-17.41586],[29.33235,-17.43043]],[[29.69155,-16.79828],[29.71455,-16.8188],[29.71478,-16.83942],[29.70277,-16.84917],[29.69751,-16.83708],[29.68655,-16.836],[29.67083,-16.82807],[29.67295,-16.81082],[29.6857,-16.7984],[29.69155,-16.79828]]]}}