{"type":"Feature","properties":{"id":"ZWE.9.2","name":"Chivi","level":2,"country":"ZWE"},"geometry":{"type":"Polygon","coordinates":[[[31.05871,-20.92183],[31.03103,-20.88748],[31.01968,-20.86245],[31.01525,-20.84069],[30.99388,-20.80214],[30.97639,-20.77956],[30.9675,-20.77653],[30.95268,-20.76141],[30.93683,-20.75181],[30.92213,-20.75598],[30.91505,-20.73911],[30.89426,-20.71782],[30.87584,-20.721],[30.86028,-20.69943],[30.84339,-20.69257],[30.81432,-20.67424],[30.81079,-20.65904],[30.81195,-20.63618],[30.80797,-20.62063],[30.78844,-20.61621],[30.76682,-20.61495],[30.75058,-20.62548],[30.73424,-20.57862],[30.70952,-20.55159],[30.71243,-20.54157],[30.71012,-20.51987],[30.71653,-20.51102],[30.71085,-20.47916],[30.70281,-20.46246],[30.70443,-20.45316],[30.69817,-20.4382],[30.70348,-20.4313],[30.69667,-20.4153],[30.69952,-20.40775],[30.67763,-20.37863],[30.68211,-20.36172],[30.68456,-20.33737],[30.6693,-20.32792],[30.65258,-20.30921],[30.65299,-20.29213],[30.6399,-20.27581],[30.61746,-20.25523],[30.60552,-20.25113],[30.60786,-20.23676],[30.59355,-20.22765],[30.58464,-20.23704],[30.56692,-20.22224],[30.5449,-20.2196],[30.53901,-20.20838],[30.52727,-20.215],[30.51421,-20.21495],[30.50421,-20.20717],[30.49041,-20.20571],[30.48888,-20.19132],[30.47699,-20.18502],[30.45998,-20.16509],[30.44498,-20.13862],[30.44457,-20.11188],[30.45812,-20.10051],[30.43664,-20.07862],[30.42164,-20.05643],[30.42246,-20.04365],[30.42871,-20.03209],[30.44,-20.0334],[30.44029,-20.01583],[30.43389,-20.01154],[30.43139,-19.9861],[30.431,-19.99011],[30.35481,-19.99741],[30.33417,-19.99281],[30.3221,-19.99955],[30.24052,-20.00805],[30.21982,-20.01682],[30.14515,-20.02408],[30.14402,-20.03333],[30.17071,-20.05446],[30.19167,-20.06729],[30.18532,-20.08064],[30.18743,-20.09421],[30.17675,-20.10014],[30.1683,-20.11879],[30.15817,-20.12669],[30.16671,-20.15504],[30.16004,-20.18775],[30.14792,-20.19877],[30.15855,-20.20654],[30.19777,-20.17168],[30.27778,-20.22905],[30.27954,-20.24255],[30.2748,-20.25694],[30.2602,-20.2835],[30.24361,-20.32196],[30.24356,-20.33478],[30.25804,-20.35226],[30.2868,-20.35657],[30.31384,-20.36493],[30.32014,-20.37135],[30.31832,-20.38762],[30.33907,-20.41812],[30.3452,-20.42305],[30.36015,-20.41611],[30.37174,-20.43894],[30.39413,-20.45739],[30.41348,-20.47775],[30.41097,-20.48777],[30.44375,-20.52803],[30.46096,-20.55664],[30.4481,-20.56568],[30.44487,-20.57575],[30.45123,-20.59629],[30.44898,-20.62488],[30.45805,-20.64645],[30.47691,-20.65442],[30.48138,-20.66108],[30.47883,-20.6761],[30.49252,-20.68403],[30.51991,-20.68232],[30.52369,-20.6938],[30.51273,-20.72567],[30.51551,-20.74074],[30.52178,-20.74884],[30.54183,-20.75627],[30.55973,-20.77057],[30.59052,-20.77641],[30.62746,-20.75308],[30.63468,-20.77116],[30.63083,-20.78491],[30.64267,-20.78759],[30.64843,-20.80721],[30.6648,-20.80834],[30.67441,-20.81859],[30.67796,-20.83007],[30.70403,-20.82434],[30.70484,-20.83694],[30.7001,-20.86735],[30.68977,-20.89656],[30.69158,-20.90878],[30.70995,-20.91286],[30.73761,-20.91227],[30.76445,-20.89467],[30.77945,-20.88904],[30.81259,-20.91418],[30.81243,-20.92562],[30.82474,-20.92777],[30.85634,-20.94061],[30.87111,-20.95182],[30.90669,-20.95765],[30.92564,-20.96629],[30.9472,-20.96863],[30.96451,-20.97893],[30.98209,-20.99856],[31.00338,-20.99353],[31.01362,-21.00008],[31.02616,-21.0154],[31.03938,-21.01879],[31.04113,-20.99882],[31.05424,-20.92295],[31.05871,-20.92183]]]}}