{"type":"Feature","properties":{"id":"SOM.3.3","name":"BAIDOA","level":2,"country":"SOM"},"geometry":{"type":"Polygon","coordinates":[[[44.28,3.34],[44.25768,3.47627],[44.16633,3.63936],[44.0681,3.69413],[43.9782,3.74425],[43.73827,3.82821],[43.68,3.72],[43.58,3.61],[43.61016,3.52462],[43.60776,3.46455],[43.357,3.41626],[43.40545,3.33708],[43.36199,3.19406],[43.31761,3.1426],[43.23266,3.08336],[43.13,3.0323],[43.12133,3.02187],[43.17271,2.92318],[43.10574,2.77624],[43.11908,2.57025],[43.13,2.56954],[43.13,2.55],[43.46,2.5],[43.56,2.65],[44.28,3.34]]]}}