{"type":"Feature","properties":{"id":"SOM.1.9","name":"BADHAN","level":2,"country":"SOM"},"geometry":{"type":"Polygon","coordinates":[[[48.93133,11.24067],[48.87756,11.24942],[48.77561,11.29104],[48.69903,11.31132],[48.65882,11.32499],[48.59509,11.30779],[48.54151,11.31095],[48.51232,11.30631],[48.46965,11.28382],[48.4404,11.28177],[48.40541,11.28469],[48.38107,11.27343],[48.35631,11.27022],[48.31788,11.23164],[48.27865,11.213],[48.23945,11.20537],[48.21125,11.18277],[48.16221,11.13622],[48.13177,11.12576],[48.09425,11.13075],[48.07566,11.12522],[48.05355,11.12758],[48.03642,11.11952],[47.94915,11.11571],[47.91792,11.12678],[47.8956,11.11577],[47.87222,11.11285],[47.79307,11.11928],[47.75044,11.10871],[47.7768,10.7832],[47.84764,10.40019],[47.859,9.76822],[47.92722,9.72066],[48.57533,9.43565],[48.93105,9.64838],[49.00762,9.69621],[48.97515,10.35344],[48.96274,10.60478],[48.93133,11.24067]]]}}