{"type":"Feature","properties":{"id":"MOZ.2.3","name":"Manica","level":2,"country":"MOZ"},"geometry":{"type":"Polygon","coordinates":[[[33.06811,-18.34928],[33.06266,-18.35733],[33.05818,-18.38202],[33.04789,-18.37786],[33.03111,-18.3942],[33.02662,-18.41077],[33.01833,-18.4283],[33.02699,-18.43609],[33.02943,-18.44432],[33.02777,-18.46227],[33.02282,-18.47094],[32.99866,-18.48691],[32.98293,-18.49355],[32.97786,-18.48185],[32.96427,-18.48069],[32.94668,-18.49454],[32.92609,-18.50486],[32.91037,-18.50008],[32.89256,-18.51258],[32.87509,-18.52021],[32.90233,-18.54746],[32.89169,-18.57785],[32.91088,-18.58979],[32.91014,-18.60022],[32.91339,-18.61814],[32.96076,-18.6885],[32.96062,-18.70455],[32.95608,-18.71005],[32.94751,-18.74192],[32.93761,-18.76787],[32.9209,-18.78461],[32.90758,-18.79453],[32.88484,-18.79963],[32.87987,-18.79863],[32.84697,-18.77785],[32.81496,-18.77984],[32.79448,-18.79544],[32.77451,-18.79941],[32.76264,-18.81133],[32.74499,-18.81121],[32.73093,-18.82182],[32.72146,-18.82475],[32.70218,-18.83992],[32.71547,-18.86044],[32.72957,-18.88895],[32.72647,-18.89472],[32.72915,-18.91178],[32.74171,-18.92989],[32.69793,-18.93917],[32.70687,-18.96707],[32.71701,-19.02517],[32.77342,-19.02624],[32.78034,-19.01751],[32.80531,-19.01823],[32.82558,-19.0124],[32.84294,-19.00978],[32.8462,-19.02049],[32.84973,-19.04989],[32.84945,-19.06197],[32.86269,-19.07627],[32.87584,-19.07463],[32.87643,-19.08405],[32.88424,-19.10274],[32.86863,-19.14089],[32.86515,-19.17409],[32.88428,-19.17477],[32.89277,-19.16409],[32.92901,-19.15589],[32.98981,-19.1566],[33.01181,-19.14884],[33.0309,-19.14689],[33.05208,-19.13393],[33.05992,-19.1247],[33.07277,-19.11913],[33.08266,-19.1107],[33.095,-19.11751],[33.11527,-19.13529],[33.13164,-19.13752],[33.14002,-19.15593],[33.15017,-19.15699],[33.15397,-19.16625],[33.1512,-19.18471],[33.15981,-19.19441],[33.17482,-19.18947],[33.19201,-19.20089],[33.19745,-19.21096],[33.20898,-19.21612],[33.20959,-19.2004],[33.22016,-19.17376],[33.20706,-19.16355],[33.20288,-19.15576],[33.20695,-19.13067],[33.20042,-19.11045],[33.19924,-19.0967],[33.19237,-19.07717],[33.18041,-19.06723],[33.17861,-19.04891],[33.17184,-19.03929],[33.17372,-19.02391],[33.1829,-19.00233],[33.18282,-18.98675],[33.151,-18.94621],[33.15157,-18.91736],[33.13599,-18.91192],[33.12526,-18.915],[33.11524,-18.90945],[33.1011,-18.91573],[33.09438,-18.91418],[33.0891,-18.89817],[33.08809,-18.87388],[33.085,-18.8593],[33.07274,-18.83871],[33.07301,-18.81101],[33.07056,-18.79393],[33.08572,-18.79351],[33.098,-18.78926],[33.11254,-18.77422],[33.10467,-18.75816],[33.10324,-18.72772],[33.09527,-18.71431],[33.10639,-18.6837],[33.10026,-18.67333],[33.10381,-18.63283],[33.11405,-18.61771],[33.11403,-18.6011],[33.13064,-18.59059],[33.14486,-18.5781],[33.15129,-18.591],[33.1619,-18.5965],[33.17134,-18.59321],[33.18629,-18.59654],[33.201,-18.58951],[33.2119,-18.59539],[33.22476,-18.58814],[33.24379,-18.58907],[33.25469,-18.58637],[33.27097,-18.5934],[33.28153,-18.57763],[33.27372,-18.56591],[33.27569,-18.55216],[33.26719,-18.55259],[33.26537,-18.5337],[33.25464,-18.52437],[33.24148,-18.52145],[33.22852,-18.51288],[33.23215,-18.49712],[33.20449,-18.50001],[33.18469,-18.50699],[33.16539,-18.51008],[33.15709,-18.4974],[33.14807,-18.48963],[33.13679,-18.47212],[33.13747,-18.45615],[33.14396,-18.44322],[33.14009,-18.42832],[33.13072,-18.41186],[33.11932,-18.41731],[33.10434,-18.40906],[33.10699,-18.39871],[33.10427,-18.38888],[33.09105,-18.3861],[33.09104,-18.36366],[33.08533,-18.35994],[33.08563,-18.34541],[33.06811,-18.34928]]]}}