{"type":"Feature","properties":{"id":"MOZ.4.9","name":"Mandimba","level":2,"country":"MOZ"},"geometry":{"type":"Polygon","coordinates":[[[36.27206,-14.28636],[36.26749,-14.26391],[36.27094,-14.25652],[36.26473,-14.24752],[36.25189,-14.24263],[36.25233,-14.22965],[36.24215,-14.21042],[36.22477,-14.20834],[36.21307,-14.18979],[36.21005,-14.17289],[36.1953,-14.1517],[36.1947,-14.13764],[36.19736,-14.12124],[36.18582,-14.10726],[36.1815,-14.09549],[36.1804,-14.08814],[36.16916,-14.07857],[36.15666,-14.04973],[36.15745,-14.03777],[36.15104,-14.03154],[36.14176,-14.03129],[36.12719,-14.01229],[36.13277,-13.99721],[36.1279,-13.99063],[36.11276,-13.98781],[36.11165,-13.97488],[36.10298,-13.96544],[36.08962,-13.95956],[36.06614,-13.93992],[36.04901,-13.9351],[36.04477,-13.91994],[36.05753,-13.91394],[36.0597,-13.90754],[36.0542,-13.89622],[36.07257,-13.88],[36.06464,-13.86899],[36.06623,-13.86025],[36.08232,-13.84978],[36.09028,-13.85733],[36.10555,-13.84488],[36.11048,-13.85177],[36.12456,-13.84326],[36.10077,-13.82609],[36.09413,-13.79741],[36.06926,-13.78804],[36.04749,-13.78926],[36.04179,-13.80451],[36.0245,-13.80975],[35.99976,-13.82339],[35.99132,-13.82073],[35.98557,-13.83222],[35.97208,-13.83328],[35.97005,-13.84264],[35.95633,-13.83452],[35.93586,-13.83923],[35.93095,-13.84505],[35.91103,-13.83665],[35.87627,-13.80384],[35.86856,-13.80473],[35.86483,-13.81509],[35.85289,-13.82755],[35.84312,-13.82657],[35.82866,-13.84124],[35.82842,-13.8469],[35.81651,-13.8536],[35.79984,-13.87037],[35.79029,-13.88766],[35.78956,-13.89463],[35.77901,-13.89673],[35.76786,-13.8909],[35.75673,-13.90393],[35.73974,-13.91675],[35.74083,-13.92671],[35.73628,-13.93758],[35.72473,-13.94974],[35.72696,-13.95785],[35.69539,-13.97053],[35.68385,-13.9856],[35.67179,-13.99274],[35.66433,-14.00937],[35.65514,-14.02139],[35.65784,-14.02876],[35.65188,-14.03505],[35.65339,-14.04342],[35.64381,-14.05684],[35.63193,-14.06251],[35.62413,-14.06089],[35.60364,-14.0765],[35.5924,-14.06726],[35.58378,-14.07083],[35.5687,-14.0903],[35.5589,-14.09565],[35.53216,-14.09279],[35.51886,-14.09778],[35.51043,-14.09413],[35.4984,-14.09825],[35.48435,-14.10894],[35.46236,-14.1099],[35.45825,-14.09933],[35.44421,-14.09124],[35.4294,-14.09318],[35.41496,-14.08375],[35.41061,-14.06474],[35.39979,-14.0676],[35.38601,-14.05949],[35.48582,-14.17073],[35.51965,-14.25782],[35.62285,-14.3765],[35.63622,-14.39559],[35.87218,-14.67357],[35.87389,-14.66036],[35.86891,-14.64219],[35.86946,-14.63339],[35.8781,-14.61194],[35.8862,-14.59994],[35.89137,-14.58283],[35.90005,-14.57275],[35.89885,-14.56526],[35.88886,-14.54994],[35.89331,-14.53734],[35.90807,-14.53748],[35.91405,-14.52357],[35.91086,-14.5071],[35.91875,-14.49585],[35.91022,-14.48363],[35.92268,-14.43478],[35.91439,-14.41473],[35.92473,-14.39777],[35.94926,-14.39779],[35.95247,-14.40739],[35.96224,-14.41478],[35.97017,-14.4284],[35.98303,-14.42939],[36.01096,-14.43631],[36.02808,-14.47803],[36.03049,-14.49218],[36.05289,-14.50808],[36.0468,-14.52531],[36.10888,-14.53782],[36.1411,-14.54187],[36.17101,-14.50461],[36.20081,-14.46286],[36.21507,-14.4453],[36.22448,-14.42618],[36.23463,-14.41038],[36.24176,-14.39291],[36.25269,-14.37842],[36.27341,-14.35594],[36.2868,-14.34934],[36.3146,-14.34585],[36.30722,-14.3093],[36.29745,-14.28347],[36.27206,-14.28636]]]}}