{"type":"Feature","properties":{"id":"MOZ.3.17","name":"Muidumbe","level":2,"country":"MOZ"},"geometry":{"type":"Polygon","coordinates":[[[40.26295,-11.75425],[40.25754,-11.75068],[40.2398,-11.75024],[40.23295,-11.74223],[40.21933,-11.74254],[40.20757,-11.72834],[40.19908,-11.72736],[40.18453,-11.73629],[40.17716,-11.72467],[40.16096,-11.72537],[40.1572,-11.73343],[40.14142,-11.73849],[40.12619,-11.74014],[40.10226,-11.73472],[40.09269,-11.73641],[40.07697,-11.7262],[40.07603,-11.71689],[40.0694,-11.7133],[40.05873,-11.69485],[40.0448,-11.6949],[40.03373,-11.67674],[40.02983,-11.66287],[40.03165,-11.6558],[40.01791,-11.64448],[40.01595,-11.63299],[40.00194,-11.63176],[39.99107,-11.62316],[39.97788,-11.62632],[39.96511,-11.62564],[39.95435,-11.62879],[39.9451,-11.63866],[39.90065,-11.63506],[39.89473,-11.63169],[39.87669,-11.63498],[39.86632,-11.6297],[39.85136,-11.62938],[39.83447,-11.63807],[39.82368,-11.63019],[39.81557,-11.63469],[39.7955,-11.62813],[39.77587,-11.63151],[39.76611,-11.65079],[39.76698,-11.66131],[39.76108,-11.66735],[39.75795,-11.67902],[39.74108,-11.69165],[39.72233,-11.69477],[39.70982,-11.70077],[39.68416,-11.72896],[39.65654,-11.73697],[39.62507,-11.75595],[39.6085,-11.77362],[39.59301,-11.7796],[39.58847,-11.79359],[39.57163,-11.80742],[39.56552,-11.81621],[39.56475,-11.83226],[39.55429,-11.8528],[39.5574,-11.86184],[39.54939,-11.86924],[39.53998,-11.86896],[39.5419,-11.88008],[39.54045,-11.90879],[39.55589,-11.91772],[39.56952,-11.91633],[39.56659,-11.93086],[39.57305,-11.935],[39.5754,-11.94624],[39.58609,-11.9561],[39.586,-11.96463],[39.59579,-11.99146],[39.60573,-11.99341],[39.61697,-12.00755],[39.62598,-12.01119],[39.62996,-12.01979],[39.63847,-12.01999],[39.6475,-12.03588],[39.66196,-12.03553],[39.6719,-12.05022],[39.66277,-12.063],[39.67235,-12.06672],[39.67502,-12.08085],[39.68437,-12.08486],[39.70524,-12.07472],[39.7174,-12.0786],[39.73423,-12.07611],[39.76231,-12.07506],[39.7796,-12.05867],[39.79312,-12.04925],[39.80269,-12.04776],[39.80969,-12.03985],[39.82801,-12.03769],[39.83996,-12.02855],[39.84884,-12.01658],[39.85659,-12.01444],[39.87151,-12.00007],[39.88892,-11.99179],[39.89492,-11.98251],[39.91624,-11.97391],[39.93536,-11.97343],[39.94991,-11.96276],[39.95638,-11.93933],[39.97015,-11.91994],[39.99242,-11.91164],[39.99535,-11.90382],[40.02146,-11.88823],[40.03812,-11.88886],[40.05547,-11.86783],[40.06947,-11.87962],[40.07756,-11.87598],[40.08388,-11.86671],[40.10049,-11.85493],[40.10297,-11.84764],[40.12656,-11.84583],[40.12781,-11.83778],[40.13777,-11.83642],[40.13044,-11.82023],[40.1368,-11.81142],[40.13454,-11.80027],[40.14212,-11.78485],[40.14571,-11.76711],[40.16145,-11.76489],[40.17652,-11.75615],[40.20253,-11.76719],[40.22002,-11.78383],[40.2385,-11.7909],[40.25221,-11.76533],[40.26295,-11.75425]]]}}