{"type":"Feature","properties":{"id":"MOZ.3.10","name":"Metuge","level":2,"country":"MOZ"},"geometry":{"type":"MultiPolygon","coordinates":[[[[40.49055,-13.03458],[40.486,-13.03662],[40.49087,-13.0407],[40.49055,-13.03458]]],[[[40.22659,-13.12288],[40.23602,-13.10414],[40.24663,-13.10528],[40.26433,-13.09446],[40.29092,-13.09451],[40.31418,-13.07056],[40.3132,-13.06253],[40.32531,-13.06046],[40.34721,-13.0611],[40.36306,-13.07614],[40.37737,-13.07359],[40.38864,-13.07967],[40.39411,-13.09127],[40.40126,-13.12148],[40.40844,-13.13997],[40.46281,-13.13771],[40.4598,-13.12714],[40.4705,-13.10988],[40.46729,-13.08881],[40.4746,-13.08035],[40.47629,-13.07143],[40.49113,-13.05266],[40.4922,-13.04553],[40.48339,-13.03562],[40.48392,-13.03151],[40.46405,-13.0298],[40.45479,-13.02529],[40.44215,-13.03084],[40.44112,-13.01399],[40.43083,-12.99748],[40.43123,-12.99218],[40.41513,-12.97887],[40.40627,-12.96175],[40.40439,-12.9502],[40.41572,-12.9228],[40.41296,-12.91476],[40.42782,-12.91379],[40.43838,-12.90114],[40.45426,-12.88714],[40.47325,-12.88064],[40.48226,-12.88085],[40.50024,-12.88679],[40.50457,-12.89205],[40.50319,-12.92446],[40.5124,-12.92903],[40.5181,-12.91156],[40.52961,-12.89733],[40.5318,-12.87829],[40.54442,-12.85761],[40.55136,-12.83658],[40.56321,-12.82791],[40.56458,-12.78635],[40.57292,-12.79671],[40.57291,-12.80507],[40.58104,-12.80976],[40.60343,-12.8076],[40.61588,-12.79805],[40.62774,-12.77339],[40.6309,-12.74756],[40.62036,-12.75207],[40.60466,-12.74975],[40.60766,-12.73984],[40.61702,-12.73059],[40.61453,-12.71952],[40.59856,-12.7054],[40.58703,-12.71518],[40.56638,-12.71741],[40.56065,-12.71596],[40.54181,-12.73614],[40.53075,-12.73479],[40.52414,-12.74069],[40.4995,-12.74634],[40.4896,-12.75752],[40.46972,-12.77148],[40.44489,-12.76015],[40.43583,-12.76043],[40.41571,-12.76914],[40.38764,-12.76952],[40.37513,-12.76597],[40.27794,-12.76388],[40.25529,-12.75868],[40.24104,-12.7305],[40.22563,-12.72765],[40.21516,-12.72274],[40.19805,-12.73357],[40.18056,-12.72827],[40.17196,-12.73506],[40.16382,-12.74829],[40.14079,-12.75923],[40.05047,-12.84362],[40.02725,-12.84019],[40.01213,-12.83911],[40.00571,-12.8484],[40.00658,-12.86109],[40.01612,-12.87526],[40.01214,-12.88938],[40.01841,-12.90431],[40.05558,-12.90729],[40.07033,-12.90572],[40.07406,-12.9177],[40.09187,-12.91813],[40.10337,-12.92705],[40.11267,-12.92445],[40.11727,-12.94233],[40.11371,-12.97033],[40.13674,-12.97738],[40.14323,-12.98688],[40.15575,-12.98705],[40.16365,-12.98287],[40.17855,-12.98802],[40.19297,-12.98143],[40.20306,-12.99221],[40.20199,-12.99743],[40.18377,-13.0109],[40.22659,-13.12288]]]]}}