{"type":"Feature","properties":{"id":"ESP.38.80","name":"Olmos de Ojeda","level":2,"country":"ESP"},"geometry":{"type":"MultiPolygon","coordinates":[[[[-4.4877,42.67302],[-4.47565,42.66865],[-4.46263,42.67556],[-4.4877,42.67302]]],[[[-4.5392,42.70427],[-4.51243,42.68522],[-4.49279,42.70234],[-4.51577,42.72693],[-4.52903,42.73131],[-4.52799,42.76573],[-4.53214,42.76535],[-4.55476,42.75084],[-4.56805,42.72687],[-4.5411,42.72621],[-4.5392,42.70427]]],[[[-4.43539,42.66124],[-4.37837,42.67656],[-4.39202,42.71196],[-4.4023,42.71939],[-4.42813,42.73915],[-4.42323,42.75707],[-4.42875,42.77107],[-4.47792,42.79994],[-4.47703,42.81314],[-4.48888,42.81024],[-4.52494,42.76605],[-4.48591,42.72973],[-4.44514,42.70871],[-4.44505,42.68133],[-4.43539,42.66124]]]]}}