{"type":"Feature","properties":{"id":"ESP.7.164","name":"Montemolín","level":2,"country":"ESP"},"geometry":{"type":"MultiPolygon","coordinates":[[[[-6.13141,38.06335],[-6.11119,38.06863],[-6.11311,38.07954],[-6.12756,38.08636],[-6.13179,38.10789],[-6.14668,38.12731],[-6.12627,38.12693],[-6.10646,38.11769],[-6.07291,38.13957],[-6.08205,38.15461],[-6.13963,38.16735],[-6.13405,38.18186],[-6.10249,38.20405],[-6.1199,38.21999],[-6.1417,38.21418],[-6.21273,38.21558],[-6.28193,38.16633],[-6.26948,38.15237],[-6.27749,38.12895],[-6.25113,38.11972],[-6.23917,38.12414],[-6.1726,38.0913],[-6.16662,38.08473],[-6.16812,38.07361],[-6.13141,38.06335]]],[[[-6.03137,37.99767],[-6.05755,38.0131],[-6.05506,38.02181],[-6.0675,38.02698],[-6.10173,38.02106],[-6.1005,37.98479],[-6.16383,38.01511],[-6.13357,37.97219],[-6.1165,37.9814],[-6.03137,37.99767]]]]}}