{"type":"Feature","properties":{"id":"ESP.32.140","name":"Colmenar Viejo","level":2,"country":"ESP"},"geometry":{"type":"Polygon","coordinates":[[[-3.86504,40.64564],[-3.84063,40.59242],[-3.80601,40.59987],[-3.78336,40.62151],[-3.74138,40.6271],[-3.71784,40.64512],[-3.68383,40.63142],[-3.6711,40.63136],[-3.65422,40.64373],[-3.63565,40.63512],[-3.58458,40.62727],[-3.59109,40.64776],[-3.61047,40.65018],[-3.6371,40.63913],[-3.65216,40.64601],[-3.63996,40.66693],[-3.65032,40.67904],[-3.64323,40.69425],[-3.67842,40.70578],[-3.67607,40.72728],[-3.70667,40.72552],[-3.73845,40.73053],[-3.77302,40.70448],[-3.80449,40.71099],[-3.8201,40.69745],[-3.83763,40.66711],[-3.85498,40.66318],[-3.86504,40.64564]]]}}