{"type":"Feature","properties":{"id":"ESP.47.128","name":"Yepes","level":2,"country":"ESP"},"geometry":{"type":"Polygon","coordinates":[[[-3.58076,39.8997],[-3.59712,39.92561],[-3.64244,39.92594],[-3.66629,39.93736],[-3.66529,39.96041],[-3.67761,39.96107],[-3.69783,39.94701],[-3.71057,39.95457],[-3.74492,39.94062],[-3.756,39.92162],[-3.77805,39.9116],[-3.80607,39.88766],[-3.79239,39.87565],[-3.72835,39.90892],[-3.70336,39.89381],[-3.6776,39.89381],[-3.63465,39.87688],[-3.62735,39.88471],[-3.58076,39.8997]]]}}