{"type":"Feature","properties":{"id":"ESP.29.71","name":"Valdelugueros","level":2,"country":"ESP"},"geometry":{"type":"Polygon","coordinates":[[[-5.34229,42.98648],[-5.36547,43.00019],[-5.37449,43.0152],[-5.39922,43.0348],[-5.39203,43.04677],[-5.42104,43.05279],[-5.48074,43.05358],[-5.49658,43.01175],[-5.48141,42.98938],[-5.49099,42.96277],[-5.45369,42.95381],[-5.46954,42.92047],[-5.42194,42.90085],[-5.41861,42.91857],[-5.378,42.91703],[-5.36986,42.93103],[-5.33884,42.94333],[-5.3382,42.96062],[-5.35032,42.97234],[-5.34229,42.98648]]]}}