{"type":"Feature","properties":{"id":"ESP.42.166","name":"Sepúlveda","level":2,"country":"ESP"},"geometry":{"type":"Polygon","coordinates":[[[-3.84791,41.26583],[-3.82071,41.25772],[-3.79067,41.26823],[-3.77303,41.24206],[-3.75295,41.26989],[-3.73242,41.28659],[-3.72064,41.25385],[-3.72839,41.24421],[-3.7276,41.22928],[-3.70702,41.22524],[-3.67357,41.23284],[-3.68809,41.25918],[-3.68764,41.26792],[-3.66887,41.26802],[-3.65883,41.27926],[-3.68304,41.30567],[-3.70437,41.30295],[-3.73535,41.3147],[-3.76419,41.33515],[-3.84262,41.35751],[-3.87736,41.35406],[-3.88536,41.34891],[-3.84236,41.32711],[-3.87552,41.31481],[-3.86152,41.30786],[-3.86517,41.29887],[-3.82988,41.29415],[-3.82356,41.28667],[-3.84791,41.26583]]]}}