{"type":"Feature","properties":{"id":"ESP.16.47","name":"Calzada de Calatrava","level":2,"country":"ESP"},"geometry":{"type":"Polygon","coordinates":[[[-3.64839,38.62952],[-3.65538,38.64071],[-3.6305,38.65127],[-3.62025,38.66734],[-3.65687,38.68637],[-3.657,38.69818],[-3.70654,38.7391],[-3.73374,38.74789],[-3.76801,38.74958],[-3.77754,38.77253],[-3.80498,38.76552],[-3.81507,38.74734],[-3.8061,38.72262],[-3.80954,38.69994],[-3.82058,38.68899],[-3.83426,38.65686],[-3.79154,38.60924],[-3.81273,38.57272],[-3.86489,38.58685],[-3.8765,38.56551],[-3.90236,38.55723],[-3.91952,38.53418],[-3.85898,38.51346],[-3.85617,38.5001],[-3.81273,38.48961],[-3.74546,38.46512],[-3.73465,38.49318],[-3.69903,38.53006],[-3.71462,38.55462],[-3.6522,38.6118],[-3.64839,38.62952]]]}}