{"type":"Feature","properties":{"id":"ESP.24.185","name":"Biescas","level":2,"country":"ESP"},"geometry":{"type":"Polygon","coordinates":[[[-0.37542,42.71463],[-0.40418,42.72639],[-0.42889,42.72073],[-0.4304,42.71296],[-0.41477,42.69917],[-0.38768,42.69479],[-0.39743,42.64888],[-0.37028,42.62183],[-0.36998,42.61348],[-0.38386,42.60585],[-0.39237,42.58776],[-0.36914,42.58764],[-0.35227,42.57799],[-0.33812,42.58999],[-0.32084,42.5632],[-0.2957,42.55762],[-0.33008,42.53494],[-0.2785,42.52946],[-0.26552,42.54301],[-0.24615,42.54641],[-0.23705,42.55869],[-0.22354,42.5611],[-0.22336,42.56915],[-0.22879,42.57695],[-0.23033,42.59852],[-0.26873,42.60665],[-0.24811,42.65063],[-0.22021,42.65644],[-0.21203,42.6766],[-0.27509,42.6796],[-0.32059,42.6659],[-0.31188,42.69808],[-0.32252,42.70648],[-0.37542,42.71463]]]}}