{"type":"Feature","properties":{"id":"ESP.47.182","name":"Torrecilla de la Jara","level":2,"country":"ESP"},"geometry":{"type":"Polygon","coordinates":[[[-4.74325,39.62843],[-4.73938,39.65432],[-4.72156,39.68596],[-4.72438,39.70741],[-4.74361,39.70438],[-4.7826,39.7186],[-4.81391,39.72013],[-4.82143,39.7152],[-4.83325,39.72273],[-4.85757,39.68218],[-4.86179,39.66359],[-4.87259,39.66087],[-4.86771,39.63715],[-4.83609,39.62089],[-4.82019,39.65318],[-4.81934,39.66977],[-4.79526,39.68473],[-4.76499,39.67043],[-4.74325,39.62843]]]}}