{"type":"Feature","properties":{"id":"ESP.11.64","name":"Alcántara","level":2,"country":"ESP"},"geometry":{"type":"Polygon","coordinates":[[[-6.76393,39.77332],[-6.81618,39.75962],[-6.8366,39.76455],[-6.85681,39.77717],[-6.84391,39.78923],[-6.82912,39.82526],[-6.89779,39.85457],[-6.92145,39.8584],[-6.94784,39.82819],[-6.98712,39.80943],[-6.97734,39.77468],[-6.99289,39.74282],[-6.98974,39.72515],[-7.01463,39.67315],[-7.06139,39.65892],[-7.01489,39.60968],[-7.01267,39.58528],[-6.96761,39.53676],[-6.9593,39.53462],[-6.95043,39.52013],[-6.91993,39.51508],[-6.85738,39.54906],[-6.86161,39.65415],[-6.85115,39.6723],[-6.85422,39.67577],[-6.81846,39.67691],[-6.82791,39.70747],[-6.82771,39.73459],[-6.75663,39.74206],[-6.75582,39.70499],[-6.61501,39.70689],[-6.60279,39.71181],[-6.60986,39.73035],[-6.62884,39.73636],[-6.652,39.76919],[-6.66867,39.76087],[-6.69662,39.76649],[-6.7126,39.75999],[-6.74679,39.7604],[-6.76393,39.77332]]]}}