{"type":"Feature","properties":{"id":"ESP.31.5","name":"Becerreá","level":2,"country":"ESP"},"geometry":{"type":"Polygon","coordinates":[[[-7.06235,42.91646],[-7.06958,42.9347],[-7.06985,42.96309],[-7.06847,42.9699],[-7.09573,42.98039],[-7.13802,42.94981],[-7.15954,42.95476],[-7.16359,42.93358],[-7.21405,42.89643],[-7.20561,42.84686],[-7.21938,42.82582],[-7.21022,42.79952],[-7.19956,42.78871],[-7.14725,42.8122],[-7.11723,42.81523],[-7.10979,42.85279],[-7.07957,42.86322],[-7.05624,42.90098],[-7.06572,42.90394],[-7.06235,42.91646]]]}}