{"type":"Feature","properties":{"id":"ESP.30.90","name":"Tremp","level":2,"country":"ESP"},"geometry":{"type":"MultiPolygon","coordinates":[[[[0.87383,42.13758],[0.88113,42.12613],[0.89353,42.12107],[0.88903,42.13411],[0.87383,42.13758]]],[[[0.88339,42.16031],[0.90379,42.13465],[0.90122,42.12178],[0.91364,42.12408],[0.94558,42.12416],[0.96829,42.15634],[0.97013,42.171],[0.95552,42.16638],[0.93494,42.17171],[0.9063,42.16273],[0.88339,42.16031]]],[[[0.79078,42.3737],[0.77286,42.37529],[0.76133,42.36668],[0.7619,42.35642],[0.77131,42.35064],[0.76701,42.34884],[0.79556,42.34762],[0.79078,42.3737]]],[[[0.87114,42.14193],[0.88348,42.17091],[0.85985,42.18959],[0.88725,42.21398],[0.89128,42.23197],[0.86299,42.24515],[0.84802,42.25961],[0.85657,42.26149],[0.85493,42.28273],[0.87045,42.30175],[0.84623,42.31441],[0.7994,42.32023],[0.77328,42.33258],[0.77594,42.34104],[0.7636,42.34729],[0.74265,42.33739],[0.74325,42.32842],[0.76364,42.32376],[0.74477,42.30093],[0.73388,42.24976],[0.69912,42.17363],[0.69669,42.12962],[0.72428,42.10998],[0.75248,42.12051],[0.78601,42.12127],[0.79209,42.1335],[0.87114,42.14193]]]]}}