{"type":"Feature","properties":{"id":"ESP.16.77","name":"Valdemanco del Esteras","level":2,"country":"ESP"},"geometry":{"type":"Polygon","coordinates":[[[-4.67919,38.99165],[-4.63503,39.04069],[-4.64539,39.05815],[-4.65796,39.06291],[-4.70185,39.06094],[-4.71067,39.03768],[-4.69197,39.01864],[-4.70094,38.99215],[-4.7205,38.98256],[-4.75022,38.97944],[-4.76486,38.96809],[-4.76025,38.96236],[-4.77356,38.95413],[-4.84156,38.94482],[-4.84385,38.94018],[-4.83132,38.9361],[-4.84119,38.91896],[-4.84732,38.8824],[-4.85788,38.8802],[-4.80918,38.87451],[-4.7727,38.88512],[-4.75254,38.90224],[-4.71977,38.90036],[-4.69697,38.9168],[-4.69397,38.92467],[-4.70041,38.93115],[-4.67889,38.97792],[-4.67919,38.99165]]]}}