{"type":"Feature","properties":{"id":"ESP.26.90","name":"Tordoia","level":2,"country":"ESP"},"geometry":{"type":"Polygon","coordinates":[[[-8.65122,43.11924],[-8.65885,43.11939],[-8.68032,43.12226],[-8.69742,43.11163],[-8.68599,43.08175],[-8.67282,43.07772],[-8.63836,43.09492],[-8.62651,43.07916],[-8.60155,43.07144],[-8.58582,43.07917],[-8.5688,43.05954],[-8.54272,43.03677],[-8.49732,43.05068],[-8.48945,43.0573],[-8.48257,43.02093],[-8.45634,43.02689],[-8.45897,43.03236],[-8.44912,43.04054],[-8.44696,43.05294],[-8.46063,43.05696],[-8.4604,43.06893],[-8.4676,43.07536],[-8.45651,43.09524],[-8.47103,43.09768],[-8.48429,43.08853],[-8.49287,43.09848],[-8.52516,43.10455],[-8.52866,43.10895],[-8.51896,43.12383],[-8.57265,43.14204],[-8.58376,43.15361],[-8.59648,43.14031],[-8.6088,43.13866],[-8.63461,43.10299],[-8.65122,43.11924]]]}}