{"type":"Feature","properties":{"id":"ESP.38.98","name":"Saldaña","level":2,"country":"ESP"},"geometry":{"type":"Polygon","coordinates":[[[-4.71635,42.50538],[-4.68066,42.52371],[-4.65184,42.50072],[-4.65215,42.50628],[-4.63122,42.50152],[-4.61924,42.50866],[-4.61454,42.50134],[-4.60451,42.50113],[-4.606,42.50974],[-4.59529,42.52387],[-4.60065,42.53826],[-4.6265,42.54078],[-4.63782,42.5587],[-4.65826,42.56399],[-4.6478,42.57067],[-4.67091,42.59178],[-4.67534,42.58355],[-4.70685,42.6201],[-4.7205,42.61273],[-4.73254,42.6357],[-4.77466,42.63701],[-4.77968,42.63457],[-4.76384,42.59598],[-4.77991,42.56322],[-4.75613,42.52282],[-4.76642,42.50889],[-4.74709,42.50701],[-4.71635,42.50538]]]}}