{"type":"Feature","properties":{"id":"ESP.8.60","name":"Andratx","level":2,"country":"ESP"},"geometry":{"type":"MultiPolygon","coordinates":[[[[2.37108,39.61412],[2.37123,39.61415],[2.37114,39.61423],[2.37108,39.61412]]],[[[2.36284,39.61088],[2.36281,39.61074],[2.36293,39.61066],[2.36284,39.61088]]],[[[2.36149,39.60895],[2.3616,39.60871],[2.3617,39.60884],[2.36149,39.60895]]],[[[2.34148,39.58582],[2.34155,39.58533],[2.34206,39.58602],[2.34148,39.58582]]],[[[2.42241,39.53712],[2.42209,39.53707],[2.42236,39.53662],[2.42241,39.53712]]],[[[2.30643,39.57221],[2.31873,39.57667],[2.33833,39.59738],[2.30942,39.58265],[2.30643,39.57221]]],[[[2.34826,39.57601],[2.34858,39.57763],[2.34728,39.57743],[2.34826,39.57601]]],[[[2.44039,39.57542],[2.45918,39.58524],[2.44735,39.63387],[2.43462,39.64347],[2.42222,39.63023],[2.36906,39.61392],[2.346,39.59059],[2.34825,39.56688],[2.3687,39.55275],[2.3654,39.53371],[2.41727,39.53863],[2.44995,39.55572],[2.44039,39.57542]]]]}}