{"type":"Feature","properties":{"id":"ESP.46.146","name":"Albarracín","level":2,"country":"ESP"},"geometry":{"type":"MultiPolygon","coordinates":[[[[-1.49245,40.25394],[-1.50086,40.25347],[-1.5048,40.25103],[-1.49245,40.25394]]],[[[-1.52437,40.57741],[-1.52274,40.58084],[-1.53574,40.58996],[-1.52437,40.57741]]],[[[-1.63625,40.5046],[-1.69552,40.51133],[-1.69251,40.48682],[-1.7486,40.4629],[-1.78486,40.41515],[-1.77753,40.39126],[-1.70684,40.3136],[-1.72015,40.31851],[-1.72827,40.30351],[-1.72693,40.28842],[-1.71822,40.27775],[-1.71072,40.2804],[-1.70146,40.30592],[-1.68864,40.30789],[-1.54048,40.1908],[-1.5125,40.20266],[-1.47496,40.18523],[-1.43401,40.20138],[-1.4633,40.20397],[-1.48598,40.23493],[-1.45865,40.24629],[-1.4436,40.26652],[-1.41729,40.27162],[-1.38154,40.26799],[-1.35942,40.24878],[-1.35706,40.22714],[-1.33849,40.22637],[-1.32651,40.23999],[-1.31513,40.23702],[-1.30718,40.27868],[-1.25819,40.30308],[-1.26214,40.32449],[-1.28735,40.35828],[-1.30436,40.36153],[-1.30613,40.31458],[-1.33536,40.27741],[-1.35549,40.29503],[-1.36217,40.33648],[-1.34189,40.34711],[-1.31376,40.34232],[-1.31139,40.35607],[-1.31898,40.36229],[-1.37119,40.36435],[-1.38162,40.37272],[-1.38835,40.39312],[-1.38126,40.41596],[-1.35871,40.41322],[-1.37208,40.43716],[-1.37538,40.46123],[-1.36476,40.50022],[-1.38518,40.51954],[-1.39407,40.55141],[-1.41448,40.548],[-1.42288,40.51981],[-1.43877,40.51274],[-1.51384,40.54888],[-1.53507,40.54299],[-1.54303,40.5213],[-1.53585,40.51181],[-1.53844,40.50206],[-1.5301,40.49431],[-1.53475,40.48499],[-1.55282,40.47889],[-1.57974,40.48679],[-1.63534,40.4897],[-1.63625,40.5046]],[[-1.51499,40.46943],[-1.50291,40.43881],[-1.50108,40.41123],[-1.52963,40.40631],[-1.5428,40.39294],[-1.55119,40.3935],[-1.56309,40.40258],[-1.54649,40.43029],[-1.54826,40.45999],[-1.51499,40.46943]],[[-1.42584,40.35931],[-1.40633,40.3568],[-1.39892,40.33632],[-1.38524,40.33036],[-1.38733,40.31989],[-1.45124,40.30797],[-1.46838,40.33403],[-1.4647,40.34569],[-1.42584,40.35931]],[[-1.54535,40.38599],[-1.53282,40.39405],[-1.48224,40.38337],[-1.47361,40.34973],[-1.47853,40.3335],[-1.49254,40.32513],[-1.51924,40.32904],[-1.54045,40.36392],[-1.53737,40.3733],[-1.54535,40.38599]],[[-1.39999,40.31384],[-1.37537,40.3051],[-1.3755,40.29216],[-1.38804,40.27462],[-1.44234,40.28332],[-1.43135,40.2923],[-1.43551,40.30555],[-1.4306,40.30939],[-1.39999,40.31384]],[[-1.56524,40.39845],[-1.54934,40.39073],[-1.5384,40.36993],[-1.57921,40.33371],[-1.60604,40.36672],[-1.61623,40.38878],[-1.56524,40.39845]],[[-1.53857,40.36044],[-1.52402,40.34147],[-1.51949,40.32044],[-1.5425,40.30733],[-1.56447,40.2759],[-1.58071,40.30302],[-1.57651,40.33055],[-1.53857,40.36044]],[[-1.56521,40.27438],[-1.55556,40.251],[-1.54654,40.23843],[-1.55825,40.23031],[-1.54883,40.22081],[-1.55598,40.20765],[-1.61742,40.25093],[-1.56521,40.27438]],[[-1.53335,40.51113],[-1.50482,40.53561],[-1.49736,40.53418],[-1.47173,40.51656],[-1.44157,40.51216],[-1.43252,40.49882],[-1.43182,40.48417],[-1.46028,40.47875],[-1.46971,40.46566],[-1.48582,40.46012],[-1.50426,40.4602],[-1.5244,40.48008],[-1.53335,40.51113]],[[-1.56008,40.47152],[-1.55088,40.42479],[-1.5659,40.40078],[-1.59424,40.3934],[-1.61219,40.39912],[-1.59668,40.41593],[-1.59803,40.43228],[-1.57335,40.4448],[-1.56008,40.47152]],[[-1.63274,40.48835],[-1.57653,40.47907],[-1.57298,40.44878],[-1.59496,40.43734],[-1.60088,40.42216],[-1.61186,40.41724],[-1.65201,40.43546],[-1.67354,40.46827],[-1.67132,40.47952],[-1.63274,40.48835]],[[-1.6169,40.38883],[-1.61507,40.36128],[-1.5866,40.33805],[-1.58273,40.3056],[-1.58871,40.30313],[-1.60672,40.30304],[-1.66386,40.32684],[-1.67721,40.34796],[-1.65811,40.38191],[-1.6169,40.38883]],[[-1.4787,40.2643],[-1.46287,40.28137],[-1.46833,40.25496],[-1.46151,40.24828],[-1.48678,40.2361],[-1.4748,40.21197],[-1.45684,40.19916],[-1.47606,40.18694],[-1.50903,40.20352],[-1.52331,40.20189],[-1.51786,40.21225],[-1.53876,40.23394],[-1.54682,40.28517],[-1.54119,40.30734],[-1.50202,40.3277],[-1.4744,40.33008],[-1.48369,40.3214],[-1.47455,40.31325],[-1.45625,40.31138],[-1.45474,40.30206],[-1.4787,40.2643]],[[-1.76239,40.43669],[-1.73412,40.47166],[-1.71626,40.47544],[-1.71508,40.46726],[-1.70394,40.46152],[-1.68023,40.46197],[-1.66779,40.4534],[-1.65105,40.43151],[-1.61278,40.40671],[-1.61308,40.39814],[-1.64471,40.39307],[-1.6741,40.36364],[-1.67971,40.34433],[-1.70581,40.33442],[-1.7211,40.3581],[-1.74412,40.37261],[-1.76832,40.39958],[-1.76586,40.41617],[-1.77313,40.42282],[-1.76239,40.43669]]]]}}