{"type":"Feature","properties":{"id":"ESP.17.46","name":"Villaviciosa de Córdoba","level":2,"country":"ESP"},"geometry":{"type":"Polygon","coordinates":[[[-4.85155,38.0771],[-4.93517,38.08918],[-4.9785,38.08687],[-5.0377,38.09894],[-5.05986,38.08129],[-5.10186,38.08073],[-5.12663,38.07213],[-5.13562,38.06439],[-5.14018,38.04433],[-5.15501,38.0411],[-5.16923,38.03194],[-5.2207,38.0175],[-5.23162,37.99435],[-5.23459,37.99787],[-5.23574,37.98545],[-5.22736,37.9767],[-5.17266,37.97998],[-5.13044,37.95491],[-5.1025,37.92217],[-5.08817,37.93276],[-5.02578,37.92716],[-5.00163,37.91127],[-4.97879,37.94595],[-4.95853,37.9567],[-4.92378,37.96807],[-4.88562,37.97009],[-4.85157,37.9885],[-4.81606,37.98833],[-4.81775,38.00103],[-4.80264,38.01115],[-4.79217,38.02814],[-4.81941,38.05923],[-4.85155,38.0771]]]}}