{"type":"Feature","properties":{"id":"ESP.38.112","name":"Velilla del Río Carrión","level":2,"country":"ESP"},"geometry":{"type":"Polygon","coordinates":[[[-4.69312,42.86614],[-4.69939,42.87467],[-4.69007,42.88551],[-4.689,42.90692],[-4.69838,42.92267],[-4.73563,42.93778],[-4.72759,42.95169],[-4.73303,42.96806],[-4.71755,43.00098],[-4.73758,43.01542],[-4.73718,43.02102],[-4.75594,43.01506],[-4.7676,43.0018],[-4.79406,42.98783],[-4.79604,42.97523],[-4.80724,42.96778],[-4.80265,42.94951],[-4.80924,42.93033],[-4.8378,42.90673],[-4.83657,42.89797],[-4.85427,42.89229],[-4.86527,42.86103],[-4.89561,42.86396],[-4.90021,42.85169],[-4.89,42.84228],[-4.89087,42.83304],[-4.88058,42.8173],[-4.84913,42.80823],[-4.83214,42.81],[-4.81104,42.83138],[-4.77417,42.8292],[-4.75751,42.83554],[-4.73989,42.8546],[-4.70429,42.85895],[-4.69312,42.86614]]]}}