{"type":"Feature","properties":{"id":"ESP.44.169","name":"Vinuesa","level":2,"country":"ESP"},"geometry":{"type":"Polygon","coordinates":[[[-2.77963,41.88034],[-2.77493,41.86742],[-2.78545,41.85723],[-2.76828,41.85078],[-2.72053,41.84886],[-2.72517,41.86044],[-2.70638,41.86605],[-2.70336,41.87845],[-2.71222,41.8883],[-2.72201,41.91484],[-2.7099,41.92642],[-2.74452,41.98395],[-2.74969,42.01604],[-2.76151,42.03615],[-2.80351,42.04653],[-2.81264,42.03664],[-2.82287,42.04091],[-2.85421,42.03047],[-2.87562,42.01221],[-2.84687,42.0094],[-2.84409,41.99317],[-2.83376,41.99349],[-2.81178,41.97176],[-2.79503,41.93079],[-2.81006,41.91429],[-2.77673,41.89407],[-2.77525,41.88664],[-2.77963,41.88034]]]}}