{"type":"Feature","properties":{"id":"ESP.18.156","name":"Sotorribas","level":2,"country":"ESP"},"geometry":{"type":"Polygon","coordinates":[[[-2.1136,40.20504],[-2.1224,40.2254],[-2.14706,40.22645],[-2.15933,40.24043],[-2.17345,40.24308],[-2.17644,40.25414],[-2.17087,40.28967],[-2.15692,40.30019],[-2.1182,40.30878],[-2.13659,40.33286],[-2.13687,40.35284],[-2.1527,40.35572],[-2.17312,40.38009],[-2.18237,40.38019],[-2.19386,40.36479],[-2.23374,40.36606],[-2.2556,40.33898],[-2.24233,40.3097],[-2.2514,40.29937],[-2.19493,40.19146],[-2.1831,40.17741],[-2.11979,40.19446],[-2.1136,40.20504]]]}}