{"type":"Feature","properties":{"id":"ESP.46.123","name":"Villar del Cobo","level":2,"country":"ESP"},"geometry":{"type":"Polygon","coordinates":[[[-1.67971,40.34433],[-1.67496,40.36271],[-1.64894,40.39009],[-1.6154,40.39728],[-1.61273,40.40595],[-1.65062,40.43127],[-1.67179,40.45393],[-1.68096,40.45325],[-1.69887,40.415],[-1.71561,40.41074],[-1.71607,40.40577],[-1.69918,40.3965],[-1.69945,40.38035],[-1.70448,40.36733],[-1.72392,40.36027],[-1.70881,40.33612],[-1.69895,40.33445],[-1.67971,40.34433]]]}}