{"type":"Feature","properties":{"id":"ESP.12.45","name":"Castellar de la Frontera","level":2,"country":"ESP"},"geometry":{"type":"Polygon","coordinates":[[[-5.35913,36.29382],[-5.35524,36.32341],[-5.39241,36.332],[-5.42006,36.34621],[-5.42822,36.36142],[-5.47368,36.37292],[-5.57878,36.36484],[-5.56186,36.34885],[-5.55281,36.33949],[-5.54175,36.3204],[-5.54303,36.30282],[-5.55758,36.27882],[-5.51586,36.26295],[-5.46994,36.25832],[-5.44634,36.2438],[-5.41229,36.25018],[-5.38779,36.27876],[-5.35913,36.29382]]]}}