{"type":"Feature","properties":{"id":"ESP.6.139","name":"El Barraco","level":2,"country":"ESP"},"geometry":{"type":"Polygon","coordinates":[[[-4.5947,40.34695],[-4.55843,40.34344],[-4.54875,40.34843],[-4.53745,40.39353],[-4.55309,40.41968],[-4.53639,40.44914],[-4.52483,40.4571],[-4.52294,40.47716],[-4.53991,40.49509],[-4.56477,40.49812],[-4.57249,40.50544],[-4.60817,40.49971],[-4.63299,40.50431],[-4.64609,40.52888],[-4.636,40.54964],[-4.67277,40.54413],[-4.68242,40.53537],[-4.68074,40.52463],[-4.6218,40.42119],[-4.62638,40.41961],[-4.61984,40.39154],[-4.62933,40.36886],[-4.5947,40.34695]]]}}