{"type":"Feature","properties":{"id":"BFA.39.1","name":"Poni","level":2,"country":"BFA"},"geometry":{"type":"Polygon","coordinates":[[[-3.70369,10.65122],[-3.70172,10.63985],[-3.71169,10.6142],[-3.7032,10.60087],[-3.70329,10.59039],[-3.7103,10.57718],[-3.70064,10.55743],[-3.70675,10.52713],[-3.69546,10.52136],[-3.68794,10.51124],[-3.69404,10.4985],[-3.69272,10.47728],[-3.71321,10.44611],[-3.71219,10.41708],[-3.72323,10.39703],[-3.74834,10.37381],[-3.77643,10.35266],[-3.77884,10.34148],[-3.76439,10.33546],[-3.75534,10.32596],[-3.75917,10.30291],[-3.75255,10.28476],[-3.73845,10.27168],[-3.74138,10.25477],[-3.73844,10.23585],[-3.75631,10.22447],[-3.76362,10.20034],[-3.78923,10.17315],[-3.79475,10.1595],[-3.79728,10.13337],[-3.80354,10.12972],[-3.82294,10.13127],[-3.8715,10.10323],[-3.88516,10.10402],[-3.90239,10.0976],[-3.92249,10.10818],[-3.93934,10.10571],[-3.95082,10.11303],[-3.97036,10.1108],[-3.97579,10.10633],[-3.99492,10.06505],[-3.99778,10.04256],[-3.99561,10.03508],[-3.96547,10.01566],[-3.95397,9.98941],[-3.93176,9.98285],[-3.91255,9.97099],[-3.91058,9.96333],[-3.89473,9.94997],[-3.8905,9.94052],[-3.90043,9.90058],[-3.80917,9.88827],[-3.78863,9.91196],[-3.77241,9.92291],[-3.75198,9.93165],[-3.70863,9.94252],[-3.67378,9.94009],[-3.64862,9.9556],[-3.63232,9.95275],[-3.59932,9.91969],[-3.5686,9.92543],[-3.54937,9.92632],[-3.49201,9.92298],[-3.46979,9.92508],[-3.42078,9.91143],[-3.39724,9.91654],[-3.36682,9.90409],[-3.3496,9.89113],[-3.34333,9.89057],[-3.32039,9.90232],[-3.31073,9.89494],[-3.31158,9.88113],[-3.31982,9.86532],[-3.31188,9.85333],[-3.28116,9.85163],[-3.26253,9.87175],[-3.25265,9.8763],[-3.23979,9.89516],[-3.22503,9.89911],[-3.21617,9.9087],[-3.21431,9.92092],[-3.20468,9.92467],[-3.23263,9.94404],[-3.25244,9.97473],[-3.26713,9.96764],[-3.28418,9.96961],[-3.29009,9.98278],[-3.2782,9.99924],[-3.28225,10.0141],[-3.29109,10.0204],[-3.29537,10.03313],[-3.29221,10.04364],[-3.27791,10.05167],[-3.27152,10.07469],[-3.25933,10.08132],[-3.24706,10.07757],[-3.22707,10.08187],[-3.21829,10.09693],[-3.21931,10.10831],[-3.239,10.12249],[-3.24867,10.12304],[-3.26599,10.1415],[-3.26993,10.16838],[-3.26625,10.17458],[-3.24739,10.17406],[-3.23202,10.17741],[-3.21705,10.1735],[-3.19751,10.17723],[-3.16398,10.17155],[-3.13197,10.18069],[-3.10866,10.18104],[-3.09527,10.15814],[-3.0998,10.14692],[-3.08909,10.13215],[-3.09044,10.124],[-3.07258,10.10148],[-3.07106,10.09133],[-3.05963,10.09104],[-3.04095,10.07381],[-3.03299,10.0744],[-3.0098,10.0544],[-2.98447,10.0549],[-2.97579,10.04514],[-2.96507,10.04165],[-2.96111,10.05556],[-2.95117,10.06349],[-2.94684,10.0808],[-2.95108,10.10301],[-2.96833,10.11566],[-2.97887,10.13249],[-2.97288,10.14305],[-2.93751,10.16022],[-2.9287,10.17606],[-2.92438,10.19411],[-2.89148,10.19895],[-2.86086,10.19779],[-2.85665,10.17972],[-2.83919,10.17048],[-2.82455,10.168],[-2.79906,10.17575],[-2.79402,10.19415],[-2.77052,10.21708],[-2.76253,10.2386],[-2.7679,10.25345],[-2.77712,10.26272],[-2.8082,10.27437],[-2.83944,10.2943],[-2.8494,10.30585],[-2.85403,10.31842],[-2.84587,10.3427],[-2.8395,10.37615],[-2.82724,10.39245],[-2.80564,10.39236],[-2.79136,10.3995],[-2.77635,10.41769],[-2.78525,10.42191],[-2.80711,10.42361],[-2.82858,10.42875],[-2.86491,10.44629],[-2.86988,10.45195],[-2.88243,10.49083],[-2.89693,10.5092],[-2.9055,10.5463],[-2.91313,10.55674],[-2.92525,10.58412],[-2.94234,10.61257],[-2.9456,10.62952],[-2.94074,10.64363],[-2.91672,10.6659],[-2.91128,10.68623],[-2.91655,10.69533],[-2.93009,10.69786],[-2.94304,10.70758],[-2.95854,10.70624],[-2.96229,10.72329],[-2.9564,10.73831],[-2.97101,10.75048],[-2.99044,10.74717],[-2.98791,10.76115],[-2.99661,10.7697],[-3.01655,10.75153],[-3.02743,10.73452],[-3.03764,10.74712],[-3.05432,10.74454],[-3.07744,10.72183],[-3.08938,10.72064],[-3.14172,10.68646],[-3.14622,10.67284],[-3.16328,10.65601],[-3.16907,10.64414],[-3.21004,10.63921],[-3.23067,10.63996],[-3.25592,10.62561],[-3.26516,10.61679],[-3.29046,10.61242],[-3.32244,10.62796],[-3.34603,10.65945],[-3.35367,10.66315],[-3.4076,10.66433],[-3.45505,10.64998],[-3.46699,10.64019],[-3.48456,10.63427],[-3.52815,10.6543],[-3.54608,10.66424],[-3.57926,10.66687],[-3.62226,10.67527],[-3.6644,10.65804],[-3.70369,10.65122]]]}}