{"type":"Feature","properties":{"id":"BFA.15.1","name":"Kourweogo","level":2,"country":"BFA"},"geometry":{"type":"Polygon","coordinates":[[[-1.81325,12.37125],[-1.77319,12.38157],[-1.7496,12.40896],[-1.68146,12.42422],[-1.69417,12.44632],[-1.69171,12.4759],[-1.71539,12.49521],[-1.72185,12.51546],[-1.72335,12.55838],[-1.72842,12.57669],[-1.67354,12.60578],[-1.63377,12.60762],[-1.62195,12.61373],[-1.61351,12.63602],[-1.61022,12.66008],[-1.60329,12.68486],[-1.60861,12.69221],[-1.60356,12.7083],[-1.59676,12.71206],[-1.60064,12.72519],[-1.61173,12.73645],[-1.64483,12.74088],[-1.65906,12.75003],[-1.65553,12.77349],[-1.65683,12.80356],[-1.64078,12.85101],[-1.64176,12.8613],[-1.65615,12.86936],[-1.67404,12.87017],[-1.68825,12.87557],[-1.71458,12.89498],[-1.72419,12.90549],[-1.75179,12.89329],[-1.77025,12.89199],[-1.80565,12.89599],[-1.83154,12.88919],[-1.8642,12.87462],[-1.87436,12.86381],[-1.87852,12.85243],[-1.87585,12.84093],[-1.88573,12.82764],[-1.91602,12.81736],[-1.9298,12.81576],[-1.94146,12.80523],[-1.948,12.78135],[-1.97291,12.75386],[-1.97685,12.72648],[-1.97322,12.71756],[-1.95145,12.70223],[-1.94363,12.69255],[-1.92243,12.67823],[-1.93663,12.65898],[-1.93834,12.65155],[-1.88572,12.63041],[-1.8607,12.61295],[-1.84413,12.61316],[-1.83611,12.60477],[-1.83159,12.58757],[-1.81977,12.5707],[-1.81202,12.54311],[-1.78501,12.48887],[-1.81118,12.47004],[-1.85391,12.44961],[-1.87346,12.44996],[-1.89816,12.47256],[-1.91115,12.47949],[-1.96007,12.47957],[-2.00004,12.47087],[-2.00645,12.46122],[-2.00729,12.44404],[-2.03373,12.41615],[-2.03633,12.37625],[-2.04218,12.36831],[-2.08238,12.32869],[-2.07918,12.31512],[-2.05853,12.30118],[-2.04683,12.29807],[-2.00885,12.29655],[-2.00728,12.30859],[-1.98776,12.30803],[-1.96993,12.32574],[-1.95828,12.34243],[-1.94796,12.35011],[-1.88725,12.36104],[-1.81325,12.37125]]]}}