{"type":"Feature","properties":{"id":"BFA.33.1","name":"Zoundweogo","level":2,"country":"BFA"},"geometry":{"type":"Polygon","coordinates":[[[-1.30929,11.5469],[-1.28807,11.52313],[-1.27773,11.51603],[-1.26387,11.49205],[-1.26185,11.47707],[-1.2519,11.46959],[-1.23632,11.4775],[-1.21801,11.47286],[-1.20677,11.46456],[-1.18735,11.46664],[-1.19265,11.44625],[-1.17251,11.43349],[-1.16869,11.41921],[-1.15572,11.41065],[-1.1469,11.41233],[-1.13702,11.39452],[-1.11475,11.38429],[-1.10932,11.39585],[-1.08982,11.40327],[-1.09297,11.38902],[-1.08694,11.37669],[-1.06899,11.37031],[-1.07414,11.357],[-1.0504,11.33898],[-1.03947,11.34018],[-1.02028,11.32695],[-1.01188,11.33385],[-1.0146,11.34676],[-1.00821,11.35471],[-0.9879,11.3533],[-0.96778,11.34459],[-0.95834,11.32228],[-0.96223,11.3114],[-0.97337,11.31528],[-0.97728,11.29595],[-0.96627,11.28802],[-0.94954,11.28592],[-0.94252,11.29329],[-0.93279,11.29069],[-0.9265,11.26459],[-0.91548,11.25602],[-0.91245,11.24562],[-0.89057,11.23855],[-0.89072,11.2271],[-0.87247,11.20908],[-0.8512,11.20517],[-0.83624,11.19325],[-0.80933,11.17765],[-0.79908,11.17572],[-0.79085,11.16374],[-0.7793,11.16587],[-0.78225,11.1763],[-0.77618,11.18988],[-0.77598,11.20544],[-0.76363,11.20819],[-0.75628,11.21867],[-0.73968,11.22675],[-0.7343,11.24087],[-0.72493,11.25155],[-0.72976,11.26765],[-0.74411,11.28214],[-0.74526,11.29225],[-0.72892,11.30997],[-0.70215,11.31165],[-0.69252,11.31967],[-0.68704,11.33387],[-0.68777,11.35197],[-0.66774,11.36975],[-0.65489,11.37105],[-0.63842,11.38279],[-0.63555,11.41215],[-0.62435,11.41631],[-0.60812,11.40792],[-0.60298,11.39838],[-0.5843,11.38833],[-0.57752,11.39977],[-0.58169,11.41862],[-0.59562,11.44065],[-0.57964,11.4591],[-0.56574,11.46367],[-0.55826,11.47986],[-0.57104,11.48379],[-0.59605,11.50224],[-0.61628,11.50822],[-0.62608,11.51793],[-0.64752,11.52628],[-0.6544,11.54142],[-0.6756,11.56491],[-0.69914,11.57657],[-0.7138,11.55048],[-0.73602,11.54536],[-0.74833,11.56002],[-0.76875,11.57217],[-0.77136,11.585],[-0.78968,11.5965],[-0.81018,11.60176],[-0.87467,11.66],[-0.9021,11.68954],[-0.89752,11.7784],[-0.87606,11.78048],[-0.85505,11.78716],[-0.84399,11.7972],[-0.82639,11.82511],[-0.82357,11.84917],[-0.8329,11.85377],[-0.82569,11.87442],[-0.84099,11.8854],[-0.86261,11.87649],[-0.87748,11.88212],[-0.89292,11.89717],[-0.90051,11.89552],[-0.93214,11.90742],[-0.96504,11.90273],[-1.00355,11.91123],[-1.03631,11.93336],[-1.04009,11.9399],[-1.05779,11.95047],[-1.07808,11.94724],[-1.09703,11.93079],[-1.10666,11.92893],[-1.12588,11.91624],[-1.14784,11.91776],[-1.16714,11.90333],[-1.17799,11.88425],[-1.19178,11.87085],[-1.21394,11.86355],[-1.21961,11.84947],[-1.21448,11.82746],[-1.22261,11.81776],[-1.24497,11.80468],[-1.25224,11.79477],[-1.26808,11.78587],[-1.27651,11.75014],[-1.296,11.72241],[-1.30381,11.70454],[-1.30884,11.68165],[-1.30882,11.66482],[-1.31549,11.65199],[-1.31534,11.63679],[-1.32932,11.62132],[-1.32987,11.60996],[-1.34575,11.59235],[-1.33754,11.58436],[-1.33585,11.57147],[-1.32511,11.55784],[-1.30929,11.5469]]]}}