{"type":"Feature","properties":{"id":"TZA.26.5","name":"Mkinga","level":2,"country":"TZA"},"geometry":{"type":"Polygon","coordinates":[[[38.6613,-4.93241],[38.68701,-4.93342],[38.70215,-4.93257],[38.70435,-4.9363],[38.7039,-4.95651],[38.7076,-4.97291],[38.71901,-4.9985],[38.73114,-4.99914],[38.74905,-4.99232],[38.77702,-5.00888],[38.78868,-5.00918],[38.81041,-5.01888],[38.82652,-5.01961],[38.83363,-5.02546],[38.86093,-5.03477],[38.86758,-5.03234],[38.89005,-5.03669],[38.89844,-5.03611],[38.9124,-5.03402],[38.9196,-5.02296],[38.92988,-5.01577],[38.94402,-5.01524],[38.95928,-5.01966],[38.98052,-4.98722],[38.9867,-4.98339],[39.00312,-4.98132],[39.01299,-4.96654],[39.0208,-4.96165],[39.0419,-4.96058],[39.05974,-4.96774],[39.06955,-4.9659],[39.09312,-4.97394],[39.10216,-4.9632],[39.11274,-4.97204],[39.12942,-4.97553],[39.14225,-4.96171],[39.13553,-4.9394],[39.12392,-4.93286],[39.11053,-4.9222],[39.10199,-4.92873],[39.09126,-4.92235],[39.10143,-4.90912],[39.09739,-4.89593],[39.10619,-4.89379],[39.11551,-4.89628],[39.1151,-4.91274],[39.12657,-4.91738],[39.13566,-4.91785],[39.146,-4.89699],[39.14107,-4.89319],[39.1466,-4.87393],[39.1548,-4.86531],[39.15951,-4.84571],[39.1475,-4.83014],[39.16438,-4.82826],[39.17048,-4.83263],[39.1712,-4.84353],[39.17803,-4.85247],[39.17436,-4.86458],[39.1786,-4.86837],[39.17739,-4.90002],[39.18546,-4.90635],[39.19322,-4.89413],[39.19727,-4.88054],[39.20409,-4.87385],[39.21131,-4.85741],[39.21417,-4.84412],[39.20686,-4.83949],[39.20126,-4.84308],[39.19144,-4.84023],[39.19464,-4.8292],[39.21697,-4.82042],[39.22006,-4.80663],[39.21451,-4.79007],[39.20032,-4.81289],[39.1878,-4.80227],[39.18083,-4.80853],[39.17663,-4.79553],[39.16768,-4.78452],[39.16774,-4.77562],[39.17218,-4.77141],[39.17293,-4.75235],[39.16675,-4.74819],[39.16948,-4.73494],[39.17726,-4.73024],[39.18773,-4.71473],[39.18065,-4.6994],[39.17988,-4.6865],[39.19183,-4.67622],[39.19538,-4.66106],[38.96364,-4.49612],[38.80194,-4.3852],[38.7599,-4.35804],[38.75959,-4.49156],[38.76826,-4.51042],[38.76072,-4.53304],[38.76298,-4.55642],[38.75996,-4.5751],[38.76168,-4.59232],[38.75422,-4.60723],[38.7525,-4.61871],[38.75881,-4.63822],[38.75824,-4.65715],[38.75135,-4.65887],[38.73873,-4.656],[38.72898,-4.66633],[38.73529,-4.68412],[38.74676,-4.70075],[38.75709,-4.70879],[38.75755,-4.71418],[38.73873,-4.71969],[38.73127,-4.72887],[38.73586,-4.7346],[38.72783,-4.75411],[38.72439,-4.7696],[38.71114,-4.79002],[38.70312,-4.81609],[38.69518,-4.87207],[38.66946,-4.91412],[38.6613,-4.93241]]]}}