{"type":"Feature","properties":{"id":"TZA.6.6","name":"Tabora Urban","level":2,"country":"TZA"},"geometry":{"type":"Polygon","coordinates":[[[32.66744,-4.79102],[32.64819,-4.85343],[32.63713,-4.87814],[32.63259,-4.89347],[32.64079,-4.92047],[32.63879,-4.94859],[32.64047,-4.98921],[32.64016,-5.03296],[32.6461,-5.05143],[32.65657,-5.06706],[32.65968,-5.08297],[32.65713,-5.09688],[32.66108,-5.11592],[32.67729,-5.1378],[32.66735,-5.17643],[32.66848,-5.18751],[32.67556,-5.19831],[32.69198,-5.2111],[32.70693,-5.21253],[32.7228,-5.206],[32.7279,-5.20004],[32.74632,-5.20146],[32.75567,-5.19664],[32.77267,-5.19863],[32.79278,-5.19665],[32.80667,-5.18984],[32.81205,-5.18217],[32.81942,-5.17848],[32.83614,-5.17507],[32.84888,-5.17565],[32.8588,-5.17309],[32.86164,-5.16315],[32.86957,-5.16258],[32.8843,-5.16599],[32.9013,-5.17992],[32.9132,-5.1839],[32.91688,-5.18929],[32.93728,-5.18958],[32.95258,-5.18362],[32.96164,-5.17566],[32.96873,-5.15066],[32.97383,-5.14356],[32.98431,-5.13845],[32.96873,-5.10663],[32.9693,-5.09357],[32.95882,-5.07027],[32.97808,-5.05039],[32.99026,-5.03192],[32.99394,-5.02141],[32.99224,-5.01232],[32.9812,-4.98988],[32.98346,-4.96204],[32.98261,-4.9555],[32.96473,-4.9592],[32.96247,-4.95209],[32.9534,-4.95351],[32.93747,-4.95032],[32.93407,-4.93952],[32.91153,-4.91715],[32.90894,-4.90581],[32.89729,-4.89632],[32.88459,-4.86689],[32.87586,-4.85891],[32.86815,-4.85964],[32.85867,-4.8476],[32.85546,-4.83512],[32.82725,-4.82964],[32.81781,-4.81746],[32.81589,-4.80657],[32.82199,-4.76714],[32.80215,-4.76402],[32.79687,-4.76031],[32.8018,-4.74653],[32.80656,-4.72516],[32.8013,-4.71262],[32.80133,-4.67274],[32.79103,-4.67045],[32.78408,-4.67355],[32.76375,-4.69394],[32.75396,-4.71304],[32.74161,-4.72517],[32.75671,-4.76273],[32.75444,-4.77803],[32.74784,-4.78465],[32.73743,-4.80044],[32.72882,-4.79764],[32.72708,-4.78979],[32.71856,-4.79353],[32.70482,-4.78794],[32.66744,-4.79102]]]}}