{"type":"Feature","properties":{"id":"TZA.13.2","name":"Bagamoyo","level":2,"country":"TZA"},"geometry":{"type":"Polygon","coordinates":[[[39.1206,-6.56409],[39.10593,-6.55736],[39.09139,-6.54334],[39.08077,-6.52612],[39.0742,-6.52646],[39.06562,-6.51226],[39.05407,-6.50789],[39.05267,-6.49409],[39.04311,-6.48882],[39.0342,-6.49246],[39.02055,-6.49393],[39.01309,-6.49113],[39.0071,-6.48185],[38.99675,-6.47423],[38.97905,-6.47359],[38.95799,-6.46417],[38.95682,-6.45611],[38.94773,-6.45814],[38.92012,-6.44766],[38.91023,-6.43915],[38.90553,-6.4302],[38.90037,-6.40194],[38.88927,-6.40047],[38.87506,-6.39028],[38.86918,-6.39002],[38.86603,-6.38023],[38.85361,-6.36005],[38.84326,-6.33918],[38.83864,-6.31645],[38.84301,-6.28504],[38.85133,-6.26079],[38.85422,-6.24694],[38.85181,-6.24183],[38.86423,-6.21819],[38.86035,-6.20598],[38.86071,-6.18664],[38.86306,-6.17142],[38.85406,-6.15823],[38.83928,-6.15136],[38.83842,-6.14544],[38.81978,-6.11346],[38.81026,-6.10582],[38.79823,-6.08926],[38.79462,-6.07974],[38.78216,-6.05954],[38.77925,-6.04442],[38.77833,-6.01829],[38.78627,-6.00177],[38.79399,-5.97744],[38.79873,-5.96836],[38.79584,-5.96227],[38.79085,-5.96677],[38.75925,-5.95323],[38.73037,-5.95323],[38.70388,-5.94548],[38.70181,-5.95388],[38.69493,-5.96152],[38.68901,-5.9611],[38.66993,-5.95164],[38.65506,-5.95434],[38.64301,-5.96621],[38.64212,-5.97525],[38.62467,-5.98649],[38.60746,-5.98022],[38.59627,-5.9813],[38.59203,-5.99442],[38.57907,-5.99905],[38.57301,-6.01029],[38.56173,-6.01571],[38.55362,-6.01285],[38.5545,-6.00639],[38.54387,-5.99676],[38.52967,-6.00605],[38.5175,-6.00782],[38.4995,-6.00193],[38.49217,-6.00304],[38.48259,-5.99949],[38.47794,-6.00856],[38.47035,-6.0118],[38.46429,-6.01974],[38.44807,-6.00813],[38.43041,-6.01451],[38.42308,-6.0111],[38.41652,-6.00272],[38.41247,-5.9861],[38.39602,-5.97892],[38.39173,-5.98842],[38.37898,-5.98147],[38.3748,-5.98506],[38.35336,-5.98344],[38.34165,-5.98715],[38.34304,-5.97266],[38.33099,-5.96431],[38.33655,-5.95318],[38.32369,-5.94484],[38.31859,-5.93452],[38.30387,-5.93579],[38.29807,-5.92675],[38.28746,-5.93055],[38.28565,-5.92543],[38.27025,-5.93012],[38.25266,-5.92623],[38.24504,-5.92838],[38.23995,-5.91932],[38.23182,-5.92214],[38.22567,-5.91477],[38.22427,-5.90358],[38.20644,-5.88974],[38.2049,-5.87959],[38.19967,-5.87437],[38.17938,-5.87283],[38.17323,-5.86207],[38.15718,-5.85844],[38.15257,-5.8546],[38.14104,-5.85383],[38.12823,-5.86049],[38.11542,-5.86126],[38.10697,-5.85485],[38.10005,-5.861],[38.08109,-5.85434],[38.07315,-5.84768],[38.05752,-5.86331],[38.04189,-5.85921],[38.0278,-5.85921],[38.02293,-5.86331],[38.01474,-5.85895],[38.00679,-5.86023],[38.00167,-5.87356],[37.99527,-5.86997],[37.98963,-5.8587],[37.97041,-5.84819],[37.96017,-5.85101],[37.94736,-5.84896],[37.94428,-5.84307],[37.9274,-5.84272],[37.91713,-5.8487],[37.90829,-5.86421],[37.89906,-5.87206],[37.88062,-5.87377],[37.8731,-5.88641],[37.86525,-5.89188],[37.84987,-5.88846],[37.83723,-5.88812],[37.81913,-5.88402],[37.79975,-5.89191],[37.81025,-5.89973],[37.81708,-5.9011],[37.8205,-5.91101],[37.8287,-5.91716],[37.84133,-5.92092],[37.83997,-5.93048],[37.85124,-5.93356],[37.85602,-5.94551],[37.86456,-5.94961],[37.86627,-5.96157],[37.86388,-5.96738],[37.84543,-5.97353],[37.84304,-5.99163],[37.85933,-6.00601],[37.86661,-6.01692],[37.86916,-6.03585],[37.86661,-6.04349],[37.87461,-6.06605],[37.88262,-6.0726],[37.88771,-6.08861],[37.8848,-6.09479],[37.90408,-6.09516],[37.91354,-6.10207],[37.90991,-6.11226],[37.92591,-6.10644],[37.93938,-6.11299],[37.95466,-6.11481],[37.95138,-6.12208],[37.96302,-6.14864],[37.97248,-6.1461],[37.97067,-6.15992],[37.97685,-6.16902],[37.9874,-6.17339],[38.01382,-6.17226],[38.02632,-6.17703],[38.02939,-6.18236],[38.04798,-6.18558],[38.05742,-6.18244],[38.06121,-6.19349],[38.06806,-6.19424],[38.07785,-6.20604],[38.0779,-6.21287],[38.04944,-6.214],[38.03651,-6.20646],[38.03052,-6.21844],[38.01061,-6.22043],[38.0043,-6.22697],[38.00159,-6.24763],[38.00092,-6.60008],[38.01464,-6.6096],[38.0115,-6.61642],[38.01883,-6.62397],[38.01656,-6.62937],[38.02959,-6.63804],[38.04573,-6.65604],[38.06009,-6.65317],[38.09233,-6.65644],[38.11148,-6.66552],[38.12825,-6.66751],[38.15042,-6.67541],[38.15902,-6.68677],[38.17207,-6.69684],[38.17752,-6.69378],[38.18696,-6.69548],[38.19692,-6.70154],[38.21428,-6.70651],[38.23066,-6.69924],[38.24615,-6.70163],[38.2579,-6.69364],[38.26047,-6.68763],[38.27146,-6.68505],[38.27881,-6.68932],[38.29036,-6.68434],[38.30297,-6.68336],[38.31638,-6.68746],[38.33173,-6.67777],[38.34561,-6.68169],[38.36479,-6.70045],[38.37286,-6.70513],[38.38593,-6.69924],[38.40244,-6.7136],[38.40945,-6.71212],[38.42323,-6.7212],[38.43257,-6.72344],[38.44962,-6.72297],[38.46778,-6.70934],[38.47611,-6.71168],[38.48253,-6.71809],[38.4862,-6.73009],[38.49319,-6.73389],[38.50602,-6.72666],[38.51473,-6.7268],[38.52166,-6.71582],[38.53662,-6.71669],[38.54194,-6.71417],[38.55334,-6.72286],[38.56581,-6.72438],[38.58596,-6.74666],[38.5864,-6.75268],[38.60236,-6.77745],[38.61313,-6.77143],[38.61933,-6.76348],[38.63305,-6.7678],[38.64576,-6.76566],[38.65266,-6.77454],[38.66233,-6.77029],[38.67247,-6.75694],[38.67266,-6.74349],[38.67793,-6.73181],[38.68461,-6.72582],[38.69188,-6.71129],[38.69016,-6.69104],[38.69669,-6.67937],[38.70532,-6.67695],[38.70571,-6.66923],[38.71198,-6.66351],[38.71031,-6.65261],[38.72455,-6.64361],[38.75406,-6.64067],[38.75921,-6.62856],[38.77216,-6.61325],[38.78101,-6.60948],[38.77914,-6.59443],[38.78816,-6.58762],[38.79593,-6.57665],[38.81265,-6.56285],[38.81767,-6.57362],[38.81255,-6.60918],[38.80364,-6.62149],[38.80941,-6.64652],[38.81826,-6.65289],[38.83476,-6.65625],[38.84438,-6.66131],[38.8515,-6.66052],[38.85563,-6.63932],[38.84545,-6.61937],[38.84926,-6.61671],[38.8665,-6.61659],[38.87029,-6.60263],[38.88454,-6.59083],[38.93122,-6.56865],[38.93523,-6.55518],[38.94428,-6.54658],[38.97035,-6.55177],[38.97883,-6.56034],[39.00366,-6.56585],[39.01252,-6.59637],[39.00218,-6.62196],[39.02395,-6.61186],[39.03138,-6.6183],[39.05891,-6.62095],[39.06945,-6.63219],[39.07688,-6.62323],[39.07709,-6.60871],[39.08509,-6.59349],[39.09261,-6.59743],[39.10451,-6.58865],[39.10799,-6.57771],[39.11717,-6.57579],[39.1206,-6.56409]]]}}