{"type":"Feature","properties":{"id":"PRY.8.11","name":"Mariano Roque Alonso","level":2,"country":"PRY"},"geometry":{"type":"Polygon","coordinates":[[[-57.52724,-25.24436],[-57.52517,-25.24441],[-57.52001,-25.22911],[-57.51723,-25.22807],[-57.51524,-25.21737],[-57.50012,-25.20394],[-57.5012,-25.18653],[-57.50606,-25.18272],[-57.50344,-25.17115],[-57.50607,-25.1579],[-57.51652,-25.15388],[-57.52922,-25.16061],[-57.52994,-25.17439],[-57.5368,-25.18064],[-57.54323,-25.18094],[-57.55635,-25.19317],[-57.57456,-25.22394],[-57.55896,-25.22844],[-57.53985,-25.23621],[-57.52724,-25.24436]]]}}