{"type":"Feature","properties":{"id":"PRY.3.2","name":"Loma Plata","level":2,"country":"PRY"},"geometry":{"type":"Polygon","coordinates":[[[-59.95314,-22.51853],[-59.95788,-22.58949],[-59.92305,-22.58943],[-59.92387,-22.62843],[-59.91548,-22.62847],[-59.91616,-22.67343],[-59.86904,-22.67233],[-59.84376,-22.63437],[-59.80622,-22.58833],[-59.75177,-22.5254],[-59.75167,-22.5009],[-59.74718,-22.50043],[-59.74718,-22.46698],[-59.71217,-22.46701],[-59.7118,-22.42797],[-59.62624,-22.42798],[-59.63976,-22.38863],[-59.63934,-22.36892],[-59.61444,-22.34108],[-59.61439,-22.33589],[-59.3366,-22.1704],[-59.36774,-22.07622],[-59.4129,-22.05682],[-59.41636,-22.05653],[-59.74003,-22.0555],[-59.7397,-22.17121],[-59.73858,-22.17835],[-59.73902,-22.34914],[-59.8801,-22.348],[-59.96929,-22.34907],[-59.97281,-22.35068],[-59.99124,-22.35116],[-59.99117,-22.42766],[-59.99147,-22.46715],[-59.95344,-22.46697],[-59.95336,-22.49115],[-59.95555,-22.49289],[-59.9534,-22.50196],[-59.95314,-22.51853]]]}}