{"type":"Feature","properties":{"id":"PRY.8.2","name":"Limpio","level":2,"country":"PRY"},"geometry":{"type":"Polygon","coordinates":[[[-57.47832,-25.10369],[-57.49189,-25.09762],[-57.50506,-25.09668],[-57.51527,-25.10038],[-57.52726,-25.11177],[-57.53364,-25.12024],[-57.53958,-25.1428],[-57.53987,-25.15242],[-57.53695,-25.16659],[-57.53897,-25.17416],[-57.54323,-25.18094],[-57.5368,-25.18064],[-57.52994,-25.17439],[-57.52922,-25.16061],[-57.51652,-25.15388],[-57.50607,-25.1579],[-57.50344,-25.17115],[-57.50606,-25.18272],[-57.5012,-25.18653],[-57.50012,-25.20394],[-57.49115,-25.2133],[-57.48174,-25.21172],[-57.47624,-25.21559],[-57.47386,-25.22096],[-57.46483,-25.21901],[-57.4576,-25.21368],[-57.44871,-25.21279],[-57.44869,-25.20642],[-57.44148,-25.20214],[-57.43599,-25.1925],[-57.42555,-25.18966],[-57.41624,-25.19737],[-57.40901,-25.18289],[-57.40249,-25.18225],[-57.4001,-25.16793],[-57.40738,-25.16609],[-57.41244,-25.16148],[-57.41249,-25.15401],[-57.41875,-25.14919],[-57.4266,-25.15026],[-57.43415,-25.14446],[-57.43059,-25.13879],[-57.43112,-25.13183],[-57.43633,-25.12842],[-57.44206,-25.13239],[-57.4519,-25.12439],[-57.45825,-25.12248],[-57.47512,-25.11369],[-57.47832,-25.10369]]]}}