{"type":"Feature","properties":{"id":"PRY.5.15","name":"Tobati","level":2,"country":"PRY"},"geometry":{"type":"Polygon","coordinates":[[[-57.131,-25.14125],[-57.12961,-25.14756],[-57.12073,-25.15421],[-57.11137,-25.19661],[-57.10629,-25.20096],[-57.10475,-25.20928],[-57.09774,-25.21179],[-57.10032,-25.22286],[-57.10613,-25.22513],[-57.10806,-25.23218],[-57.1134,-25.23437],[-57.12737,-25.25188],[-57.13064,-25.25989],[-57.1278,-25.27152],[-57.12948,-25.27682],[-57.12774,-25.2847],[-57.12973,-25.2949],[-57.12963,-25.30468],[-57.11988,-25.30342],[-57.11238,-25.31122],[-57.10508,-25.31256],[-57.09641,-25.30958],[-57.0847,-25.31354],[-57.08546,-25.32249],[-57.08014,-25.32466],[-57.07372,-25.32227],[-57.07229,-25.33225],[-57.06511,-25.33387],[-57.06054,-25.32778],[-57.05458,-25.32717],[-57.04758,-25.32081],[-57.0366,-25.31406],[-57.02986,-25.31364],[-57.0233,-25.31046],[-57.02193,-25.29982],[-57.02394,-25.29146],[-57.01878,-25.2775],[-57.01997,-25.26803],[-57.02294,-25.26461],[-57.01894,-25.25458],[-57.01273,-25.24715],[-57.006,-25.25281],[-56.99492,-25.24828],[-56.96724,-25.24895],[-56.94987,-25.24528],[-56.95038,-25.24013],[-56.94526,-25.23889],[-56.94292,-25.23785],[-56.94551,-25.22203],[-56.94252,-25.22056],[-56.9479,-25.21175],[-56.95843,-25.19685],[-56.97581,-25.19001],[-56.97576,-25.18754],[-56.96347,-25.17136],[-56.97493,-25.16596],[-56.98407,-25.15601],[-56.97819,-25.15127],[-56.98008,-25.14093],[-56.98519,-25.13246],[-57.01719,-25.10317],[-57.0266,-25.09727],[-57.02737,-25.10897],[-57.0333,-25.11949],[-57.10714,-25.1453],[-57.12424,-25.1386],[-57.131,-25.14125]]]}}