{"type":"Feature","properties":{"id":"AUT.8.10","name":"Scheibbs","level":2,"country":"AUT"},"geometry":{"type":"Polygon","coordinates":[[[14.85902,47.74099],[14.87356,47.73202],[14.87753,47.72654],[14.87761,47.71653],[14.89881,47.71139],[14.92873,47.71113],[14.93234,47.71781],[14.94107,47.72241],[14.95297,47.73335],[14.96862,47.73775],[14.97382,47.7441],[14.9874,47.74062],[15.02241,47.7484],[15.03571,47.75323],[15.05673,47.74124],[15.08006,47.74334],[15.09024,47.74196],[15.13117,47.74767],[15.13584,47.75849],[15.15997,47.75892],[15.16955,47.75422],[15.18431,47.75722],[15.20166,47.75427],[15.21148,47.76493],[15.20754,47.77823],[15.20916,47.78831],[15.21832,47.79652],[15.21719,47.80677],[15.23002,47.81439],[15.20833,47.81911],[15.20148,47.82545],[15.18099,47.82659],[15.18049,47.83294],[15.16545,47.84183],[15.16181,47.84983],[15.17457,47.85137],[15.2037,47.8624],[15.21557,47.86441],[15.22502,47.87144],[15.24055,47.87327],[15.24777,47.86923],[15.25928,47.87091],[15.26333,47.88177],[15.28954,47.87874],[15.31427,47.88867],[15.32524,47.88535],[15.337,47.89051],[15.32877,47.89642],[15.33796,47.90805],[15.32983,47.91161],[15.33097,47.92391],[15.32346,47.93619],[15.30569,47.94098],[15.29616,47.93691],[15.29315,47.94337],[15.28383,47.95072],[15.2743,47.9541],[15.2856,47.96624],[15.27495,47.97352],[15.27494,47.98687],[15.26449,47.99819],[15.27719,48.00735],[15.27507,48.01512],[15.26247,48.0219],[15.26447,48.03447],[15.27351,48.04797],[15.29276,48.05431],[15.28827,48.0605],[15.28625,48.07553],[15.27716,48.07515],[15.25841,48.08091],[15.23984,48.09798],[15.23187,48.10044],[15.21395,48.11204],[15.19525,48.1104],[15.18919,48.12587],[15.16494,48.11624],[15.15705,48.1232],[15.16371,48.12707],[15.15569,48.13856],[15.14353,48.14199],[15.13309,48.13648],[15.12341,48.14213],[15.06662,48.13758],[15.05923,48.13212],[15.03834,48.12842],[15.03362,48.12212],[15.02212,48.12204],[15.0164,48.11764],[15.01523,48.10724],[15.00834,48.09996],[15.01131,48.08726],[15.0074,48.07748],[14.9955,48.07166],[14.98527,48.07335],[14.96712,48.06767],[14.96692,48.05614],[14.97256,48.05205],[14.97473,48.04237],[14.96023,48.04211],[14.95147,48.03878],[14.94007,48.04118],[14.93174,48.03577],[14.9258,48.03827],[14.91326,48.03018],[14.9012,48.03294],[14.90395,48.02277],[14.89813,48.01949],[14.87086,48.02526],[14.86067,48.02364],[14.87561,48.01759],[14.87826,48.00999],[14.90287,48.01165],[14.90465,48.00573],[14.88426,48.00016],[14.89272,47.99298],[14.90312,47.99187],[14.90969,47.98518],[14.92144,47.98862],[14.92654,47.98328],[14.92162,47.97468],[14.93491,47.97176],[14.95265,47.97431],[14.95505,47.97038],[14.94456,47.96147],[14.95819,47.95951],[14.94885,47.94847],[14.94424,47.93491],[14.9462,47.92757],[14.99576,47.93225],[14.99838,47.92331],[15.01096,47.91472],[14.9991,47.90778],[14.99246,47.90985],[14.96807,47.90236],[14.96774,47.8897],[14.9607,47.88362],[14.94882,47.87917],[14.94157,47.86877],[14.9332,47.86398],[14.94929,47.84014],[14.93101,47.8368],[14.90772,47.82997],[14.90849,47.8207],[14.90491,47.81566],[14.88743,47.81157],[14.8937,47.80333],[14.8783,47.80177],[14.8686,47.79654],[14.85572,47.79515],[14.84494,47.79058],[14.85498,47.7734],[14.87548,47.76743],[14.85377,47.75559],[14.84822,47.74825],[14.85902,47.74099]]]}}