{"type":"Feature","properties":{"id":"GTM.4.17","name":"Flores Costa Cuca","level":2,"country":"GTM"},"geometry":{"type":"Polygon","coordinates":[[[-91.87323,14.57068],[-91.86803,14.58802],[-91.85795,14.60024],[-91.85658,14.60927],[-91.84027,14.6218],[-91.83206,14.64154],[-91.82173,14.64879],[-91.81124,14.66808],[-91.80909,14.67742],[-91.80232,14.67935],[-91.8047,14.69499],[-91.82574,14.67979],[-91.84513,14.68343],[-91.85747,14.67473],[-91.87208,14.67376],[-91.88141,14.66307],[-91.89054,14.6627],[-91.88623,14.64084],[-91.89788,14.62715],[-91.90274,14.61545],[-91.91677,14.60294],[-91.9082,14.59391],[-91.91217,14.58365],[-91.88727,14.57307],[-91.87323,14.57068]]]}}