{"type":"Feature","properties":{"id":"GTM.10.4","name":"Villa Nueva","level":2,"country":"GTM"},"geometry":{"type":"Polygon","coordinates":[[[-90.6105,14.49055],[-90.58114,14.48121],[-90.57681,14.48754],[-90.58028,14.498],[-90.5733,14.51735],[-90.56331,14.5246],[-90.55657,14.54437],[-90.55507,14.56786],[-90.56123,14.58028],[-90.57903,14.57931],[-90.59764,14.57681],[-90.61285,14.58269],[-90.63138,14.58032],[-90.63115,14.56617],[-90.65136,14.58314],[-90.66431,14.58485],[-90.66802,14.58089],[-90.66784,14.57406],[-90.64879,14.5596],[-90.65498,14.55488],[-90.66304,14.52926],[-90.6433,14.51969],[-90.62818,14.51599],[-90.62404,14.50177],[-90.6105,14.49055]]]}}