{"type":"Feature","properties":{"id":"GTM.10.6","name":"Santa Catarina Pinula","level":2,"country":"GTM"},"geometry":{"type":"Polygon","coordinates":[[[-90.42939,14.54704],[-90.42482,14.55797],[-90.41412,14.56098],[-90.43551,14.58752],[-90.41696,14.60329],[-90.40706,14.61455],[-90.42258,14.61092],[-90.43437,14.61387],[-90.44636,14.60955],[-90.45729,14.5991],[-90.47149,14.59356],[-90.48229,14.57864],[-90.50419,14.57751],[-90.5163,14.57411],[-90.52441,14.56004],[-90.5132,14.54533],[-90.4863,14.53168],[-90.48069,14.52108],[-90.47423,14.51983],[-90.46522,14.52548],[-90.45041,14.52291],[-90.44618,14.53953],[-90.42939,14.54704]]]}}