{"type":"Feature","properties":{"id":"GTM.10.13","name":"San Pedro Sacatepéquez","level":2,"country":"GTM"},"geometry":{"type":"Polygon","coordinates":[[[-90.53698,14.70981],[-90.54092,14.7181],[-90.56004,14.69498],[-90.57377,14.68973],[-90.58901,14.67937],[-90.6089,14.67834],[-90.62213,14.68889],[-90.62511,14.69686],[-90.63893,14.69166],[-90.65027,14.69788],[-90.65692,14.68886],[-90.67284,14.67955],[-90.67316,14.66838],[-90.64768,14.65939],[-90.63853,14.65318],[-90.6299,14.66359],[-90.6181,14.66704],[-90.60938,14.66321],[-90.58508,14.67186],[-90.57587,14.68202],[-90.55646,14.6905],[-90.54729,14.70208],[-90.53698,14.70981]]]}}