{"type":"Feature","properties":{"id":"GTM.17.5","name":"Morales","level":2,"country":"GTM"},"geometry":{"type":"Polygon","coordinates":[[[-88.98587,15.55278],[-88.98261,15.52654],[-88.98308,15.51588],[-88.9819,15.50265],[-88.97561,15.48904],[-88.97371,15.47696],[-88.97792,15.46292],[-88.9846,15.45763],[-89.00014,15.45448],[-89.00857,15.44963],[-89.03699,15.4387],[-89.0287,15.41245],[-89.01976,15.41727],[-89.0043,15.42023],[-88.9992,15.40963],[-88.98407,15.40611],[-88.96234,15.40743],[-88.95297,15.4042],[-88.9328,15.37222],[-88.92294,15.37227],[-88.91434,15.3626],[-88.92381,15.35132],[-88.92705,15.33914],[-88.92609,15.3087],[-88.93857,15.30782],[-88.9511,15.29197],[-88.94979,15.28497],[-88.93893,15.28458],[-88.92534,15.27762],[-88.91357,15.2839],[-88.90454,15.27898],[-88.89417,15.26244],[-88.8905,15.25096],[-88.89121,15.23341],[-88.87857,15.23506],[-88.87015,15.22267],[-88.84733,15.24216],[-88.67624,15.34375],[-88.61213,15.40793],[-88.59284,15.42118],[-88.58348,15.41987],[-88.56978,15.42882],[-88.55903,15.44614],[-88.54594,15.45138],[-88.50274,15.49362],[-88.48936,15.50193],[-88.50983,15.50698],[-88.51887,15.52046],[-88.52965,15.5272],[-88.54484,15.53161],[-88.5468,15.54441],[-88.56465,15.55884],[-88.55555,15.58049],[-88.55462,15.59372],[-88.5721,15.59907],[-88.58005,15.61004],[-88.59321,15.6188],[-88.60777,15.62099],[-88.61771,15.61866],[-88.62723,15.61129],[-88.6304,15.5974],[-88.63713,15.59022],[-88.64791,15.59045],[-88.66043,15.58599],[-88.66701,15.58832],[-88.68094,15.58362],[-88.70495,15.58447],[-88.7253,15.58828],[-88.7433,15.57911],[-88.76306,15.57354],[-88.79121,15.57352],[-88.80024,15.56907],[-88.81511,15.57245],[-88.82401,15.56843],[-88.83669,15.5719],[-88.86542,15.56995],[-88.88956,15.55366],[-88.9037,15.55023],[-88.91652,15.55516],[-88.94391,15.56109],[-88.96281,15.55185],[-88.98587,15.55278]]]}}