{"type":"Feature","properties":{"id":"GTM.7.10","name":"Cahabón","level":2,"country":"GTM"},"geometry":{"type":"Polygon","coordinates":[[[-89.53629,15.63629],[-89.56991,15.63587],[-89.5824,15.64302],[-89.59641,15.64643],[-89.6152,15.642],[-89.62517,15.64457],[-89.63768,15.63876],[-89.647,15.63905],[-89.66753,15.63252],[-89.67681,15.63845],[-89.69493,15.6332],[-89.70454,15.62501],[-89.72458,15.61405],[-89.72915,15.6222],[-89.72344,15.63158],[-89.72445,15.64178],[-89.71978,15.70133],[-89.71089,15.72555],[-89.93418,15.71905],[-89.93663,15.67146],[-89.94978,15.6635],[-89.90909,15.58169],[-89.91343,15.57037],[-89.92288,15.56568],[-89.91788,15.55328],[-89.91959,15.54708],[-89.9301,15.54444],[-89.92715,15.53551],[-89.9235,15.49761],[-89.91161,15.49352],[-89.80986,15.50466],[-89.63809,15.5259],[-89.60597,15.5233],[-89.58303,15.5218],[-89.53416,15.63415],[-89.53629,15.63629]]]}}