{"type":"Feature","properties":{"id":"GTM.1.2","name":"San Jerónimo","level":2,"country":"GTM"},"geometry":{"type":"Polygon","coordinates":[[[-90.05396,15.1051],[-90.04935,15.10842],[-90.07099,15.11341],[-90.10228,15.11466],[-90.1069,15.11756],[-90.12191,15.11094],[-90.14984,15.11341],[-90.1602,15.12274],[-90.18675,15.1275],[-90.1965,15.12001],[-90.2064,15.11988],[-90.22345,15.11276],[-90.23761,15.1127],[-90.24345,15.1039],[-90.2575,15.0965],[-90.27162,15.09956],[-90.28701,15.09327],[-90.28379,15.08161],[-90.29418,15.04241],[-90.28074,15.02531],[-90.27648,15.0143],[-90.24927,15.01244],[-90.23005,14.97575],[-90.21897,14.98267],[-90.19763,15.00221],[-90.05396,15.1051]]]}}