{"type":"Feature","properties":{"id":"GTM.11.20","name":"Río Bravo","level":2,"country":"GTM"},"geometry":{"type":"Polygon","coordinates":[[[-91.42341,14.33145],[-91.42237,14.32424],[-91.41106,14.28996],[-91.39628,14.29716],[-91.38097,14.30953],[-91.36859,14.31062],[-91.36354,14.3163],[-91.36962,14.33188],[-91.36369,14.33457],[-91.35401,14.31894],[-91.32551,14.33511],[-91.31232,14.32086],[-91.29698,14.33439],[-91.2839,14.33163],[-91.28112,14.34012],[-91.26609,14.3376],[-91.25975,14.35081],[-91.25358,14.35385],[-91.25318,14.36519],[-91.26662,14.37187],[-91.27811,14.38319],[-91.28795,14.37754],[-91.29892,14.37864],[-91.29921,14.39898],[-91.2962,14.40507],[-91.29028,14.4472],[-91.30086,14.45125],[-91.30037,14.45813],[-91.28824,14.47447],[-91.29518,14.47981],[-91.30459,14.46827],[-91.32537,14.48095],[-91.33471,14.47458],[-91.33573,14.46136],[-91.34553,14.43991],[-91.34591,14.43168],[-91.36091,14.42792],[-91.35881,14.41521],[-91.37138,14.40024],[-91.37153,14.38063],[-91.37513,14.36483],[-91.38567,14.35524],[-91.38576,14.34267],[-91.39404,14.34001],[-91.39961,14.3319],[-91.41236,14.32569],[-91.42341,14.33145]]]}}