{"type":"Feature","properties":{"id":"GTM.4.21","name":"Génova","level":2,"country":"GTM"},"geometry":{"type":"Polygon","coordinates":[[[-91.96559,14.53346],[-91.94597,14.52885],[-91.92173,14.52983],[-91.89923,14.5115],[-91.88786,14.50746],[-91.87955,14.514],[-91.85655,14.50572],[-91.84789,14.49914],[-91.83165,14.49395],[-91.81766,14.49628],[-91.80682,14.49381],[-91.79875,14.50449],[-91.80072,14.51128],[-91.79539,14.5328],[-91.78675,14.53922],[-91.78226,14.55733],[-91.80073,14.56205],[-91.80562,14.56776],[-91.80204,14.60128],[-91.78566,14.64379],[-91.77806,14.64672],[-91.76955,14.65724],[-91.76638,14.67775],[-91.77651,14.68126],[-91.7818,14.67203],[-91.7916,14.66854],[-91.80219,14.65897],[-91.81124,14.66808],[-91.82173,14.64879],[-91.83206,14.64154],[-91.84027,14.6218],[-91.85658,14.60927],[-91.85795,14.60024],[-91.86803,14.58802],[-91.87323,14.57068],[-91.88187,14.56402],[-91.89871,14.56121],[-91.93961,14.56193],[-91.9601,14.54131],[-91.96559,14.53346]]]}}