{"type":"Feature","properties":{"id":"GTM.12.7","name":"Sumpango","level":2,"country":"GTM"},"geometry":{"type":"Polygon","coordinates":[[[-90.70892,14.61359],[-90.7145,14.63299],[-90.72536,14.64611],[-90.72928,14.65639],[-90.72866,14.68099],[-90.73458,14.69537],[-90.74352,14.71022],[-90.75897,14.725],[-90.76142,14.71151],[-90.77017,14.70761],[-90.77324,14.69096],[-90.76296,14.66582],[-90.76239,14.65794],[-90.78008,14.63963],[-90.75944,14.62893],[-90.75035,14.61436],[-90.73149,14.61461],[-90.73013,14.60645],[-90.71208,14.60641],[-90.70892,14.61359]]]}}