{"type":"Feature","properties":{"id":"GTM.13.21","name":"Nahualá","level":2,"country":"GTM"},"geometry":{"type":"Polygon","coordinates":[[[-91.44344,14.76488],[-91.44611,14.74464],[-91.46231,14.73857],[-91.47229,14.72614],[-91.48322,14.72058],[-91.49007,14.70621],[-91.48562,14.66752],[-91.48165,14.64488],[-91.49272,14.62115],[-91.50649,14.60012],[-91.49921,14.59573],[-91.49186,14.59444],[-91.48551,14.60187],[-91.46543,14.62689],[-91.46023,14.63874],[-91.4408,14.64272],[-91.43492,14.65005],[-91.4162,14.65611],[-91.42633,14.66856],[-91.42971,14.68967],[-91.41958,14.7197],[-91.41997,14.73541],[-91.42596,14.75038],[-91.39625,14.7831],[-91.3872,14.80342],[-91.37467,14.82058],[-91.34865,14.81931],[-91.33432,14.82646],[-91.32223,14.81772],[-91.32279,14.80366],[-91.32678,14.78975],[-91.30689,14.77136],[-91.297,14.77813],[-91.30419,14.80553],[-91.28191,14.81148],[-91.27285,14.81898],[-91.26232,14.8194],[-91.25307,14.81096],[-91.23702,14.80705],[-91.23333,14.79623],[-91.22351,14.79961],[-91.22489,14.80688],[-91.24655,14.82172],[-91.25671,14.83153],[-91.26278,14.84496],[-91.2685,14.85659],[-91.28177,14.86323],[-91.30195,14.85587],[-91.30731,14.87583],[-91.33727,14.8756],[-91.36353,14.85564],[-91.3632,14.84909],[-91.40423,14.82275],[-91.4081,14.80112],[-91.44344,14.76488]]]}}