{"type":"Feature","properties":{"id":"MWI.27.1","name":"Likoma","level":2,"country":"MWI"},"geometry":{"type":"MultiPolygon","coordinates":[[[[34.73705,-12.04239],[34.73448,-12.04102],[34.73257,-12.03],[34.7263,-12.03239],[34.72821,-12.03761],[34.72331,-12.04798],[34.72139,-12.06171],[34.71751,-12.06697],[34.71646,-12.07536],[34.7084,-12.0812],[34.71842,-12.09011],[34.73116,-12.09707],[34.73733,-12.08913],[34.74414,-12.08849],[34.7415,-12.07675],[34.73748,-12.06879],[34.74443,-12.05836],[34.74479,-12.05263],[34.75226,-12.05473],[34.75834,-12.04686],[34.75518,-12.0408],[34.74952,-12.04298],[34.74599,-12.03546],[34.74129,-12.04175],[34.73705,-12.04239]]],[[[34.61385,-12.00898],[34.61722,-12.02007],[34.62275,-12.0231],[34.61825,-12.03151],[34.62119,-12.03809],[34.62664,-12.02935],[34.62411,-12.02442],[34.62869,-12.02044],[34.62813,-12.0148],[34.6229,-12.0087],[34.61385,-12.00898]]]]}}