{"type":"Feature","properties":{"id":"ERI.5.6","name":"Adi Keyh","level":2,"country":"ERI"},"geometry":{"type":"Polygon","coordinates":[[[39.39239,15.02857],[39.37377,15.03094],[39.36127,15.02168],[39.35155,15.01034],[39.34692,14.9858],[39.3527,14.96358],[39.35294,14.95294],[39.349,14.94507],[39.29543,14.92031],[39.28634,14.90434],[39.26566,14.88099],[39.26544,14.87189],[39.271,14.8529],[39.28184,14.83498],[39.28359,14.8248],[39.27503,14.8148],[39.25229,14.80153],[39.26464,14.7988],[39.27385,14.79304],[39.28637,14.7892],[39.30599,14.78835],[39.31969,14.79185],[39.3309,14.79023],[39.35366,14.77153],[39.37219,14.74705],[39.37522,14.75308],[39.39026,14.76704],[39.39819,14.77045],[39.40614,14.76455],[39.41779,14.74506],[39.42712,14.73675],[39.44096,14.73654],[39.45856,14.74393],[39.4834,14.74846],[39.48683,14.75199],[39.48537,14.77088],[39.48714,14.77901],[39.48444,14.78907],[39.49311,14.80271],[39.49204,14.80947],[39.50119,14.82751],[39.50148,14.83735],[39.51096,14.84821],[39.51035,14.85792],[39.51693,14.86411],[39.51184,14.86905],[39.51492,14.87721],[39.51107,14.88468],[39.51525,14.89467],[39.52326,14.899],[39.52338,14.91657],[39.52763,14.92532],[39.52908,14.94915],[39.52219,14.96469],[39.52578,14.97218],[39.51707,14.98256],[39.50418,14.98492],[39.50171,14.97459],[39.49035,14.97518],[39.48398,14.98107],[39.46881,14.98568],[39.45545,15.00192],[39.44518,15.00373],[39.43596,15.01079],[39.42752,15.00993],[39.42292,15.00234],[39.41235,15.00969],[39.39902,15.0022],[39.39811,15.01865],[39.39239,15.02857]]]}}