{"type":"Feature","properties":{"id":"SEN.10.2","name":"Kanel","level":2,"country":"SEN"},"geometry":{"type":"Polygon","coordinates":[[[-12.68766,15.08676],[-12.69285,15.09527],[-12.71875,15.10817],[-12.74006,15.13022],[-12.75128,15.13828],[-12.78669,15.15319],[-12.79034,15.16611],[-12.78274,15.18837],[-12.78834,15.20688],[-12.80342,15.21743],[-12.82213,15.21473],[-12.83806,15.20238],[-12.84971,15.20489],[-12.85375,15.21851],[-12.86415,15.2308],[-12.88754,15.24378],[-12.8952,15.26294],[-12.87489,15.26805],[-12.86218,15.25615],[-12.84693,15.25445],[-12.83403,15.27154],[-12.83072,15.2852],[-12.84242,15.31232],[-12.87855,15.33649],[-12.90749,15.34067],[-12.92614,15.34861],[-12.94364,15.36877],[-12.94101,15.42135],[-12.92701,15.43215],[-12.92985,15.44777],[-12.95091,15.44434],[-12.95783,15.44908],[-12.95819,15.49867],[-12.9739,15.50026],[-13.00008,15.49741],[-13.01577,15.48369],[-13.04062,15.48062],[-13.05952,15.48276],[-13.07904,15.49303],[-13.09708,15.49786],[-13.10294,15.50759],[-13.0985,15.52713],[-13.08511,15.54901],[-13.09256,15.57359],[-13.08884,15.58582],[-13.11438,15.59761],[-13.15661,15.61308],[-13.1911,15.52874],[-13.21036,15.50771],[-13.21897,15.48886],[-13.20833,15.47338],[-13.34483,15.427],[-13.35761,15.41198],[-13.39378,15.38414],[-13.41107,15.35359],[-13.41626,15.33246],[-13.43712,15.31244],[-13.44768,15.29065],[-13.46734,15.26729],[-13.50631,15.23874],[-13.5277,15.21586],[-13.55675,15.20023],[-13.57094,15.1879],[-13.5856,15.13799],[-13.59327,15.12109],[-13.61708,15.10316],[-13.66561,15.09639],[-13.67176,15.08795],[-13.66705,15.07549],[-13.64281,15.06885],[-13.63023,15.05917],[-13.6149,15.03676],[-13.59589,15.03184],[-13.56897,15.01656],[-13.55689,14.9999],[-13.5449,14.98979],[-13.5279,14.96907],[-13.48986,14.94551],[-13.48656,14.92826],[-13.49342,14.90751],[-13.51444,14.87618],[-13.51993,14.85856],[-13.51908,14.82446],[-13.53478,14.7547],[-13.55107,14.73787],[-13.56384,14.71591],[-13.56741,14.70308],[-13.55453,14.67503],[-13.55777,14.64624],[-13.56144,14.63807],[-13.55913,14.61361],[-13.55162,14.57755],[-13.55213,14.54281],[-13.53761,14.49116],[-13.53553,14.47152],[-13.53824,14.43764],[-13.53223,14.40705],[-13.51908,14.40643],[-13.24521,14.61343],[-13.03748,14.58197],[-12.9502,14.55945],[-12.79671,14.58138],[-12.74723,14.60337],[-12.72208,14.6127],[-12.68732,14.65871],[-12.65217,14.70849],[-12.64905,14.72124],[-12.59818,14.87587],[-12.58709,14.90505],[-12.6018,14.93063],[-12.60624,14.9606],[-12.61382,14.96505],[-12.61527,14.97918],[-12.6218,14.98384],[-12.62593,15.00023],[-12.68766,15.08676]]]}}