{"type":"Feature","properties":{"id":"CMR.5.3","name":"Boumba-Et-Ngoko","level":2,"country":"CMR"},"geometry":{"type":"Polygon","coordinates":[[[14.41468,3.72773],[14.44592,3.68544],[14.44324,3.65708],[14.48382,3.58793],[14.47931,3.53682],[14.50487,3.4797],[14.51238,3.40003],[14.49284,3.35042],[14.41099,3.17616],[14.40115,3.08886],[14.3786,3.06331],[14.37993,3.02872],[14.40716,2.98664],[14.43374,2.96651],[14.44173,2.93854],[14.46729,2.90847],[14.53644,2.83933],[14.5214,2.78671],[14.54546,2.76567],[14.58808,2.74507],[14.59356,2.70253],[14.59388,2.20074],[14.60671,2.19679],[14.63063,2.15626],[14.64252,2.15508],[14.65596,2.12745],[14.68592,2.13059],[14.70257,2.10916],[14.72959,2.1222],[14.77207,2.09541],[14.77017,2.06828],[14.79762,2.07166],[14.8104,2.05806],[14.82756,2.06238],[14.8411,2.08005],[14.86694,2.07928],[14.86173,2.10022],[14.88118,2.10247],[14.89023,2.06634],[14.91492,2.05983],[14.91371,2.03661],[14.89881,2.02079],[14.91477,2.0012],[14.93076,1.99725],[14.97379,2.00885],[14.98711,2.03318],[15.03413,1.99924],[15.05169,1.98033],[15.10771,1.97832],[15.12175,2.01138],[15.14668,2.0136],[15.16231,2.04],[15.17847,2.01442],[15.1966,2.03414],[15.21444,2.03569],[15.25191,2.02568],[15.25986,2.00634],[15.30456,1.96756],[15.30494,1.93974],[15.3271,1.93369],[15.34486,1.9111],[15.43304,1.95677],[15.4937,1.97564],[15.52564,1.95368],[15.53824,1.96031],[15.56472,1.9471],[15.59287,1.95275],[15.60816,1.94349],[15.67076,1.92946],[15.68678,1.93308],[15.7649,1.90864],[15.80745,1.8526],[15.83508,1.84168],[15.84874,1.82691],[15.87318,1.81969],[15.88652,1.77963],[15.91079,1.78942],[15.92079,1.77397],[15.95961,1.76209],[16.02661,1.76548],[16.03386,1.74913],[16.0184,1.71287],[16.02261,1.67952],[16.03235,1.65741],[16.06469,1.65323],[16.08393,1.6854],[16.12595,1.69524],[16.14472,1.68211],[16.15298,1.70464],[16.14011,1.72488],[16.14713,1.762],[16.14029,1.79815],[16.12751,1.81551],[16.11293,1.86718],[16.1148,1.88698],[16.08877,1.89342],[16.0801,1.94597],[16.05566,1.96968],[16.05572,2.00126],[16.07768,2.02532],[16.08433,2.04647],[16.06583,2.06489],[16.08872,2.08396],[16.08009,2.14032],[16.08632,2.1923],[16.09594,2.19827],[16.13237,2.19642],[16.14188,2.17518],[16.18056,2.19863],[16.19082,2.22349],[16.16481,2.24544],[16.17115,2.27361],[16.15051,2.33137],[16.14872,2.34957],[16.1157,2.39313],[16.10325,2.42832],[16.08382,2.44428],[16.07563,2.46519],[16.08392,2.4978],[16.06849,2.51795],[16.08247,2.56933],[16.08485,2.59719],[16.06738,2.63977],[16.07514,2.67516],[16.08972,2.70034],[16.06213,2.71115],[16.06541,2.73161],[16.0533,2.79422],[16.07325,2.80219],[16.08912,2.82144],[16.08744,2.85917],[16.07319,2.9034],[16.03158,2.97396],[16.00512,3.00076],[15.98589,3.00038],[15.96913,2.98757],[15.92649,3.03536],[15.88825,3.09625],[15.86128,3.10878],[15.84021,3.10748],[15.80528,3.09342],[15.74783,3.15663],[15.71603,3.19876],[15.68948,3.22616],[15.50729,3.4405],[15.41982,3.52867],[15.24779,3.71397],[15.15064,3.87069],[15.10709,3.94502],[15.09035,3.99588],[15.06709,4.01244],[15.05805,4.01334],[15.02649,3.96824],[14.99492,3.93367],[14.95148,3.90182],[14.88368,3.88256],[14.85812,3.8089],[14.83632,3.77849],[14.81603,3.76381],[14.54846,3.74426],[14.41468,3.72773]]]}}