{"type":"Feature","properties":{"id":"FRA.45","name":"Haute-Saône","level":1,"country":"FRA"},"geometry":{"type":"Polygon","coordinates":[[[5.52171,47.28926],[5.5844,47.26389],[5.69884,47.265],[5.73157,47.26436],[5.92709,47.34302],[5.9974,47.33647],[6.07452,47.35547],[6.12308,47.39393],[6.1787,47.40095],[6.20159,47.42928],[6.26092,47.42851],[6.3077,47.4923],[6.42455,47.51769],[6.55384,47.49042],[6.59594,47.53836],[6.64272,47.53556],[6.70343,47.55771],[6.77976,47.54277],[6.80707,47.56286],[6.78646,47.65499],[6.76082,47.71385],[6.76515,47.75289],[6.83601,47.82417],[6.69653,47.88995],[6.6138,47.94131],[6.57653,47.90803],[6.49866,47.90467],[6.37344,47.95302],[6.24385,47.93221],[6.19592,47.94829],[6.1469,48.00161],[6.07099,48.00436],[5.98226,47.94369],[5.94297,47.97134],[5.89176,47.93263],[5.82103,47.86348],[5.71595,47.81295],[5.70092,47.69306],[5.58671,47.65786],[5.50135,47.6819],[5.42068,47.67107],[5.37489,47.60784],[5.44068,47.6186],[5.47871,47.59857],[5.49267,47.53103],[5.42161,47.49209],[5.40735,47.45694],[5.45215,47.43303],[5.45804,47.3953],[5.49407,47.37116],[5.52171,47.28926]]]}}