{"type":"Feature","properties":{"id":"FRA.71","name":"Morbihan","level":1,"country":"FRA"},"geometry":{"type":"MultiPolygon","coordinates":[[[[-2.4611,47.45264],[-2.3345,47.46398],[-2.30226,47.50163],[-2.21089,47.50759],[-2.18676,47.48142],[-2.10997,47.54232],[-2.08855,47.63263],[-2.12632,47.71424],[-2.07669,47.73325],[-2.05167,47.8361],[-2.10948,47.84884],[-2.10598,47.94498],[-2.1677,47.98471],[-2.25542,47.99739],[-2.23521,48.07858],[-2.28735,48.13369],[-2.3397,48.11839],[-2.42526,48.16741],[-2.50767,48.16494],[-2.5379,48.10012],[-2.60364,48.0488],[-2.65987,48.0404],[-2.65928,48.12355],[-2.77916,48.1],[-2.79577,48.12944],[-2.91696,48.16875],[-2.98698,48.16034],[-3.01608,48.19806],[-3.10115,48.20746],[-3.16274,48.15592],[-3.29178,48.14417],[-3.34046,48.16842],[-3.41964,48.15075],[-3.44867,48.18425],[-3.56492,48.18573],[-3.70823,48.14327],[-3.73053,48.1012],[-3.68103,48.06253],[-3.64614,47.99408],[-3.54844,47.98945],[-3.47273,47.95868],[-3.39392,47.95246],[-3.39129,47.88397],[-3.49128,47.82662],[-3.55337,47.80524],[-3.5393,47.77375],[-3.46068,47.70759],[-3.34512,47.72126],[-3.33153,47.69672],[-3.26207,47.68374],[-3.11803,47.73212],[-3.11119,47.70417],[-3.18635,47.68061],[-3.19668,47.63349],[-3.14118,47.59805],[-3.07384,47.57648],[-3.00341,47.57868],[-2.93993,47.60175],[-2.88638,47.60102],[-2.84773,47.62617],[-2.75821,47.63907],[-2.72533,47.60737],[-2.74144,47.55134],[-2.86897,47.54218],[-2.81713,47.49921],[-2.66552,47.53352],[-2.6007,47.51984],[-2.5017,47.52668],[-2.4611,47.45264]]],[[[-3.11465,47.33149],[-3.1765,47.37149],[-3.26207,47.38325],[-3.22346,47.31216],[-3.09362,47.29662],[-3.11465,47.33149]]]]}}