{"type":"Feature","properties":{"id":"FRA.24","name":"Corrèze","level":1,"country":"FRA"},"geometry":{"type":"Polygon","coordinates":[[[1.89357,45.69617],[1.87296,45.66837],[1.78933,45.67804],[1.56639,45.5598],[1.50784,45.55569],[1.44436,45.58429],[1.40722,45.52757],[1.30747,45.49405],[1.2553,45.44647],[1.27293,45.39025],[1.32694,45.37638],[1.25087,45.31424],[1.247,45.22463],[1.28115,45.20003],[1.28906,45.14675],[1.40186,45.12748],[1.40496,45.07089],[1.45864,45.01508],[1.5297,45.04495],[1.60981,45.02909],[1.69342,44.98465],[1.71423,44.9602],[1.79957,44.93287],[1.90787,44.96842],[1.95351,44.96087],[2.05871,44.97511],[2.13162,44.99266],[2.11365,45.05854],[2.16811,45.09474],[2.20688,45.15949],[2.19464,45.2237],[2.24368,45.27104],[2.29767,45.2931],[2.36703,45.36886],[2.35787,45.41009],[2.44139,45.39227],[2.48867,45.39697],[2.51864,45.47924],[2.4651,45.58456],[2.47595,45.61768],[2.52205,45.64918],[2.52469,45.69773],[2.48994,45.73609],[2.43467,45.70849],[2.36374,45.71255],[2.28896,45.67523],[2.17372,45.72622],[2.10292,45.73495],[2.04056,45.76035],[1.98023,45.70373],[1.89357,45.69617]]]}}