{"type":"Feature","properties":{"id":"MMR.9","name":"Ayeyarwady","level":1,"country":"MMR"},"geometry":{"type":"MultiPolygon","coordinates":[[[[96.01726,16.37817],[95.98136,16.39895],[95.90415,16.40605],[95.83232,16.47912],[95.88896,16.55261],[95.88607,16.67074],[95.90612,16.74205],[95.87232,16.81885],[95.90426,16.90496],[95.85971,16.97646],[95.8501,17.03273],[95.79584,17.11821],[95.70675,17.20639],[95.69073,17.30011],[95.74675,17.46219],[95.69373,17.54126],[95.64939,17.58159],[95.51648,17.63404],[95.45818,17.72597],[95.45023,17.79013],[95.48144,17.82243],[95.49033,17.91446],[95.44485,17.95702],[95.45033,18.03306],[95.38274,18.23075],[95.28734,18.31997],[95.19712,18.43192],[95.15336,18.47127],[95.10916,18.45789],[95.08436,18.37686],[95.0116,18.3719],[94.96529,18.41159],[94.91072,18.41159],[94.8366,18.35762],[94.8792,18.27739],[94.8915,18.18052],[94.87403,18.10127],[94.87538,17.99885],[94.85946,17.92798],[94.90266,17.85082],[94.88292,17.72998],[94.80954,17.62399],[94.79941,17.46539],[94.75435,17.37165],[94.63622,17.41625],[94.56772,17.46288],[94.57252,17.3111],[94.51197,17.27521],[94.51092,17.16901],[94.45672,17.05061],[94.46469,16.94965],[94.42319,16.90127],[94.37892,16.88695],[94.40268,16.78827],[94.36443,16.70112],[94.36199,16.63548],[94.33107,16.52863],[94.27312,16.53815],[94.27312,16.4665],[94.25864,16.38736],[94.23536,16.34838],[94.2378,16.27314],[94.2151,16.15766],[94.20924,16.0445],[94.23951,15.9763],[94.34002,15.99624],[94.36061,16.04926],[94.42807,16.07416],[94.50701,16.1896],[94.51564,16.28726],[94.56202,16.27375],[94.59889,16.29365],[94.64373,16.28352],[94.68385,16.36408],[94.72169,16.37849],[94.66521,16.25764],[94.68385,16.20917],[94.67888,16.12128],[94.64235,16.04466],[94.56235,15.96186],[94.6587,15.85448],[94.7212,15.85668],[94.78688,15.96214],[94.83961,15.96206],[94.8484,15.86376],[94.89039,15.82705],[94.85865,15.78262],[94.9756,15.76415],[95.03395,15.80573],[95.05502,15.84614],[95.07293,15.97065],[95.07057,16.07486],[95.13795,16.10033],[95.09767,16.02513],[95.13754,16.00666],[95.11525,15.89395],[95.12574,15.81761],[95.1736,15.77782],[95.22438,15.81013],[95.21762,15.88426],[95.28256,15.83832],[95.28793,15.74014],[95.31056,15.72321],[95.3965,15.71638],[95.52345,15.80366],[95.66472,15.94921],[95.69068,16.00068],[95.69068,16.04849],[95.75554,16.14525],[95.7977,16.14492],[95.81813,16.17601],[95.88307,16.20917],[95.97999,16.22313],[96.06756,16.31025],[96.06658,16.33564],[96.01726,16.37817]]],[[[93.39601,14.14045],[93.38331,14.13837],[93.37485,14.06468],[93.40016,14.09565],[93.39601,14.14045]]],[[[93.67579,14.8592],[93.70444,14.871],[93.72438,14.90762],[93.70387,14.90445],[93.67579,14.8592]]],[[[94.82797,15.93203],[94.80681,15.9311],[94.72486,15.81196],[94.80372,15.79658],[94.84156,15.87743],[94.82797,15.93203]]],[[[94.66212,16.22187],[94.61158,16.22175],[94.51881,16.12043],[94.48536,16.05899],[94.38966,16.00092],[94.38234,15.96963],[94.40919,15.90746],[94.43678,15.9007],[94.47804,15.96613],[94.5796,16.01325],[94.62965,16.07518],[94.66749,16.17194],[94.66212,16.22187]]]]}}