{"type":"Feature","properties":{"id":"USA.10.36","name":"Jackson","level":2,"country":"USA"},"geometry":{"type":"Polygon","coordinates":[[[-106.85778,41.00267],[-106.87266,40.97009],[-106.84847,40.9243],[-106.82334,40.92977],[-106.80208,40.89692],[-106.77987,40.90673],[-106.74327,40.89175],[-106.7323,40.87209],[-106.6888,40.88687],[-106.65644,40.85149],[-106.66402,40.82929],[-106.6376,40.81331],[-106.63662,40.79543],[-106.66734,40.75877],[-106.67348,40.73717],[-106.66825,40.69684],[-106.68852,40.66119],[-106.68603,40.64145],[-106.70616,40.6166],[-106.69999,40.57576],[-106.65613,40.50946],[-106.66478,40.47712],[-106.65212,40.44524],[-106.62519,40.4283],[-106.611,40.37888],[-106.56251,40.3784],[-106.53225,40.36639],[-106.52142,40.38822],[-106.49276,40.40798],[-106.47791,40.40105],[-106.44472,40.34787],[-106.39431,40.34603],[-106.35534,40.35764],[-106.33701,40.34031],[-106.29871,40.33181],[-106.28842,40.35804],[-106.26326,40.35917],[-106.23681,40.32629],[-106.1958,40.32596],[-106.16202,40.34262],[-106.14029,40.33011],[-106.10507,40.35018],[-106.08684,40.34936],[-106.0281,40.36983],[-105.98585,40.36433],[-105.9681,40.34964],[-105.93832,40.36927],[-105.94593,40.38146],[-105.90289,40.40345],[-105.89826,40.46037],[-105.88603,40.47735],[-105.85494,40.48626],[-105.8691,40.52074],[-105.90787,40.5155],[-105.9109,40.56643],[-105.94834,40.64175],[-106.04798,40.80465],[-106.1269,40.86956],[-106.13663,40.90187],[-106.18761,40.93775],[-106.19056,40.99761],[-106.32118,40.99913],[-106.43957,41.00198],[-106.85778,41.00267]]]}}