{"type":"Feature","properties":{"id":"USA.22.6","name":"Charles Mix","level":2,"country":"USA"},"geometry":{"type":"Polygon","coordinates":[[[-98.7946,43.49919],[-99.29789,43.49986],[-99.29801,43.49968],[-99.31008,43.46794],[-99.25592,43.4371],[-99.16721,43.43522],[-99.1529,43.42692],[-99.12639,43.38063],[-99.10891,43.37301],[-99.06929,43.3207],[-99.02026,43.29062],[-98.98126,43.25895],[-98.94574,43.24831],[-98.89679,43.24692],[-98.87774,43.22665],[-98.8776,43.17999],[-98.8536,43.15463],[-98.79044,43.15011],[-98.75037,43.12954],[-98.71458,43.08892],[-98.69047,43.07656],[-98.61857,43.07418],[-98.55749,43.05897],[-98.52488,43.03935],[-98.49856,42.99857],[-98.46736,42.94756],[-98.44415,42.92925],[-98.42075,42.93193],[-98.34624,42.90275],[-98.30978,42.88257],[-98.25828,42.8744],[-98.21983,42.85316],[-98.17112,42.83712],[-98.15309,42.83907],[-98.13948,42.86475],[-98.11706,42.86939],[-98.12347,42.91038],[-98.10665,42.92626],[-98.09279,42.97393],[-98.11315,43.00124],[-98.1028,43.03712],[-98.10954,43.08748],[-98.09336,43.11836],[-98.08983,43.15255],[-98.07712,43.16834],[-98.06905,43.18489],[-98.1095,43.19685],[-98.6807,43.37316],[-98.70686,43.37008],[-98.70579,43.49933],[-98.7946,43.49919]]]}}