{"type":"Feature","properties":{"id":"USA.21.19","name":"Cherokee","level":2,"country":"USA"},"geometry":{"type":"Polygon","coordinates":[[[-95.26569,35.81327],[-95.12717,35.81276],[-95.12747,35.6389],[-94.8073,35.63861],[-94.80734,35.90093],[-94.79721,35.90092],[-94.79729,36.1614],[-95.01131,36.16182],[-95.11851,36.16164],[-95.11838,36.07455],[-95.20795,36.07471],[-95.20839,36.03988],[-95.22547,36.00921],[-95.27871,35.96411],[-95.26929,35.92941],[-95.28157,35.90409],[-95.25771,35.8773],[-95.2325,35.87276],[-95.23147,35.8512],[-95.26569,35.81327]]]}}