{"type":"Feature","properties":{"id":"USA.24.14","name":"Jasper","level":2,"country":"USA"},"geometry":{"type":"Polygon","coordinates":[[[-93.91113,31.15808],[-94.03904,31.13428],[-94.04324,31.11856],[-94.12964,31.09929],[-94.45782,31.03333],[-94.43532,31.00652],[-94.4146,31.02609],[-94.33702,31.03595],[-94.32204,31.02121],[-94.28542,31.03958],[-94.27808,31.01756],[-94.25595,31.01849],[-94.2353,30.99664],[-94.24267,30.96297],[-94.22135,30.93574],[-94.21408,30.90739],[-94.19631,30.88133],[-94.19804,30.8533],[-94.17794,30.79438],[-94.1467,30.78746],[-94.12846,30.74725],[-94.13719,30.73347],[-94.12601,30.68667],[-94.09252,30.68849],[-94.0829,30.66838],[-94.05313,30.649],[-94.05461,30.62891],[-94.07494,30.61473],[-94.09263,30.57558],[-94.0717,30.52604],[-94.09474,30.46666],[-94.1194,30.4263],[-94.10394,30.39422],[-94.09493,30.3394],[-94.12053,30.28305],[-94.10774,30.26139],[-94.11761,30.24167],[-93.90146,30.24268],[-93.86572,30.94722],[-93.91113,31.15808]]]}}