{"type":"Feature","properties":{"id":"USA.35.63","name":"LaPorte","level":2,"country":"USA"},"geometry":{"type":"Polygon","coordinates":[[[-86.52423,41.75946],[-86.82483,41.76025],[-86.90914,41.72695],[-86.93275,41.71105],[-86.92978,41.51903],[-86.93008,41.23681],[-86.87027,41.26456],[-86.81466,41.27351],[-86.78348,41.28547],[-86.74,41.32172],[-86.70064,41.40199],[-86.64255,41.43265],[-86.52472,41.43289],[-86.52495,41.51968],[-86.50362,41.51954],[-86.49816,41.56109],[-86.48644,41.57055],[-86.48757,41.64933],[-86.52669,41.65045],[-86.52423,41.75946]]]}}