{"type":"Feature","properties":{"id":"USA.38.88","name":"Hocking","level":2,"country":"USA"},"geometry":{"type":"Polygon","coordinates":[[[-82.73152,39.55445],[-82.74073,39.46836],[-82.7486,39.36817],[-82.63569,39.36157],[-82.63439,39.37597],[-82.51758,39.36948],[-82.51448,39.39577],[-82.28967,39.3842],[-82.28041,39.47291],[-82.16738,39.46631],[-82.15916,39.55658],[-82.26357,39.56214],[-82.26196,39.5906],[-82.37989,39.59675],[-82.37453,39.65497],[-82.49033,39.66171],[-82.49613,39.60286],[-82.61755,39.60861],[-82.62009,39.56399],[-82.73028,39.56907],[-82.73152,39.55445]]]}}