{"type":"Feature","properties":{"id":"USA.9.33","name":"Placer","level":2,"country":"USA"},"geometry":{"type":"Polygon","coordinates":[[[-120.00247,39.06749],[-120.00342,39.11269],[-120.00452,39.1656],[-120.00533,39.31646],[-120.64581,39.31516],[-120.72791,39.28809],[-120.80426,39.23327],[-120.85792,39.20624],[-120.86886,39.18074],[-120.90901,39.17018],[-120.9475,39.1434],[-120.98636,39.10224],[-120.9916,39.07688],[-121.02902,39.03843],[-121.04162,39.0138],[-121.06756,39.00538],[-121.10426,39.01186],[-121.13741,39.03786],[-121.18638,39.01287],[-121.27955,39.03462],[-121.30601,39.05295],[-121.36566,39.03175],[-121.41479,38.99646],[-121.41441,38.92622],[-121.46937,38.926],[-121.46982,38.75194],[-121.48441,38.7346],[-121.15187,38.71151],[-121.14102,38.71199],[-121.13452,38.71204],[-121.10301,38.78555],[-121.10086,38.8154],[-121.05328,38.86835],[-121.062,38.8815],[-121.04052,38.91554],[-121.00107,38.91784],[-120.95807,38.93901],[-120.94029,38.96234],[-120.85892,38.95226],[-120.85053,38.9759],[-120.81231,39.00014],[-120.76446,39.00976],[-120.72959,39.00403],[-120.70392,38.98119],[-120.64247,38.94441],[-120.59439,38.93611],[-120.57237,38.91441],[-120.51236,38.9312],[-120.471,38.96551],[-120.43525,39.0284],[-120.32814,39.02244],[-120.24042,39.02367],[-120.18411,39.03102],[-120.15299,39.04581],[-120.14368,39.06729],[-120.00247,39.06749]]]}}