{"type":"Feature","properties":{"id":"USA.36.87","name":"Owen","level":2,"country":"USA"},"geometry":{"type":"Polygon","coordinates":[[[-84.87049,38.35676],[-84.83842,38.35693],[-84.79342,38.33868],[-84.7406,38.35242],[-84.70599,38.37011],[-84.62359,38.4312],[-84.58054,38.47305],[-84.62666,38.48514],[-84.64229,38.51386],[-84.68096,38.55976],[-84.77433,38.6186],[-84.78579,38.72047],[-84.87055,38.6984],[-84.90558,38.66937],[-84.93454,38.66214],[-84.97463,38.63663],[-85.01501,38.63239],[-85.0243,38.61421],[-85.05985,38.61103],[-85.07459,38.59685],[-85.06215,38.56434],[-85.04264,38.57387],[-85.00271,38.55213],[-85.02989,38.51077],[-84.98503,38.51841],[-84.98879,38.48709],[-84.95685,38.47365],[-84.96327,38.43737],[-84.88025,38.41619],[-84.8976,38.38957],[-84.87049,38.35676]]]}}