{"type":"Feature","properties":{"id":"USA.47.27","name":"Suffolk","level":2,"country":"USA"},"geometry":{"type":"MultiPolygon","coordinates":[[[[-72.03496,41.25547],[-72.00246,41.25288],[-71.93526,41.28059],[-72.01893,41.27412],[-72.03496,41.25547]]],[[[-72.14293,41.09782],[-72.10315,41.08649],[-72.08421,41.10153],[-72.1267,41.11515],[-72.14293,41.09782]]],[[[-72.21412,41.18283],[-72.19986,41.16046],[-72.18203,41.17835],[-72.21412,41.18283]]],[[[-73.42381,40.60986],[-73.35147,40.63051],[-73.3064,40.62076],[-73.26211,40.62148],[-73.20844,40.63089],[-73.05496,40.66638],[-72.92322,40.71329],[-72.76815,40.7616],[-72.57344,40.81326],[-72.39585,40.86667],[-72.11445,40.97209],[-71.93569,41.03419],[-71.87391,41.05229],[-71.85621,41.07061],[-71.91939,41.08053],[-71.9596,41.07125],[-71.96704,41.04778],[-71.99926,41.03968],[-72.04953,41.00971],[-72.07618,41.0091],[-72.09546,40.99136],[-72.13741,41.02392],[-72.1629,41.0532],[-72.19056,41.03259],[-72.24125,41.04478],[-72.26052,41.04207],[-72.28309,41.06788],[-72.33518,41.10693],[-72.32663,41.13217],[-72.26512,41.12849],[-72.23773,41.15644],[-72.27879,41.15873],[-72.35412,41.13996],[-72.40263,41.09694],[-72.44524,41.08612],[-72.47731,41.05222],[-72.52155,41.03766],[-72.58533,40.9976],[-72.63556,40.98197],[-72.70807,40.97786],[-72.77411,40.96532],[-72.82606,40.9698],[-72.88825,40.96297],[-72.99593,40.96651],[-73.0437,40.96219],[-73.08158,40.97307],[-73.14079,40.96619],[-73.149,40.92891],[-73.22929,40.90513],[-73.29506,40.92451],[-73.35276,40.92671],[-73.40086,40.95401],[-73.40608,40.92024],[-73.43667,40.93491],[-73.48537,40.94641],[-73.49706,40.92281],[-73.46226,40.86672],[-73.42787,40.69629],[-73.42381,40.60986]]]]}}