{"type":"Feature","properties":{"id":"USA.46.4","name":"Hunterdon","level":2,"country":"USA"},"geometry":{"type":"Polygon","coordinates":[[[-74.74815,40.42416],[-74.77598,40.50361],[-74.74266,40.55391],[-74.71315,40.58391],[-74.72175,40.60071],[-74.7027,40.62113],[-74.72655,40.63242],[-74.7306,40.66575],[-74.71597,40.70089],[-74.72442,40.71946],[-74.79797,40.74219],[-74.82388,40.74237],[-74.88982,40.78774],[-74.96893,40.7104],[-75.01694,40.69462],[-75.07721,40.66333],[-75.10836,40.63976],[-75.14591,40.62867],[-75.19037,40.59165],[-75.19235,40.57427],[-75.15845,40.56529],[-75.14191,40.57528],[-75.10033,40.56782],[-75.06862,40.54223],[-75.06194,40.48637],[-75.07057,40.45517],[-75.05885,40.41807],[-75.02832,40.40389],[-74.99638,40.41054],[-74.96551,40.39735],[-74.94296,40.34165],[-74.85626,40.3467],[-74.86968,40.37778],[-74.80202,40.38498],[-74.80847,40.41667],[-74.74815,40.42416]]]}}