{"type":"Feature","properties":{"id":"USA.15.18","name":"Campbell","level":2,"country":"USA"},"geometry":{"type":"Polygon","coordinates":[[[-106.02483,44.99369],[-106.02311,44.86883],[-106.01429,44.85779],[-106.01499,44.70709],[-106.01069,44.69319],[-106.00969,44.56399],[-106.01449,44.52099],[-106.01651,44.16974],[-106.00921,43.82159],[-106.01761,43.8215],[-106.01738,43.49498],[-105.68502,43.49583],[-105.07981,43.49845],[-105.08142,43.82693],[-105.07929,44.17619],[-105.08448,44.21664],[-105.08271,44.52761],[-105.08546,44.78681],[-105.07687,44.7862],[-105.0748,44.87108],[-105.07661,45.00035],[-105.37132,45.00037],[-105.91339,45.00095],[-105.9282,44.99365],[-106.02483,44.99369]]]}}