{"type":"Feature","properties":{"id":"USA.6.17","name":"Blaine","level":2,"country":"USA"},"geometry":{"type":"Polygon","coordinates":[[[-113.71465,43.19979],[-113.41388,43.19987],[-113.41315,42.84918],[-113.47217,42.84921],[-113.47219,42.66936],[-113.41157,42.67445],[-113.37313,42.68764],[-113.30441,42.62876],[-113.23698,42.62526],[-113.23685,42.67531],[-113.17865,42.67547],[-113.17889,42.76236],[-113.23696,42.76222],[-113.23703,42.84816],[-113.24349,43.11095],[-113.00772,43.11094],[-113.00733,43.28478],[-113.36197,43.28468],[-113.36192,43.36717],[-113.63524,43.36755],[-113.63434,43.49748],[-113.65364,43.49374],[-113.68431,43.53096],[-113.70117,43.58456],[-113.72767,43.59015],[-113.77714,43.56686],[-113.79845,43.56922],[-113.81337,43.60007],[-113.87534,43.65051],[-113.90493,43.64973],[-113.91144,43.67159],[-113.97448,43.70819],[-114.00624,43.76589],[-114.05346,43.76215],[-114.07003,43.7347],[-114.11701,43.74035],[-114.18001,43.78991],[-114.24163,43.81078],[-114.27574,43.83114],[-114.2927,43.88715],[-114.34354,43.89029],[-114.35931,43.87418],[-114.41001,43.89566],[-114.50779,43.8991],[-114.52846,43.84567],[-114.582,43.85146],[-114.58348,43.87511],[-114.64443,43.91426],[-114.68118,43.92771],[-114.8138,43.92778],[-114.81389,43.99295],[-114.87338,43.99296],[-114.93103,43.96874],[-114.97136,43.93831],[-114.9967,43.91441],[-114.9739,43.86736],[-114.98927,43.85857],[-114.9519,43.85428],[-114.93104,43.84004],[-114.84779,43.81639],[-114.8544,43.79166],[-114.82892,43.78801],[-114.80049,43.80274],[-114.76024,43.79165],[-114.71466,43.81468],[-114.69264,43.78427],[-114.67622,43.69806],[-114.68804,43.68607],[-114.66232,43.66071],[-114.68237,43.59036],[-114.65166,43.593],[-114.63615,43.57361],[-114.58676,43.55883],[-114.59571,43.53124],[-114.56189,43.49891],[-114.5061,43.47791],[-114.51451,43.45761],[-114.54656,43.43545],[-114.5464,43.39841],[-114.52652,43.39837],[-114.5345,43.33339],[-114.43238,43.33417],[-114.39462,43.32647],[-114.39486,43.25757],[-114.37477,43.25752],[-114.37497,43.19965],[-113.71465,43.19979]]]}}