{"type":"Feature","properties":{"id":"USA.36.104","name":"Lincoln","level":2,"country":"USA"},"geometry":{"type":"Polygon","coordinates":[[[-84.50294,37.32881],[-84.44672,37.4859],[-84.47321,37.49445],[-84.65257,37.61822],[-84.6583,37.63451],[-84.65839,37.61776],[-84.68852,37.61237],[-84.73174,37.58935],[-84.75683,37.58837],[-84.84744,37.54835],[-84.85709,37.52853],[-84.86013,37.46736],[-84.85082,37.42715],[-84.79611,37.39056],[-84.72283,37.36005],[-84.70613,37.29984],[-84.72417,37.28668],[-84.72072,37.23834],[-84.55647,37.35574],[-84.50294,37.32881]]]}}