{"type":"Feature","properties":{"id":"USA.19.53","name":"Miller","level":2,"country":"USA"},"geometry":{"type":"Polygon","coordinates":[[[-92.69589,38.22204],[-92.64009,38.21304],[-92.64139,38.17164],[-92.60469,38.17074],[-92.59677,38.11076],[-92.56969,38.09594],[-92.55209,38.06634],[-92.51559,38.03694],[-92.51599,38.02234],[-92.40628,38.02119],[-92.18538,38.01634],[-92.18138,38.16124],[-92.19778,38.16154],[-92.19568,38.29224],[-92.19448,38.33554],[-92.22468,38.33574],[-92.25018,38.32272],[-92.28449,38.33754],[-92.40841,38.34135],[-92.40349,38.42534],[-92.49519,38.42784],[-92.6252,38.43078],[-92.63376,38.34809],[-92.68984,38.34848],[-92.69589,38.22204]]]}}