{"type":"Feature","properties":{"id":"USA.42.38","name":"Tyler","level":2,"country":"USA"},"geometry":{"type":"Polygon","coordinates":[[[-81.03871,39.54006],[-81.10084,39.48718],[-81.12148,39.45776],[-81.0789,39.46756],[-81.02994,39.46775],[-81.01444,39.40351],[-81.00784,39.35093],[-80.96287,39.33957],[-80.94883,39.34986],[-80.93214,39.38913],[-80.88373,39.36073],[-80.88875,39.29431],[-80.82945,39.34324],[-80.73389,39.39516],[-80.71333,39.43026],[-80.65871,39.43302],[-80.61863,39.45038],[-80.65266,39.47008],[-80.67111,39.46422],[-80.71097,39.47589],[-80.73407,39.49156],[-80.74085,39.51283],[-80.78469,39.53735],[-80.78283,39.54771],[-80.84373,39.58389],[-80.85219,39.60206],[-80.88605,39.58032],[-80.94379,39.60693],[-81.03871,39.54006]]]}}