{"type":"Feature","properties":{"id":"USA.37.38","name":"Wake","level":2,"country":"USA"},"geometry":{"type":"Polygon","coordinates":[[[-78.91474,35.58368],[-78.7089,35.51947],[-78.47374,35.70153],[-78.46011,35.70566],[-78.2562,35.81739],[-78.25598,35.81813],[-78.28432,35.87459],[-78.30741,35.89675],[-78.35121,35.91085],[-78.35328,35.93106],[-78.39433,35.93688],[-78.42687,35.97502],[-78.54642,36.02183],[-78.68323,36.07449],[-78.75128,36.07084],[-78.75361,36.03139],[-78.71995,36.0296],[-78.70012,36.00905],[-78.71804,35.96013],[-78.75897,35.91893],[-78.80197,35.92698],[-78.82997,35.86699],[-78.90607,35.8681],[-78.90943,35.84294],[-78.99506,35.61014],[-78.91474,35.58368]]]}}