{"type":"Feature","properties":{"id":"USA.46.20","name":"Somerset","level":2,"country":"USA"},"geometry":{"type":"Polygon","coordinates":[[[-74.62024,40.37376],[-74.58771,40.39443],[-74.58499,40.41818],[-74.53152,40.44136],[-74.45896,40.49599],[-74.52664,40.55948],[-74.51216,40.58208],[-74.46329,40.5992],[-74.4244,40.61955],[-74.40352,40.65466],[-74.46104,40.67351],[-74.52308,40.64913],[-74.52957,40.66468],[-74.51372,40.69776],[-74.55602,40.7583],[-74.72442,40.71946],[-74.71597,40.70089],[-74.7306,40.66575],[-74.72655,40.63242],[-74.7027,40.62113],[-74.72175,40.60071],[-74.71315,40.58391],[-74.74266,40.55391],[-74.77598,40.50361],[-74.74815,40.42416],[-74.72206,40.37521],[-74.65393,40.39106],[-74.62024,40.37376]]]}}