{"type":"Feature","properties":{"id":"USA.30.14","name":"Pasco","level":2,"country":"USA"},"geometry":{"type":"MultiPolygon","coordinates":[[[[-82.65117,28.17327],[-82.43244,28.17109],[-82.10586,28.17166],[-82.10621,28.25925],[-82.05553,28.25893],[-82.05582,28.3128],[-82.0547,28.4784],[-82.25191,28.4788],[-82.25344,28.43483],[-82.67875,28.43346],[-82.70633,28.40133],[-82.70612,28.36806],[-82.73146,28.32508],[-82.7328,28.29194],[-82.74619,28.2612],[-82.76411,28.24435],[-82.76265,28.21902],[-82.79777,28.18779],[-82.8051,28.17219],[-82.65117,28.17327]]],[[[-82.83406,28.17188],[-82.83694,28.21018],[-82.85514,28.21267],[-82.85433,28.17224],[-82.83406,28.17188]]]]}}