{"type":"Feature","properties":{"id":"USA.51.15","name":"Prince of Wales-Hyder","level":2,"country":"USA"},"geometry":{"type":"MultiPolygon","coordinates":[[[[-130.15162,55.76744],[-130.12478,55.80565],[-130.08351,55.82171],[-130.0038,55.90745],[-130.0177,55.91195],[-130.0035,56.00808],[-130.10382,56.1228],[-130.24679,56.09659],[-130.28238,56.0796],[-130.28931,56.04733],[-130.21879,55.99998],[-130.26207,55.98523],[-130.28864,55.99813],[-130.38345,55.95701],[-130.38862,55.94318],[-130.33298,55.90422],[-130.28869,55.88701],[-130.2985,55.86712],[-130.23799,55.81665],[-130.15162,55.76744]]],[[[-131.64629,55.03558],[-131.61565,55.007],[-131.53216,55.03795],[-131.48501,55.01046],[-131.38859,55.01223],[-131.35633,55.04122],[-131.35059,55.06705],[-131.36234,55.1559],[-131.34143,55.16566],[-131.39771,55.21092],[-131.46272,55.22344],[-131.48227,55.25411],[-131.55093,55.28092],[-131.58909,55.27396],[-131.6074,55.24044],[-131.59847,55.17957],[-131.54811,55.14314],[-131.55862,55.12551],[-131.595,55.12551],[-131.58941,55.08894],[-131.62076,55.04926],[-131.64629,55.03558]]],[[[-132.88968,54.97475],[-132.86282,54.94323],[-132.82289,54.94842],[-132.82336,54.9798],[-132.85545,54.99207],[-132.88968,54.97475]]],[[[-133.31867,55.42646],[-133.30677,55.40088],[-133.25086,55.4098],[-133.23301,55.43003],[-133.24312,55.44966],[-133.29309,55.4449],[-133.31867,55.42646]]],[[[-133.56211,54.86927],[-133.54853,54.78373],[-133.49625,54.75857],[-133.51335,54.80298],[-133.5145,54.83985],[-133.53112,54.86869],[-133.56211,54.86927]]],[[[-133.65584,55.62562],[-133.6228,55.58252],[-133.54579,55.64454],[-133.54817,55.67189],[-133.61995,55.69775],[-133.62494,55.64548],[-133.65584,55.62562]]],[[[-133.71146,55.67444],[-133.71668,55.66023],[-133.66962,55.65151],[-133.66749,55.68234],[-133.71146,55.67444]]],[[[-133.72738,55.60401],[-133.71597,55.58131],[-133.69268,55.58279],[-133.71452,55.61437],[-133.72738,55.60401]]],[[[-133.78907,55.4579],[-133.7391,55.47233],[-133.63631,55.42843],[-133.62244,55.39648],[-133.63302,55.3613],[-133.69019,55.30441],[-133.63453,55.25005],[-133.60909,55.24149],[-133.59582,55.29377],[-133.57683,55.3248],[-133.49705,55.36816],[-133.4194,55.38611],[-133.41254,55.41756],[-133.46532,55.42337],[-133.47407,55.43716],[-133.42653,55.46671],[-133.39653,55.47317],[-133.35901,55.45384],[-133.30577,55.48412],[-133.28534,55.53532],[-133.34487,55.56933],[-133.41352,55.57039],[-133.43612,55.56088],[-133.48098,55.51274],[-133.52567,55.5291],[-133.54411,55.49179],[-133.61839,55.45705],[-133.64422,55.47082],[-133.633,55.49167],[-133.59018,55.50724],[-133.58202,55.53737],[-133.61564,55.55078],[-133.73305,55.55876],[-133.75915,55.53738],[-133.78907,55.4579]]],[[[-133.81638,55.96403],[-133.79995,55.92535],[-133.71882,55.89324],[-133.63814,55.92099],[-133.54106,55.97733],[-133.49507,56.01709],[-133.47691,56.00408],[-133.50189,55.94935],[-133.496,55.91314],[-133.52286,55.88743],[-133.49101,55.87356],[-133.44704,55.89049],[-133.38411,55.87677],[-133.35298,55.83732],[-133.32368,55.81864],[-133.34793,55.80395],[-133.42208,55.78883],[-133.55602,55.83513],[-133.65596,55.82324],[-133.70058,55.77862],[-133.64334,55.72904],[-133.58332,55.70534],[-133.52741,55.69511],[-133.49246,55.70653],[-133.51265,55.7559],[-133.49145,55.76409],[-133.41657,55.73965],[-133.42731,55.71027],[-133.39451,55.66689],[-133.4525,55.6682],[-133.4382,55.64387],[-133.38692,55.61935],[-133.29418,55.58868],[-133.26306,55.5688],[-133.17678,55.58673],[-133.19082,55.53083],[-133.16515,55.50244],[-133.18345,55.49221],[-133.07792,55.41039],[-133.15778,55.37192],[-133.20881,55.38424],[-133.25775,55.36703],[-133.27929,55.33327],[-133.23359,55.30883],[-133.24436,55.29187],[-133.29242,55.29138],[-133.33238,55.34536],[-133.39539,55.34176],[-133.45284,55.31998],[-133.47196,55.24753],[-133.44109,55.21166],[-133.37663,55.22829],[-133.34128,55.20571],[-133.22381,55.22932],[-133.23693,55.18333],[-133.2151,55.13688],[-133.15252,55.11132],[-133.23971,55.09242],[-133.21044,55.04027],[-133.16895,55.03089],[-133.15734,55.00037],[-133.15977,54.95876],[-133.12396,54.94007],[-133.03277,54.85506],[-132.95027,54.78834],[-132.90954,54.78052],[-132.87723,54.75378],[-132.86637,54.70039],[-132.77575,54.67485],[-132.69399,54.66907],[-132.67624,54.68087],[-132.75489,54.82124],[-132.72939,54.82699],[-132.66727,54.76337],[-132.63905,54.75326],[-132.61487,54.77717],[-132.62558,54.80751],[-132.62863,54.88332],[-132.65002,54.90439],[-132.73095,54.93949],[-132.8008,54.93379],[-132.8174,54.92364],[-132.80454,54.87094],[-132.82836,54.86875],[-132.88949,54.89662],[-132.90972,54.9236],[-132.95953,55.02105],[-133.0142,55.03551],[-132.99041,55.06673],[-133.01229,55.12806],[-133.0734,55.1845],[-133.11931,55.25141],[-133.10473,55.2638],[-133.04396,55.24857],[-133.00817,55.2057],[-132.98218,55.21589],[-132.93547,55.2099],[-132.8943,55.16938],[-132.86985,55.12411],[-132.90937,55.08128],[-132.93119,55.07416],[-132.91643,55.04447],[-132.86414,55.02484],[-132.74887,54.99601],[-132.69294,55.02506],[-132.68402,55.04561],[-132.73566,55.13422],[-132.63578,55.15252],[-132.63794,55.18608],[-132.60524,55.19407],[-132.58115,55.16608],[-132.62454,55.11442],[-132.54182,55.09777],[-132.57502,54.99832],[-132.61485,54.9801],[-132.6098,54.96573],[-132.55841,54.93262],[-132.4846,54.89931],[-132.41646,54.88749],[-132.34492,54.85193],[-132.35102,54.81819],[-132.44783,54.82661],[-132.50939,54.78126],[-132.49103,54.77558],[-132.42905,54.78592],[-132.37106,54.78291],[-132.36641,54.7512],[-132.32257,54.74396],[-132.30796,54.71872],[-132.25611,54.73462],[-132.1423,54.69168],[-132.02977,54.70119],[-131.99961,54.73198],[-131.95793,54.79124],[-131.96592,54.83554],[-131.98291,54.85307],[-131.98461,55.02798],[-132.03924,55.03677],[-132.13556,54.98598],[-132.1926,54.98966],[-132.19763,55.00516],[-132.09404,55.03946],[-132.03902,55.08697],[-132.01695,55.12098],[-132.03144,55.15168],[-131.98883,55.16547],[-131.97984,55.21179],[-131.99593,55.25906],[-132.02818,55.27695],[-132.07889,55.24034],[-132.08815,55.20652],[-132.12739,55.19957],[-132.20745,55.21828],[-132.21493,55.2457],[-132.14276,55.23822],[-132.09855,55.28056],[-132.12642,55.28842],[-132.16688,55.36304],[-132.22598,55.37492],[-132.25807,55.41615],[-132.27352,55.41919],[-132.3908,55.40174],[-132.41936,55.43206],[-132.30335,55.43827],[-132.31859,55.46921],[-132.3887,55.481],[-132.40834,55.51253],[-132.49162,55.5036],[-132.51957,55.52026],[-132.56835,55.47981],[-132.6088,55.48635],[-132.52552,55.55],[-132.51482,55.57677],[-132.32575,55.5154],[-132.24735,55.49296],[-132.17863,55.45283],[-132.14608,55.47035],[-132.18879,55.50845],[-132.30114,55.55096],[-132.3293,55.57894],[-132.35858,55.64876],[-132.39428,55.66912],[-132.44887,55.66734],[-132.4613,55.6834],[-132.47072,55.78217],[-132.54342,55.84593],[-132.5921,55.87716],[-132.63531,55.92177],[-132.83761,56.02433],[-132.84559,56.03616],[-132.92732,56.03446],[-132.9321,56.06072],[-132.96193,56.06125],[-133.00769,56.12013],[-133.05554,56.12526],[-133.06001,56.15077],[-133.041,56.18454],[-133.07145,56.23849],[-133.095,56.25059],[-133.16323,56.31745],[-133.19703,56.33302],[-133.23537,56.32428],[-133.3286,56.3328],[-133.41839,56.33214],[-133.58214,56.35251],[-133.62494,56.34391],[-133.66424,56.31051],[-133.62815,56.23661],[-133.67949,56.21177],[-133.60866,56.19075],[-133.55447,56.1672],[-133.55803,56.14284],[-133.58156,56.1292],[-133.63575,56.14774],[-133.63314,56.10787],[-133.58204,56.09779],[-133.59226,56.07949],[-133.65926,56.08382],[-133.69378,56.07057],[-133.77787,55.98288],[-133.81638,55.96403]]],[[[-133.94352,55.91245],[-133.92934,55.86954],[-133.9032,55.84811],[-133.86701,55.84589],[-133.84032,55.88677],[-133.85431,55.93159],[-133.89187,55.93668],[-133.94352,55.91245]]],[[[-134.36698,55.91055],[-134.31706,55.86856],[-134.34444,55.8432],[-134.31421,55.8268],[-134.28247,55.82867],[-134.23118,55.86475],[-134.16838,55.89232],[-134.13056,55.89752],[-134.09982,55.98414],[-134.12271,55.98552],[-134.15224,55.92092],[-134.23063,55.90563],[-134.26668,55.92959],[-134.33608,55.92662],[-134.36698,55.91055]]],[[[-133.32548,57.01131],[-133.33429,57.00245],[-133.44622,57.02013],[-133.61393,57.05798],[-133.70294,57.06521],[-133.88798,57.09775],[-134.00888,57.07458],[-134.034,57.06329],[-134.04924,57.02921],[-133.92147,56.96152],[-133.90365,56.92727],[-133.91638,56.91445],[-133.86906,56.84594],[-133.79538,56.82459],[-133.76534,56.80749],[-133.80082,56.78525],[-133.83339,56.80321],[-133.94296,56.80556],[-134.00665,56.85159],[-134.04777,56.923],[-134.14712,56.95697],[-134.1533,56.93481],[-134.27048,56.93558],[-134.29639,56.90731],[-134.35367,56.89316],[-134.41523,56.84795],[-134.41855,56.82234],[-134.39669,56.76975],[-134.40168,56.73301],[-134.37629,56.66861],[-134.32182,56.64451],[-134.30114,56.62032],[-134.32015,56.55449],[-134.24196,56.55554],[-134.19799,56.53103],[-134.22413,56.47502],[-134.25194,56.44455],[-134.24315,56.39578],[-134.29282,56.35406],[-134.29948,56.28961],[-134.26264,56.21514],[-134.25931,56.12145],[-134.23411,56.06709],[-134.18972,56.02269],[-134.13714,56.00641],[-134.11195,56.04519],[-134.10791,56.08062],[-134.08747,56.09494],[-133.99691,56.08221],[-133.96054,56.09136],[-133.92774,56.14595],[-133.94201,56.1801],[-133.88116,56.2232],[-133.87664,56.27589],[-133.83457,56.31981],[-133.84764,56.35132],[-133.87165,56.3638],[-133.86399,56.39068],[-133.78062,56.39249],[-133.77658,56.47016],[-133.82103,56.49523],[-133.71455,56.55003],[-133.67586,56.52272],[-133.66311,56.44808],[-133.60369,56.43542],[-133.5127,56.43702],[-133.46065,56.45412],[-133.41417,56.49465],[-133.40426,56.51524],[-133.44296,56.54925],[-133.44814,56.57987],[-133.42433,56.59132],[-133.43876,56.63543],[-133.47571,56.64478],[-133.50464,56.69547],[-133.50416,56.71219],[-133.56437,56.74523],[-133.49078,56.75976],[-133.48946,56.78184],[-133.51367,56.81105],[-133.4831,56.84086],[-133.49534,56.88271],[-133.45045,56.88258],[-133.36352,56.90725],[-133.27055,56.92429],[-133.26253,56.93862],[-133.32548,57.01131]]],[[[-134.66646,56.17022],[-134.63469,56.26584],[-134.63446,56.28326],[-134.66669,56.28334],[-134.66646,56.17022]]]]}}