{"type":"Feature","properties":{"id":"USA.24.179","name":"Wilbarger","level":2,"country":"USA"},"geometry":{"type":"Polygon","coordinates":[[[-98.95321,33.83403],[-98.95237,34.21258],[-99.04348,34.19821],[-99.07954,34.21152],[-99.11921,34.20175],[-99.13823,34.21916],[-99.15902,34.20889],[-99.18952,34.21432],[-99.20757,34.28351],[-99.21072,34.33631],[-99.23261,34.34239],[-99.23724,34.36272],[-99.27493,34.38491],[-99.26133,34.4035],[-99.32868,34.42239],[-99.38102,34.45694],[-99.39496,34.4421],[-99.39726,34.37788],[-99.44077,34.37413],[-99.47513,34.3964],[-99.4753,34.08562],[-99.47566,33.83401],[-98.95321,33.83403]]]}}