{"type":"Feature","properties":{"id":"USA.24.169","name":"Trinity","level":2,"country":"USA"},"geometry":{"type":"Polygon","coordinates":[[[-95.43479,31.0581],[-95.43434,30.93741],[-95.41008,30.9277],[-95.41516,30.90958],[-95.38329,30.85297],[-95.32749,30.85955],[-95.31291,30.89788],[-95.25239,30.90672],[-95.23078,30.88701],[-95.2431,30.86686],[-95.231,30.84115],[-95.20019,30.82457],[-94.93925,31.04199],[-94.84295,31.14658],[-94.86289,31.201],[-94.86051,31.23496],[-94.89768,31.25802],[-94.888,31.27651],[-94.90951,31.33706],[-94.94759,31.33859],[-94.9611,31.34884],[-94.95812,31.38694],[-95.43479,31.0581]]]}}