{"type":"Feature","properties":{"id":"USA.47.51","name":"Queens","level":2,"country":"USA"},"geometry":{"type":"Polygon","coordinates":[[[-73.91246,40.7961],[-73.96248,40.73681],[-73.92921,40.72779],[-73.89652,40.68241],[-73.86872,40.69463],[-73.85502,40.64311],[-73.83304,40.62827],[-73.84985,40.58868],[-73.88507,40.57376],[-73.9334,40.56925],[-73.94059,40.5429],[-73.83441,40.57721],[-73.77493,40.59077],[-73.75036,40.58953],[-73.73996,40.63515],[-73.72488,40.65346],[-73.73033,40.72217],[-73.70765,40.7278],[-73.70163,40.7525],[-73.76915,40.8002],[-73.78642,40.80147],[-73.8113,40.80541],[-73.86297,40.79768],[-73.8853,40.78669],[-73.91246,40.7961]]]}}