{"type":"Feature","properties":{"id":"USA.6.13","name":"Bingham","level":2,"country":"USA"},"geometry":{"type":"Polygon","coordinates":[[[-113.00772,43.11094],[-113.00777,42.86306],[-112.81659,42.86324],[-112.77967,42.89321],[-112.77921,42.91384],[-112.75057,42.95153],[-112.73567,42.97324],[-112.65656,43.02195],[-112.06304,43.02237],[-111.94722,43.02102],[-111.5895,43.02006],[-111.58806,43.28185],[-111.82251,43.28229],[-111.82249,43.36604],[-112.04383,43.36671],[-112.04368,43.41015],[-112.10341,43.41027],[-112.10331,43.42506],[-112.52004,43.42518],[-112.51987,43.62663],[-112.63925,43.62658],[-112.69713,43.62315],[-112.6989,43.54006],[-112.81629,43.53596],[-112.81672,43.44917],[-112.93685,43.44939],[-112.94702,43.36735],[-112.94703,43.28483],[-113.00733,43.28478],[-113.00772,43.11094]]]}}