{"type":"Feature","properties":{"id":"USA.48.37","name":"Washington","level":2,"country":"USA"},"geometry":{"type":"Polygon","coordinates":[[[-79.87059,40.19742],[-79.89645,40.19449],[-79.95954,40.21614],[-79.97043,40.23225],[-79.91414,40.25253],[-80.18229,40.33225],[-80.36088,40.47755],[-80.519,40.47737],[-80.51799,40.39965],[-80.51911,40.15968],[-80.51912,40.01642],[-80.51922,39.96221],[-80.47528,39.95207],[-80.45278,39.97343],[-80.39648,39.9779],[-80.37951,39.99413],[-80.30912,40.00586],[-80.3014,40.02057],[-80.19124,40.00194],[-80.17592,40.00815],[-80.12951,39.98841],[-80.08612,39.99032],[-80.05882,40.00935],[-79.99802,39.98333],[-79.99357,40.00914],[-79.97141,40.01382],[-79.95462,39.99528],[-79.91432,40.02104],[-79.88,40.02829],[-79.89161,40.04942],[-79.83905,40.09165],[-79.85254,40.11611],[-79.87739,40.1268],[-79.90489,40.15424],[-79.86416,40.16182],[-79.85038,40.17731],[-79.87059,40.19742]]]}}