{"type":"Feature","properties":{"id":"USA.16.47","name":"Greene","level":2,"country":"USA"},"geometry":{"type":"Polygon","coordinates":[[[-90.80662,36.26687],[-90.80982,36.14957],[-90.74748,36.14912],[-90.79068,36.09344],[-90.82096,36.07955],[-90.83798,36.02224],[-90.85851,35.99094],[-90.85207,35.9681],[-90.38738,35.96471],[-90.3779,35.99569],[-90.35132,36.02689],[-90.31917,36.08998],[-90.2945,36.11296],[-90.23559,36.13948],[-90.22043,36.18477],[-90.18944,36.20031],[-90.32097,36.20058],[-90.31983,36.25915],[-90.46927,36.26004],[-90.71583,36.26794],[-90.80662,36.26687]]]}}