{"type":"Feature","properties":{"id":"USA.49.12","name":"Piscataquis","level":2,"country":"USA"},"geometry":{"type":"Polygon","coordinates":[[[-69.72111,46.57406],[-69.71925,46.39412],[-69.73232,46.39402],[-69.72858,45.97689],[-69.68356,45.98364],[-69.64676,45.86317],[-69.71959,45.8348],[-69.70864,45.81169],[-69.7255,45.76393],[-69.74083,45.75552],[-69.79318,45.76156],[-69.83282,45.73874],[-69.79241,45.72548],[-69.78526,45.69279],[-69.73849,45.67904],[-69.74402,45.65212],[-69.70169,45.62799],[-69.73153,45.56692],[-69.77993,45.54278],[-69.70043,45.29247],[-69.6828,45.19489],[-69.65476,45.1],[-69.62097,45.01097],[-69.51565,45.02505],[-69.49986,45.05379],[-69.35567,45.07348],[-68.85659,45.14279],[-68.88092,45.22496],[-68.77606,45.24033],[-68.83121,45.44244],[-68.8573,45.52731],[-68.96465,45.51238],[-68.95172,45.58179],[-68.9507,45.63844],[-68.95891,45.6622],[-68.82704,45.68484],[-68.8194,46.39579],[-68.82141,46.57252],[-69.72111,46.57406]]]}}