{"type":"Feature","properties":{"id":"USA.48.50","name":"Lycoming","level":2,"country":"USA"},"geometry":{"type":"Polygon","coordinates":[[[-77.59813,41.47858],[-77.58467,41.44131],[-77.52654,41.35854],[-77.47599,41.3383],[-77.47186,41.31428],[-77.39905,41.25306],[-77.34977,41.21993],[-77.32089,41.21894],[-77.16428,41.06872],[-77.14411,41.06885],[-77.11384,41.06904],[-77.05809,41.08558],[-76.97794,41.08789],[-76.96023,41.14881],[-76.89612,41.13908],[-76.88097,41.15805],[-76.78866,41.17577],[-76.73267,41.17205],[-76.67878,41.15418],[-76.64077,41.15573],[-76.59261,41.15777],[-76.4476,41.27564],[-76.54849,41.29314],[-76.59253,41.30434],[-76.7495,41.40558],[-76.81373,41.59004],[-76.87472,41.59693],[-76.92217,41.58105],[-76.96032,41.55139],[-77.59928,41.54228],[-77.59813,41.47858]]]}}