{"type":"Feature","properties":{"id":"USA.47.37","name":"Delaware","level":2,"country":"USA"},"geometry":{"type":"Polygon","coordinates":[[[-74.44351,42.35503],[-74.6189,42.4244],[-74.71158,42.51781],[-74.77289,42.50518],[-74.84412,42.5126],[-74.96871,42.46844],[-74.99241,42.44049],[-75.01982,42.42905],[-75.05907,42.43065],[-75.09341,42.42064],[-75.19724,42.35834],[-75.21764,42.36741],[-75.26157,42.36668],[-75.30732,42.3213],[-75.34137,42.31481],[-75.37755,42.32216],[-75.41532,42.31416],[-75.41842,42.19504],[-75.42178,42.04204],[-75.40223,41.99941],[-75.34113,41.99278],[-75.34221,41.97288],[-75.31036,41.94902],[-75.2791,41.93893],[-75.26062,41.88379],[-75.22374,41.85746],[-75.204,41.86988],[-75.14645,41.85091],[-74.78069,42.01638],[-74.5536,42.12149],[-74.53099,42.14648],[-74.50399,42.14493],[-74.45171,42.16923],[-74.53731,42.20143],[-74.4282,42.34908],[-74.44351,42.35503]]]}}