{"type":"Feature","properties":{"id":"USA.10.35","name":"Garfield","level":2,"country":"USA"},"geometry":{"type":"Polygon","coordinates":[[[-109.05105,39.66048],[-109.05137,39.49771],[-109.05078,39.36668],[-108.10603,39.36616],[-107.43096,39.36618],[-107.11346,39.36607],[-107.11368,39.91912],[-107.03398,39.91892],[-107.03206,40.00295],[-107.03737,40.09154],[-107.317,40.09077],[-107.31876,39.91497],[-107.43168,39.91773],[-107.43178,39.82838],[-107.69424,39.83011],[-107.78722,39.82505],[-107.93851,39.825],[-107.93856,39.69447],[-108.55473,39.69365],[-108.55464,39.65017],[-108.89574,39.65034],[-108.89571,39.66049],[-109.05105,39.66048]]]}}