{"type":"Feature","properties":{"id":"USA.42.10","name":"Hardy","level":2,"country":"USA"},"geometry":{"type":"Polygon","coordinates":[[[-79.05726,38.76142],[-79.04656,38.79212],[-79.02726,38.79212],[-79.01956,38.81792],[-78.994,38.85011],[-78.86928,38.763],[-78.82726,38.82162],[-78.78603,38.88719],[-78.75909,38.90054],[-78.73892,38.92729],[-78.71617,38.90484],[-78.68046,38.92532],[-78.64659,38.96815],[-78.62046,38.98261],[-78.60166,38.96461],[-78.55047,39.01807],[-78.5719,39.032],[-78.5442,39.05658],[-78.50813,39.08864],[-78.56128,39.13145],[-78.60233,39.14037],[-78.62356,39.11852],[-78.65688,39.12568],[-78.69857,39.14808],[-78.73297,39.14993],[-78.8422,39.18429],[-78.8997,39.19914],[-78.9799,39.23763],[-79.00155,39.19521],[-79.03608,39.15001],[-79.02877,39.14177],[-79.08966,39.03822],[-79.08176,39.00012],[-79.04606,38.92842],[-79.07406,38.89902],[-79.08076,38.87702],[-79.1343,38.81335],[-79.05726,38.76142]]]}}