{"type":"Feature","properties":{"id":"USA.24.71","name":"Red River","level":2,"country":"USA"},"geometry":{"type":"Polygon","coordinates":[[[-94.80879,33.36364],[-94.77722,33.33164],[-94.74693,33.32894],[-94.7461,33.70302],[-94.73763,33.70601],[-94.77507,33.75504],[-94.83081,33.74007],[-94.86931,33.74588],[-94.87604,33.76078],[-94.91962,33.78631],[-94.91684,33.80462],[-94.94431,33.81214],[-94.96441,33.83703],[-94.99268,33.85246],[-95.04903,33.8641],[-95.06107,33.8953],[-95.09394,33.89597],[-95.13106,33.93693],[-95.1559,33.93704],[-95.18408,33.95036],[-95.2305,33.96077],[-95.25291,33.93365],[-95.2531,33.90545],[-95.30947,33.88031],[-95.30864,33.38067],[-95.30665,33.37803],[-95.26097,33.36694],[-95.22302,33.37816],[-95.19688,33.37384],[-95.12546,33.38946],[-95.09336,33.39758],[-95.07422,33.3859],[-95.02461,33.38413],[-94.95306,33.39084],[-94.90878,33.38379],[-94.87599,33.3942],[-94.85759,33.37671],[-94.83016,33.38278],[-94.80879,33.36364]]]}}