{"type":"Feature","properties":{"id":"USA.45.15","name":"Prince George's","level":2,"country":"USA"},"geometry":{"type":"Polygon","coordinates":[[[-76.67546,38.53588],[-76.6807,38.58051],[-76.67234,38.61754],[-76.69286,38.63644],[-76.68387,38.66218],[-76.70196,38.71087],[-76.68636,38.74848],[-76.71432,38.77823],[-76.70241,38.78795],[-76.69153,38.85981],[-76.67011,38.90693],[-76.69054,38.92477],[-76.69846,38.98379],[-76.74452,39.01713],[-76.75126,39.03472],[-76.79074,39.04573],[-76.83143,39.06904],[-76.84036,39.10315],[-76.87011,39.11272],[-76.88851,39.13097],[-76.90729,39.11792],[-76.91759,39.09128],[-76.9911,38.99241],[-77.00259,38.96549],[-76.9094,38.89286],[-77.03901,38.79165],[-77.04037,38.78536],[-77.0423,38.71852],[-77.08633,38.70614],[-77.04766,38.61631],[-77.02112,38.64645],[-76.96575,38.66128],[-76.91352,38.65294],[-76.86296,38.65866],[-76.75795,38.61972],[-76.74268,38.59422],[-76.74053,38.55868],[-76.67546,38.53588]]]}}