{"type":"Feature","properties":{"id":"USA.10.38","name":"Pitkin","level":2,"country":"USA"},"geometry":{"type":"Polygon","coordinates":[[[-107.11346,39.36607],[-107.43096,39.36618],[-107.43052,39.34823],[-107.4652,39.31452],[-107.41262,39.29188],[-107.37919,39.26911],[-107.3945,39.25631],[-107.37933,39.2311],[-107.37562,39.19794],[-107.35344,39.17305],[-107.2957,39.15366],[-107.2825,39.11872],[-107.06633,39.11881],[-106.99697,39.06935],[-106.98802,39.0308],[-106.96395,39.02852],[-106.90643,38.9921],[-106.87805,38.99428],[-106.80188,38.97831],[-106.75135,39.0258],[-106.74937,39.04253],[-106.71033,39.04758],[-106.6555,39.04443],[-106.61161,38.99544],[-106.59922,38.998],[-106.59724,39.04483],[-106.57798,39.05791],[-106.58635,39.08775],[-106.564,39.10605],[-106.56128,39.15568],[-106.50862,39.16669],[-106.49366,39.19833],[-106.49766,39.24203],[-106.4833,39.27268],[-106.50239,39.29857],[-106.4321,39.3167],[-106.4265,39.36188],[-107.11346,39.36607]]]}}