{"type":"Feature","properties":{"id":"USA.31.33","name":"Liberty","level":2,"country":"USA"},"geometry":{"type":"Polygon","coordinates":[[[-81.19438,31.56811],[-81.17308,31.55591],[-81.1335,31.62335],[-81.13641,31.67484],[-81.18631,31.70152],[-81.1984,31.72608],[-81.22087,31.74364],[-81.25989,31.75376],[-81.27743,31.79462],[-81.31103,31.78992],[-81.32823,31.82302],[-81.34477,31.82397],[-81.3781,31.84868],[-81.40774,31.94431],[-81.4269,31.93868],[-81.46385,31.95002],[-81.48297,31.96641],[-81.52233,31.95896],[-81.56423,31.9595],[-81.60367,32.00848],[-81.65122,32.05836],[-81.6728,32.06388],[-81.6927,32.08832],[-81.71866,32.08936],[-81.76174,32.04791],[-81.82441,32.01489],[-81.79393,31.9778],[-81.74694,31.96933],[-81.74542,31.93628],[-81.76536,31.87455],[-81.73561,31.85371],[-81.68811,31.80941],[-81.64331,31.78591],[-81.64176,31.76546],[-81.49961,31.69997],[-81.4918,31.69958],[-81.43419,31.6411],[-81.41759,31.6521],[-81.39158,31.64357],[-81.36295,31.65454],[-81.34017,31.64735],[-81.26187,31.65015],[-81.22222,31.63043],[-81.19013,31.59811],[-81.19438,31.56811]]]}}