{"type":"Feature","properties":{"id":"USA.37.88","name":"Washington","level":2,"country":"USA"},"geometry":{"type":"Polygon","coordinates":[[[-76.84727,35.71999],[-76.84462,35.70573],[-76.63751,35.70522],[-76.54562,35.70509],[-76.40597,35.69759],[-76.4056,35.7863],[-76.35356,35.86131],[-76.38001,35.91467],[-76.36521,35.9447],[-76.39824,35.98432],[-76.46063,35.97037],[-76.52855,35.94405],[-76.60805,35.93668],[-76.67387,35.9351],[-76.69192,35.94476],[-76.71999,35.91727],[-76.73155,35.88758],[-76.7606,35.86489],[-76.78924,35.83812],[-76.81704,35.74884],[-76.84727,35.71999]]]}}