{"type":"Feature","properties":{"id":"USA.21.30","name":"McCurtain","level":2,"country":"USA"},"geometry":{"type":"Polygon","coordinates":[[[-95.15653,34.15697],[-95.1559,33.93704],[-95.13106,33.93693],[-95.09394,33.89597],[-95.06107,33.8953],[-95.04903,33.8641],[-94.99268,33.85246],[-94.96441,33.83703],[-94.94431,33.81214],[-94.91684,33.80462],[-94.91962,33.78631],[-94.87604,33.76078],[-94.86931,33.74588],[-94.83081,33.74007],[-94.77507,33.75504],[-94.73763,33.70601],[-94.71105,33.70568],[-94.70787,33.68688],[-94.65917,33.69214],[-94.64846,33.67341],[-94.62122,33.68102],[-94.57083,33.65495],[-94.55208,33.65349],[-94.52073,33.61657],[-94.48588,33.63787],[-94.47733,33.94094],[-94.4703,34.18987],[-94.46116,34.50746],[-94.93761,34.50684],[-95.04675,34.50724],[-95.04659,34.24368],[-95.15124,34.24391],[-95.15653,34.15697]]]}}