{"type":"Feature","properties":{"id":"USA.23.24","name":"Madison","level":2,"country":"USA"},"geometry":{"type":"MultiPolygon","coordinates":[[[[-91.03081,32.12057],[-91.01181,32.13116],[-91.0062,32.15696],[-91.05021,32.17846],[-91.05318,32.12424],[-91.03081,32.12057]]],[[[-91.47675,32.40581],[-91.4758,32.38515],[-91.45171,32.36856],[-91.46596,32.35106],[-91.4724,32.31653],[-91.50411,32.31345],[-91.52673,32.30068],[-91.52511,32.23433],[-91.53552,32.20375],[-91.49272,32.20335],[-91.32075,32.20246],[-91.27222,32.23091],[-91.23482,32.21004],[-91.21554,32.23307],[-91.1836,32.24544],[-91.13379,32.24934],[-91.12159,32.23999],[-91.12405,32.21111],[-91.08371,32.22646],[-91.06141,32.21866],[-91.03901,32.24235],[-90.98339,32.21177],[-90.97948,32.29371],[-90.95136,32.2832],[-90.91616,32.30359],[-90.89366,32.3281],[-90.91237,32.33946],[-90.99363,32.35405],[-91.00451,32.36815],[-90.99409,32.40387],[-90.97447,32.41201],[-90.96646,32.43387],[-90.99387,32.45086],[-91.02961,32.43355],[-91.09531,32.45875],[-91.11601,32.48315],[-91.11671,32.50014],[-91.09788,32.54476],[-91.06741,32.52322],[-91.03811,32.49045],[-91.00421,32.48215],[-90.99487,32.50862],[-91.07086,32.54853],[-91.06979,32.5628],[-91.10843,32.56263],[-91.13372,32.53792],[-91.45765,32.53781],[-91.48521,32.50296],[-91.48451,32.47177],[-91.47166,32.43379],[-91.47675,32.40581]]]]}}