{"type":"Feature","properties":{"id":"USA.2.25","name":"Kittson","level":2,"country":"USA"},"geometry":{"type":"Polygon","coordinates":[[[-96.38784,48.54432],[-96.38748,48.71711],[-96.40493,48.71708],[-96.40542,48.99987],[-96.8426,48.99999],[-97.22873,49.00057],[-97.23889,48.96658],[-97.19799,48.88035],[-97.17563,48.85311],[-97.18113,48.83275],[-97.16488,48.80826],[-97.15105,48.75572],[-97.1356,48.72641],[-97.09871,48.68754],[-97.10848,48.63267],[-97.13751,48.61228],[-97.1631,48.54397],[-96.38784,48.54432]]]}}