{"type":"Feature","properties":{"id":"USA.31.136","name":"Putnam","level":2,"country":"USA"},"geometry":{"type":"Polygon","coordinates":[[[-83.53374,33.43448],[-83.53781,33.39381],[-83.54588,33.17195],[-83.42909,33.18536],[-83.36309,33.18018],[-83.33124,33.16757],[-83.31886,33.18312],[-83.27411,33.18724],[-83.2524,33.23806],[-83.25346,33.2593],[-83.23003,33.27606],[-83.17845,33.29205],[-83.14586,33.31005],[-83.14412,33.33987],[-83.16421,33.35504],[-83.1979,33.39533],[-83.22704,33.40449],[-83.2629,33.44369],[-83.27993,33.48344],[-83.53374,33.43448]]]}}