{"type":"Feature","properties":{"id":"USA.41.62","name":"Juneau","level":2,"country":"USA"},"geometry":{"type":"Polygon","coordinates":[[[-90.31269,44.24876],[-90.31253,44.15521],[-90.3122,43.73149],[-90.31241,43.641],[-89.78582,43.64106],[-89.78491,43.64106],[-89.78701,43.6671],[-89.80768,43.6772],[-89.84126,43.73669],[-89.84338,43.75806],[-89.86514,43.78342],[-89.9162,43.82153],[-89.92231,43.83848],[-89.96123,43.86404],[-89.98317,43.91568],[-89.95211,43.92421],[-89.96261,43.97924],[-90.00589,44.0084],[-89.99898,44.02405],[-90.01877,44.04773],[-90.02628,44.0896],[-89.97693,44.12255],[-89.97049,44.16712],[-89.94172,44.16344],[-89.90151,44.18058],[-89.92484,44.21354],[-89.89759,44.22985],[-89.90279,44.24948],[-90.31269,44.24876]]]}}