{"type":"Feature","properties":{"id":"USA.36.66","name":"Larue","level":2,"country":"USA"},"geometry":{"type":"Polygon","coordinates":[[[-85.89281,37.44032],[-85.75038,37.43119],[-85.73332,37.42534],[-85.65734,37.422],[-85.6654,37.43676],[-85.63823,37.45408],[-85.5835,37.46992],[-85.52886,37.45407],[-85.49885,37.48296],[-85.46625,37.4656],[-85.50301,37.5491],[-85.52129,37.55435],[-85.55114,37.55403],[-85.5648,37.52296],[-85.60617,37.54826],[-85.61143,37.60735],[-85.57335,37.63861],[-85.59526,37.65316],[-85.59209,37.69349],[-85.63789,37.69669],[-85.64529,37.71611],[-85.68049,37.73229],[-85.73595,37.65461],[-85.80194,37.62331],[-85.79731,37.60808],[-85.81926,37.58441],[-85.87581,37.544],[-85.89442,37.47238],[-85.89281,37.44032]]]}}