{"type":"Feature","properties":{"id":"USA.47.46","name":"Westchester","level":2,"country":"USA"},"geometry":{"type":"Polygon","coordinates":[[[-73.98259,41.3217],[-73.94658,41.291],[-73.97079,41.2479],[-73.93148,41.205],[-73.88758,41.1288],[-73.89478,41.0708],[-73.88938,41.03761],[-73.89398,40.99721],[-73.91791,40.91759],[-73.76716,40.87681],[-73.77538,40.89204],[-73.75678,40.91261],[-73.68647,40.94521],[-73.65734,40.98518],[-73.65467,41.01171],[-73.72778,41.1007],[-73.48271,41.21277],[-73.55096,41.29543],[-73.54473,41.36638],[-73.98259,41.3217]]]}}