{"type":"Feature","properties":{"id":"USA.37.65","name":"Watauga","level":2,"country":"USA"},"geometry":{"type":"Polygon","coordinates":[[[-81.47752,36.24026],[-81.55224,36.27639],[-81.58595,36.29885],[-81.63819,36.34961],[-81.73049,36.39041],[-81.73098,36.34119],[-81.76611,36.33852],[-81.79527,36.35786],[-81.85734,36.33479],[-81.91811,36.28712],[-81.8978,36.2775],[-81.89702,36.24295],[-81.91098,36.22852],[-81.88539,36.18946],[-81.85715,36.19368],[-81.82679,36.16384],[-81.81052,36.11152],[-81.67494,36.12256],[-81.65947,36.1184],[-81.54549,36.11748],[-81.50041,36.14252],[-81.4558,36.20045],[-81.47752,36.24026]]]}}