{"type":"Feature","properties":{"id":"USA.6.43","name":"Butte","level":2,"country":"USA"},"geometry":{"type":"Polygon","coordinates":[[[-113.79845,43.56922],[-113.77714,43.56686],[-113.72767,43.59015],[-113.70117,43.58456],[-113.68431,43.53096],[-113.65364,43.49374],[-113.63434,43.49748],[-113.63524,43.36755],[-113.36192,43.36717],[-113.36197,43.28468],[-113.00733,43.28478],[-112.94703,43.28483],[-112.94702,43.36735],[-112.93685,43.44939],[-112.81672,43.44917],[-112.81629,43.53596],[-112.6989,43.54006],[-112.69713,43.62315],[-112.69525,43.97195],[-112.99434,43.97237],[-112.9951,44.23413],[-113.32062,44.23317],[-113.41654,44.23337],[-113.41628,44.05934],[-113.45783,44.05953],[-113.45467,43.99086],[-113.44607,43.98351],[-113.44564,43.91458],[-113.45648,43.87592],[-113.41058,43.86021],[-113.37789,43.80971],[-113.41276,43.81672],[-113.44311,43.80846],[-113.45366,43.7682],[-113.48812,43.7388],[-113.51446,43.73414],[-113.57202,43.70088],[-113.59841,43.69538],[-113.67652,43.66152],[-113.72373,43.62907],[-113.76118,43.6212],[-113.79845,43.56922]]]}}