{"type":"Feature","properties":{"id":"KHM.9","name":"Kâmpóng Chhnang","level":1,"country":"KHM"},"geometry":{"type":"Polygon","coordinates":[[[104.19853,12.10779],[104.21171,12.03141],[104.25548,11.99674],[104.27966,11.92581],[104.32421,11.84062],[104.38477,11.78737],[104.42089,11.78453],[104.51789,11.73613],[104.55716,11.76277],[104.67509,11.80951],[104.76103,11.82256],[104.78723,11.88152],[104.81875,11.89176],[104.85089,11.96315],[104.89461,12.00348],[104.89089,12.05363],[104.86857,12.07665],[104.90009,12.17533],[104.88738,12.23507],[104.85229,12.29979],[104.89833,12.33633],[104.91466,12.37524],[104.86485,12.41252],[104.82325,12.49146],[104.83038,12.53257],[104.77069,12.54502],[104.66703,12.59071],[104.60243,12.59644],[104.53463,12.56233],[104.50404,12.51939],[104.43423,12.52999],[104.40508,12.55133],[104.39857,12.43353],[104.3441,12.34723],[104.26183,12.29028],[104.21992,12.27729],[104.19155,12.23923],[104.18008,12.18339],[104.19853,12.10779]]]}}