{"type":"Feature","properties":{"id":"SAU.8.3","name":"Turayf","level":2,"country":"SAU"},"geometry":{"type":"Polygon","coordinates":[[[40.14956,31.99403],[39.62782,32.08313],[39.20092,32.15434],[39.17919,32.13539],[39.00631,32.00063],[38.57022,31.89541],[38.47872,31.8719],[38.03978,31.76349],[37.98459,31.74472],[37.9805,31.7334],[37.96717,31.71512],[37.97345,31.69647],[37.98887,31.6879],[37.97574,31.6761],[37.96451,31.6584],[37.96279,31.64374],[37.96888,31.63289],[37.96051,31.61461],[37.96965,31.60167],[37.96977,31.59026],[38.09602,31.51202],[38.17849,31.48343],[38.20158,31.47243],[38.20818,31.44054],[38.22248,31.41085],[38.22028,31.39326],[38.22468,31.32728],[38.22336,31.31907],[38.22737,31.29308],[38.24412,31.25332],[38.26644,31.24582],[38.29155,31.24373],[38.29225,31.22785],[38.2987,31.20919],[38.29382,31.19053],[38.279,31.18094],[38.26679,31.16839],[38.26225,31.15705],[38.24795,31.15321],[38.219,31.15252],[38.21656,31.13158],[38.20348,31.12914],[38.19232,31.11205],[38.19004,31.09688],[38.18301,31.08627],[38.19008,31.06658],[38.18171,31.05135],[38.18951,31.03441],[38.19046,31.02127],[38.18132,30.99253],[38.16933,30.97882],[38.17428,30.94494],[38.18646,30.93466],[38.18494,30.90515],[38.18989,30.87698],[38.17961,30.85814],[38.19465,30.85985],[38.21521,30.86651],[38.2449,30.86194],[38.26831,30.88555],[38.29402,30.89297],[38.30848,30.8924],[38.32009,30.89887],[38.35321,30.9023],[38.38919,30.90382],[38.39909,30.90953],[38.40842,30.90401],[38.42136,30.90725],[38.49465,30.91678],[38.50399,30.91886],[38.55442,30.93713],[38.58107,30.94323],[38.62428,30.94399],[38.66769,30.93999],[38.72232,30.9417],[38.74516,30.93047],[38.7621,30.92723],[38.76458,30.91258],[38.77847,30.89716],[38.80512,30.89411],[38.80284,30.90668],[38.8116,30.9122],[38.8236,30.90935],[38.84148,30.9122],[38.85386,30.90744],[38.86528,30.91239],[38.88469,30.93142],[38.90258,30.9358],[38.90677,30.94741],[38.92105,30.9516],[38.93171,30.96075],[38.94427,30.96245],[38.96769,30.95407],[38.99034,30.96112],[38.99929,30.97311],[39.05011,30.97292],[39.07067,30.97444],[39.11141,30.98073],[39.14529,30.98111],[39.17613,30.97958],[39.21001,30.98149],[39.25676,30.96931],[39.30285,30.96147],[39.31298,30.96316],[39.35449,30.95922],[39.37315,30.94913],[39.38819,30.92248],[39.4293,30.90668],[39.45214,30.90725],[39.48256,30.926],[39.51287,30.94259],[39.53399,30.95759],[39.54362,30.94944],[39.58346,30.96334],[39.61217,30.96315],[39.64219,30.95796],[39.661,30.95176],[39.67258,30.93466],[39.7017,30.90059],[39.73635,30.8747],[39.74967,30.86765],[39.76756,30.86328],[39.79022,30.86613],[39.80221,30.87127],[39.82734,30.88764],[39.81492,30.88992],[39.79335,30.90628],[39.79037,30.95415],[39.79707,30.96878],[39.79831,30.98291],[39.78963,31.00152],[39.77401,31.00944],[39.76756,31.01887],[39.77053,31.03771],[39.74797,31.05557],[39.73507,31.0754],[39.72838,31.09475],[39.71152,31.11335],[39.68597,31.14955],[39.66143,31.16592],[39.6315,31.18853],[39.62576,31.20217],[39.61261,31.21866],[39.58775,31.25477],[39.582,31.2672],[39.5557,31.3045],[39.57316,31.33678],[39.60936,31.36726],[39.63509,31.3956],[39.65565,31.41521],[39.67334,31.42597],[39.70706,31.43744],[39.7379,31.44486],[39.77305,31.45992],[39.80437,31.47953],[39.84239,31.55604],[39.84718,31.5735],[39.8785,31.57541],[39.88687,31.58067],[39.8926,31.5943],[39.89189,31.61271],[39.89787,31.6328],[39.91914,31.65336],[39.94187,31.67153],[39.97366,31.69018],[40.01383,31.69998],[40.02627,31.7074],[40.05018,31.7062],[40.05711,31.70022],[40.07313,31.69951],[40.09307,31.69373],[40.10086,31.70142],[40.1078,31.73801],[40.10661,31.75594],[40.1133,31.77028],[40.1078,31.78224],[40.11546,31.79467],[40.11043,31.82576],[40.11689,31.83819],[40.09011,31.86473],[40.08413,31.88147],[40.09164,31.89076],[40.10948,31.8994],[40.12885,31.90251],[40.12836,31.91446],[40.13721,31.92953],[40.12717,31.94698],[40.13458,31.97926],[40.14956,31.99403]]]}}