{"type":"Feature","properties":{"id":"SAU.2.8","name":"Ad Diriyah","level":2,"country":"SAU"},"geometry":{"type":"Polygon","coordinates":[[[46.07979,24.9506],[46.14724,24.91768],[46.16494,24.91086],[46.20741,24.88157],[46.21584,24.87316],[46.22787,24.85209],[46.24051,24.8232],[46.24773,24.80034],[46.26615,24.76743],[46.26615,24.73175],[46.27232,24.72328],[46.29282,24.72098],[46.32761,24.73246],[46.34793,24.736],[46.38591,24.73546],[46.43695,24.73688],[46.43447,24.71921],[46.45037,24.70314],[46.48376,24.69696],[46.50142,24.70067],[46.51114,24.69555],[46.52279,24.7072],[46.54929,24.71851],[46.60969,24.7367],[46.62859,24.74836],[46.63248,24.76231],[46.62471,24.77291],[46.62629,24.80717],[46.61428,24.82572],[46.60934,24.85804],[46.61199,24.87712],[46.59874,24.88984],[46.5968,24.89725],[46.57119,24.91015],[46.53975,24.90838],[46.50601,24.90132],[46.44596,24.91898],[46.43589,24.9271],[46.43801,24.9483],[46.45126,24.96119],[46.47828,24.9589],[46.50089,24.94636],[46.51643,24.9453],[46.55246,24.95413],[46.55547,24.96084],[46.53533,24.98539],[46.52491,24.98751],[46.50212,24.98274],[46.49188,24.98999],[46.47311,24.98893],[46.46406,25.01697],[46.45664,25.01487],[46.43132,25.02687],[46.40551,25.03469],[46.35854,25.03486],[46.34038,25.03669],[46.30624,25.02353],[46.29757,25.01204],[46.28009,25.01919],[46.23344,25.02437],[46.18748,25.03519],[46.16083,25.03719],[46.12352,25.0327],[46.09919,25.02387],[46.08904,25.01404],[46.08188,24.98689],[46.07979,24.9506]]]}}