{"type":"Feature","properties":{"id":"SAU.11.10","name":"Abha","level":2,"country":"SAU"},"geometry":{"type":"MultiPolygon","coordinates":[[[[42.86539,17.7851],[42.87517,17.79331],[42.9017,17.80622],[42.90728,17.8139],[42.90588,17.8317],[42.89995,17.84007],[42.89646,17.85752],[42.901,17.86311],[42.88983,17.87497],[42.89227,17.8844],[42.90379,17.88684],[42.91005,17.87785],[42.92438,17.87602],[42.95004,17.8788],[42.94011,17.92],[42.93007,17.94728],[42.93094,17.95514],[42.92416,17.97256],[42.89965,17.93669],[42.89717,17.92375],[42.87871,17.92413],[42.84178,17.93327],[42.80885,17.95554],[42.81717,18.01227],[42.79489,18.00804],[42.78579,18.01034],[42.75781,18.03332],[42.75211,18.04803],[42.75539,18.07473],[42.76095,18.08072],[42.75324,18.091],[42.73694,18.09951],[42.72056,18.09986],[42.70384,18.09289],[42.69513,18.10056],[42.69583,18.12356],[42.70642,18.16767],[42.69071,18.18965],[42.67288,18.20385],[42.67188,18.21541],[42.68714,18.21292],[42.69972,18.23224],[42.68654,18.24397],[42.67912,18.23405],[42.67074,18.23346],[42.6421,18.25516],[42.63167,18.26842],[42.63243,18.28936],[42.62923,18.29511],[42.60948,18.29787],[42.59862,18.29073],[42.59563,18.30073],[42.59734,18.32427],[42.60905,18.33899],[42.61588,18.36163],[42.62235,18.36841],[42.63086,18.36398],[42.63351,18.37921],[42.6149,18.38952],[42.62515,18.40562],[42.6223,18.41411],[42.62633,18.43214],[42.63191,18.44284],[42.64587,18.43658],[42.65981,18.44044],[42.66674,18.44845],[42.67601,18.4492],[42.71013,18.39824],[42.71884,18.39767],[42.72126,18.40994],[42.71712,18.42194],[42.69728,18.45449],[42.71056,18.46777],[42.69956,18.47106],[42.701,18.48161],[42.684,18.48333],[42.66429,18.4779],[42.65474,18.48818],[42.6396,18.49732],[42.62805,18.49789],[42.6149,18.5066],[42.60833,18.5046],[42.6032,18.47762],[42.5902,18.47162],[42.58506,18.44635],[42.57564,18.44392],[42.55469,18.45116],[42.54139,18.46921],[42.52206,18.48481],[42.50371,18.50612],[42.48769,18.53845],[42.49565,18.57074],[42.50613,18.57374],[42.51553,18.59306],[42.53842,18.61007],[42.51816,18.61703],[42.51584,18.63545],[42.51816,18.65446],[42.51553,18.67967],[42.53193,18.70101],[42.54631,18.70859],[42.5497,18.71725],[42.5494,18.74293],[42.56827,18.7471],[42.5709,18.76427],[42.55775,18.78592],[42.55822,18.80758],[42.5743,18.81963],[42.56038,18.84764],[42.56038,18.8662],[42.55481,18.88043],[42.53355,18.89704],[42.52776,18.90759],[42.52676,18.92114],[42.53827,18.95003],[42.52651,18.96286],[42.52558,18.96998],[42.55134,18.99456],[42.57649,19.01405],[42.5595,19.0342],[42.55083,19.03985],[42.53536,19.05455],[42.50465,19.06213],[42.47863,19.06511],[42.45486,19.08534],[42.43156,19.08426],[42.43013,19.06428],[42.42371,19.06071],[42.408,19.06642],[42.403,19.05642],[42.38801,19.04286],[42.3823,19.03215],[42.35446,19.03929],[42.32691,19.03516],[42.31949,19.02183],[42.30332,19.00475],[42.28609,18.96991],[42.27765,18.96844],[42.26555,18.95304],[42.24978,18.94021],[42.24392,18.92151],[42.22742,18.90464],[42.21312,18.88631],[42.20761,18.87384],[42.20761,18.85624],[42.19955,18.84193],[42.18231,18.82983],[42.17865,18.8236],[42.1652,18.82267],[42.15923,18.81376],[42.17018,18.80812],[42.16947,18.78514],[42.18708,18.77829],[42.18757,18.76197],[42.17779,18.73736],[42.16624,18.72607],[42.16373,18.71151],[42.17,18.70598],[42.19637,18.69845],[42.20073,18.68763],[42.20572,18.66033],[42.19865,18.63749],[42.17575,18.60853],[42.18092,18.5862],[42.19128,18.58303],[42.21101,18.58312],[42.23586,18.58655],[42.24556,18.5787],[42.26927,18.5807],[42.29653,18.57541],[42.30709,18.56984],[42.32808,18.57227],[42.34907,18.57127],[42.35349,18.56742],[42.35935,18.54272],[42.37919,18.52974],[42.41203,18.51188],[42.43758,18.5066],[42.45072,18.51031],[42.45272,18.51873],[42.46768,18.5138],[42.47179,18.4966],[42.47389,18.45884],[42.48076,18.45261],[42.47367,18.44316],[42.45048,18.42422],[42.4452,18.41066],[42.43006,18.40666],[42.41479,18.42893],[42.40008,18.42422],[42.39309,18.43607],[42.37053,18.4395],[42.36268,18.43222],[42.34439,18.43978],[42.3297,18.43279],[42.32043,18.41194],[42.31969,18.3734],[42.31144,18.359],[42.32186,18.32065],[42.3323,18.31151],[42.31548,18.29013],[42.3351,18.28137],[42.35041,18.27139],[42.35164,18.24085],[42.35562,18.22144],[42.35702,18.1431],[42.3641,18.12967],[42.36827,18.10935],[42.3639,18.09865],[42.34668,18.0961],[42.33616,18.09085],[42.33328,18.07737],[42.33813,18.03783],[42.3477,17.99871],[42.36331,17.98562],[42.36727,17.95326],[42.36353,17.94433],[42.33854,17.94354],[42.31749,17.94931],[42.31365,17.94546],[42.32292,17.92001],[42.32496,17.90812],[42.33865,17.87035],[42.35352,17.83794],[42.35833,17.83216],[42.37095,17.83124],[42.37469,17.8214],[42.37521,17.79709],[42.37996,17.78017],[42.38948,17.77594],[42.39423,17.7622],[42.40216,17.75269],[42.41696,17.74634],[42.4307,17.72309],[42.44286,17.72784],[42.45555,17.74],[42.44973,17.77753],[42.44233,17.78493],[42.44392,17.80924],[42.45766,17.81664],[42.46823,17.80131],[42.4862,17.79867],[42.49888,17.8029],[42.50951,17.81122],[42.52355,17.80202],[42.55306,17.80012],[42.57704,17.80184],[42.60274,17.80602],[42.6115,17.79574],[42.62292,17.79288],[42.62844,17.7845],[42.67126,17.78032],[42.69049,17.76871],[42.70854,17.77089],[42.71451,17.77758],[42.73838,17.76823],[42.77206,17.76355],[42.77566,17.76985],[42.79736,17.77176],[42.80631,17.78546],[42.82668,17.77804],[42.84,17.78299],[42.84172,17.79308],[42.85047,17.79783],[42.86539,17.7851]]],[[[43.39382,18.74193],[43.37162,18.72975],[43.35182,18.72918],[43.33583,18.71319],[43.31892,18.68252],[43.31667,18.67185],[43.2953,18.6603],[43.29411,18.65314],[43.31504,18.63291],[43.32894,18.6324],[43.32677,18.62077],[43.31,18.61077],[43.29429,18.61113],[43.27074,18.60185],[43.25932,18.59471],[43.26003,18.58536],[43.28148,18.57503],[43.27976,18.55139],[43.26987,18.52732],[43.27675,18.44522],[43.2703,18.41384],[43.25283,18.37598],[43.27576,18.37334],[43.28588,18.38147],[43.30244,18.36134],[43.3267,18.37952],[43.33912,18.38229],[43.34381,18.3912],[43.36983,18.39619],[43.37902,18.40529],[43.38231,18.37853],[43.38043,18.36773],[43.39216,18.35083],[43.39531,18.32626],[43.40567,18.31203],[43.4007,18.30077],[43.4012,18.28922],[43.41092,18.26581],[43.42924,18.26376],[43.44649,18.26862],[43.46109,18.28013],[43.45711,18.29074],[43.45799,18.30357],[43.47746,18.31021],[43.49073,18.32039],[43.48631,18.33366],[43.48985,18.34649],[43.51374,18.35312],[43.53011,18.37215],[43.52878,18.39161],[43.53365,18.40666],[43.53152,18.41297],[43.52074,18.41241],[43.50559,18.43251],[43.49925,18.43653],[43.49074,18.4237],[43.48095,18.43787],[43.48095,18.4559],[43.48667,18.46982],[43.48249,18.48158],[43.47012,18.49503],[43.46409,18.51668],[43.47182,18.53354],[43.47352,18.54514],[43.48512,18.56076],[43.48203,18.56942],[43.45574,18.57932],[43.44321,18.59742],[43.43145,18.62232],[43.43068,18.64072],[43.4246,18.64695],[43.41184,18.67355],[43.40299,18.70871],[43.394,18.7321],[43.39382,18.74193]]],[[[41.78909,17.88531],[41.79056,17.89337],[41.80611,17.93184],[41.80645,17.95941],[41.80066,17.98018],[41.78979,18.00149],[41.79752,18.02171],[41.81004,18.03129],[41.82842,18.0514],[41.84083,18.06072],[41.85109,18.07748],[41.85172,18.09361],[41.84383,18.13105],[41.842,18.14855],[41.83217,18.18527],[41.80955,18.20746],[41.80866,18.21938],[41.80177,18.22431],[41.79942,18.24174],[41.79286,18.24919],[41.79197,18.27154],[41.772,18.30194],[41.76723,18.32608],[41.75591,18.338],[41.75631,18.34337],[41.7453,18.34821],[41.73017,18.34034],[41.73037,18.32904],[41.7225,18.31552],[41.70919,18.30967],[41.70878,18.29959],[41.69567,18.2901],[41.69728,18.27457],[41.688,18.27013],[41.6876,18.26125],[41.69345,18.24471],[41.69002,18.21788],[41.69486,18.2094],[41.68719,18.19871],[41.6763,18.19326],[41.67993,18.18398],[41.67529,18.16925],[41.68134,18.15412],[41.65612,18.14605],[41.64684,18.13274],[41.64624,18.11861],[41.65834,18.09783],[41.65128,18.07786],[41.63877,18.06394],[41.62509,18.05784],[41.63176,18.04888],[41.64054,18.05341],[41.64621,18.03852],[41.63922,18.03499],[41.65058,18.01625],[41.63407,18.01567],[41.63733,17.99941],[41.64665,17.99079],[41.66225,18.00241],[41.67225,17.99112],[41.65994,17.98533],[41.6767,17.96646],[41.69031,17.9573],[41.68161,17.94861],[41.69654,17.94017],[41.7163,17.91326],[41.72883,17.90417],[41.74631,17.90935],[41.7818,17.87572],[41.78909,17.88531]]],[[[43.30313,17.52843],[43.31022,17.52767],[43.33589,17.53983],[43.35443,17.5561],[43.35018,17.57401],[43.34151,17.595],[43.32227,17.6148],[43.29646,17.6146],[43.28002,17.61556],[43.26841,17.60922],[43.25741,17.61103],[43.24067,17.60847],[43.23072,17.62098],[43.21384,17.6151],[43.16665,17.60606],[43.16612,17.59876],[43.1708,17.6001],[43.18618,17.57112],[43.1839,17.54866],[43.16848,17.53743],[43.15439,17.51344],[43.15468,17.50371],[43.16509,17.49363],[43.17468,17.49214],[43.2024,17.49391],[43.21328,17.48604],[43.22665,17.48553],[43.24627,17.49493],[43.22602,17.5151],[43.22679,17.53061],[43.25019,17.53837],[43.26261,17.51639],[43.27126,17.51032],[43.27863,17.51407],[43.28069,17.52609],[43.30034,17.53514],[43.30313,17.52843]]],[[[41.6808,17.9485],[41.67956,17.95482],[41.67396,17.9585],[41.6711,17.95596],[41.6808,17.9485]]],[[[41.69525,17.89013],[41.69621,17.89179],[41.69341,17.89286],[41.69525,17.89013]]],[[[41.42659,17.78362],[41.43656,17.78568],[41.43446,17.78957],[41.42659,17.78362]]],[[[41.16941,17.82629],[41.16969,17.82783],[41.16727,17.82734],[41.16941,17.82629]]],[[[41.0278,17.66405],[41.02782,17.66586],[41.0262,17.66536],[41.0278,17.66405]]],[[[41.0256,17.68339],[41.02562,17.68519],[41.02373,17.68469],[41.0256,17.68339]]]]}}