{"type":"Feature","properties":{"id":"PNG.16","name":"Morobe","level":1,"country":"PNG"},"geometry":{"type":"MultiPolygon","coordinates":[[[[146.79339,-5.81618],[146.48034,-5.99875],[145.86787,-5.99633],[145.93505,-6.0896],[146.11339,-6.199],[146.12874,-6.24913],[146.03918,-6.67499],[145.99107,-6.74987],[146.01923,-6.84707],[146.01531,-6.88377],[145.93226,-6.98474],[145.84632,-7.23682],[146.03313,-7.44115],[146.09551,-7.53644],[146.12114,-7.54729],[146.41099,-7.62672],[146.6256,-7.77115],[146.70813,-7.82676],[146.72462,-7.92675],[146.74213,-7.95874],[146.81769,-7.9854],[146.87851,-7.98303],[146.93592,-8.00659],[146.99178,-8.00018],[147.97738,-8.00406],[147.87648,-7.93719],[147.72682,-7.93206],[147.70582,-7.9039],[147.68336,-7.81072],[147.60694,-7.8165],[147.58131,-7.70371],[147.51295,-7.68759],[147.48732,-7.61631],[147.3545,-7.51531],[147.23015,-7.48691],[147.16188,-7.39056],[147.14137,-7.32293],[147.14137,-7.21307],[147.0691,-7.14617],[147.05828,-7.05486],[146.95623,-6.95468],[146.94215,-6.83571],[146.97731,-6.74041],[147.04444,-6.73593],[147.13209,-6.71103],[147.19484,-6.73854],[147.3506,-6.747],[147.43621,-6.73333],[147.5031,-6.75498],[147.56528,-6.75384],[147.60011,-6.72715],[147.77565,-6.71787],[147.85402,-6.69101],[147.86069,-6.57936],[147.84995,-6.52679],[147.86752,-6.47633],[147.82667,-6.37762],[147.82667,-6.33538],[147.72625,-6.27223],[147.67465,-6.17425],[147.62176,-6.10662],[147.5114,-6.00026],[147.44907,-5.9616],[147.3436,-5.93076],[147.28907,-5.93133],[147.24383,-5.96608],[147.13282,-5.9577],[147.08229,-5.92604],[147.04225,-5.93865],[146.95582,-5.89039],[146.93287,-5.84197],[146.86948,-5.82513],[146.81276,-5.83856],[146.79339,-5.81618]]],[[[148.04916,-5.60613],[147.94956,-5.54778],[147.90943,-5.54119],[147.84718,-5.48642],[147.78191,-5.49529],[147.76735,-5.52125],[147.76905,-5.61175],[147.85475,-5.70973],[147.89576,-5.77068],[147.97739,-5.7942],[147.9861,-5.84344],[148.02459,-5.84197],[148.06764,-5.74684],[148.07749,-5.65781],[148.04916,-5.60613]]],[[[148.10035,-5.37656],[148.07838,-5.39666],[148.09132,-5.45664],[148.14649,-5.41961],[148.10035,-5.37656]]],[[[147.60694,-5.2872],[147.56202,-5.30779],[147.60011,-5.36289],[147.6478,-5.32122],[147.60694,-5.2872]]]]}}