{"type":"Feature","properties":{"id":"PAK.6.23","name":"Rahim Yar Khan","level":2,"country":"PAK"},"geometry":{"type":"Polygon","coordinates":[[[70.11141,27.8335],[70.12521,27.8521],[70.21895,27.93227],[70.27641,27.9897],[70.36259,28.01506],[70.39585,28.03108],[70.44121,28.03241],[70.48354,28.0204],[70.58031,27.94964],[70.59996,27.90556],[70.60298,27.83873],[70.63171,27.79995],[70.65741,27.74109],[70.70277,27.71164],[70.86153,27.70897],[70.9084,27.73841],[70.9719,27.76116],[71.03389,27.79995],[71.06599,27.80658],[71.0619,27.84434],[71.03047,27.88029],[71.02862,27.96931],[71.02308,28.00196],[71.00644,28.02399],[70.99535,28.07865],[70.97501,28.0868],[70.96762,28.11697],[70.94543,28.13572],[70.94359,28.33117],[70.93896,28.39379],[70.94359,28.44257],[70.91261,28.45005],[70.89822,28.48899],[70.91791,28.54122],[70.93987,28.57049],[70.9359,28.64475],[70.94418,28.70081],[70.97021,28.71378],[70.99387,28.74283],[71.00038,28.78172],[71.02404,28.79468],[71.03173,28.8491],[71.0264,29.05098],[70.98854,29.03599],[70.94891,29.04064],[70.91342,29.07219],[70.91223,29.13111],[70.89626,29.18122],[70.87763,29.18428],[70.84479,29.16521],[70.83237,29.13421],[70.80516,29.11147],[70.77381,29.10579],[70.7602,29.08614],[70.76907,29.06236],[70.76552,29.0184],[70.74245,29.00961],[70.69276,29.00857],[70.66673,29.02719],[70.64899,29.05667],[70.60107,29.03702],[70.59989,28.99305],[70.54369,28.98063],[70.51884,28.94647],[70.49214,28.9444],[70.43501,28.91339],[70.36223,28.90845],[70.37408,28.88968],[70.37239,28.80815],[70.35208,28.78837],[70.31823,28.79134],[70.30581,28.80617],[70.26576,28.80073],[70.25617,28.75623],[70.18903,28.71962],[70.14616,28.71665],[70.11513,28.73891],[70.06492,28.72853],[70.04856,28.69834],[70.07169,28.65825],[70.06605,28.56911],[70.04066,28.55325],[70.02994,28.51558],[69.98275,28.51473],[69.96326,28.50394],[69.93509,28.44681],[69.88382,28.443],[69.83111,28.41919],[69.78633,28.41411],[69.77177,28.39487],[69.78956,28.38283],[69.80764,28.27762],[69.83492,28.24573],[69.83946,28.21776],[69.84248,28.10312],[69.85911,28.06844],[69.91052,28.03775],[69.94529,28.00572],[69.9589,27.9483],[70.00879,27.90556],[70.05415,27.87749],[70.0859,27.87482],[70.11141,27.8335]]]}}