{"type":"Feature","properties":{"id":"PAK.1.3","name":"Kachhi","level":2,"country":"PAK"},"geometry":{"type":"Polygon","coordinates":[[[67.31633,28.65435],[67.40614,28.67056],[67.46608,28.69897],[67.50466,28.69353],[67.54186,28.67479],[67.57699,28.68084],[67.58939,28.72132],[67.58112,28.74005],[67.59697,28.77025],[67.63072,28.79198],[67.7189,28.79742],[67.74646,28.79077],[67.76093,28.74971],[67.74508,28.72253],[67.75128,28.69474],[67.79262,28.65122],[67.80157,28.58772],[67.83922,28.55365],[67.88906,28.56715],[67.98895,28.58228],[67.99584,28.64033],[67.97655,28.67781],[68.00273,28.70682],[68.04475,28.70924],[68.09298,28.69292],[68.11847,28.70199],[68.15084,28.73461],[68.19424,28.75756],[68.25625,28.76843],[68.30378,28.7956],[68.3086,28.81613],[68.27553,28.85354],[68.25969,28.89155],[68.28311,28.89336],[68.35889,28.93798],[68.42916,28.94039],[68.45327,28.95384],[68.37801,29.05968],[68.33366,29.08681],[68.32627,29.1191],[68.33514,29.14363],[68.38245,29.15913],[68.4401,29.1191],[68.48444,29.11652],[68.5092,29.13733],[68.42827,29.1901],[68.35194,29.21668],[68.23557,29.30252],[68.21478,29.30789],[68.18164,29.27447],[68.14002,29.27281],[68.07285,29.30747],[67.9877,29.28437],[67.94229,29.29509],[67.93661,29.34294],[67.92242,29.36355],[67.91959,29.39982],[67.86471,29.41548],[67.86282,29.48057],[67.83728,29.51103],[67.82971,29.55055],[67.80322,29.55631],[67.69915,29.61472],[67.68685,29.62705],[67.59887,29.63692],[67.57806,29.65255],[67.55441,29.69775],[67.55819,29.73555],[67.54968,29.80043],[67.50994,29.84147],[67.50332,29.87593],[67.46548,29.88003],[67.42486,29.90535],[67.40673,29.89454],[67.3447,29.92753],[67.25871,29.92875],[67.20091,29.90065],[67.19104,29.84319],[67.19668,29.81507],[67.22064,29.77837],[67.23051,29.71962],[67.31651,29.69145],[67.32355,29.66206],[67.30664,29.61917],[67.2432,29.5542],[67.23756,29.49777],[67.20572,29.44693],[67.23479,29.43566],[67.27415,29.43724],[67.29473,29.45675],[67.33106,29.46413],[67.34862,29.47941],[67.37647,29.47467],[67.38919,29.39082],[67.41946,29.38238],[67.47038,29.32036],[67.50291,29.31263],[67.52413,29.25301],[67.52508,29.08614],[67.5194,29.06795],[67.43993,29.00922],[67.43426,28.94301],[67.36614,28.89581],[67.3756,28.8403],[67.36046,28.80963],[67.29385,28.78489],[67.30005,28.71649],[67.31039,28.7044],[67.31633,28.65435]]]}}