{"type":"Feature","properties":{"id":"PAK.1.12","name":"Sibi","level":2,"country":"PAK"},"geometry":{"type":"Polygon","coordinates":[[[67.32079,30.20047],[67.35598,30.13745],[67.3743,30.12892],[67.46312,30.12282],[67.48003,30.11672],[67.50259,30.06916],[67.504,30.01668],[67.49131,29.98616],[67.44338,29.94341],[67.42486,29.90535],[67.46548,29.88003],[67.50332,29.87593],[67.50994,29.84147],[67.54968,29.80043],[67.55819,29.73555],[67.55441,29.69775],[67.57806,29.65255],[67.59887,29.63692],[67.68685,29.62705],[67.69915,29.61472],[67.80322,29.55631],[67.82971,29.55055],[67.83728,29.51103],[67.86282,29.48057],[67.86471,29.41548],[67.91959,29.39982],[67.92242,29.36355],[67.93661,29.34294],[67.94229,29.29509],[67.9877,29.28437],[68.07285,29.30747],[68.14002,29.27281],[68.18164,29.27447],[68.21478,29.30789],[68.16745,29.34789],[68.16462,29.39405],[68.19111,29.42043],[68.22611,29.48468],[68.26301,29.52174],[68.2526,29.55055],[68.20719,29.57359],[68.18637,29.60156],[68.09366,29.60403],[68.03784,29.60978],[68.00852,29.64103],[68.0719,29.73966],[68.13623,29.79878],[68.16272,29.8152],[68.22706,29.82423],[68.30085,29.87428],[68.3368,29.87593],[68.45446,29.96081],[68.42384,29.9989],[68.3595,30.0415],[68.28193,30.0767],[68.26395,30.09062],[68.24219,30.13154],[68.19584,30.15281],[68.15894,30.18226],[68.14664,30.21006],[68.07663,30.22232],[68.02271,30.27054],[67.9773,30.29097],[67.94986,30.29342],[67.91675,30.31792],[67.81952,30.31874],[67.8019,30.28152],[67.73802,30.25298],[67.70277,30.25108],[67.68735,30.23014],[67.62568,30.23776],[67.60365,30.26059],[67.5618,30.28532],[67.48911,30.26439],[67.401,30.30244],[67.36135,30.29673],[67.33806,30.2829],[67.34814,30.25678],[67.33933,30.20921],[67.32079,30.20047]]]}}