{"type":"Feature","properties":{"id":"GNB.5.2","name":"Setor de Nhacra","level":2,"country":"GNB"},"geometry":{"type":"Polygon","coordinates":[[[-15.62361,12.15023],[-15.62513,12.13756],[-15.62243,12.12635],[-15.64011,12.11775],[-15.65454,12.115],[-15.66163,12.10572],[-15.66246,12.08308],[-15.65381,12.07571],[-15.65875,12.06718],[-15.67231,12.06306],[-15.66796,12.04342],[-15.67509,12.03317],[-15.67694,12.02707],[-15.66324,12.02896],[-15.65177,12.02598],[-15.64383,12.02204],[-15.63762,12.01317],[-15.63825,12.00003],[-15.63134,11.99137],[-15.62502,11.98912],[-15.62477,11.98348],[-15.61853,11.97983],[-15.6184,11.97237],[-15.62565,11.96909],[-15.62363,11.96114],[-15.61535,11.95325],[-15.60969,11.93825],[-15.60024,11.93592],[-15.59625,11.94506],[-15.58122,11.93608],[-15.57471,11.9299],[-15.5705,11.92074],[-15.56232,11.91125],[-15.55813,11.90185],[-15.554,11.89906],[-15.54284,11.89723],[-15.53975,11.89462],[-15.52438,11.83406],[-15.47315,11.88783],[-15.4521,11.9031],[-15.4346,11.91008],[-15.38418,11.91417],[-15.39316,11.96577],[-15.40269,11.99806],[-15.42802,12.02483],[-15.43516,12.03662],[-15.44601,12.0452],[-15.45249,12.04506],[-15.45904,12.05334],[-15.45627,12.06001],[-15.45106,12.06445],[-15.4408,12.05994],[-15.43514,12.06313],[-15.43634,12.07242],[-15.42813,12.0751],[-15.42877,12.0903],[-15.42087,12.09809],[-15.42135,12.10656],[-15.42697,12.11571],[-15.42268,12.12476],[-15.42216,12.13551],[-15.44297,12.14897],[-15.44678,12.16094],[-15.46535,12.18112],[-15.46888,12.20608],[-15.49185,12.21727],[-15.55749,12.19721],[-15.55367,12.15957],[-15.56809,12.14904],[-15.5758,12.14848],[-15.58842,12.15944],[-15.61315,12.15598],[-15.62361,12.15023]]]}}