{"type":"Feature","properties":{"id":"HND.10.4","name":"Pimienta","level":2,"country":"HND"},"geometry":{"type":"Polygon","coordinates":[[[-87.94588,15.3031],[-87.98275,15.29258],[-87.99404,15.29878],[-88.00216,15.29968],[-88.02004,15.28523],[-88.01471,15.27391],[-88.00978,15.27097],[-88.01442,15.2601],[-88.01656,15.24138],[-88.00744,15.23536],[-87.97008,15.253],[-87.93826,15.24979],[-87.93238,15.26033],[-87.93288,15.27352],[-87.91973,15.2718],[-87.91372,15.27322],[-87.91111,15.2851],[-87.91317,15.28868],[-87.9282,15.29269],[-87.92405,15.302],[-87.93026,15.3067],[-87.94588,15.3031]]]}}