{"type":"Feature","properties":{"id":"HND.14.16","name":"San Agustin","level":2,"country":"HND"},"geometry":{"type":"Polygon","coordinates":[[[-88.93913,14.87109],[-88.93924,14.87106],[-88.95823,14.86603],[-88.95962,14.82323],[-88.98097,14.79864],[-88.96839,14.78804],[-88.95904,14.78798],[-88.95444,14.79481],[-88.94664,14.79623],[-88.93978,14.79247],[-88.92617,14.76118],[-88.92018,14.75814],[-88.91212,14.7463],[-88.89524,14.75498],[-88.90032,14.77982],[-88.89921,14.80588],[-88.90565,14.83324],[-88.90596,14.84103],[-88.91801,14.87075],[-88.93913,14.87109]]]}}