{"type":"Feature","properties":{"id":"HND.6.21","name":"La Union","level":2,"country":"HND"},"geometry":{"type":"Polygon","coordinates":[[[-86.6276,14.92641],[-86.5734,14.92594],[-86.56027,14.94314],[-86.56052,14.96749],[-86.55301,15.0102],[-86.57699,15.01315],[-86.57865,15.03049],[-86.58177,15.03682],[-86.58344,15.07018],[-86.59038,15.07616],[-86.59277,15.08389],[-86.60377,15.08461],[-86.60726,15.09263],[-86.60804,15.10635],[-86.61514,15.11348],[-86.62408,15.11657],[-86.62258,15.14712],[-86.62342,15.15649],[-86.64868,15.18163],[-86.64502,15.20294],[-86.65929,15.20628],[-86.66532,15.22661],[-86.66469,15.24662],[-86.66109,15.26203],[-86.65693,15.26407],[-86.66401,15.28459],[-86.70154,15.26419],[-86.72104,15.26774],[-86.73227,15.26379],[-86.75476,15.2709],[-86.76255,15.28802],[-86.77662,15.29512],[-86.77822,15.29025],[-86.78373,15.14858],[-86.78916,15.14194],[-86.79249,15.10272],[-86.77307,15.06787],[-86.75761,15.01784],[-86.74556,15.0168],[-86.71543,14.99869],[-86.69967,14.99526],[-86.69514,14.98428],[-86.70044,14.97029],[-86.68207,14.95544],[-86.66539,14.93687],[-86.65087,14.92754],[-86.6276,14.92641]]]}}