{"type":"Feature","properties":{"id":"HND.12.13","name":"Chinacla","level":2,"country":"HND"},"geometry":{"type":"Polygon","coordinates":[[[-87.88018,14.18713],[-87.89376,14.2032],[-87.89793,14.19783],[-87.90988,14.19714],[-87.9187,14.2036],[-87.95331,14.20208],[-87.96128,14.20476],[-87.98364,14.20107],[-87.98587,14.21686],[-87.99318,14.22217],[-88.0047,14.22457],[-88.01245,14.23032],[-88.01312,14.22308],[-88.00933,14.21475],[-88.01437,14.21129],[-88.01316,14.19681],[-87.99409,14.15509],[-87.98003,14.1485],[-87.97729,14.16618],[-87.95224,14.16359],[-87.94998,14.13591],[-87.94311,14.13191],[-87.94116,14.14311],[-87.93408,14.15511],[-87.93311,14.16127],[-87.92351,14.16716],[-87.92219,14.17404],[-87.90476,14.18426],[-87.90009,14.17919],[-87.88062,14.17716],[-87.88018,14.18713]]]}}