{"type":"Feature","properties":{"id":"ARG.23.11","name":"San Pedro","level":2,"country":"ARG"},"geometry":{"type":"Polygon","coordinates":[[[-54.26793,-26.64061],[-54.19469,-26.66477],[-54.21167,-26.68243],[-54.21657,-26.6941],[-54.24525,-26.69925],[-54.24569,-26.72055],[-54.2587,-26.73738],[-54.24172,-26.78319],[-54.2414,-26.79147],[-54.2456,-26.80097],[-54.14339,-26.74369],[-54.14618,-26.75596],[-54.13724,-26.75702],[-54.13531,-26.77068],[-54.1378,-26.77869],[-54.12761,-26.80594],[-54.1047,-26.80805],[-54.10807,-26.81211],[-54.1088,-26.83098],[-54.10209,-26.83817],[-54.09287,-26.8342],[-54.08548,-26.84008],[-54.10333,-26.84892],[-54.09712,-26.85768],[-54.08124,-26.86045],[-54.0842,-26.8701],[-54.07539,-26.87937],[-54.07005,-26.86985],[-54.05067,-26.87528],[-54.05481,-26.8843],[-54.05294,-26.89425],[-54.03871,-26.89003],[-54.03717,-26.90129],[-54.02894,-26.8953],[-54.02106,-26.91512],[-54.01413,-26.92735],[-54.02495,-26.93046],[-54.034,-26.92937],[-54.0329,-26.93937],[-54.02773,-26.94147],[-54.01971,-26.95472],[-54.02316,-26.96481],[-54.03334,-26.97418],[-54.02274,-26.98425],[-54.01467,-26.97685],[-54.00335,-26.97453],[-53.9972,-26.98024],[-54.00455,-26.98623],[-53.99749,-26.99465],[-54.00505,-27.00226],[-54.01583,-26.99823],[-54.02001,-27.00389],[-54.00306,-27.01732],[-53.98959,-27.0075],[-53.97983,-27.00925],[-53.98217,-27.01919],[-53.97147,-27.02028],[-53.97099,-27.04021],[-53.95962,-27.0354],[-53.94304,-27.02083],[-53.93834,-27.02354],[-53.93916,-27.03888],[-53.94731,-27.05099],[-53.93029,-27.04935],[-53.92333,-27.03147],[-53.91872,-27.03263],[-53.9173,-27.04775],[-53.9119,-27.05646],[-53.89405,-27.04406],[-53.89351,-27.05898],[-53.90327,-27.06464],[-53.90211,-27.07369],[-53.89244,-27.07904],[-53.90733,-27.08604],[-53.90488,-27.08986],[-53.88187,-27.09552],[-53.87966,-27.09983],[-53.89432,-27.10872],[-53.909,-27.10461],[-53.91928,-27.11886],[-53.90133,-27.1194],[-53.90218,-27.12854],[-53.91151,-27.1352],[-53.93442,-27.13083],[-53.9337,-27.15623],[-53.9285,-27.15941],[-53.91566,-27.17543],[-53.90383,-27.17557],[-53.89745,-27.16996],[-53.88802,-27.15392],[-53.88454,-27.13513],[-53.87832,-27.12748],[-53.86924,-27.12513],[-53.86124,-27.1285],[-53.84746,-27.15794],[-53.8367,-27.16966],[-53.83257,-27.16461],[-53.83693,-27.15417],[-53.82793,-27.14575],[-53.82102,-27.14439],[-53.79887,-27.14644],[-53.79904,-27.13656],[-53.81795,-27.13998],[-53.82469,-27.13236],[-53.80444,-27.12267],[-53.80697,-27.11087],[-53.81767,-27.10433],[-53.81191,-27.09784],[-53.80512,-27.10693],[-53.79543,-27.11037],[-53.77628,-27.1017],[-53.80182,-27.08599],[-53.8054,-27.07861],[-53.7974,-27.06608],[-53.79022,-27.07401],[-53.78474,-27.07138],[-53.79701,-27.06006],[-53.80218,-27.04009],[-53.79154,-27.04292],[-53.78364,-27.05521],[-53.76726,-27.06773],[-53.75928,-27.06054],[-53.77628,-27.04987],[-53.7786,-27.03882],[-53.76616,-27.04422],[-53.75938,-27.03425],[-53.74725,-27.03218],[-53.74965,-27.02173],[-53.75863,-27.01773],[-53.76352,-27.00839],[-53.75271,-27.00497],[-53.74033,-27.0146],[-53.73174,-27.00439],[-53.74208,-26.99583],[-53.74025,-26.99038],[-53.72476,-26.99406],[-53.71787,-26.98438],[-53.73179,-26.97953],[-53.72608,-26.95882],[-53.71205,-26.96542],[-53.70318,-26.96018],[-53.70095,-26.95337],[-53.70888,-26.94136],[-53.70904,-26.93409],[-53.6945,-26.93676],[-53.68401,-26.94384],[-53.6733,-26.94046],[-53.69333,-26.93312],[-53.69529,-26.9261],[-53.68142,-26.91619],[-53.67939,-26.90243],[-53.67409,-26.89268],[-53.69049,-26.89035],[-53.69561,-26.88689],[-53.68955,-26.87458],[-53.67441,-26.8611],[-53.6641,-26.86429],[-53.66017,-26.85839],[-53.67174,-26.85229],[-53.67657,-26.84399],[-53.68862,-26.84777],[-53.68841,-26.83777],[-53.69727,-26.83001],[-53.70406,-26.81519],[-53.69716,-26.81226],[-53.70162,-26.79697],[-53.70864,-26.7981],[-53.71704,-26.78211],[-53.70883,-26.77392],[-53.73022,-26.77381],[-53.72876,-26.76518],[-53.71829,-26.75938],[-53.7141,-26.75069],[-53.72866,-26.74039],[-53.7501,-26.74071],[-53.74272,-26.73108],[-53.75795,-26.72029],[-53.73444,-26.71702],[-53.73267,-26.70147],[-53.74152,-26.69119],[-53.72505,-26.69137],[-53.71666,-26.68315],[-53.72222,-26.67899],[-53.72656,-26.66715],[-53.71903,-26.65916],[-53.73295,-26.6537],[-53.73469,-26.64555],[-53.74522,-26.64757],[-53.75668,-26.64417],[-53.75094,-26.63524],[-53.73983,-26.64408],[-53.74068,-26.62978],[-53.72925,-26.62019],[-53.73462,-26.6073],[-53.72194,-26.58061],[-53.72206,-26.56213],[-53.72785,-26.54977],[-53.73947,-26.54776],[-53.73165,-26.53885],[-53.7231,-26.54233],[-53.72223,-26.52732],[-53.72687,-26.52519],[-53.73092,-26.51029],[-53.72892,-26.50082],[-53.71975,-26.50727],[-53.70889,-26.50113],[-53.70237,-26.4898],[-53.69594,-26.49044],[-53.70219,-26.47343],[-53.71059,-26.46621],[-53.69897,-26.46307],[-53.73076,-26.46089],[-53.77757,-26.38066],[-53.76915,-26.3731],[-53.76799,-26.35724],[-53.76362,-26.3475],[-53.75557,-26.33962],[-53.75221,-26.32571],[-54.1793,-26.33041],[-54.17799,-26.44822],[-54.26867,-26.4483],[-54.26853,-26.48383],[-54.26793,-26.64061]]]}}