{"type":"Feature","properties":{"id":"ARG.7.12","name":"Bragado","level":2,"country":"ARG"},"geometry":{"type":"Polygon","coordinates":[[[-60.5279,-35.41018],[-60.32252,-35.22955],[-60.3158,-35.22362],[-60.35393,-35.19437],[-60.33863,-35.18056],[-60.36516,-35.16003],[-60.32914,-35.12786],[-60.3626,-35.1023],[-60.36679,-35.10576],[-60.38908,-35.08838],[-60.40032,-35.07717],[-60.43222,-35.0391],[-60.43931,-35.03568],[-60.43549,-35.01622],[-60.44257,-35.01069],[-60.45515,-35.00835],[-60.47155,-34.99999],[-60.48029,-34.98966],[-60.48875,-34.97432],[-60.4836,-34.96159],[-60.47347,-34.9485],[-60.47596,-34.94077],[-60.46725,-34.93554],[-60.45127,-34.91867],[-60.44768,-34.89486],[-60.45511,-34.87399],[-60.45421,-34.8646],[-60.45997,-34.86221],[-60.47253,-34.85636],[-60.47905,-34.84767],[-60.49007,-34.84453],[-60.49443,-34.83858],[-60.50486,-34.83813],[-60.51982,-34.84194],[-60.52863,-34.84112],[-60.52739,-34.83003],[-60.53301,-34.82456],[-60.54868,-34.82154],[-60.55815,-34.82943],[-60.56908,-34.82026],[-60.58672,-34.81704],[-60.58982,-34.80605],[-60.59678,-34.79915],[-60.60137,-34.78653],[-60.61867,-34.76358],[-60.62886,-34.75587],[-60.62526,-34.74304],[-60.64775,-34.72765],[-60.65813,-34.70839],[-60.66813,-34.70381],[-60.6869,-34.70673],[-60.68075,-34.69283],[-60.68291,-34.66267],[-60.70448,-34.64982],[-60.71455,-34.64658],[-60.79594,-34.7167],[-60.76477,-34.74074],[-60.76706,-34.74618],[-60.81602,-34.78891],[-60.72542,-34.8606],[-60.84791,-34.96806],[-60.75468,-35.04078],[-60.87304,-35.14346],[-60.8695,-35.14605],[-60.84118,-35.16618],[-60.5279,-35.41018]]]}}