{"type":"Feature","properties":{"id":"ARG.16.25","name":"Choya","level":2,"country":"ARG"},"geometry":{"type":"Polygon","coordinates":[[[-64.62099,-28.16594],[-64.75739,-28.14179],[-64.76081,-28.15628],[-64.78328,-28.15175],[-64.78527,-28.16221],[-64.83201,-28.15272],[-64.85445,-28.24729],[-64.93777,-28.23088],[-64.94826,-28.27307],[-65.10904,-28.24092],[-65.10473,-28.32263],[-65.0969,-28.47101],[-65.12556,-28.61153],[-65.18462,-28.60057],[-65.18812,-28.61811],[-65.16927,-28.62636],[-65.16106,-28.63956],[-65.13652,-28.64688],[-65.1389,-28.65571],[-65.12718,-28.71615],[-65.01663,-28.73781],[-65.0113,-28.74851],[-65.00333,-28.75625],[-65.00083,-28.76612],[-64.98488,-28.77933],[-64.97727,-28.7892],[-64.96716,-28.79539],[-64.94241,-28.80336],[-64.92361,-28.81823],[-64.90113,-28.84131],[-64.8993,-28.85253],[-64.90694,-28.86988],[-64.91195,-28.88664],[-64.90172,-28.91434],[-64.9066,-28.93245],[-64.86365,-29.01608],[-64.86663,-29.03084],[-64.85984,-29.035],[-64.86365,-29.05987],[-64.85437,-29.07034],[-64.85413,-29.09127],[-64.85604,-29.10519],[-64.85271,-29.12661],[-64.85663,-29.14862],[-64.85259,-29.15481],[-64.85544,-29.17765],[-64.85449,-29.1974],[-64.8376,-29.22857],[-64.82594,-29.23499],[-64.80928,-29.25046],[-64.7812,-29.26545],[-64.79072,-29.27259],[-64.82475,-29.27378],[-64.83021,-29.27863],[-64.83842,-29.29802],[-64.84229,-29.31275],[-64.84259,-29.33374],[-64.83498,-29.34754],[-64.81666,-29.3661],[-64.81333,-29.37966],[-64.78929,-29.39894],[-64.78597,-29.4055],[-64.79229,-29.41814],[-64.79917,-29.43951],[-64.8207,-29.45724],[-64.82808,-29.48365],[-64.82784,-29.50245],[-64.83117,-29.51244],[-64.82927,-29.55075],[-64.82427,-29.56526],[-64.82463,-29.5743],[-64.58849,-29.53813],[-64.51364,-29.03444],[-64.51183,-29.0241],[-64.55902,-29.01582],[-64.53428,-28.8974],[-64.54492,-28.89566],[-64.53252,-28.83783],[-64.53505,-28.83716],[-64.52305,-28.78322],[-64.49793,-28.78755],[-64.49381,-28.7693],[-64.52351,-28.76411],[-64.5133,-28.71708],[-64.54258,-28.71193],[-64.53475,-28.6785],[-64.56679,-28.67279],[-64.55964,-28.63612],[-64.56385,-28.63526],[-64.54927,-28.56727],[-64.52348,-28.57193],[-64.51253,-28.52429],[-64.55421,-28.51621],[-64.54594,-28.47761],[-64.60049,-28.46764],[-64.5896,-28.41982],[-64.57488,-28.42225],[-64.57035,-28.40374],[-64.56356,-28.40482],[-64.55761,-28.38582],[-64.45347,-28.40429],[-64.44864,-28.38351],[-64.49194,-28.37602],[-64.49071,-28.37133],[-64.48163,-28.33116],[-64.55109,-28.31879],[-64.54939,-28.31033],[-64.51237,-28.31655],[-64.4841,-28.18979],[-64.62099,-28.16594]]]}}