{"type":"Feature","properties":{"id":"ARG.4.14","name":"Cushamen","level":2,"country":"ARG"},"geometry":{"type":"Polygon","coordinates":[[[-71.77376,-41.99984],[-71.77352,-42.00757],[-71.7626,-42.0112],[-71.75416,-42.02485],[-71.75514,-42.03592],[-71.74508,-42.03721],[-71.72765,-42.04664],[-71.72459,-42.05847],[-71.74021,-42.07432],[-71.74171,-42.08265],[-71.72742,-42.10081],[-71.72609,-42.10967],[-71.73162,-42.12293],[-71.74911,-42.12916],[-71.77316,-42.12892],[-71.77632,-42.14281],[-71.79045,-42.14971],[-71.80346,-42.14557],[-71.8169,-42.15631],[-71.83475,-42.16257],[-71.84592,-42.15406],[-71.85825,-42.15918],[-71.87446,-42.1547],[-71.8798,-42.16711],[-71.89291,-42.17795],[-71.91236,-42.18814],[-71.92529,-42.19053],[-71.93664,-42.18167],[-71.94032,-42.17248],[-71.95459,-42.16439],[-71.95755,-42.14125],[-71.96985,-42.14473],[-71.98552,-42.13944],[-72.00686,-42.14008],[-72.02343,-42.12909],[-72.02853,-42.12246],[-72.04513,-42.12512],[-72.05295,-42.1139],[-72.06648,-42.11772],[-72.0801,-42.13228],[-72.06524,-42.13738],[-72.06651,-42.14674],[-72.08183,-42.14311],[-72.08944,-42.14822],[-72.10511,-42.14513],[-72.1229,-42.15501],[-72.13429,-42.14926],[-72.15794,-42.14449],[-72.17153,-42.13936],[-72.17929,-42.15622],[-72.18772,-42.15872],[-72.18414,-42.17737],[-72.15681,-42.19373],[-72.15581,-42.20542],[-72.16632,-42.21383],[-72.15861,-42.22721],[-72.1536,-42.24342],[-72.16827,-42.25054],[-72.1681,-42.25987],[-72.15502,-42.27227],[-72.14079,-42.28952],[-72.12693,-42.31037],[-72.12084,-42.32399],[-72.13834,-42.32703],[-72.13583,-42.33942],[-72.13892,-42.34594],[-72.1309,-42.35911],[-72.13564,-42.36716],[-72.1302,-42.37493],[-72.13186,-42.38432],[-72.11272,-42.3983],[-72.10242,-42.39475],[-72.08917,-42.39603],[-72.07722,-42.38247],[-72.0599,-42.39613],[-72.04041,-42.39923],[-72.02849,-42.40752],[-72.03648,-42.42495],[-72.03283,-42.42997],[-72.04337,-42.45276],[-72.03415,-42.45659],[-72.03282,-42.46652],[-72.02072,-42.47867],[-71.62722,-42.48528],[-71.59864,-42.60523],[-71.4802,-42.61319],[-71.48751,-42.66098],[-71.44264,-42.68781],[-71.43799,-42.70854],[-71.4038,-42.73221],[-71.3933,-42.74404],[-71.38914,-42.75847],[-71.37408,-42.75885],[-71.3484,-42.78286],[-71.35619,-42.79401],[-71.3228,-42.82335],[-71.32796,-42.83124],[-71.29164,-42.85825],[-71.16713,-42.86193],[-71.04655,-42.94681],[-70.93639,-42.86357],[-70.8849,-42.8641],[-70.75833,-42.86113],[-70.5856,-42.86508],[-70.58852,-42.85061],[-70.57389,-42.83553],[-70.55724,-42.81272],[-70.5526,-42.79842],[-70.53674,-42.7633],[-70.51662,-42.73769],[-70.45092,-42.67265],[-70.43487,-42.6478],[-70.40118,-42.63151],[-70.38998,-42.61738],[-70.371,-42.60571],[-70.36823,-42.60148],[-70.34932,-42.59602],[-70.34748,-42.60122],[-70.32665,-42.59634],[-70.3111,-42.60364],[-70.30541,-42.61701],[-70.29543,-42.62214],[-70.29368,-42.63255],[-70.26632,-42.64131],[-70.25876,-42.64186],[-70.24435,-42.63484],[-70.2103,-42.62396],[-70.19273,-42.62393],[-70.17574,-42.62708],[-70.14835,-42.62926],[-70.09784,-42.64022],[-70.07196,-42.65466],[-70.05534,-42.66858],[-70.04178,-42.67303],[-70.01699,-42.67249],[-70.00094,-42.65161],[-69.98869,-42.64067],[-69.96451,-42.63621],[-69.95715,-42.63156],[-69.9252,-42.63655],[-69.89288,-42.63601],[-69.88329,-42.6342],[-69.86256,-42.62395],[-69.8475,-42.62442],[-69.82058,-42.63371],[-69.80804,-42.64484],[-69.7933,-42.64589],[-69.776,-42.65357],[-69.7487,-42.67498],[-69.73643,-42.68136],[-69.71669,-42.68405],[-69.68152,-42.68338],[-69.66274,-42.67973],[-69.62859,-42.68599],[-69.61357,-42.68665],[-69.59595,-42.6937],[-69.56617,-42.71347],[-69.54063,-42.74954],[-69.53502,-42.76748],[-69.52723,-42.77699],[-69.50529,-42.79676],[-69.46998,-42.43641],[-69.42811,-42.00005],[-70.20898,-42.00001],[-70.99068,-41.99996],[-71.17491,-41.99995],[-71.77376,-41.99984]]]}}