{"type":"Feature","properties":{"id":"ARG.13.11","name":"Cochinoca","level":2,"country":"ARG"},"geometry":{"type":"Polygon","coordinates":[[[-65.74272,-23.41258],[-65.74501,-23.40002],[-65.74045,-23.39056],[-65.73818,-23.37419],[-65.73407,-23.36924],[-65.73089,-23.35456],[-65.73626,-23.34054],[-65.73506,-23.3315],[-65.74456,-23.31826],[-65.73481,-23.3011],[-65.72996,-23.2867],[-65.72113,-23.27357],[-65.7239,-23.25981],[-65.73186,-23.25009],[-65.73633,-23.22901],[-65.73009,-23.22152],[-65.72036,-23.2009],[-65.72116,-23.1844],[-65.71858,-23.17663],[-65.72317,-23.16931],[-65.71632,-23.16238],[-65.71881,-23.14066],[-65.71196,-23.13197],[-65.71305,-23.12266],[-65.70774,-23.10868],[-65.69254,-23.08678],[-65.69378,-23.07804],[-65.70311,-23.06501],[-65.70177,-23.04701],[-65.69843,-23.04122],[-65.69774,-23.01209],[-65.69336,-22.9936],[-65.6812,-22.97749],[-65.67272,-22.95518],[-65.64504,-22.93911],[-65.61445,-22.92746],[-65.6061,-22.91877],[-65.60143,-22.89985],[-65.5919,-22.88043],[-65.57749,-22.8612],[-65.54649,-22.8427],[-65.52235,-22.82499],[-65.51249,-22.77297],[-65.50765,-22.76534],[-65.443,-22.76308],[-65.41052,-22.74469],[-65.39284,-22.71881],[-65.39287,-22.71253],[-65.38396,-22.69712],[-65.38462,-22.68682],[-65.37842,-22.67784],[-65.37604,-22.66682],[-65.36006,-22.63713],[-65.35038,-22.62658],[-65.34471,-22.60638],[-65.35069,-22.60226],[-65.34447,-22.58398],[-65.34954,-22.57456],[-65.34501,-22.55752],[-65.34863,-22.55118],[-65.37396,-22.54976],[-65.38811,-22.54753],[-65.40267,-22.54949],[-65.42816,-22.54962],[-65.43924,-22.55548],[-65.45235,-22.55248],[-65.46071,-22.54532],[-65.4824,-22.53328],[-65.50771,-22.52587],[-65.52393,-22.5115],[-65.53201,-22.49064],[-65.54731,-22.47952],[-65.55985,-22.48117],[-65.57011,-22.47599],[-65.59151,-22.46986],[-65.63952,-22.46844],[-65.69592,-22.46276],[-65.82848,-22.43867],[-65.82684,-22.45724],[-65.83062,-22.46726],[-65.82953,-22.48871],[-65.83528,-22.50988],[-65.83859,-22.53761],[-65.86894,-22.5667],[-65.88581,-22.5567],[-65.89096,-22.57709],[-65.92132,-22.6207],[-65.95081,-22.60569],[-65.99945,-22.58958],[-66.00225,-22.60325],[-66.00951,-22.60715],[-66.03001,-22.63168],[-66.03346,-22.64094],[-66.04518,-22.65302],[-66.06044,-22.66176],[-66.0695,-22.66207],[-66.07789,-22.66785],[-66.08949,-22.67139],[-66.10976,-22.67276],[-66.12525,-22.68027],[-66.13664,-22.68228],[-66.14876,-22.67971],[-66.16472,-22.68258],[-66.17613,-22.68017],[-66.18152,-22.67167],[-66.18784,-22.67599],[-66.19585,-22.69355],[-66.20524,-22.70002],[-66.21151,-22.70843],[-66.22323,-22.71031],[-66.23203,-22.70007],[-66.24732,-22.69707],[-66.25836,-22.69079],[-66.31233,-22.69495],[-66.33136,-22.71277],[-66.34428,-22.74942],[-66.35666,-22.76752],[-66.43165,-22.72857],[-66.44387,-22.74118],[-66.43626,-22.76764],[-66.44291,-22.78721],[-66.45744,-22.79661],[-66.45381,-22.80436],[-66.4813,-22.79886],[-66.49472,-22.80346],[-66.50031,-22.81305],[-66.51004,-22.81359],[-66.51523,-22.82896],[-66.53021,-22.83436],[-66.54145,-22.8294],[-66.55536,-22.83419],[-66.56786,-22.83251],[-66.58173,-22.84097],[-66.59148,-22.85213],[-66.58412,-22.91308],[-66.58489,-22.99931],[-66.28176,-22.99931],[-66.19943,-23.07014],[-66.11528,-23.15575],[-66.10614,-23.17325],[-66.10588,-23.22333],[-66.11994,-23.249],[-66.12607,-23.26593],[-66.13983,-23.28355],[-66.14963,-23.30216],[-66.15239,-23.31458],[-66.15821,-23.32755],[-66.16862,-23.34207],[-66.18813,-23.37852],[-66.19833,-23.3917],[-66.1898,-23.41061],[-66.18443,-23.41687],[-66.1717,-23.41385],[-66.16374,-23.41544],[-66.1198,-23.43029],[-66.10924,-23.43733],[-66.08923,-23.45926],[-66.04346,-23.48366],[-66.01512,-23.50599],[-65.99912,-23.51477],[-65.98722,-23.50965],[-66.00193,-23.68188],[-65.98926,-23.67824],[-65.98042,-23.67247],[-65.96357,-23.67218],[-65.95938,-23.66537],[-65.94654,-23.65486],[-65.94429,-23.64924],[-65.93338,-23.64287],[-65.9284,-23.63636],[-65.91813,-23.63184],[-65.91524,-23.62504],[-65.90321,-23.61512],[-65.89456,-23.59093],[-65.88509,-23.58574],[-65.88221,-23.57427],[-65.87388,-23.55578],[-65.86394,-23.54807],[-65.85805,-23.54822],[-65.84356,-23.48161],[-65.85405,-23.4765],[-65.85323,-23.47194],[-65.86249,-23.46531],[-65.86702,-23.45432],[-65.86396,-23.43976],[-65.84997,-23.43206],[-65.83928,-23.41908],[-65.83999,-23.40511],[-65.83347,-23.39779],[-65.83337,-23.38347],[-65.82322,-23.37988],[-65.82003,-23.37294],[-65.81036,-23.37648],[-65.79467,-23.39207],[-65.77814,-23.39814],[-65.77292,-23.40668],[-65.76018,-23.41575],[-65.74272,-23.41258]]]}}