{"type":"Feature","properties":{"id":"ARG.13.4","name":"Rinconada","level":2,"country":"ARG"},"geometry":{"type":"Polygon","coordinates":[[[-66.58489,-22.99931],[-66.58412,-22.91308],[-66.59148,-22.85213],[-66.58173,-22.84097],[-66.56786,-22.83251],[-66.55536,-22.83419],[-66.54145,-22.8294],[-66.53021,-22.83436],[-66.51523,-22.82896],[-66.51004,-22.81359],[-66.50031,-22.81305],[-66.49472,-22.80346],[-66.4813,-22.79886],[-66.45381,-22.80436],[-66.45744,-22.79661],[-66.44291,-22.78721],[-66.43626,-22.76764],[-66.44387,-22.74118],[-66.43165,-22.72857],[-66.35666,-22.76752],[-66.34428,-22.74942],[-66.33136,-22.71277],[-66.31233,-22.69495],[-66.25836,-22.69079],[-66.24732,-22.69707],[-66.23203,-22.70007],[-66.22323,-22.71031],[-66.21151,-22.70843],[-66.20524,-22.70002],[-66.19585,-22.69355],[-66.18784,-22.67599],[-66.18152,-22.67167],[-66.17613,-22.68017],[-66.16472,-22.68258],[-66.14876,-22.67971],[-66.13664,-22.68228],[-66.12525,-22.68027],[-66.10976,-22.67276],[-66.08949,-22.67139],[-66.07789,-22.66785],[-66.0695,-22.66207],[-66.06044,-22.66176],[-66.04518,-22.65302],[-66.03346,-22.64094],[-66.03001,-22.63168],[-66.00951,-22.60715],[-66.00225,-22.60325],[-65.99945,-22.58958],[-65.95081,-22.60569],[-65.92132,-22.6207],[-65.89096,-22.57709],[-65.88581,-22.5567],[-65.86894,-22.5667],[-65.83859,-22.53761],[-65.83528,-22.50988],[-65.82953,-22.48871],[-65.83062,-22.46726],[-65.82684,-22.45724],[-65.82848,-22.43867],[-65.98611,-22.40335],[-66.01569,-22.29609],[-66.02369,-22.28533],[-66.02287,-22.28015],[-66.03118,-22.26945],[-66.05146,-22.26014],[-66.05948,-22.25844],[-66.29733,-22.31488],[-66.30934,-22.32379],[-66.31933,-22.32558],[-66.33805,-22.30786],[-66.33932,-22.29493],[-66.34981,-22.28234],[-66.37229,-22.27554],[-66.3869,-22.28043],[-66.39132,-22.27268],[-66.4,-22.26784],[-66.40908,-22.27093],[-66.41044,-22.26104],[-66.41516,-22.2539],[-66.42096,-22.26671],[-66.43547,-22.27727],[-66.43866,-22.28812],[-66.45233,-22.30188],[-66.45389,-22.30929],[-66.464,-22.31195],[-66.47162,-22.32617],[-66.47467,-22.34629],[-66.47973,-22.35131],[-66.48619,-22.36882],[-66.49262,-22.37644],[-66.5077,-22.38494],[-66.52672,-22.39239],[-66.56298,-22.41791],[-66.57052,-22.42023],[-66.5863,-22.41227],[-66.59179,-22.41308],[-66.62449,-22.40059],[-66.63966,-22.39245],[-66.65043,-22.39202],[-66.66304,-22.38497],[-66.67488,-22.38353],[-66.68646,-22.37767],[-66.69168,-22.38075],[-66.70653,-22.37566],[-66.71476,-22.37579],[-66.72924,-22.38109],[-66.74809,-22.37482],[-66.7626,-22.36384],[-66.7664,-22.35774],[-66.78431,-22.40177],[-66.78514,-22.42388],[-66.78247,-22.43807],[-66.80175,-22.44729],[-66.92856,-22.49223],[-66.97294,-22.54066],[-67.02725,-22.54088],[-67.01408,-22.65481],[-67.12775,-22.72211],[-67.1805,-22.81413],[-66.99122,-22.99931],[-66.58489,-22.99931]]]}}