{"type":"Feature","properties":{"id":"ARG.20.13","name":"Bella Vista","level":2,"country":"ARG"},"geometry":{"type":"Polygon","coordinates":[[[-58.98414,-28.19431],[-58.9864,-28.17907],[-58.9923,-28.17289],[-59.01239,-28.18364],[-59.0144,-28.1898],[-59.02504,-28.18687],[-59.03034,-28.19083],[-59.03325,-28.20143],[-59.03046,-28.20917],[-59.04416,-28.22336],[-59.05595,-28.21756],[-59.06178,-28.193],[-59.07446,-28.19547],[-59.08766,-28.20174],[-59.10501,-28.21777],[-59.10953,-28.22967],[-59.10977,-28.24513],[-59.1024,-28.26964],[-59.10192,-28.27773],[-59.10346,-28.32882],[-59.09998,-28.33487],[-59.08097,-28.34726],[-59.07621,-28.36534],[-59.07789,-28.39885],[-59.0855,-28.42002],[-59.08598,-28.43597],[-59.07551,-28.44501],[-59.06052,-28.46285],[-59.04886,-28.48927],[-59.05433,-28.50783],[-59.06836,-28.52405],[-59.078,-28.53071],[-59.08431,-28.53923],[-59.08823,-28.55784],[-59.09929,-28.57438],[-59.10108,-28.58318],[-59.09883,-28.59614],[-59.10573,-28.61466],[-59.10501,-28.63394],[-59.09621,-28.64798],[-59.08146,-28.65678],[-59.07931,-28.66939],[-59.09383,-28.6889],[-59.09906,-28.7008],[-59.10216,-28.71579],[-59.12643,-28.75481],[-59.14262,-28.77443],[-59.13073,-28.7743],[-59.12235,-28.76884],[-59.1179,-28.77894],[-59.06853,-28.78712],[-59.03835,-28.79329],[-59.04196,-28.81194],[-58.98724,-28.82292],[-58.98661,-28.81331],[-58.97907,-28.80755],[-58.98187,-28.80237],[-58.97188,-28.7905],[-58.96018,-28.7818],[-58.96395,-28.77643],[-58.95201,-28.76667],[-58.94606,-28.76505],[-58.94319,-28.75026],[-58.92768,-28.74688],[-58.922,-28.73104],[-58.92828,-28.72377],[-58.90882,-28.70565],[-58.90307,-28.69166],[-58.887,-28.68221],[-58.88854,-28.67327],[-58.88227,-28.66507],[-58.86094,-28.65045],[-58.84665,-28.631],[-58.82532,-28.62679],[-58.81142,-28.61978],[-58.79723,-28.62083],[-58.78135,-28.6103],[-58.76714,-28.60638],[-58.76144,-28.59749],[-58.73603,-28.58775],[-58.73517,-28.58167],[-58.72672,-28.57385],[-58.70233,-28.55943],[-58.69826,-28.54797],[-58.69131,-28.53997],[-58.67493,-28.52933],[-58.66806,-28.51392],[-58.6601,-28.51169],[-58.71339,-28.44128],[-58.69717,-28.42],[-58.70702,-28.40398],[-58.71752,-28.40525],[-58.74723,-28.39344],[-58.75372,-28.3839],[-58.758,-28.36613],[-58.75879,-28.33611],[-58.76568,-28.33896],[-58.81334,-28.24088],[-58.8333,-28.25201],[-58.85112,-28.25718],[-58.85083,-28.26763],[-58.85931,-28.28027],[-58.87308,-28.27981],[-58.89318,-28.28473],[-58.90314,-28.28374],[-58.91945,-28.28958],[-58.93582,-28.30015],[-58.95195,-28.30394],[-58.97107,-28.29588],[-58.99224,-28.28006],[-58.99962,-28.27968],[-59.0121,-28.26869],[-59.02791,-28.26917],[-59.03187,-28.26206],[-59.02114,-28.26017],[-59.01589,-28.25457],[-59.01755,-28.2474],[-59.01352,-28.23482],[-59.01298,-28.22385],[-59.02039,-28.2122],[-59.00607,-28.20504],[-58.99693,-28.20967],[-58.99152,-28.19769],[-58.98414,-28.19431]]]}}