{"type":"Feature","properties":{"id":"ARG.23.10","name":"Guaraní","level":2,"country":"ARG"},"geometry":{"type":"Polygon","coordinates":[[[-54.60729,-26.93134],[-54.54099,-27.0854],[-54.49692,-27.08585],[-54.49991,-27.09519],[-54.49112,-27.10682],[-54.49022,-27.12708],[-54.49492,-27.12965],[-54.4897,-27.14305],[-54.49341,-27.15087],[-54.50389,-27.15176],[-54.49643,-27.16293],[-54.50697,-27.17384],[-54.51846,-27.17499],[-54.51842,-27.18042],[-54.50929,-27.18653],[-54.52187,-27.20233],[-54.5289,-27.20735],[-54.52164,-27.2215],[-54.51357,-27.22939],[-54.52341,-27.23475],[-54.52396,-27.24404],[-54.512,-27.24638],[-54.51337,-27.25802],[-54.36788,-27.22937],[-54.35685,-27.23303],[-54.36711,-27.24763],[-54.36709,-27.25222],[-54.35694,-27.25775],[-54.35326,-27.26467],[-54.35425,-27.27466],[-54.34355,-27.27806],[-54.33384,-27.28808],[-54.33777,-27.29687],[-54.32915,-27.30658],[-54.32317,-27.30582],[-54.31989,-27.31484],[-54.32133,-27.32616],[-54.31833,-27.33854],[-54.32071,-27.34903],[-54.31345,-27.35708],[-54.30088,-27.36008],[-54.31653,-27.37687],[-54.29277,-27.37817],[-54.29592,-27.38432],[-54.31641,-27.3862],[-54.31156,-27.39574],[-54.29973,-27.39381],[-54.29969,-27.40631],[-54.30971,-27.40754],[-54.3202,-27.40355],[-54.32613,-27.4074],[-54.30848,-27.42299],[-54.29452,-27.44469],[-54.28157,-27.44719],[-54.26779,-27.43705],[-54.2694,-27.41542],[-54.26601,-27.40236],[-54.25344,-27.39422],[-54.22878,-27.39226],[-54.21475,-27.38352],[-54.21232,-27.37454],[-54.21318,-27.35689],[-54.20735,-27.33199],[-54.1968,-27.31777],[-54.19169,-27.30374],[-54.19302,-27.29225],[-54.18634,-27.26662],[-54.17699,-27.25767],[-54.16764,-27.2531],[-54.15725,-27.26184],[-54.15472,-27.27583],[-54.15887,-27.29202],[-54.15412,-27.29688],[-54.13188,-27.30137],[-54.10182,-27.30318],[-54.08351,-27.29949],[-54.07227,-27.29114],[-54.05513,-27.26366],[-54.04598,-27.25912],[-54.02696,-27.25511],[-54.02005,-27.24675],[-54.01472,-27.22972],[-54.01574,-27.21439],[-54.01098,-27.2017],[-54.00532,-27.19708],[-53.98482,-27.19575],[-53.96996,-27.19948],[-53.95914,-27.19364],[-53.95706,-27.18514],[-53.95994,-27.16022],[-53.94813,-27.15155],[-53.9337,-27.15623],[-53.93442,-27.13083],[-53.91151,-27.1352],[-53.90218,-27.12854],[-53.90133,-27.1194],[-53.91928,-27.11886],[-53.909,-27.10461],[-53.89432,-27.10872],[-53.87966,-27.09983],[-53.88187,-27.09552],[-53.90488,-27.08986],[-53.90733,-27.08604],[-53.89244,-27.07904],[-53.90211,-27.07369],[-53.90327,-27.06464],[-53.89351,-27.05898],[-53.89405,-27.04406],[-53.9119,-27.05646],[-53.9173,-27.04775],[-53.91872,-27.03263],[-53.92333,-27.03147],[-53.93029,-27.04935],[-53.94731,-27.05099],[-53.93916,-27.03888],[-53.93834,-27.02354],[-53.94304,-27.02083],[-53.95962,-27.0354],[-53.97099,-27.04021],[-53.97147,-27.02028],[-53.98217,-27.01919],[-53.97983,-27.00925],[-53.98959,-27.0075],[-54.00306,-27.01732],[-54.02001,-27.00389],[-54.01583,-26.99823],[-54.00505,-27.00226],[-53.99749,-26.99465],[-54.00455,-26.98623],[-53.9972,-26.98024],[-54.00335,-26.97453],[-54.01467,-26.97685],[-54.02274,-26.98425],[-54.03334,-26.97418],[-54.02316,-26.96481],[-54.01971,-26.95472],[-54.02773,-26.94147],[-54.0329,-26.93937],[-54.034,-26.92937],[-54.02495,-26.93046],[-54.01413,-26.92735],[-54.02106,-26.91512],[-54.02894,-26.8953],[-54.03717,-26.90129],[-54.03871,-26.89003],[-54.05294,-26.89425],[-54.05481,-26.8843],[-54.05067,-26.87528],[-54.07005,-26.86985],[-54.07539,-26.87937],[-54.0842,-26.8701],[-54.08124,-26.86045],[-54.09712,-26.85768],[-54.10333,-26.84892],[-54.08548,-26.84008],[-54.09287,-26.8342],[-54.10209,-26.83817],[-54.1088,-26.83098],[-54.10807,-26.81211],[-54.1047,-26.80805],[-54.12761,-26.80594],[-54.1378,-26.77869],[-54.13531,-26.77068],[-54.13724,-26.75702],[-54.14618,-26.75596],[-54.14339,-26.74369],[-54.2456,-26.80097],[-54.2414,-26.79147],[-54.24172,-26.78319],[-54.2587,-26.73738],[-54.24569,-26.72055],[-54.24525,-26.69925],[-54.21657,-26.6941],[-54.21167,-26.68243],[-54.19469,-26.66477],[-54.26793,-26.64061],[-54.39071,-26.71152],[-54.39805,-26.71984],[-54.40646,-26.71744],[-54.42996,-26.73783],[-54.43661,-26.7338],[-54.47017,-26.77251],[-54.54208,-26.8316],[-54.52337,-26.852],[-54.56705,-26.89023],[-54.56367,-26.91665],[-54.60729,-26.93134]]]}}