{"type":"Feature","properties":{"id":"ARG.15.6","name":"Metán","level":2,"country":"ARG"},"geometry":{"type":"Polygon","coordinates":[[[-65.18657,-25.40954],[-65.18252,-25.43078],[-65.17981,-25.43498],[-65.16365,-25.4433],[-65.16694,-25.46192],[-65.16251,-25.46744],[-65.16632,-25.48119],[-65.15375,-25.49884],[-65.15565,-25.5066],[-65.16338,-25.51772],[-65.15917,-25.527],[-65.14959,-25.5358],[-65.15459,-25.55333],[-65.16329,-25.56667],[-65.16563,-25.58063],[-65.15967,-25.595],[-65.15184,-25.59628],[-65.143,-25.6042],[-65.13407,-25.62095],[-65.13238,-25.63022],[-65.12324,-25.64578],[-65.11401,-25.64646],[-65.10835,-25.65171],[-65.08639,-25.66279],[-65.06969,-25.65473],[-65.05081,-25.65889],[-65.04155,-25.67076],[-65.0277,-25.6722],[-65.01127,-25.66673],[-64.99957,-25.6663],[-64.99226,-25.65967],[-64.96648,-25.65546],[-64.96629,-25.65067],[-64.95548,-25.64539],[-64.93764,-25.64695],[-64.91978,-25.6381],[-64.90108,-25.64229],[-64.88532,-25.63692],[-64.87507,-25.63934],[-64.86211,-25.64765],[-64.8521,-25.64717],[-64.84654,-25.65232],[-64.79435,-25.64392],[-64.76435,-25.63222],[-64.75646,-25.63246],[-64.74171,-25.62338],[-64.73267,-25.63181],[-64.64792,-25.60552],[-64.62059,-25.60932],[-64.6211,-25.61309],[-64.48085,-25.6348],[-64.47543,-25.61618],[-64.46444,-25.59787],[-64.46146,-25.58423],[-64.46409,-25.57609],[-64.45902,-25.56515],[-64.45926,-25.55813],[-64.4541,-25.54246],[-64.45341,-25.52197],[-64.44946,-25.51152],[-64.38144,-25.52529],[-64.31521,-25.51329],[-64.21054,-25.54063],[-64.19566,-25.72784],[-64.02541,-25.75349],[-64.00775,-25.67336],[-63.91901,-25.68234],[-63.9344,-25.67377],[-63.949,-25.67043],[-63.9592,-25.65685],[-63.95415,-25.64974],[-63.95359,-25.63096],[-63.95032,-25.62548],[-63.95063,-25.60711],[-63.94358,-25.60422],[-63.94515,-25.58966],[-63.9415,-25.58013],[-63.94446,-25.56688],[-63.94125,-25.5511],[-63.94853,-25.54984],[-63.94901,-25.54242],[-63.95768,-25.52964],[-63.96568,-25.53311],[-63.97044,-25.52443],[-63.97985,-25.52228],[-63.98999,-25.51344],[-63.9904,-25.5047],[-63.99629,-25.49731],[-63.99669,-25.48925],[-64.01328,-25.4734],[-64.02855,-25.45452],[-64.02118,-25.45346],[-64.02391,-25.42947],[-64.03696,-25.41584],[-64.04066,-25.3993],[-64.03752,-25.39243],[-64.04828,-25.37394],[-64.05863,-25.37162],[-64.06229,-25.35855],[-64.04625,-25.34365],[-64.04684,-25.33118],[-64.0536,-25.32536],[-64.04765,-25.31284],[-64.05867,-25.30254],[-64.06966,-25.28718],[-64.06411,-25.27656],[-64.05784,-25.27398],[-64.0643,-25.24961],[-64.07077,-25.24945],[-64.07712,-25.23185],[-64.0763,-25.22432],[-64.08114,-25.20795],[-64.09022,-25.2009],[-64.0851,-25.19535],[-64.09654,-25.1776],[-64.09627,-25.17225],[-64.11314,-25.16194],[-64.12068,-25.15369],[-64.12743,-25.16026],[-64.14024,-25.15125],[-64.15084,-25.1472],[-64.15528,-25.13687],[-64.15473,-25.12013],[-64.15944,-25.10904],[-64.18525,-25.11587],[-64.20088,-25.11544],[-64.20349,-25.12202],[-64.21871,-25.11863],[-64.23061,-25.12669],[-64.23911,-25.11686],[-64.24675,-25.11493],[-64.25987,-25.12158],[-64.26152,-25.12822],[-64.27727,-25.13835],[-64.28022,-25.14728],[-64.29028,-25.14368],[-64.30183,-25.14438],[-64.31014,-25.16014],[-64.307,-25.17049],[-64.31549,-25.17381],[-64.32149,-25.18196],[-64.33579,-25.19332],[-64.34061,-25.20249],[-64.3414,-25.21284],[-64.3474,-25.21915],[-64.34587,-25.22835],[-64.3622,-25.24235],[-64.37425,-25.24217],[-64.37963,-25.24744],[-64.38774,-25.24731],[-64.39743,-25.25185],[-64.40808,-25.24789],[-64.41353,-25.23657],[-64.42416,-25.23381],[-64.43119,-25.2269],[-64.44415,-25.22786],[-64.46429,-25.22257],[-64.49786,-25.23649],[-64.5188,-25.24841],[-64.54542,-25.25629],[-64.55193,-25.26158],[-64.55299,-25.28128],[-64.56293,-25.28993],[-64.56245,-25.30029],[-64.59045,-25.32989],[-64.59418,-25.3374],[-64.60629,-25.34602],[-64.60895,-25.35346],[-64.61653,-25.35479],[-64.61961,-25.36201],[-64.62821,-25.3648],[-64.64168,-25.36165],[-64.64983,-25.36755],[-64.65594,-25.36523],[-64.66628,-25.37167],[-64.68602,-25.37068],[-64.70474,-25.3797],[-64.71631,-25.3735],[-64.72764,-25.37636],[-64.74009,-25.36766],[-64.75217,-25.37148],[-64.75958,-25.36774],[-64.76884,-25.36911],[-64.78468,-25.35754],[-64.7937,-25.35865],[-64.79736,-25.35402],[-64.81067,-25.3489],[-64.82064,-25.3501],[-64.82815,-25.3455],[-64.84141,-25.32535],[-64.84149,-25.32039],[-64.87488,-25.30009],[-64.88328,-25.29853],[-64.88513,-25.2873],[-64.89451,-25.28521],[-64.89079,-25.26689],[-64.89655,-25.25803],[-64.89413,-25.24429],[-64.90907,-25.22939],[-64.91441,-25.2101],[-64.93471,-25.18826],[-64.93674,-25.17504],[-64.94943,-25.17124],[-64.95762,-25.16186],[-64.96827,-25.16318],[-64.9766,-25.14879],[-64.98535,-25.14531],[-64.99035,-25.13846],[-65.02411,-25.1289],[-65.02617,-25.12521],[-65.04793,-25.12102],[-65.05716,-25.11148],[-65.06737,-25.10612],[-65.07999,-25.10412],[-65.08187,-25.10029],[-65.09209,-25.10373],[-65.10136,-25.10261],[-65.12975,-25.10901],[-65.1422,-25.10639],[-65.15615,-25.11228],[-65.15719,-25.12035],[-65.16592,-25.13809],[-65.16801,-25.15211],[-65.16741,-25.17135],[-65.17064,-25.17703],[-65.1812,-25.17808],[-65.19235,-25.1855],[-65.21425,-25.2394],[-65.23263,-25.26058],[-65.25263,-25.27838],[-65.23553,-25.28502],[-65.22168,-25.28599],[-65.20557,-25.2904],[-65.18857,-25.29962],[-65.17616,-25.30078],[-65.16806,-25.34848],[-65.15925,-25.37528],[-65.18085,-25.38869],[-65.18657,-25.40954]]]}}