{"type":"Feature","properties":{"id":"ARG.7.7","name":"General Paz","level":2,"country":"ARG"},"geometry":{"type":"Polygon","coordinates":[[[-58.15494,-35.40828],[-58.18761,-35.3822],[-58.21836,-35.40902],[-58.26137,-35.37728],[-58.24775,-35.3648],[-58.34642,-35.29182],[-58.34546,-35.29092],[-58.44358,-35.21517],[-58.46902,-35.23767],[-58.57174,-35.32845],[-58.52419,-35.36591],[-58.54346,-35.3821],[-58.54081,-35.38435],[-58.58219,-35.42155],[-58.47069,-35.51135],[-58.55307,-35.57947],[-58.56887,-35.596],[-58.52382,-35.62642],[-58.50006,-35.64506],[-58.5068,-35.6508],[-58.50297,-35.65614],[-58.48668,-35.70777],[-58.47438,-35.70553],[-58.46612,-35.68504],[-58.4425,-35.70174],[-58.43879,-35.70903],[-58.44394,-35.72077],[-58.43639,-35.73252],[-58.34236,-35.6521],[-58.33288,-35.63514],[-58.32489,-35.62782],[-58.19952,-35.52187],[-58.20404,-35.51818],[-58.15262,-35.47266],[-58.19494,-35.44057],[-58.15494,-35.40828]]]}}