{"type":"Feature","properties":{"id":"ARG.20.17","name":"Empedrado","level":2,"country":"ARG"},"geometry":{"type":"Polygon","coordinates":[[[-58.30392,-27.95338],[-58.32561,-27.90025],[-58.32061,-27.89266],[-58.31656,-27.8662],[-58.32982,-27.86472],[-58.32826,-27.85288],[-58.34168,-27.85161],[-58.34322,-27.8614],[-58.39668,-27.8584],[-58.38586,-27.78487],[-58.40237,-27.78778],[-58.41797,-27.78683],[-58.42295,-27.78346],[-58.44669,-27.78646],[-58.4687,-27.77858],[-58.46747,-27.75647],[-58.48348,-27.75924],[-58.50317,-27.75326],[-58.49754,-27.72819],[-58.54711,-27.72111],[-58.54411,-27.70446],[-58.60102,-27.7185],[-58.5964,-27.64704],[-58.60159,-27.64326],[-58.60583,-27.63017],[-58.62276,-27.61654],[-58.64537,-27.60347],[-58.65579,-27.60505],[-58.66336,-27.61317],[-58.67392,-27.61182],[-58.6799,-27.61355],[-58.6873,-27.62393],[-58.69525,-27.62087],[-58.71328,-27.62701],[-58.72759,-27.62794],[-58.73247,-27.63545],[-58.75569,-27.64458],[-58.7777,-27.66011],[-58.78789,-27.66184],[-58.80107,-27.65905],[-58.80926,-27.66329],[-58.81168,-27.67537],[-58.82442,-27.66939],[-58.81878,-27.68118],[-58.8133,-27.74772],[-58.80971,-27.78341],[-58.82,-27.82867],[-58.82345,-27.83945],[-58.83718,-27.86273],[-58.84319,-27.8763],[-58.8455,-27.89163],[-58.84351,-27.91403],[-58.82926,-27.96187],[-58.83206,-27.97383],[-58.84216,-27.99158],[-58.85774,-28.01161],[-58.86068,-28.021],[-58.86143,-28.03809],[-58.85973,-28.05032],[-58.8653,-28.05665],[-58.88082,-28.06682],[-58.91096,-28.09384],[-58.93226,-28.11593],[-58.94511,-28.13377],[-58.9632,-28.13949],[-58.99966,-28.13936],[-59.02123,-28.13634],[-59.05337,-28.1268],[-59.06241,-28.12811],[-59.07234,-28.13633],[-59.08003,-28.1503],[-59.08763,-28.17177],[-59.08918,-28.18165],[-59.08766,-28.20174],[-59.07446,-28.19547],[-59.06178,-28.193],[-59.05595,-28.21756],[-59.04416,-28.22336],[-59.03046,-28.20917],[-59.03325,-28.20143],[-59.03034,-28.19083],[-59.02504,-28.18687],[-59.0144,-28.1898],[-59.01239,-28.18364],[-58.9923,-28.17289],[-58.9864,-28.17907],[-58.98414,-28.19431],[-58.97261,-28.1939],[-58.95443,-28.18392],[-58.94415,-28.19248],[-58.92711,-28.18293],[-58.92106,-28.17697],[-58.89307,-28.17249],[-58.87521,-28.17573],[-58.87109,-28.16679],[-58.86138,-28.16521],[-58.85676,-28.17474],[-58.84979,-28.16929],[-58.83549,-28.16687],[-58.83535,-28.15747],[-58.82512,-28.14962],[-58.82703,-28.1406],[-58.81446,-28.12893],[-58.8175,-28.12217],[-58.80656,-28.12055],[-58.79426,-28.12665],[-58.78516,-28.12436],[-58.78485,-28.1182],[-58.76831,-28.11147],[-58.7558,-28.11227],[-58.75241,-28.09693],[-58.74119,-28.09456],[-58.73683,-28.08763],[-58.72329,-28.07945],[-58.71886,-28.08955],[-58.70573,-28.08515],[-58.68522,-28.0617],[-58.67574,-28.06083],[-58.66998,-28.04887],[-58.66228,-28.04321],[-58.63658,-28.03488],[-58.63077,-28.02248],[-58.61502,-28.01791],[-58.58038,-27.99558],[-58.56184,-27.99583],[-58.55155,-27.99274],[-58.52256,-27.97901],[-58.5031,-27.97538],[-58.48013,-27.9751],[-58.46543,-27.97023],[-58.45948,-27.97293],[-58.45431,-27.98251],[-58.43883,-27.99438],[-58.41827,-27.98914],[-58.40335,-27.99333],[-58.3901,-27.99097],[-58.37759,-27.98381],[-58.36361,-27.97115],[-58.35036,-27.96896],[-58.336,-27.9699],[-58.32502,-27.96045],[-58.31137,-27.95276],[-58.30392,-27.95338]]]}}