{"type":"Feature","properties":{"id":"SUR.4.4","name":"Noord","level":2,"country":"SUR"},"geometry":{"type":"Polygon","coordinates":[[[-55.19606,5.5952],[-55.21736,5.65571],[-55.23792,5.66163],[-55.27749,5.66132],[-55.34354,5.65135],[-55.35104,5.6477],[-55.37095,5.64138],[-55.38996,5.65633],[-55.41706,5.64138],[-55.41239,5.62362],[-55.39307,5.62113],[-55.38279,5.6015],[-55.40803,5.58935],[-55.40772,5.56567],[-55.42734,5.54262],[-55.38279,5.55041],[-55.33637,5.56598],[-55.24976,5.58623],[-55.23917,5.58031],[-55.19606,5.5952]]]}}