{"type":"Feature","properties":{"id":"AFG.11.4","name":"Kang","level":2,"country":"AFG"},"geometry":{"type":"Polygon","coordinates":[[[61.60624,31.38902],[61.70683,31.37579],[61.77659,31.30217],[61.77317,31.26405],[61.76964,31.24996],[61.77678,31.21375],[61.77136,31.20818],[61.78711,31.194],[61.80462,31.16554],[61.80229,31.15022],[61.81566,31.10482],[61.83027,31.08887],[61.82685,31.07336],[61.82756,31.05223],[61.8396,31.036],[61.82713,31.02982],[61.83031,31.02192],[61.84593,31.03193],[61.86374,31.03575],[61.87597,31.04967],[61.88685,31.04147],[61.91618,31.04649],[61.98326,31.04656],[62.028,31.05271],[62.05111,31.06179],[62.04786,31.07399],[62.06518,31.09767],[62.05585,31.10997],[62.05458,31.12142],[62.06271,31.13053],[62.05705,31.1434],[62.04588,31.14693],[62.03853,31.13817],[62.02298,31.14015],[62.00644,31.15485],[62.0034,31.17612],[62.02616,31.19054],[62.01917,31.2063],[62.00461,31.222],[62.00312,31.23663],[62.01005,31.24398],[61.99789,31.25684],[61.99591,31.269],[61.98439,31.28476],[61.97987,31.30554],[61.96736,31.33332],[61.94672,31.33968],[61.93597,31.35],[61.88982,31.37622],[61.87964,31.38654],[61.86374,31.41178],[61.83483,31.43545],[61.82649,31.45468],[61.82734,31.46231],[61.84338,31.46974],[61.85116,31.49405],[61.82804,31.52607],[61.82543,31.55187],[61.78493,31.58177],[61.77899,31.60142],[61.7645,31.62099],[61.75455,31.65161],[61.74435,31.62797],[61.72104,31.60297],[61.70559,31.60073],[61.66346,31.60213],[61.65476,31.59342],[61.6549,31.58373],[61.67203,31.57699],[61.67652,31.54975],[61.68438,31.53459],[61.69056,31.50959],[61.67877,31.51465],[61.66613,31.48825],[61.62751,31.51422],[61.62864,31.49962],[61.61993,31.49934],[61.6115,31.51085],[61.60139,31.50608],[61.60252,31.49204],[61.63285,31.47491],[61.63355,31.46437],[61.62007,31.45174],[61.63804,31.43236],[61.61839,31.41888],[61.60624,31.38902]]]}}