{"type":"Feature","properties":{"id":"AFG.24.13","name":"Kalfagan","level":2,"country":"AFG"},"geometry":{"type":"Polygon","coordinates":[[[70.0019,36.92782],[69.98253,36.92043],[69.97456,36.92725],[69.96213,36.9165],[69.93797,36.9202],[69.92346,36.91037],[69.90739,36.91789],[69.88416,36.9091],[69.88861,36.89234],[69.87554,36.88991],[69.86421,36.87604],[69.84867,36.87557],[69.83699,36.89002],[69.81786,36.89118],[69.81157,36.88584],[69.81834,36.87129],[69.81768,36.85642],[69.80269,36.84595],[69.80091,36.8287],[69.78526,36.81216],[69.77914,36.79217],[69.78253,36.78266],[69.79454,36.77718],[69.79026,36.75684],[69.80263,36.74946],[69.80216,36.72983],[69.82351,36.71984],[69.81667,36.69307],[69.80049,36.68081],[69.80348,36.67493],[69.82934,36.66451],[69.84838,36.66368],[69.86069,36.68307],[69.87949,36.69116],[69.8902,36.68676],[69.92702,36.7014],[69.94035,36.69866],[69.96503,36.68319],[69.97009,36.66559],[69.98663,36.65286],[70.00914,36.65507],[70.02442,36.68029],[70.0412,36.68993],[70.02252,36.72645],[70.01823,36.74477],[70.00211,36.75572],[69.9901,36.78154],[70.00788,36.79486],[70.00907,36.80497],[70.00259,36.83638],[70.01228,36.84816],[70.00753,36.86315],[70.01014,36.87445],[70.03233,36.88921],[70.03364,36.8973],[70.01978,36.90777],[70.01205,36.92299],[70.0019,36.92782]]]}}