{"type":"Feature","properties":{"id":"AFG.22.2","name":"Khanabad","level":2,"country":"AFG"},"geometry":{"type":"Polygon","coordinates":[[[68.99142,36.6378],[68.99436,36.63532],[68.98766,36.60095],[68.98025,36.58433],[68.97844,36.56463],[68.97243,36.55416],[69.00456,36.4952],[69.01685,36.4811],[69.00442,36.42689],[69.0104,36.41979],[69.03557,36.41558],[69.05248,36.40734],[69.07315,36.40189],[69.07148,36.38107],[69.04605,36.34503],[69.05248,36.32981],[69.07692,36.34182],[69.10682,36.33944],[69.13336,36.34364],[69.17401,36.33036],[69.18561,36.3122],[69.20824,36.30941],[69.21916,36.30379],[69.22366,36.3172],[69.24034,36.33326],[69.24223,36.36095],[69.23027,36.37442],[69.20768,36.39282],[69.19275,36.41749],[69.18798,36.44041],[69.17912,36.45898],[69.18694,36.47119],[69.17682,36.47571],[69.18058,36.48675],[69.17552,36.5008],[69.19041,36.52522],[69.21065,36.53484],[69.24678,36.53166],[69.24946,36.53454],[69.24222,36.54966],[69.24496,36.56739],[69.24216,36.58869],[69.2336,36.59535],[69.24377,36.6214],[69.2565,36.63759],[69.25561,36.64913],[69.23978,36.6634],[69.22616,36.66697],[69.2239,36.67994],[69.22533,36.70944],[69.2173,36.71397],[69.21147,36.73467],[69.22943,36.73621],[69.25626,36.75692],[69.2659,36.76905],[69.25834,36.79261],[69.2694,36.81541],[69.2363,36.81856],[69.20882,36.81118],[69.1852,36.81148],[69.15165,36.82492],[69.13315,36.85449],[69.10585,36.84205],[69.08075,36.84372],[69.05142,36.85734],[69.04444,36.84416],[69.02419,36.83424],[68.99374,36.83187],[68.98298,36.81161],[68.95197,36.80756],[68.98591,36.7813],[68.9901,36.76412],[69.00058,36.74973],[69.02042,36.74861],[69.0295,36.7366],[69.00547,36.72905],[68.97194,36.73841],[68.94009,36.73324],[68.93548,36.72514],[68.95113,36.70223],[68.98032,36.70433],[68.97488,36.68924],[68.97893,36.681],[68.99974,36.66507],[68.99142,36.6378]]]}}