{"type":"Feature","properties":{"id":"AFG.7.8","name":"Charsada","level":2,"country":"AFG"},"geometry":{"type":"Polygon","coordinates":[[[64.70637,35.21291],[64.72798,35.18542],[64.74732,35.17918],[64.76683,35.16371],[64.76825,35.15205],[64.77736,35.14081],[64.78093,35.12748],[64.79526,35.12171],[64.8137,35.10863],[64.84583,35.10042],[64.86266,35.10262],[64.86516,35.09322],[64.87598,35.08703],[64.89817,35.08781],[64.91697,35.07317],[64.94005,35.07246],[64.94892,35.068],[64.97152,35.06657],[64.98068,35.06074],[64.98532,35.04872],[65.00251,35.04486],[65.01382,35.03593],[65.01655,35.02463],[65.00471,35.00922],[65.01352,35.0028],[65.0159,34.97948],[65.03755,34.96294],[65.04933,34.96092],[65.05955,34.95008],[65.09265,34.95285],[65.10639,34.95874],[65.14077,34.96779],[65.15559,34.97843],[65.16701,34.99414],[65.19675,35.00877],[65.2275,35.00419],[65.25885,35.00806],[65.30038,35.02971],[65.31673,35.02013],[65.33375,35.01882],[65.34541,35.02299],[65.37985,35.01531],[65.39127,35.02091],[65.3949,35.03025],[65.38526,35.03548],[65.38205,35.04702],[65.41685,35.07778],[65.41911,35.08777],[65.43606,35.09568],[65.44915,35.11424],[65.42982,35.13869],[65.43731,35.14024],[65.44296,35.15695],[65.41144,35.17551],[65.40662,35.18438],[65.41054,35.22126],[65.40587,35.2255],[65.38929,35.206],[65.36769,35.19383],[65.34853,35.17908],[65.33606,35.19307],[65.31271,35.18417],[65.29035,35.19847],[65.28518,35.19573],[65.27529,35.16744],[65.26436,35.16511],[65.25462,35.17716],[65.25833,35.199],[65.27014,35.21129],[65.25979,35.22322],[65.25791,35.23617],[65.23491,35.24396],[65.21009,35.23301],[65.1981,35.23697],[65.18764,35.23246],[65.17352,35.23563],[65.16586,35.24707],[65.14341,35.25151],[65.13951,35.26039],[65.12211,35.26173],[65.09881,35.25412],[65.09175,35.24268],[65.06699,35.23277],[65.05616,35.22096],[65.04241,35.23009],[65.0202,35.22054],[65.01412,35.23392],[65.00317,35.24281],[64.97567,35.23916],[64.93527,35.2383],[64.90996,35.24001],[64.88964,35.25145],[64.86579,35.24986],[64.85289,35.24439],[64.8305,35.2467],[64.77228,35.24092],[64.72884,35.22681],[64.70637,35.21291]]]}}