{"type":"Feature","properties":{"id":"AFG.1.8","name":"Ghormach","level":2,"country":"AFG"},"geometry":{"type":"Polygon","coordinates":[[[63.99851,36.03212],[63.98929,36.03669],[63.88298,36.00895],[63.69971,35.96683],[63.57041,35.95132],[63.53557,35.90316],[63.46485,35.88954],[63.46062,35.88252],[63.48346,35.85932],[63.49584,35.8529],[63.49893,35.84314],[63.51065,35.83386],[63.51886,35.81804],[63.53581,35.7739],[63.57394,35.71512],[63.61296,35.68966],[63.62784,35.64184],[63.64675,35.60329],[63.66127,35.58045],[63.66162,35.56296],[63.67798,35.54416],[63.70291,35.52429],[63.71385,35.51929],[63.72111,35.50573],[63.7452,35.49859],[63.75127,35.48218],[63.76055,35.47099],[63.76239,35.44815],[63.77816,35.43435],[63.79321,35.39568],[63.81302,35.37236],[63.83586,35.38307],[63.85038,35.37593],[63.86614,35.37891],[63.88446,35.39723],[63.91343,35.41436],[63.9195,35.4209],[63.93955,35.46516],[63.94728,35.46766],[63.98517,35.46909],[64.00046,35.48884],[64.01134,35.4962],[64.00233,35.50961],[64.00697,35.52056],[64.00025,35.53371],[64.00055,35.55923],[63.98734,35.58171],[63.97527,35.5945],[63.99621,35.61021],[63.98633,35.65149],[63.97384,35.66529],[63.97128,35.67629],[63.93381,35.69783],[63.89377,35.7086],[63.88937,35.71502],[63.90043,35.73703],[63.9018,35.75113],[63.9137,35.76279],[63.92655,35.76719],[63.93898,35.77974],[63.93351,35.79509],[63.93868,35.80526],[63.93511,35.8262],[63.94196,35.83959],[63.9698,35.86826],[63.98621,35.90883],[63.99021,35.94423],[63.99399,35.97201],[64.00433,35.99042],[64.00143,36.01222],[63.99318,36.02562],[63.99851,36.03212]]]}}