{"type":"Feature","properties":{"id":"BIH.8","name":"Sarajevo","level":1,"country":"BIH"},"geometry":{"type":"Polygon","coordinates":[[[18.5868,44.04915],[18.49885,44.10894],[18.44082,44.11137],[18.39607,44.07023],[18.33922,44.063],[18.29928,43.99406],[18.1953,43.98677],[18.14652,43.90657],[18.16502,43.85133],[18.00689,43.77474],[18.05872,43.6809],[18.14931,43.67713],[18.19768,43.60457],[18.28961,43.57432],[18.38273,43.58835],[18.39039,43.59389],[18.41328,43.69045],[18.46336,43.69045],[18.58298,43.63672],[18.60876,43.68369],[18.48625,43.73478],[18.41613,43.73768],[18.37608,43.78915],[18.38321,43.8378],[18.48196,43.83351],[18.50625,43.85638],[18.50914,43.99229],[18.5868,44.04915]]]}}