{"type":"Feature","properties":{"id":"PRK.5","name":"Kangwŏn-do","level":1,"country":"PRK"},"geometry":{"type":"Polygon","coordinates":[[[126.94013,38.17417],[126.97192,38.21891],[127.09046,38.28586],[127.15749,38.30722],[127.37711,38.31852],[127.47194,38.29591],[127.56082,38.31208],[127.75373,38.32536],[127.80076,38.29392],[127.86685,38.30485],[128.03986,38.30428],[128.10849,38.3235],[128.17236,38.35595],[128.22559,38.39978],[128.26807,38.45352],[128.28543,38.51985],[128.27479,38.5715],[128.30837,38.60134],[128.36492,38.62434],[128.35963,38.67866],[128.28281,38.75507],[128.21022,38.72773],[128.09116,38.84374],[128.01466,38.85814],[127.9087,38.96719],[127.85157,39.00141],[127.76962,39.1092],[127.66139,39.12149],[127.60694,39.15205],[127.53175,39.14614],[127.4913,39.19489],[127.45224,39.16596],[127.3934,39.20173],[127.37203,39.24043],[127.39829,39.32368],[127.46681,39.34016],[127.37843,39.37149],[127.43808,39.40517],[127.33004,39.40535],[127.24736,39.4139],[127.13067,39.40362],[127.10618,39.37496],[127.08581,39.28884],[127.03714,39.27179],[127.02525,39.2044],[127.05512,39.15128],[127.01367,39.13363],[126.98174,39.06911],[126.98618,39.03232],[127.01915,38.97739],[127.00024,38.93522],[126.95921,38.90778],[126.89978,38.90163],[126.87415,38.8792],[126.86691,38.77732],[126.79105,38.67575],[126.70072,38.64302],[126.67788,38.61764],[126.71292,38.55778],[126.70145,38.49835],[126.71436,38.46621],[126.7893,38.35518],[126.83973,38.32911],[126.86764,38.29381],[126.87063,38.23986],[126.89017,38.20764],[126.94013,38.17417]]]}}