{"type":"Feature","properties":{"id":"NGA.17.21","name":"Egbeda","level":2,"country":"NGA"},"geometry":{"type":"MultiPolygon","coordinates":[[[[3.95381,7.41742],[3.96678,7.40988],[3.9631,7.42515],[3.95381,7.41742]]],[[[4.13532,7.40311],[4.14144,7.43967],[4.13713,7.45908],[4.10347,7.4608],[4.09397,7.43381],[4.07954,7.43676],[4.05397,7.4306],[4.05007,7.45053],[4.05436,7.47141],[4.02602,7.48707],[4.01192,7.47911],[4.01503,7.46504],[4.03156,7.44468],[4.00887,7.41643],[3.98855,7.41017],[3.98107,7.41448],[3.96645,7.40351],[3.94383,7.40364],[3.92794,7.39263],[3.9392,7.37853],[3.95767,7.3699],[3.96167,7.35693],[4.00004,7.3462],[4.01158,7.3583],[4.03539,7.35877],[4.06033,7.34811],[4.07271,7.35978],[4.10259,7.34456],[4.07748,7.32229],[4.07242,7.30414],[4.09008,7.29395],[4.12575,7.31177],[4.1109,7.32694],[4.1205,7.33533],[4.13396,7.36765],[4.13532,7.40311]]]]}}