{"type":"Feature","properties":{"id":"NGA.14.15","name":"Ose","level":2,"country":"NGA"},"geometry":{"type":"Polygon","coordinates":[[[5.85258,7.094],[5.84303,7.10985],[5.84431,7.12033],[5.86278,7.12834],[5.87296,7.16265],[5.89388,7.18288],[5.88433,7.19986],[5.90348,7.21719],[5.89734,7.23123],[5.89652,7.25805],[5.90939,7.27777],[5.92458,7.29921],[5.91621,7.31852],[5.91931,7.33714],[5.95045,7.34448],[5.91052,7.355],[5.90029,7.36048],[5.88161,7.38439],[5.84687,7.39451],[5.83797,7.39615],[5.82041,7.38589],[5.78721,7.35339],[5.75668,7.34122],[5.74746,7.33193],[5.72248,7.32164],[5.70957,7.30956],[5.69106,7.30207],[5.66975,7.30011],[5.67543,7.2789],[5.69699,7.23747],[5.71562,7.22095],[5.7269,7.19424],[5.75756,7.18241],[5.76134,7.17042],[5.72901,7.14808],[5.69387,7.13034],[5.68745,7.11831],[5.69772,7.10544],[5.69321,7.08325],[5.65153,7.07563],[5.64143,7.05711],[5.63703,7.01461],[5.62226,7.00252],[5.59171,6.99497],[5.57886,6.96997],[5.57647,6.9007],[5.56552,6.87602],[5.57015,6.86927],[5.57121,6.84527],[5.54903,6.83314],[5.54351,6.8248],[5.54584,6.80429],[5.55577,6.78701],[5.56322,6.76238],[5.56166,6.7298],[5.57663,6.70403],[5.62,6.74212],[5.64037,6.74685],[5.66737,6.72761],[5.70256,6.73612],[5.71449,6.75742],[5.72648,6.76949],[5.75159,6.78164],[5.77084,6.79651],[5.77813,6.81779],[5.76967,6.83991],[5.78711,6.8714],[5.78791,6.89448],[5.79981,6.92133],[5.7922,6.95545],[5.78564,6.96834],[5.79618,7.02429],[5.81558,7.0716],[5.85258,7.094]]]}}