{"type":"Feature","properties":{"id":"NGA.15.10","name":"Moba","level":2,"country":"NGA"},"geometry":{"type":"Polygon","coordinates":[[[5.02027,7.96094],[5.04556,7.94333],[5.07474,7.95294],[5.10024,7.93757],[5.12121,7.93911],[5.13961,7.92853],[5.16118,7.93939],[5.19726,7.97308],[5.22887,7.97158],[5.23965,7.97873],[5.25018,8.00237],[5.24822,8.01982],[5.23079,8.02197],[5.19579,8.01821],[5.18187,8.03627],[5.16261,8.04951],[5.14235,8.06186],[5.11789,8.06262],[5.08439,8.02423],[5.05763,8.03946],[5.05306,8.02345],[5.03552,8.00516],[5.03324,7.98228],[5.02027,7.96094]]]}}