{"type":"Feature","properties":{"id":"NGA.9.12","name":"Sardauna","level":2,"country":"NGA"},"geometry":{"type":"Polygon","coordinates":[[[10.97801,7.30988],[10.99496,7.27777],[10.99844,7.20526],[10.99406,7.18949],[10.99684,7.16712],[10.98882,7.12005],[10.97168,7.08468],[10.94088,7.04869],[10.92974,7.03089],[10.90844,7.0109],[10.84986,6.96859],[10.842,6.95825],[10.85417,6.94694],[10.86278,6.92833],[10.88167,6.86694],[10.88278,6.82778],[10.90306,6.80694],[10.93861,6.78],[10.96944,6.7775],[11,6.78083],[11.01917,6.77861],[11.04361,6.75333],[11.07111,6.71917],[11.08222,6.69778],[11.07821,6.67939],[11.06433,6.66308],[11.05972,6.64255],[11.06232,6.59639],[11.07203,6.55821],[11.08455,6.5415],[11.09528,6.49806],[11.11694,6.44417],[11.14083,6.43361],[11.19194,6.43389],[11.20222,6.43694],[11.26694,6.43305],[11.34028,6.44083],[11.37194,6.44972],[11.38528,6.45694],[11.41278,6.48444],[11.41501,6.51613],[11.43722,6.59083],[11.45472,6.60083],[11.505,6.60028],[11.51833,6.6075],[11.55528,6.65389],[11.5625,6.6675],[11.58083,6.71861],[11.58861,6.75944],[11.58917,6.78],[11.58333,6.79444],[11.55472,6.82111],[11.55639,6.83333],[11.5875,6.89222],[11.63778,6.94389],[11.69438,6.97269],[11.63603,7.00265],[11.61893,7.01345],[11.60472,7.01263],[11.57944,6.99984],[11.57022,7.04089],[11.56397,7.04862],[11.56486,7.06984],[11.53361,7.07881],[11.50619,7.07931],[11.45713,7.06672],[11.41629,7.06142],[11.39262,7.05517],[11.39186,7.03316],[11.40287,7.00557],[11.39216,7.00512],[11.35869,7.01688],[11.32553,7.02261],[11.30425,7.01808],[11.28854,7.02237],[11.28489,7.05205],[11.25965,7.0786],[11.23473,7.09824],[11.21095,7.13004],[11.19695,7.13633],[11.15591,7.17082],[11.13416,7.19579],[11.13009,7.20945],[11.13664,7.25127],[11.13609,7.26282],[11.1006,7.26053],[11.09965,7.271],[11.12837,7.31664],[11.12225,7.33712],[11.10263,7.35354],[11.06983,7.35899],[11.03349,7.3314],[11.02373,7.32058],[10.9986,7.30907],[10.97801,7.30988]]]}}