{"type":"Feature","properties":{"id":"NGA.20.1","name":"Kwami","level":2,"country":"NGA"},"geometry":{"type":"Polygon","coordinates":[[[11.52272,10.66148],[11.41547,10.66579],[11.3763,10.64887],[11.3454,10.61617],[11.32876,10.55426],[11.31425,10.52832],[11.28643,10.52767],[11.25165,10.53152],[11.23322,10.55542],[11.19248,10.57894],[11.17974,10.62814],[11.18187,10.65649],[11.1721,10.66045],[11.13677,10.67226],[11.09227,10.66289],[11.03948,10.66478],[10.99615,10.65681],[10.99131,10.63867],[10.97085,10.61488],[10.93136,10.62051],[10.92313,10.59769],[10.93054,10.54856],[10.91163,10.5046],[10.91255,10.47501],[10.92306,10.42381],[10.87287,10.38447],[10.88311,10.37429],[10.93124,10.35558],[10.97113,10.37195],[10.99213,10.36744],[11.00509,10.33462],[11.03226,10.33103],[11.07844,10.30998],[11.09188,10.31673],[11.12135,10.31095],[11.12111,10.32502],[11.15715,10.31139],[11.1853,10.31297],[11.21463,10.34092],[11.22386,10.34084],[11.27393,10.34033],[11.29395,10.36031],[11.31592,10.37073],[11.3517,10.39509],[11.39947,10.39007],[11.43918,10.44029],[11.45566,10.45692],[11.43363,10.45605],[11.40717,10.46531],[11.4146,10.49662],[11.42501,10.51298],[11.48004,10.48359],[11.49092,10.49022],[11.50945,10.51965],[11.52185,10.569],[11.51651,10.57028],[11.5124,10.59984],[11.52145,10.63942],[11.52272,10.66148]]]}}