{"type":"Feature","properties":{"id":"NGA.34.14","name":"Damaturu","level":2,"country":"NGA"},"geometry":{"type":"Polygon","coordinates":[[[11.84871,11.61992],[11.87682,11.59778],[11.92114,11.61481],[11.95653,11.60512],[12.00217,11.56416],[12.04882,11.62248],[12.06731,11.61805],[12.08251,11.62087],[12.11422,11.60053],[12.13171,11.60621],[12.1489,11.62846],[12.1958,11.6575],[12.20844,11.68841],[12.2161,11.71571],[12.22127,11.75602],[12.23575,11.76751],[12.2443,11.80935],[12.27038,11.82647],[12.26793,11.84668],[12.25612,11.8856],[12.26292,11.93594],[12.27409,11.97736],[12.28058,11.99536],[12.26871,12.00477],[12.23796,12.08963],[12.23644,12.13735],[12.16154,12.11231],[12.12598,12.12178],[12.11263,12.13368],[12.09713,12.12852],[12.09087,12.14448],[12.0696,12.13826],[12.06212,12.11573],[12.04133,12.0985],[12.06172,12.07497],[12.03359,12.05024],[12.0265,12.03622],[11.98743,12.00163],[11.97757,11.99546],[11.92513,11.99089],[11.90873,11.99768],[11.89897,11.97806],[11.88371,11.98617],[11.89456,11.99643],[11.88935,12.00752],[11.871,12.00167],[11.83702,11.97579],[11.81068,11.98465],[11.78672,12.00448],[11.77482,12.01873],[11.72268,12.01393],[11.71309,11.95919],[11.729,11.93524],[11.76861,11.9211],[11.78694,11.90398],[11.78543,11.88574],[11.80182,11.86431],[11.80486,11.83222],[11.80082,11.81343],[11.84227,11.78487],[11.85053,11.74434],[11.81282,11.68493],[11.84871,11.61992]]]}}