{"type":"Feature","properties":{"id":"NGA.9.1","name":"Karim Lamido","level":2,"country":"NGA"},"geometry":{"type":"Polygon","coordinates":[[[11.06059,9.12328],[11.08239,9.13291],[11.13036,9.16794],[11.17421,9.18202],[11.20822,9.18701],[11.23514,9.19687],[11.26019,9.21011],[11.28441,9.24061],[11.30676,9.27449],[11.38671,9.32134],[11.40142,9.33584],[11.4435,9.35527],[11.49078,9.3669],[11.49754,9.38296],[11.52008,9.40398],[11.52593,9.40782],[11.50631,9.43398],[11.49743,9.44051],[11.48431,9.46414],[11.46998,9.47733],[11.44376,9.48847],[11.43616,9.53983],[11.4296,9.54963],[11.40568,9.54451],[11.37385,9.5468],[11.33773,9.54873],[11.27801,9.54782],[11.25467,9.55435],[11.22245,9.56926],[11.18213,9.55556],[11.15091,9.55078],[11.11424,9.5256],[11.09451,9.5331],[11.07641,9.55137],[11.03553,9.54868],[11.00819,9.55211],[10.99238,9.55928],[10.97814,9.57461],[10.96913,9.61535],[10.95634,9.60569],[10.91723,9.55453],[10.77354,9.44732],[10.61784,9.46281],[10.54096,9.48354],[10.56615,9.46529],[10.57894,9.43883],[10.57835,9.40985],[10.56027,9.39017],[10.56658,9.37265],[10.55987,9.35111],[10.57807,9.33262],[10.58088,9.31344],[10.57775,9.29785],[10.58015,9.24584],[10.59661,9.2234],[10.59991,9.19598],[10.61049,9.18954],[10.61037,9.17575],[10.61774,9.14133],[10.63366,9.13045],[10.63612,9.11898],[10.62253,9.09403],[10.63792,9.08177],[10.63745,9.0558],[10.62723,9.01901],[10.59675,8.97612],[10.56625,8.96955],[10.50978,8.96874],[10.46381,8.96322],[10.42688,8.94771],[10.38053,8.91449],[10.36915,8.90186],[10.3411,8.87984],[10.32508,8.85663],[10.2456,8.80441],[10.26363,8.7812],[10.28155,8.76471],[10.2953,8.76359],[10.31346,8.74192],[10.34934,8.74353],[10.37613,8.72052],[10.38762,8.69508],[10.38375,8.68354],[10.41393,8.69047],[10.45189,8.69561],[10.50765,8.71726],[10.54379,8.71917],[10.56058,8.73054],[10.57687,8.75289],[10.61096,8.75615],[10.66117,8.74457],[10.67377,8.72698],[10.70306,8.72311],[10.76457,8.72588],[10.84127,8.76912],[10.88208,8.81075],[10.89167,8.82502],[10.89947,8.84094],[10.93283,8.93068],[10.9416,8.96222],[10.9662,9.02042],[11.01448,9.08487],[11.06059,9.12328]]]}}