{"type":"Feature","properties":{"id":"NGA.25.18","name":"Kajuru","level":2,"country":"NGA"},"geometry":{"type":"Polygon","coordinates":[[[7.95187,10.13124],[7.97601,10.1525],[7.99561,10.14965],[8.00541,10.17077],[7.99031,10.17853],[7.99227,10.195],[8.02311,10.23191],[8.01729,10.24402],[8.03903,10.28287],[8.07096,10.28605],[8.08289,10.26106],[8.06482,10.23887],[8.09252,10.2224],[8.12761,10.24904],[8.11415,10.26711],[8.11709,10.28848],[8.09769,10.3123],[8.07724,10.30553],[8.07422,10.31572],[8.05935,10.31783],[8.03271,10.30204],[8.03364,10.3259],[8.03937,10.34316],[8.02342,10.39337],[8.00831,10.41007],[8.00023,10.44967],[8.01136,10.47508],[7.97674,10.47911],[7.94886,10.47696],[7.93166,10.46616],[7.92099,10.47891],[7.89801,10.4887],[7.88747,10.51432],[7.86968,10.52671],[7.85334,10.52518],[7.85215,10.508],[7.82491,10.4971],[7.81692,10.50764],[7.79894,10.4899],[7.77817,10.49984],[7.76756,10.48924],[7.75631,10.49466],[7.72965,10.47752],[7.71466,10.46347],[7.7079,10.44004],[7.69128,10.43184],[7.69546,10.41192],[7.67976,10.41181],[7.66883,10.39944],[7.65011,10.39984],[7.62491,10.38918],[7.61624,10.39519],[7.59646,10.3947],[7.60661,10.34656],[7.60414,10.30906],[7.58961,10.30838],[7.58865,10.28114],[7.55786,10.28991],[7.5382,10.27502],[7.51656,10.23122],[7.51055,10.19468],[7.54315,10.18221],[7.55601,10.17241],[7.59834,10.10021],[7.61869,10.09497],[7.63731,10.03846],[7.61991,10.04468],[7.62732,10.01674],[7.65556,10.01707],[7.69056,10.00483],[7.7092,10.02208],[7.73607,10.01243],[7.74808,9.97804],[7.76638,9.99567],[7.7916,10.00379],[7.80198,9.99987],[7.80585,10.01805],[7.79799,10.0518],[7.82033,10.0688],[7.84634,10.07088],[7.89458,10.06734],[7.90276,10.08269],[7.93953,10.10605],[7.95187,10.13124]]]}}