{"type":"Feature","properties":{"id":"NGA.34.6","name":"Machina","level":2,"country":"NGA"},"geometry":{"type":"Polygon","coordinates":[[[9.76518,12.79622],[9.78677,12.80423],[9.78535,12.81273],[9.81619,12.80747],[9.85819,12.82021],[9.8964,12.85272],[9.91023,12.85854],[9.91096,12.87748],[9.92967,12.91854],[9.94306,12.91121],[9.95372,12.93608],[9.988,12.95642],[10.00615,12.95707],[10.03209,12.96518],[10.05117,12.95284],[10.06375,12.97775],[10.09862,12.98551],[10.149,12.98765],[10.17445,13.00224],[10.22433,13.01482],[10.2347,13.0088],[10.23942,13.03422],[10.24709,13.05322],[10.24357,13.06986],[10.26094,13.08904],[10.24828,13.09406],[10.23727,13.07934],[10.21375,13.09105],[10.20878,13.10538],[10.22153,13.12613],[10.17851,13.16466],[10.21882,13.2436],[10.22445,13.28044],[10.17305,13.26972],[10.14833,13.25972],[9.9947,13.17639],[9.96209,13.15563],[9.96055,13.13961],[9.94523,13.12157],[9.92272,13.10898],[9.90911,13.11186],[9.87305,13.07528],[9.66199,12.83381],[9.68073,12.82085],[9.70483,12.82261],[9.71427,12.81022],[9.74833,12.7982],[9.76518,12.79622]]]}}