{"type":"Feature","properties":{"id":"NGA.22.15","name":"Etsako Central","level":2,"country":"NGA"},"geometry":{"type":"Polygon","coordinates":[[[6.67926,6.972],[6.65555,6.98146],[6.6111,6.98658],[6.55663,7.00362],[6.5321,7.01909],[6.52754,7.02829],[6.53647,7.07086],[6.53547,7.10134],[6.50538,7.15094],[6.44095,7.16511],[6.41465,7.16671],[6.42201,7.1326],[6.4203,7.10117],[6.40766,7.08442],[6.36197,7.04845],[6.36888,7.03789],[6.36587,7.01326],[6.35155,6.99827],[6.35492,6.97178],[6.36818,6.95287],[6.3679,6.94006],[6.3814,6.92962],[6.41197,6.9391],[6.43265,6.9328],[6.45893,6.93422],[6.48343,6.92533],[6.50526,6.90521],[6.52165,6.88227],[6.52822,6.85601],[6.52235,6.84163],[6.53014,6.79342],[6.58459,6.79006],[6.62361,6.7936],[6.61079,6.8221],[6.64624,6.88538],[6.65266,6.90785],[6.67298,6.93566],[6.67926,6.972]]]}}