{"type":"Feature","properties":{"id":"NGA.13.16","name":"Ijebu North","level":2,"country":"NGA"},"geometry":{"type":"Polygon","coordinates":[[[4.08836,7.13345],[4.06913,7.13226],[4.0459,7.13835],[4.01925,7.12464],[3.99896,7.12657],[3.96557,7.1098],[3.96024,7.09228],[3.93892,7.08391],[3.82562,7.08283],[3.81698,7.05852],[3.80123,7.05506],[3.78289,7.02507],[3.794,6.98863],[3.7634,6.9561],[3.76166,6.94587],[3.76514,6.9273],[3.76345,6.89221],[3.7733,6.8779],[3.79036,6.88838],[3.82302,6.87413],[3.82861,6.86755],[3.85144,6.89039],[3.88523,6.90225],[3.89387,6.88677],[3.91156,6.87441],[3.93748,6.88077],[3.95368,6.89426],[3.96852,6.91549],[3.9886,6.91729],[4.00378,6.9277],[4.03578,6.92829],[4.0491,6.9407],[4.06353,6.92861],[4.07793,6.92995],[4.09147,6.89755],[4.10369,6.89945],[4.11434,6.91695],[4.11449,6.92713],[4.12688,6.93346],[4.13016,6.95409],[4.14715,6.9641],[4.15107,6.99129],[4.17822,7.00338],[4.20551,7.00162],[4.23517,7.01079],[4.30424,7.02725],[4.34278,7.06796],[4.29822,7.09055],[4.26849,7.08835],[4.21877,7.04712],[4.19789,7.04916],[4.186,7.08543],[4.18296,7.11132],[4.17116,7.17071],[4.08836,7.13345]]]}}