{"type":"Feature","properties":{"id":"NGA.4.27","name":"Ohaji/Egbema","level":2,"country":"NGA"},"geometry":{"type":"Polygon","coordinates":[[[6.81656,5.25944],[6.82709,5.25243],[6.84899,5.2498],[6.87558,5.23793],[6.88759,5.22561],[6.90395,5.21953],[6.94357,5.22864],[6.97179,5.23624],[6.9865,5.23426],[7.00358,5.23996],[7.00634,5.26462],[6.98805,5.26009],[6.9862,5.28846],[7.0172,5.27987],[7.02657,5.2887],[7.02288,5.30383],[7.01167,5.31092],[6.98231,5.34169],[6.98673,5.37555],[6.97639,5.39397],[6.96303,5.38132],[6.93968,5.39856],[6.92025,5.38547],[6.8905,5.37791],[6.86974,5.38476],[6.87017,5.39196],[6.90644,5.4248],[6.93019,5.44269],[6.91796,5.45159],[6.91365,5.46767],[6.89643,5.48416],[6.88562,5.50322],[6.92905,5.52536],[6.92937,5.54249],[6.90477,5.53109],[6.88882,5.52928],[6.85182,5.5806],[6.8261,5.60178],[6.81302,5.60615],[6.76424,5.61411],[6.73564,5.61414],[6.70878,5.6222],[6.66748,5.62198],[6.65844,5.62485],[6.63908,5.49345],[6.65273,5.49072],[6.71559,5.4891],[6.74136,5.49405],[6.75119,5.46484],[6.74408,5.4491],[6.76254,5.41021],[6.75814,5.38979],[6.76047,5.35344],[6.7558,5.32345],[6.76145,5.3159],[6.78623,5.28479],[6.81656,5.25944]]]}}