{"type":"Feature","properties":{"id":"NGA.20.6","name":"Nafada","level":2,"country":"NGA"},"geometry":{"type":"Polygon","coordinates":[[[10.98172,11.17882],[11.00853,11.14909],[11.0207,11.15718],[11.03593,11.13434],[11.01573,11.10796],[11.02868,11.09898],[11.05544,11.0896],[11.06403,11.07054],[11.08691,11.05421],[11.0979,11.03117],[11.12137,11.00551],[11.12065,10.98598],[11.11227,10.97071],[11.10203,10.93335],[11.14842,10.90279],[11.19002,10.87828],[11.21777,10.85699],[11.2053,10.81249],[11.21651,10.80347],[11.24549,10.80098],[11.3089,10.79052],[11.34012,10.7953],[11.36384,10.83968],[11.34522,10.87198],[11.34693,10.89959],[11.33946,10.92105],[11.34333,10.92915],[11.32681,10.95155],[11.32209,10.96498],[11.33097,11.00884],[11.37847,11.03952],[11.38276,11.06179],[11.38061,11.07872],[11.39114,11.09016],[11.3781,11.09437],[11.37321,11.11395],[11.36,11.12745],[11.35488,11.14415],[11.34156,11.16376],[11.31938,11.18623],[11.31145,11.16892],[11.27545,11.17232],[11.24856,11.18357],[11.22376,11.16483],[11.20088,11.17509],[11.1819,11.19902],[11.13379,11.20777],[11.09187,11.2261],[11.07744,11.28672],[10.98172,11.17882]]]}}