{"type":"Feature","properties":{"id":"NGA.29.7","name":"Gagarawa","level":2,"country":"NGA"},"geometry":{"type":"Polygon","coordinates":[[[9.40037,12.56006],[9.40993,12.53706],[9.40033,12.53214],[9.39818,12.4908],[9.38398,12.47192],[9.39445,12.45717],[9.40667,12.45268],[9.40945,12.43219],[9.39874,12.40889],[9.40177,12.39762],[9.42087,12.38421],[9.45035,12.38455],[9.46555,12.37762],[9.47665,12.38142],[9.5349,12.3672],[9.57915,12.39126],[9.64818,12.42942],[9.64158,12.43977],[9.66589,12.46643],[9.64333,12.47013],[9.64911,12.49236],[9.6461,12.50943],[9.66523,12.53586],[9.66406,12.56266],[9.61157,12.56271],[9.58942,12.5765],[9.56266,12.57888],[9.5663,12.602],[9.50947,12.57693],[9.47577,12.59252],[9.45284,12.5881],[9.43163,12.55541],[9.40037,12.56006]]]}}