{"type":"Feature","properties":{"id":"COD.9","name":"Kasaï-Oriental","level":1,"country":"COD"},"geometry":{"type":"Polygon","coordinates":[[[24.42154,-1.78676],[24.0828,-1.7462],[23.98596,-1.76496],[23.82767,-1.76935],[23.79165,-1.79426],[23.78235,-1.88355],[23.71827,-1.93084],[23.68882,-2.01517],[23.54263,-2.00613],[23.26331,-2.06091],[23.20079,-2.0639],[23.13438,-1.965],[23.09712,-1.94035],[23.00059,-1.93378],[22.93403,-1.95724],[22.90907,-1.9142],[22.8096,-1.85585],[22.67317,-1.80749],[22.62428,-1.80867],[22.54765,-1.92474],[22.47954,-1.95978],[22.32776,-1.94985],[22.18348,-1.91234],[22.17387,-1.95528],[22.20736,-2.03621],[22.22896,-2.18007],[22.29164,-2.40311],[22.25407,-2.46719],[22.19899,-2.45122],[22.19046,-2.33929],[22.16762,-2.28766],[22.11005,-2.29924],[22.04597,-2.37195],[21.9698,-2.41169],[21.89906,-2.49039],[21.9698,-2.56496],[21.99352,-2.67989],[22.15692,-2.89207],[22.19248,-3.01801],[22.11269,-3.24533],[22.06401,-3.32755],[22.04969,-3.3971],[21.97647,-3.50516],[21.98608,-3.62846],[22.02768,-3.66298],[22.12266,-3.69166],[22.19744,-3.85764],[22.17728,-3.90813],[22.06225,-3.91495],[22.08385,-3.97511],[22.13367,-4.02637],[22.30389,-3.99521],[22.42275,-4.13696],[22.4969,-4.19349],[22.62651,-4.25535],[22.67596,-4.29266],[22.86034,-4.49146],[22.95093,-4.49983],[23.11898,-4.53388],[23.15686,-4.58561],[23.17686,-4.73682],[23.13888,-4.77449],[23.00292,-4.80952],[22.95698,-4.87329],[22.96101,-4.97448],[23.16074,-5.1524],[23.25153,-5.2527],[23.41896,-5.21725],[23.46738,-5.27539],[23.55766,-5.30391],[23.72541,-5.39678],[23.73781,-5.42566],[23.73905,-5.60043],[23.65792,-5.62343],[23.52433,-5.68255],[23.4247,-5.76146],[23.35783,-5.70621],[23.27944,-5.74094],[22.99842,-5.77236],[22.95372,-5.85964],[22.95667,-5.9848],[22.97811,-6.06319],[23.07118,-6.16417],[23.08658,-6.21394],[23.03847,-6.29719],[23.02669,-6.38204],[22.93264,-6.57205],[22.93961,-6.66626],[23.02049,-6.72615],[23.08488,-6.82594],[23.175,-6.87188],[23.24223,-6.9479],[23.19986,-7.08546],[23.21272,-7.3812],[23.18761,-7.51138],[23.1581,-7.7974],[23.18404,-7.89528],[23.22513,-7.93812],[23.27789,-7.9022],[23.36946,-7.90303],[23.49762,-7.92515],[23.56681,-7.90427],[23.65761,-7.90913],[23.73347,-7.87998],[23.79941,-7.89042],[23.8407,-7.84014],[23.94684,-7.83115],[23.92312,-7.73002],[23.93185,-7.52414],[23.96405,-7.47717],[23.99138,-7.34332],[23.96808,-7.20617],[24.07556,-7.06639],[24.12073,-7.05683],[24.14905,-7.00071],[24.14595,-6.87658],[24.22848,-6.91322],[24.2446,-6.99229],[24.37002,-7.05502],[24.45378,-7.07027],[24.50856,-7.00329],[24.59812,-6.9881],[24.65072,-6.94526],[24.75687,-6.90035],[24.8996,-6.79039],[24.91277,-6.709],[24.97344,-6.66243],[25.14372,-6.67019],[25.21787,-6.69944],[25.28831,-6.75804],[25.32913,-6.75633],[25.44432,-6.69969],[25.49873,-6.535],[25.40282,-6.54761],[25.36055,-6.52513],[25.25709,-6.39951],[25.33456,-6.32907],[25.49362,-6.35527],[25.65046,-6.30478],[25.76373,-6.20298],[25.83577,-6.1959],[25.93493,-6.23517],[25.9571,-6.30018],[26.07193,-6.25621],[26.1374,-6.26112],[26.17668,-6.19848],[26.13833,-6.11446],[26.1728,-6.01669],[26.16303,-5.92661],[26.16846,-5.79505],[26.15368,-5.74523],[26.06774,-5.64152],[26.09162,-5.57268],[26.1419,-5.50457],[26.08635,-5.37946],[26.12392,-5.28071],[26.20629,-5.16242],[26.26944,-4.99995],[25.10429,-4.99747],[25.05876,-4.98812],[25.00264,-4.84678],[24.9027,-4.75098],[24.85412,-4.64953],[24.87557,-4.59321],[25.01241,-4.44474],[24.97484,-4.39012],[25.00987,-4.27891],[25.00905,-4.1676],[24.98512,-4.14243],[24.9598,-4.03298],[24.89572,-4.00963],[24.89572,-3.96834],[24.83428,-3.91712],[24.80353,-3.8346],[24.74348,-3.79806],[24.79619,-3.68587],[24.77252,-3.54381],[24.86435,-3.37654],[24.90657,-3.35168],[24.90048,-3.27148],[24.96089,-3.25551],[25.00745,-3.15479],[25.0354,-3.05506],[25.03354,-2.95754],[25.10604,-2.79073],[25.07742,-2.58785],[25.08517,-2.44729],[24.74131,-2.4675],[24.68126,-2.41081],[24.58416,-2.23159],[24.49368,-2.10824],[24.45068,-1.93869],[24.42154,-1.78676]]]}}