{"type":"Feature","properties":{"id":"TUN.13.3","name":"المكناسي","level":2,"country":"TUN"},"geometry":{"type":"Polygon","coordinates":[[[9.84126,34.646],[9.82812,34.6579],[9.813,34.66371],[9.80699,34.67318],[9.80243,34.68847],[9.78949,34.69317],[9.77748,34.69085],[9.76264,34.67932],[9.75645,34.68861],[9.718,34.70565],[9.72211,34.71954],[9.72486,34.73954],[9.69671,34.7685],[9.68164,34.77404],[9.63439,34.78709],[9.63136,34.78572],[9.61475,34.7702],[9.61212,34.7611],[9.58895,34.75419],[9.57448,34.74583],[9.55935,34.75648],[9.55224,34.77498],[9.5273,34.76519],[9.52611,34.75353],[9.51819,34.74815],[9.52097,34.73597],[9.53058,34.73106],[9.54514,34.71052],[9.55136,34.69722],[9.55304,34.68441],[9.56405,34.67479],[9.55467,34.67233],[9.54671,34.66273],[9.52991,34.655],[9.49131,34.65107],[9.49716,34.64336],[9.50308,34.59912],[9.51692,34.60123],[9.52457,34.58154],[9.47704,34.57677],[9.48309,34.53164],[9.46338,34.52426],[9.44191,34.52709],[9.43425,34.51471],[9.43947,34.5013],[9.45031,34.49511],[9.45695,34.48653],[9.46024,34.49081],[9.51178,34.48254],[9.53598,34.4854],[9.55813,34.49096],[9.59009,34.49045],[9.59727,34.49518],[9.61634,34.49978],[9.63308,34.49808],[9.63965,34.50405],[9.6502,34.50649],[9.6581,34.51779],[9.6548,34.52493],[9.66832,34.5331],[9.67295,34.55064],[9.69577,34.57305],[9.69638,34.58404],[9.70217,34.59073],[9.69823,34.5988],[9.70406,34.60523],[9.71463,34.60702],[9.72554,34.61733],[9.74844,34.60873],[9.78252,34.62198],[9.78992,34.63046],[9.80056,34.62668],[9.82176,34.63127],[9.84126,34.646]]]}}