{"type":"Feature","properties":{"id":"TUN.10.13","name":"فوسانة","level":2,"country":"TUN"},"geometry":{"type":"Polygon","coordinates":[[[8.6457,35.44086],[8.63314,35.4273],[8.61724,35.41919],[8.61445,35.41237],[8.59513,35.40727],[8.57819,35.42359],[8.57056,35.41811],[8.55823,35.41939],[8.54442,35.41693],[8.53549,35.42012],[8.52144,35.41976],[8.49304,35.4087],[8.48405,35.41678],[8.47528,35.44562],[8.48013,35.46406],[8.47312,35.48634],[8.45624,35.48094],[8.446,35.47339],[8.42894,35.47062],[8.40155,35.46329],[8.3844,35.46676],[8.37243,35.46786],[8.35327,35.46314],[8.34981,35.45427],[8.33941,35.44549],[8.32449,35.41339],[8.32919,35.40248],[8.31767,35.38521],[8.31269,35.37223],[8.31528,35.36637],[8.31738,35.34124],[8.31685,35.32588],[8.31155,35.31506],[8.32401,35.29841],[8.32474,35.28979],[8.3336,35.28045],[8.35878,35.27624],[8.3642,35.27103],[8.37845,35.26643],[8.40877,35.24498],[8.42239,35.24598],[8.43966,35.23743],[8.47432,35.23734],[8.45449,35.22005],[8.43857,35.19847],[8.46849,35.19939],[8.48736,35.20416],[8.5056,35.21263],[8.52248,35.22598],[8.53322,35.24167],[8.55325,35.25581],[8.57714,35.24083],[8.61647,35.20774],[8.63419,35.19548],[8.66168,35.19942],[8.68041,35.20532],[8.70043,35.2201],[8.72269,35.24583],[8.72053,35.25525],[8.73922,35.26303],[8.72777,35.26999],[8.73091,35.27746],[8.75099,35.28181],[8.76468,35.28979],[8.77333,35.30399],[8.80223,35.30547],[8.79915,35.31362],[8.80201,35.32712],[8.82252,35.35187],[8.83478,35.3636],[8.84771,35.36978],[8.82948,35.36685],[8.82117,35.36246],[8.81164,35.37337],[8.78944,35.37516],[8.75648,35.38827],[8.73316,35.38315],[8.73463,35.3972],[8.73882,35.40611],[8.72862,35.40874],[8.70038,35.42852],[8.69038,35.41241],[8.66679,35.41366],[8.66328,35.42116],[8.6457,35.44086]]]}}