{"type":"Feature","properties":{"id":"TUN.16.2","name":"بومرداس","level":2,"country":"TUN"},"geometry":{"type":"Polygon","coordinates":[[[10.79518,35.37861],[10.79867,35.38785],[10.80802,35.38801],[10.81482,35.39755],[10.82352,35.40202],[10.8334,35.41434],[10.85029,35.41822],[10.85137,35.43918],[10.84287,35.43731],[10.82517,35.43019],[10.81531,35.43321],[10.80852,35.42302],[10.79714,35.42871],[10.78134,35.42721],[10.78157,35.43481],[10.75966,35.44978],[10.75355,35.46373],[10.73086,35.4745],[10.73552,35.48736],[10.71801,35.48926],[10.71212,35.4752],[10.7051,35.47855],[10.69736,35.4735],[10.6772,35.47722],[10.67234,35.48474],[10.66096,35.47728],[10.65561,35.48186],[10.64016,35.48591],[10.63813,35.50021],[10.62107,35.48556],[10.6133,35.47452],[10.61236,35.46565],[10.60485,35.46449],[10.59602,35.45647],[10.57157,35.44857],[10.57465,35.43686],[10.56759,35.41951],[10.58501,35.41374],[10.58899,35.43017],[10.59843,35.41953],[10.61981,35.4148],[10.61727,35.40605],[10.61916,35.39323],[10.6273,35.39778],[10.6346,35.38491],[10.65667,35.38358],[10.66622,35.37523],[10.67213,35.3573],[10.68003,35.35248],[10.7122,35.36642],[10.71823,35.38149],[10.73199,35.38827],[10.75024,35.39085],[10.73857,35.40779],[10.75987,35.41293],[10.77128,35.40133],[10.77991,35.40235],[10.79079,35.38109],[10.79518,35.37861]]]}}