{"type":"Feature","properties":{"id":"TUN.2.16","name":"رواد","level":2,"country":"TUN"},"geometry":{"type":"Polygon","coordinates":[[[10.15424,36.89073],[10.16281,36.88989],[10.1855,36.87496],[10.18633,36.87997],[10.21115,36.89238],[10.19119,36.906],[10.19152,36.91058],[10.18282,36.92145],[10.18051,36.93746],[10.19633,36.93788],[10.20568,36.94587],[10.22497,36.95225],[10.23915,36.95126],[10.2166,36.96932],[10.20514,36.98229],[10.19406,36.97818],[10.18765,36.96299],[10.17199,36.95284],[10.16767,36.97229],[10.14353,36.96485],[10.15951,36.95029],[10.14045,36.94629],[10.12295,36.93441],[10.11411,36.92479],[10.1162,36.9152],[10.13286,36.89986],[10.14394,36.89895],[10.15424,36.89073]]]}}