{"type":"Feature","properties":{"id":"KWT.1.19","name":"Suwaikh_Port","level":2,"country":"KWT"},"geometry":{"type":"Polygon","coordinates":[[[47.94448,29.35318],[47.94327,29.35489],[47.92572,29.34641],[47.91952,29.35213],[47.92896,29.35529],[47.93042,29.35828],[47.92549,29.3621],[47.91218,29.35492],[47.9082,29.35876],[47.90184,29.35356],[47.91655,29.34482],[47.92359,29.34359],[47.92625,29.33962],[47.93542,29.34533],[47.94039,29.34842],[47.942,29.34942],[47.94555,29.35165],[47.94448,29.35318]]]}}