{"type":"Feature","properties":{"id":"ZWE.10","name":"Mashonaland West","level":1,"country":"ZWE"},"geometry":{"type":"Polygon","coordinates":[[[30.2962,-15.63904],[30.25488,-15.62886],[30.20723,-15.65315],[30.13013,-15.6237],[30.01065,-15.64623],[29.83733,-15.61481],[29.77325,-15.63806],[29.64851,-15.66659],[29.58722,-15.65574],[29.50846,-15.70359],[29.40697,-15.71423],[29.18631,-15.81283],[29.15096,-15.8488],[29.10218,-15.87092],[29.04234,-15.94626],[28.93237,-15.96373],[28.86034,-16.04941],[28.87098,-16.08723],[28.84711,-16.20268],[28.86416,-16.2312],[28.83677,-16.30634],[28.85724,-16.3882],[28.82251,-16.47078],[28.73285,-16.55811],[28.6433,-16.56875],[28.28011,-16.70652],[28.21252,-16.74859],[28.11392,-16.82755],[28.02299,-16.86539],[28.04261,-16.94599],[28.03238,-17.00025],[28.05842,-17.02754],[28.04261,-17.08464],[28.08695,-17.13213],[28.13862,-17.14929],[28.16849,-17.31517],[28.23547,-17.36561],[28.24756,-17.40958],[28.30564,-17.40617],[28.42305,-17.38142],[28.5016,-17.39501],[28.54728,-17.36225],[28.6465,-17.23161],[28.70035,-17.22298],[28.73239,-17.18986],[28.81569,-17.15564],[28.93217,-17.14231],[28.98012,-17.22401],[29.19055,-17.31207],[29.24181,-17.30918],[29.27117,-17.3299],[29.29225,-17.38871],[29.35912,-17.46281],[29.40242,-17.48539],[29.31736,-17.58673],[29.33741,-17.62047],[29.33504,-17.69277],[29.30351,-17.73287],[29.32057,-17.76687],[29.28615,-17.81116],[29.20006,-18.00794],[29.21577,-18.0805],[29.24801,-18.13703],[29.31468,-18.21284],[29.37307,-18.26126],[29.40738,-18.27258],[29.54469,-18.35733],[29.58923,-18.40229],[29.55978,-18.48151],[29.56133,-18.55949],[29.58102,-18.59225],[29.65889,-18.62863],[29.71832,-18.63054],[29.83025,-18.68573],[29.93278,-18.71829],[29.98647,-18.70263],[30.0875,-18.73793],[30.18062,-18.75162],[30.22299,-18.78722],[30.31219,-18.81901],[30.36309,-18.86154],[30.38794,-18.82981],[30.39849,-18.77508],[30.44158,-18.69131],[30.46489,-18.69105],[30.49869,-18.76702],[30.54959,-18.72661],[30.60685,-18.74439],[30.61883,-18.70537],[30.65604,-18.71591],[30.70198,-18.64103],[30.75784,-18.57215],[30.76544,-18.43412],[30.79634,-18.38492],[30.71578,-18.29702],[30.7026,-18.2331],[30.75846,-18.17403],[30.77242,-18.10484],[30.79851,-18.07078],[30.78131,-18.02376],[30.81712,-17.98629],[30.82208,-17.9235],[30.87903,-17.94903],[30.93861,-17.9326],[30.90264,-17.87906],[30.90605,-17.8032],[30.94264,-17.78408],[30.98207,-17.72171],[30.95463,-17.67758],[30.9059,-17.69117],[30.78348,-17.63329],[30.77598,-17.5626],[30.63542,-17.56306],[30.62566,-17.53288],[30.63806,-17.44994],[30.62271,-17.36349],[30.67873,-17.26086],[30.66937,-17.2284],[30.72384,-17.16231],[30.7349,-17.07968],[30.69966,-17.05477],[30.64798,-17.04526],[30.62256,-17.06159],[30.55641,-17.05705],[30.52866,-16.94687],[30.52292,-16.85913],[30.55145,-16.80218],[30.50277,-16.69547],[30.40624,-16.64787],[30.38076,-16.61113],[30.38588,-16.55336],[30.43554,-16.41011],[30.41445,-16.342],[30.34355,-16.33983],[30.29234,-16.26929],[30.21333,-16.28097],[30.21286,-16.33347],[30.15685,-16.36763],[30.10331,-16.36887],[30.06703,-16.33549],[30.09695,-16.30345],[30.09385,-16.24914],[30.14631,-16.16609],[30.10424,-16.14263],[30.08936,-16.0555],[30.0506,-15.9952],[30.31172,-15.77681],[30.32335,-15.7501],[30.29405,-15.69031],[30.2962,-15.63904]]]}}