{"type":"Feature","properties":{"id":"ZWE.3","name":"Matabeleland North","level":1,"country":"ZWE"},"geometry":{"type":"Polygon","coordinates":[[[28.02299,-16.86539],[27.86856,-16.92966],[27.81689,-16.95964],[27.7773,-17.00118],[27.64119,-17.19848],[27.6045,-17.31279],[27.57731,-17.36312],[27.42208,-17.50482],[27.15708,-17.7693],[27.14902,-17.84248],[27.04846,-17.94428],[26.88826,-17.98459],[26.794,-18.02624],[26.75359,-18.03296],[26.71194,-18.06582],[26.61272,-18.04122],[26.57024,-18.00288],[26.48549,-17.97931],[26.4086,-17.93901],[26.3255,-17.93601],[26.2392,-17.91017],[26.20303,-17.88723],[26.15859,-17.91834],[26.09523,-17.93808],[25.97855,-17.99895],[25.9245,-17.99895],[25.86362,-17.97156],[25.84967,-17.90666],[25.786,-17.86222],[25.68141,-17.81147],[25.604,-17.83617],[25.49558,-17.85488],[25.42029,-17.85488],[25.33554,-17.84123],[25.25978,-17.79411],[25.21937,-17.87979],[25.22609,-17.93188],[25.25503,-18.00112],[25.29637,-18.06861],[25.38753,-18.139],[25.44086,-18.2532],[25.4732,-18.30343],[25.5085,-18.39913],[25.62208,-18.50114],[25.66952,-18.56605],[25.76192,-18.63033],[25.77949,-18.73875],[25.81525,-18.81399],[25.94072,-18.92127],[25.9678,-19.00096],[25.94486,-19.0792],[25.95653,-19.12209],[26.03436,-19.24373],[26.13027,-19.50108],[26.19445,-19.5602],[26.29264,-19.5725],[26.33346,-19.61301],[26.31217,-19.65136],[26.38524,-19.67906],[26.43185,-19.73652],[26.50885,-19.75926],[26.56632,-19.80081],[26.59557,-19.85558],[26.67717,-19.88681],[26.74284,-19.8547],[26.93839,-19.81016],[26.99627,-19.81491],[27.13558,-19.79884],[27.26209,-19.81641],[27.31532,-19.79466],[27.3889,-19.80582],[27.4567,-19.84556],[27.52605,-19.86054],[27.56109,-19.89754],[27.56729,-19.93976],[27.64542,-20.03201],[27.7619,-20.12854],[27.84242,-20.18058],[27.91445,-20.18735],[27.93016,-20.11236],[27.95755,-20.06694],[27.99248,-20.11898],[28.14235,-20.08384],[28.18648,-20.12213],[28.20477,-20.17143],[28.27619,-20.24264],[28.33903,-20.33561],[28.474,-20.23995],[28.49974,-20.22977],[28.49374,-20.17143],[28.39659,-20.16637],[28.41375,-20.14053],[28.43122,-20.03123],[28.48785,-20.06007],[28.58211,-20.04084],[28.57705,-20.0749],[28.64743,-20.08761],[28.68174,-20.12306],[28.66934,-20.15996],[28.69931,-20.19918],[28.66676,-20.22269],[28.59989,-20.2367],[28.67265,-20.27623],[28.83894,-20.0935],[28.83491,-20.04984],[28.97113,-19.97118],[28.99087,-19.93253],[28.96214,-19.83579],[29.03087,-19.84323],[29.08503,-19.81181],[29.10187,-19.7558],[29.09898,-19.69766],[29.06446,-19.64702],[29.12244,-19.59064],[29.12513,-19.55896],[29.09123,-19.51674],[29.11345,-19.49385],[29.20016,-19.51705],[29.22393,-19.48744],[29.09836,-19.37339],[29.10931,-19.29696],[28.99821,-19.18374],[29.0163,-19.09935],[28.93971,-19.00003],[28.88121,-18.74738],[28.89858,-18.71581],[28.95273,-18.70335],[29.12823,-18.63282],[29.14187,-18.61514],[29.10725,-18.56522],[28.73332,-18.5692],[28.67203,-18.55515],[28.51059,-18.57731],[28.22182,-18.57514],[28.10979,-18.55453],[28.05656,-18.5613],[28.01067,-18.54342],[28.0052,-18.5152],[28.00923,-18.2223],[28.10007,-18.20214],[28.0547,-18.16871],[28.07444,-18.12571],[28.06514,-18.06153],[28.01749,-18.04277],[28.00861,-18.00691],[28.06772,-17.92423],[28.08684,-17.85788],[28.07692,-17.79499],[28.08715,-17.75452],[28.14317,-17.73799],[28.20105,-17.68512],[28.19588,-17.64802],[28.21614,-17.58353],[28.2118,-17.54715],[28.24497,-17.44638],[28.24756,-17.40958],[28.23547,-17.36561],[28.16849,-17.31517],[28.13862,-17.14929],[28.08695,-17.13213],[28.04261,-17.08464],[28.05842,-17.02754],[28.03238,-17.00025],[28.04261,-16.94599],[28.02299,-16.86539]]]}}