{"type":"Feature","properties":{"id":"CUB.1","name":"Cienfuegos","level":1,"country":"CUB"},"geometry":{"type":"Polygon","coordinates":[[[-80.10103,21.82477],[-80.09771,21.87148],[-80.02405,21.93851],[-80.045,21.96861],[-80.05084,22.02832],[-80.07738,22.05788],[-80.09986,22.1234],[-80.10358,22.1902],[-80.08407,22.24562],[-80.13022,22.28621],[-80.14159,22.3291],[-80.18427,22.33135],[-80.23295,22.37031],[-80.243,22.39538],[-80.22081,22.4278],[-80.23652,22.47847],[-80.27024,22.5178],[-80.25398,22.56904],[-80.30352,22.56857],[-80.31801,22.53604],[-80.37537,22.51625],[-80.37927,22.56397],[-80.45942,22.58464],[-80.51968,22.54201],[-80.54332,22.52516],[-80.57608,22.47439],[-80.6237,22.45953],[-80.8371,22.48204],[-80.88899,22.4538],[-80.94074,22.36013],[-80.9256,22.32282],[-80.93095,22.26911],[-80.89937,22.25009],[-80.89743,22.21149],[-80.83227,22.15754],[-80.74119,22.11695],[-80.69628,22.12769],[-80.61817,22.12129],[-80.59337,22.05423],[-80.51374,22.05634],[-80.47077,22.04121],[-80.47085,22.0891],[-80.49865,22.13056],[-80.53824,22.16446],[-80.48445,22.19204],[-80.44343,22.1579],[-80.45775,22.14277],[-80.39615,22.10139],[-80.43724,22.04121],[-80.4099,22.0207],[-80.30077,21.91169],[-80.26993,21.88703],[-80.21768,21.87149],[-80.18822,21.84846],[-80.10103,21.82477]]]}}