{"type":"Feature","properties":{"id":"COG.9.5","name":"Mossendjo","level":2,"country":"COG"},"geometry":{"type":"Polygon","coordinates":[[[13.03864,-2.57016],[13.0274,-2.59045],[12.97976,-2.6362],[12.83965,-2.67349],[12.79823,-2.67047],[12.76148,-2.67649],[12.72663,-2.66566],[12.67288,-2.60052],[12.64189,-2.60033],[12.56818,-2.56573],[12.51679,-2.56067],[12.48117,-2.57116],[12.4567,-2.57092],[12.4415,-2.60404],[12.41908,-2.63584],[12.40753,-2.66935],[12.43511,-2.67799],[12.40238,-2.75824],[12.35587,-2.81991],[12.33473,-2.8704],[12.32888,-2.89742],[12.30417,-2.96955],[12.30427,-3.01502],[12.28315,-3.05793],[12.27903,-3.10518],[12.26845,-3.14888],[12.27411,-3.18605],[12.29475,-3.23445],[12.31233,-3.26658],[12.3468,-3.31577],[12.48106,-3.46389],[12.50422,-3.5005],[12.5289,-3.48443],[12.54806,-3.48334],[12.58893,-3.49586],[12.6142,-3.49927],[12.65462,-3.52821],[12.6575,-3.50167],[12.63194,-3.495],[12.62083,-3.46361],[12.61778,-3.43944],[12.59889,-3.42389],[12.62056,-3.40639],[12.64972,-3.40444],[12.66695,-3.36611],[12.66889,-3.34028],[12.67944,-3.32306],[12.71417,-3.30306],[12.74389,-3.29889],[12.78056,-3.30444],[12.80944,-3.2925],[12.83444,-3.29028],[12.85083,-3.30167],[12.87222,-3.3],[12.89028,-3.28389],[12.90806,-3.29778],[12.92333,-3.29111],[12.92389,-3.24694],[12.96194,-3.25361],[12.99306,-3.24056],[13.01556,-3.23889],[13.03114,-3.21198],[13.06333,-3.20306],[13.07306,-3.18083],[13.10222,-3.16333],[13.10861,-3.13111],[13.105,-3.08083],[13.11528,-3.03528],[13.1325,-2.98833],[13.10722,-2.95778],[13.06889,-2.92556],[13.04722,-2.92667],[13.0175,-2.91667],[13.01,-2.88611],[12.9975,-2.87222],[12.9975,-2.85611],[13.02055,-2.84806],[13.04861,-2.82444],[13.07083,-2.8275],[13.07611,-2.80806],[13.05667,-2.76944],[13.04583,-2.72139],[13.04556,-2.68944],[13.03833,-2.61167],[13.03864,-2.57016]]]}}