{"type":"Feature","properties":{"id":"COG.9.6","name":"Abala","level":2,"country":"COG"},"geometry":{"type":"Polygon","coordinates":[[[12.65462,-3.52821],[12.6142,-3.49927],[12.58893,-3.49586],[12.54806,-3.48334],[12.5289,-3.48443],[12.50422,-3.5005],[12.52292,-3.52859],[12.50774,-3.54455],[12.47149,-3.56508],[12.4014,-3.57608],[12.34853,-3.57246],[12.33409,-3.59967],[12.33491,-3.62795],[12.32737,-3.66711],[12.30152,-3.71928],[12.28194,-3.74403],[12.22505,-3.79505],[12.18251,-3.86592],[12.17107,-3.89403],[12.18806,-3.91194],[12.21028,-3.91806],[12.21028,-3.94889],[12.24806,-3.95111],[12.26306,-3.96306],[12.2875,-3.96583],[12.31972,-3.9775],[12.34389,-3.97667],[12.3825,-3.99083],[12.39194,-4.00333],[12.39083,-4.02583],[12.42889,-4.03111],[12.44556,-4.04139],[12.50361,-4.11083],[12.53806,-4.14583],[12.55639,-4.17222],[12.545,-4.2475],[12.55472,-4.27222],[12.58583,-4.31722],[12.60806,-4.33139],[12.62361,-4.33333],[12.68778,-4.32944],[12.72556,-4.34083],[12.76477,-4.37449],[12.77749,-4.38136],[12.78771,-4.36099],[12.78757,-4.3368],[12.82161,-4.31823],[12.96504,-4.32911],[12.97997,-4.33855],[13.01096,-4.33562],[12.99417,-4.3325],[12.97639,-4.30278],[12.95833,-4.25056],[12.94556,-4.22556],[12.90139,-4.15417],[12.88389,-4.13083],[12.86417,-4.09083],[12.83028,-4.05306],[12.7775,-4.01361],[12.72389,-3.95194],[12.69889,-3.90528],[12.66667,-3.86],[12.63556,-3.83611],[12.59778,-3.81444],[12.59583,-3.80028],[12.62194,-3.77611],[12.65111,-3.76139],[12.635,-3.73917],[12.62722,-3.70028],[12.64361,-3.68472],[12.63028,-3.66278],[12.61722,-3.60472],[12.6175,-3.57417],[12.62806,-3.55167],[12.65462,-3.52821]]]}}