{"type":"Feature","properties":{"id":"MYS.1.3","name":"Hulu Perak","level":2,"country":"MYS"},"geometry":{"type":"Polygon","coordinates":[[[101.68943,5.75677],[101.68776,5.78127],[101.67895,5.78198],[101.66634,5.79832],[101.66658,5.80874],[101.65682,5.82129],[101.6611,5.84852],[101.65744,5.87665],[101.63885,5.87221],[101.6236,5.88035],[101.61616,5.90921],[101.59719,5.91216],[101.58008,5.93547],[101.57079,5.92659],[101.53769,5.91956],[101.52839,5.90477],[101.51574,5.90403],[101.48674,5.87221],[101.47558,5.87036],[101.46219,5.87628],[101.45438,5.86814],[101.42351,5.87517],[101.39339,5.8748],[101.38892,5.85593],[101.38148,5.85149],[101.37219,5.83151],[101.34801,5.82559],[101.34318,5.80931],[101.327,5.81105],[101.31848,5.80541],[101.2816,5.81388],[101.26032,5.78988],[101.24755,5.75459],[101.25464,5.73624],[101.25606,5.71789],[101.2518,5.70377],[101.22627,5.68542],[101.21066,5.66142],[101.17236,5.64166],[101.13972,5.61765],[101.12979,5.62895],[101.11703,5.66425],[101.09574,5.70095],[101.08439,5.71507],[101.06169,5.73483],[101.05602,5.74612],[101.04183,5.74189],[101.0092,5.76024],[100.97657,5.77577],[100.96096,5.77718],[100.94678,5.77012],[100.94536,5.75742],[100.95245,5.74048],[100.97515,5.71789],[100.98083,5.70236],[100.96664,5.65154],[100.95411,5.6439],[100.94017,5.6439],[100.9454,5.62944],[100.92971,5.61845],[100.92331,5.60284],[100.93087,5.59127],[100.94365,5.58838],[100.93494,5.55946],[100.94249,5.54905],[100.93261,5.5317],[100.93087,5.51261],[100.91983,5.49873],[100.90123,5.49121],[100.896,5.49757],[100.88205,5.49295],[100.86753,5.46344],[100.86695,5.42816],[100.87682,5.41716],[100.89891,5.4189],[100.90879,5.40964],[100.90995,5.39518],[100.92329,5.35663],[100.93259,5.34144],[100.92589,5.33626],[100.9337,5.30701],[100.9456,5.28775],[100.94895,5.27294],[100.94672,5.25071],[100.92478,5.24442],[100.91436,5.21997],[100.89242,5.20479],[100.90209,5.18812],[100.92069,5.1759],[100.93073,5.15627],[100.92217,5.14738],[100.91845,5.12923],[100.92478,5.1096],[100.91641,5.08433],[100.90871,5.06519],[100.88705,5.04574],[100.87872,5.03081],[100.88824,5.02488],[100.89276,5.00686],[100.87586,5.00093],[100.87634,4.99216],[100.8642,4.98338],[100.87497,4.96764],[100.89502,4.97734],[100.90544,4.97585],[100.91548,4.98364],[100.93296,4.98289],[100.97238,4.97548],[100.98651,4.97993],[101.00846,4.96882],[101.02854,4.9703],[101.04193,4.9992],[101.04862,5.02291],[101.06387,5.0355],[101.08061,5.06514],[101.09548,5.0744],[101.10701,5.06848],[101.11594,5.0744],[101.139,5.06181],[101.15648,5.06959],[101.17619,5.06662],[101.17954,5.05921],[101.19702,5.05329],[101.20929,5.06107],[101.24165,5.06588],[101.2502,5.07218],[101.27177,5.05477],[101.28999,5.0644],[101.31863,5.04625],[101.33314,5.0518],[101.34727,5.03773],[101.36289,5.03106],[101.36624,5.01142],[101.36103,4.99883],[101.36438,4.9703],[101.39599,4.97734],[101.40454,4.98623],[101.4228,4.9849],[101.4322,4.99161],[101.44768,4.99697],[101.44806,5.01179],[101.45884,5.02698],[101.46293,5.0707],[101.48376,5.08922],[101.47781,5.11293],[101.48636,5.13071],[101.4819,5.14775],[101.48409,5.17009],[101.49048,5.1834],[101.5114,5.20018],[101.51256,5.23143],[101.52244,5.24474],[101.52186,5.26326],[101.5451,5.26384],[101.54859,5.2812],[101.57183,5.29161],[101.57125,5.30319],[101.57764,5.32691],[101.59973,5.33501],[101.61077,5.34716],[101.62297,5.35121],[101.63227,5.3408],[101.65493,5.34253],[101.67062,5.32691],[101.69735,5.33212],[101.70316,5.33906],[101.74094,5.35815],[101.75256,5.37435],[101.73919,5.3894],[101.74291,5.39985],[101.74559,5.42064],[101.73629,5.46171],[101.74733,5.47443],[101.74675,5.50278],[101.72583,5.50047],[101.70898,5.51088],[101.69735,5.49931],[101.67469,5.51088],[101.66423,5.50856],[101.65609,5.5236],[101.67411,5.54847],[101.68399,5.58318],[101.67527,5.59821],[101.66249,5.60284],[101.65784,5.61614],[101.66249,5.62944],[101.65726,5.65894],[101.67195,5.67906],[101.69463,5.70385],[101.6898,5.72162],[101.69315,5.7305],[101.68943,5.75677]]]}}