{"type":"Feature","properties":{"id":"MNG.9.2","name":"U'yench","level":2,"country":"MNG"},"geometry":{"type":"Polygon","coordinates":[[[92.33354,46.43714],[92.26697,46.50268],[92.20196,46.52407],[92.17574,46.54614],[92.16739,46.56362],[92.12096,46.60039],[92.1215,46.612],[92.05656,46.63538],[92.03686,46.64594],[92.03459,46.67902],[91.94789,46.69324],[91.92174,46.68882],[91.90558,46.61529],[91.86263,46.61263],[91.79811,46.62408],[91.69317,46.62994],[91.62694,46.61711],[91.58909,46.59311],[91.63747,46.57844],[91.6398,46.55389],[91.68212,46.53673],[91.70525,46.50438],[91.69465,46.47466],[91.679,46.46424],[91.64189,46.44962],[91.58195,46.41579],[91.59124,46.36135],[91.54479,46.3218],[91.5349,46.28843],[91.47061,46.26027],[91.47117,46.2266],[91.50367,46.20022],[91.56914,46.19406],[91.62995,46.12961],[91.73982,46.08977],[91.74528,46.04331],[91.76981,46.0068],[91.68345,45.98186],[91.64124,45.95382],[91.62431,45.92818],[91.55578,45.89662],[91.5411,45.86954],[91.53508,45.83267],[91.48968,45.75044],[91.52219,45.70387],[91.50691,45.64666],[91.43894,45.57416],[91.42177,45.54841],[91.40538,45.46396],[91.38327,45.39341],[91.37264,45.34052],[91.23937,45.25637],[91.27096,45.20958],[91.29098,45.15175],[91.31243,45.12917],[91.37444,45.11047],[91.38675,45.12483],[91.42756,45.15639],[91.45489,45.15303],[91.46608,45.13856],[91.49161,45.11689],[91.49269,45.10608],[91.51622,45.09236],[91.53397,45.08861],[91.55969,45.07022],[91.56803,45.08253],[91.61586,45.06775],[91.68089,45.06392],[91.80114,45.08264],[91.891,45.07845],[92.02799,45.082],[92.01301,45.0931],[91.89922,45.26354],[91.90756,45.29345],[91.84116,45.39231],[91.77815,45.4555],[91.79755,45.47921],[91.77878,45.59023],[91.82671,45.62778],[91.82561,45.65034],[91.89953,45.68978],[91.91545,45.68977],[92.04541,45.75358],[92.07893,45.78893],[92.08047,45.84213],[92.08852,45.9194],[92.20104,45.98558],[92.26636,46.01067],[92.28309,46.04827],[92.25661,46.13059],[92.23672,46.15904],[92.24244,46.20164],[92.25003,46.23392],[92.24761,46.28304],[92.26934,46.30192],[92.30366,46.36578],[92.30916,46.38139],[92.3092,46.4098],[92.33354,46.43714]]]}}