{"type":"Feature","properties":{"id":"MNG.14.15","name":"Bayanjargalan","level":2,"country":"MNG"},"geometry":{"type":"Polygon","coordinates":[[[108.14446,46.07635],[108.06827,46.13051],[107.93574,46.08506],[107.8185,46.02495],[107.74632,45.97175],[107.73904,45.90976],[107.72461,45.82919],[107.63758,45.69335],[107.70352,45.60151],[107.82232,45.41756],[108.08689,45.53649],[108.30735,45.67274],[108.51393,45.67681],[108.56778,45.94596],[108.43463,45.90801],[108.40767,45.88048],[108.32353,45.90819],[108.3183,45.93483],[108.28899,45.9538],[108.21555,46.00702],[108.14446,46.07635]]]}}