{"type":"Feature","properties":{"id":"MNG.7.14","name":"Shilu'ustei","level":2,"country":"MNG"},"geometry":{"type":"Polygon","coordinates":[[[96.79139,46.87488],[96.84024,46.79494],[96.87777,46.74013],[96.94507,46.6983],[96.94149,46.65632],[96.98699,46.58948],[97.0182,46.59958],[97.09273,46.58818],[97.20946,46.56551],[97.27572,46.58647],[97.28241,46.59668],[97.30966,46.61067],[97.32397,46.63333],[97.35294,46.6485],[97.37044,46.67746],[97.38354,46.70891],[97.41185,46.72682],[97.42635,46.73728],[97.45744,46.73382],[97.47921,46.74214],[97.50124,46.76219],[97.5175,46.76749],[97.51427,46.79728],[97.49607,46.81205],[97.4937,46.83196],[97.50717,46.89285],[97.48601,46.92364],[97.48907,46.94604],[97.49875,46.9587],[97.47363,46.97774],[97.46473,47.00393],[97.4376,47.04753],[97.44351,47.0662],[97.44043,47.10079],[97.42897,47.11939],[97.44347,47.13708],[97.42735,47.18984],[97.44479,47.2343],[97.42639,47.24796],[97.43089,47.26858],[97.42566,47.29313],[97.43775,47.30007],[97.42727,47.33793],[97.40347,47.34278],[97.37321,47.35991],[97.36178,47.37647],[97.32254,47.35037],[97.26352,47.31531],[97.23694,47.33636],[97.21813,47.34152],[97.17777,47.31794],[97.13436,47.29578],[97.14836,47.28029],[97.13061,47.2331],[97.10387,47.20073],[97.07527,47.179],[97.06186,47.16109],[97.02518,47.13927],[96.98907,47.10194],[96.95486,47.05766],[96.9447,47.03196],[96.91461,46.96851],[96.86583,46.90961],[96.79139,46.87488]]]}}