{"type":"Feature","properties":{"id":"MNG.5.16","name":"Xangai","level":2,"country":"MNG"},"geometry":{"type":"Polygon","coordinates":[[[98.75215,47.73845],[98.76585,47.72796],[98.78915,47.72782],[98.78226,47.71184],[98.79717,47.70516],[98.79988,47.68201],[98.81824,47.66739],[98.82536,47.58552],[98.85314,47.5355],[98.876,47.53049],[98.90105,47.5154],[98.96402,47.50648],[99.07908,47.48032],[99.17139,47.47901],[99.24489,47.45994],[99.25986,47.48768],[99.36728,47.52221],[99.39181,47.57799],[99.40684,47.58108],[99.42402,47.60549],[99.4647,47.60155],[99.47645,47.58625],[99.49805,47.57342],[99.50998,47.57454],[99.55663,47.59337],[99.5698,47.61885],[99.63971,47.63087],[99.65558,47.62924],[99.69799,47.65983],[99.71884,47.66319],[99.74479,47.65073],[99.7626,47.65236],[99.94603,47.62906],[99.93007,47.75326],[99.90574,47.82659],[99.97276,47.85367],[100.08258,47.90074],[100.08285,47.94296],[100.08755,47.95985],[100.01099,47.95683],[99.92573,47.97582],[99.90704,47.98164],[99.82113,47.99533],[99.73234,47.98311],[99.63945,48.02123],[99.59514,48.00599],[99.59054,47.96296],[99.51571,47.95908],[99.45141,47.99275],[99.42603,48.0296],[99.34949,48.0427],[99.3328,48.04945],[99.28766,48.03247],[99.24545,48.00413],[99.19362,48.0296],[99.1776,47.97083],[99.20435,47.92436],[99.09489,47.91387],[99.00574,47.93829],[98.98051,47.89894],[98.87547,47.87284],[98.84808,47.83183],[98.87358,47.81001],[98.82574,47.76602],[98.75215,47.73845]]]}}