{"type":"Feature","properties":{"id":"MNG.16.9","name":"Xujirt","level":2,"country":"MNG"},"geometry":{"type":"Polygon","coordinates":[[[102.46694,46.73715],[102.5483,46.75643],[102.60357,46.74006],[102.69375,46.72511],[102.76265,46.75062],[102.8306,46.70057],[102.92259,46.70418],[102.94404,46.70642],[103.15394,46.74376],[103.2143,46.79772],[103.26528,46.81007],[103.36246,46.82797],[103.25499,46.91563],[103.19514,46.93356],[103.12949,46.8826],[103.03042,46.9013],[102.95484,46.91897],[102.8992,46.9485],[102.88822,46.97759],[102.85113,46.99262],[102.77184,47.00088],[102.62313,47.05353],[102.53355,47.11165],[102.51087,47.0778],[102.53712,47.03342],[102.52487,46.95606],[102.48641,46.92614],[102.47283,46.92943],[102.45319,46.91638],[102.4221,46.91189],[102.40814,46.90595],[102.40771,46.89093],[102.37747,46.89717],[102.36774,46.88974],[102.4171,46.79006],[102.44653,46.76312],[102.46694,46.73715]]]}}