{"type":"Feature","properties":{"id":"MNG.5.9","name":"Xairxan","level":2,"country":"MNG"},"geometry":{"type":"Polygon","coordinates":[[[102.18928,48.22733],[102.24664,48.29743],[102.29,48.32977],[102.34142,48.33919],[102.34536,48.36009],[102.37613,48.41976],[102.31971,48.46484],[102.24725,48.50212],[102.2261,48.51738],[102.21656,48.57322],[102.21489,48.61238],[102.22457,48.63143],[102.20705,48.64499],[102.17605,48.70424],[102.19361,48.70959],[102.16041,48.76534],[102.15682,48.78008],[102.15624,48.83539],[102.10988,48.86243],[102.09586,48.83712],[102.04797,48.83309],[102.02897,48.82284],[102.00544,48.79172],[101.97926,48.79434],[101.94419,48.81591],[101.95323,48.83242],[101.93606,48.85011],[101.95765,48.87382],[101.93179,48.89169],[101.87798,48.88865],[101.8625,48.89954],[101.8235,48.89493],[101.79962,48.88774],[101.7828,48.8896],[101.77249,48.87221],[101.76048,48.87614],[101.75165,48.85412],[101.72669,48.85324],[101.72571,48.83903],[101.73762,48.83209],[101.70843,48.80416],[101.71577,48.79609],[101.68502,48.78926],[101.67027,48.76123],[101.64615,48.75613],[101.64366,48.74312],[101.62761,48.7387],[101.62928,48.73535],[101.60995,48.68785],[101.62227,48.65695],[101.66612,48.59779],[101.63262,48.52632],[101.60634,48.48304],[101.66565,48.44247],[101.78223,48.40881],[101.87097,48.35301],[101.96244,48.30947],[101.95515,48.24651],[102.18928,48.22733]]]}}