{"type":"Feature","properties":{"id":"MNG.11.5","name":"Malchin","level":2,"country":"MNG"},"geometry":{"type":"Polygon","coordinates":[[[92.85582,50.02919],[92.86606,50.02225],[92.90499,50.01828],[92.91702,49.99566],[92.9188,49.94567],[92.93192,49.88693],[92.94045,49.80733],[92.97294,49.70971],[92.98486,49.6612],[92.97453,49.64031],[92.95446,49.61652],[92.8976,49.56961],[92.78382,49.49714],[92.76166,49.47569],[92.88418,49.33998],[92.91801,49.32635],[92.95056,49.32629],[92.98576,49.31257],[92.99956,49.32828],[93.01904,49.32882],[93.03278,49.31602],[93.06576,49.3134],[93.08665,49.32689],[93.138,49.33821],[93.14808,49.33462],[93.1784,49.30479],[93.22305,49.30402],[93.25625,49.31051],[93.31505,49.29329],[93.38466,49.26758],[93.50913,49.4508],[93.51698,49.63968],[93.57884,49.69395],[93.62452,49.77814],[93.64378,49.83965],[93.65849,49.86873],[93.63265,49.88243],[93.62478,49.90565],[93.62686,49.91816],[93.61299,49.932],[93.56608,49.95461],[93.54001,49.96277],[93.4894,49.96662],[93.47077,49.97407],[93.44386,49.97648],[93.4159,49.98551],[93.37927,50.00575],[93.34592,50.07705],[93.32678,50.15774],[93.20192,50.14462],[93.12936,50.13933],[93.03523,50.14195],[92.96375,50.0729],[92.85582,50.02919]]]}}