{"type":"Feature","properties":{"id":"MNG.2.15","name":"Sainshand","level":2,"country":"MNG"},"geometry":{"type":"Polygon","coordinates":[[[110.08191,44.98012],[110.02995,44.94497],[109.97176,44.81413],[109.7668,44.73745],[109.62086,44.60762],[109.5264,44.45632],[109.64097,44.37164],[109.79662,44.39026],[109.97712,44.39252],[109.9755,44.2629],[110.03357,44.27509],[110.05071,44.32321],[110.08217,44.36491],[110.07788,44.42945],[110.10761,44.46714],[110.16611,44.516],[110.23755,44.55646],[110.26777,44.58523],[110.27538,44.59783],[110.28201,44.60501],[110.25565,44.62935],[110.25541,44.65811],[110.17797,44.76628],[110.15322,44.79403],[110.20231,44.86093],[110.22949,44.91141],[110.1639,44.94843],[110.09099,44.98597],[110.08191,44.98012]]]}}