{"type":"Feature","properties":{"id":"MNG.15.8","name":"Altanbulag","level":2,"country":"MNG"},"geometry":{"type":"Polygon","coordinates":[[[107.30777,50.00033],[107.27978,50.00079],[107.27243,49.99062],[107.213,49.99903],[107.18799,50.01537],[107.16898,50.01322],[107.15024,50.02581],[107.15099,50.04445],[107.13219,50.05028],[107.09841,50.05041],[107.09292,50.06427],[107.07136,50.06904],[107.04991,50.0976],[107.0517,50.11138],[107.03845,50.13049],[107.00822,50.15106],[106.99658,50.18545],[107.01261,50.1993],[106.97973,50.20914],[106.87603,50.26301],[106.81586,50.29841],[106.75338,50.31278],[106.73159,50.31362],[106.59175,50.33869],[106.5725,50.33148],[106.54478,50.34344],[106.51401,50.34491],[106.4974,50.32386],[106.44762,50.31496],[106.38709,50.3196],[106.29496,50.30158],[106.26136,50.29836],[106.23236,50.31594],[106.20985,50.31943],[106.18314,50.33992],[106.09275,50.3344],[106.11944,50.31299],[106.13272,50.31373],[106.12985,50.28206],[106.14122,50.27083],[106.13825,50.24819],[106.14425,50.26079],[106.18703,50.26038],[106.21826,50.25083],[106.26088,50.24841],[106.26858,50.2103],[106.27806,50.19014],[106.29431,50.15618],[106.43232,50.07995],[106.46267,50.0516],[106.4357,49.99785],[106.40957,49.95459],[106.57113,49.94193],[106.61724,49.90656],[106.66052,49.98631],[106.68585,49.98225],[106.793,49.94638],[106.91916,49.92549],[107.03169,49.88572],[107.04693,49.84225],[107.11788,49.84243],[107.14979,49.79692],[107.21566,49.81956],[107.32202,49.84622],[107.30784,49.89238],[107.30797,49.92879],[107.27729,49.9687],[107.30744,49.99441],[107.30777,50.00033]]]}}