{"type":"Feature","properties":{"id":"MNG.2.17","name":"Su'mber","level":2,"country":"MNG"},"geometry":{"type":"Polygon","coordinates":[[[108.48675,46.79296],[108.4897,46.67082],[108.50241,46.57049],[108.34565,46.50116],[108.2776,46.56642],[108.19552,46.5407],[108.18139,46.52624],[108.15719,46.48917],[108.23321,46.39816],[108.29687,46.34225],[108.29482,46.3226],[108.30604,46.28414],[108.2848,46.2539],[108.25997,46.21026],[108.25935,46.18381],[108.23948,46.12138],[108.14446,46.07635],[108.21555,46.00702],[108.30451,46.05443],[108.36676,46.0511],[108.43991,46.10658],[108.47002,46.16841],[108.46211,46.19754],[108.53307,46.28708],[108.71582,46.18112],[108.78614,46.23595],[108.94959,46.42413],[109.01959,46.50672],[109.04394,46.56284],[109.0519,46.57191],[109.04111,46.61439],[109.04162,46.70957],[109.05912,46.72774],[109.07659,46.76621],[109.0985,46.83355],[109.12018,46.86419],[109.10002,46.88144],[109.06027,46.86484],[108.95154,46.83761],[108.95891,46.96853],[108.94325,46.97241],[108.9219,46.96753],[108.90147,46.98067],[108.864,46.98505],[108.84052,46.99968],[108.83568,46.93521],[108.77432,46.87405],[108.55714,46.79205],[108.48675,46.79296]]]}}