{"type":"Feature","properties":{"id":"MNG.2.7","name":"Erdene","level":2,"country":"MNG"},"geometry":{"type":"Polygon","coordinates":[[[111.86708,43.93831],[111.77558,44.00395],[111.74064,44.013],[111.67944,44.04258],[111.65506,44.06297],[111.59994,44.11633],[111.59161,44.135],[111.55775,44.16664],[111.53386,44.21078],[111.53114,44.23463],[111.52307,44.2493],[111.52775,44.26328],[111.51047,44.28536],[111.48167,44.30389],[111.42406,44.3195],[111.41133,44.35583],[111.42319,44.39417],[111.47503,44.48667],[111.49942,44.50578],[111.50936,44.50817],[111.52633,44.54981],[111.55575,44.5652],[111.56283,44.57478],[111.55508,44.64411],[111.57775,44.70417],[111.61869,44.77739],[111.64137,44.80397],[111.44986,44.87697],[111.38587,44.87485],[111.12256,44.77189],[110.9366,44.61115],[110.58698,44.61791],[110.47071,44.57104],[110.27538,44.59783],[110.28162,44.56117],[110.28053,44.51127],[110.28885,44.43834],[110.31323,44.38671],[110.33843,44.34168],[110.35943,44.31239],[110.39076,44.24716],[110.40877,44.22869],[110.45497,44.19738],[110.48172,44.18566],[110.54205,44.1668],[110.7512,44.18045],[110.79902,44.08356],[110.7671,44.01491],[110.78583,43.98151],[110.8624,43.88298],[111.00805,43.81106],[111.23874,43.70753],[111.31943,43.62208],[111.45219,43.49118],[111.50208,43.4865],[111.55847,43.48797],[111.59978,43.5102],[111.787,43.66926],[111.75223,43.68984],[111.73465,43.78957],[111.66594,43.8883],[111.80585,43.92908],[111.86708,43.93831]]]}}