{"type":"Feature","properties":{"id":"MNG.5.13","name":"Ixtamir","level":2,"country":"MNG"},"geometry":{"type":"Polygon","coordinates":[[[101.55261,47.99898],[101.56757,48.09537],[101.55298,48.14778],[101.48706,48.19044],[101.42616,48.20894],[101.40493,48.15779],[101.32363,48.05959],[101.25216,47.95738],[101.07836,47.95791],[100.98457,47.92441],[100.97666,47.92887],[100.94075,47.9006],[100.90919,47.85694],[100.91017,47.84582],[100.87684,47.81721],[100.8661,47.79883],[100.79564,47.79244],[100.78761,47.78204],[100.73094,47.74636],[100.72099,47.72928],[100.70465,47.71891],[100.68692,47.69232],[100.59892,47.67618],[100.55933,47.62853],[100.64079,47.60364],[100.61458,47.59267],[100.61725,47.57939],[100.60768,47.56437],[100.64409,47.52247],[100.63521,47.50358],[100.64614,47.48149],[100.57158,47.43693],[100.55243,47.35402],[100.46829,47.31944],[100.44877,47.23695],[100.38179,47.21217],[100.35896,47.19598],[100.37585,47.17129],[100.3883,47.11502],[100.37397,47.09863],[100.42779,47.08029],[100.43105,46.99035],[100.47035,46.97583],[100.52837,46.98002],[100.57518,46.97158],[100.58908,46.96332],[100.60259,46.97014],[100.63089,46.94494],[100.61387,46.91761],[100.64485,46.86808],[100.65623,46.87039],[100.67143,46.88676],[100.66699,46.92996],[100.67402,46.94496],[100.67694,46.96992],[100.68831,46.98329],[100.68813,47.00088],[100.70035,47.02233],[100.69469,47.03714],[100.70811,47.05842],[100.71183,47.07667],[100.72553,47.10271],[100.74038,47.10667],[100.76408,47.12302],[100.77623,47.1238],[100.83274,47.17416],[100.85257,47.18547],[100.83235,47.22902],[100.88174,47.24284],[100.9121,47.29005],[100.92127,47.34459],[101.03346,47.40911],[101.20608,47.42046],[101.25596,47.47412],[101.2971,47.48714],[101.39662,47.48515],[101.47491,47.55535],[101.47811,47.60153],[101.49065,47.62424],[101.42489,47.63964],[101.3903,47.63532],[101.33535,47.65204],[101.35266,47.66144],[101.37765,47.70694],[101.3862,47.73526],[101.38688,47.76453],[101.42935,47.90799],[101.47517,47.93748],[101.55261,47.99898]]]}}