{"type":"Feature","properties":{"id":"CPV.2.2","name":"Sao Lourenco","level":2,"country":"CPV"},"geometry":{"type":"Polygon","coordinates":[[[-24.39351,14.94769],[-24.39382,14.95723],[-24.38833,14.96955],[-24.38253,14.97437],[-24.37971,14.9813],[-24.37322,14.98848],[-24.37823,15.00152],[-24.39079,15.01448],[-24.39997,15.03078],[-24.41438,15.0247],[-24.42405,15.02649],[-24.43369,15.02037],[-24.43871,15.01541],[-24.45177,15.01072],[-24.45575,15.00408],[-24.45969,15.00276],[-24.47772,14.98748],[-24.47821,14.98332],[-24.48662,14.97896],[-24.48766,14.96955],[-24.49145,14.95911],[-24.49843,14.94808],[-24.5002,14.9425],[-24.502,14.92567],[-24.49385,14.92634],[-24.48904,14.92881],[-24.47648,14.92673],[-24.46532,14.92842],[-24.4583,14.93167],[-24.44748,14.9317],[-24.44161,14.93461],[-24.43546,14.93382],[-24.40699,14.94563],[-24.39351,14.94769]]]}}