{"type":"Feature","properties":{"id":"CPV.5.1","name":"Santo Amaro Abade","level":2,"country":"CPV"},"geometry":{"type":"Polygon","coordinates":[[[-23.69169,15.19354],[-23.67992,15.20771],[-23.68227,15.21455],[-23.66499,15.22899],[-23.66613,15.23615],[-23.65948,15.24024],[-23.65669,15.24669],[-23.66463,15.25435],[-23.67382,15.25397],[-23.6811,15.25939],[-23.68929,15.27423],[-23.69176,15.28755],[-23.6886,15.29214],[-23.68448,15.30791],[-23.68175,15.31169],[-23.68682,15.32109],[-23.69618,15.32787],[-23.70516,15.32832],[-23.71319,15.33506],[-23.71747,15.32944],[-23.72404,15.32898],[-23.73639,15.33405],[-23.73935,15.33894],[-23.74469,15.33967],[-23.74682,15.33446],[-23.75735,15.33303],[-23.7593,15.32221],[-23.75818,15.31919],[-23.76039,15.30567],[-23.77101,15.30376],[-23.77171,15.29285],[-23.76297,15.29206],[-23.76085,15.28805],[-23.7526,15.28278],[-23.7596,15.27887],[-23.75938,15.27048],[-23.75653,15.25883],[-23.7529,15.25951],[-23.74447,15.2543],[-23.7401,15.24406],[-23.74172,15.23539],[-23.74505,15.23084],[-23.75327,15.22617],[-23.75552,15.21737],[-23.75564,15.20306],[-23.75025,15.19686],[-23.73987,15.19907],[-23.73655,15.19577],[-23.73197,15.20138],[-23.72318,15.19258],[-23.71849,15.1949],[-23.71588,15.20216],[-23.71063,15.20379],[-23.70071,15.19463],[-23.69169,15.19354]]]}}