{"type":"Feature","properties":{"id":"CPV.11.2","name":"Nossa Senhora Da Luz","level":2,"country":"CPV"},"geometry":{"type":"Polygon","coordinates":[[[-23.52491,15.04264],[-23.52819,15.0382],[-23.52708,15.03308],[-23.53565,15.03185],[-23.53305,15.02614],[-23.51901,15.0138],[-23.51179,15.01119],[-23.51065,15.0059],[-23.50457,15.00156],[-23.50031,14.9895],[-23.49327,14.98458],[-23.48641,14.98525],[-23.47726,14.98045],[-23.47246,14.98116],[-23.46755,14.97613],[-23.45849,14.97322],[-23.44915,14.97876],[-23.44376,14.98635],[-23.43922,14.98691],[-23.43426,14.98266],[-23.42982,14.98757],[-23.4332,14.99167],[-23.43298,14.9976],[-23.4368,15.0065],[-23.43039,15.01618],[-23.43487,15.02295],[-23.43912,15.02347],[-23.44683,15.04712],[-23.4526,15.05092],[-23.46245,15.05345],[-23.4633,15.05989],[-23.47361,15.06235],[-23.4761,15.073],[-23.48195,15.07544],[-23.4805,15.08087],[-23.48497,15.08321],[-23.48542,15.08824],[-23.49012,15.08894],[-23.48959,15.08399],[-23.49381,15.07137],[-23.49973,15.06357],[-23.50073,15.05605],[-23.50962,15.04803],[-23.51949,15.04288],[-23.52491,15.04264]]]}}