{"type":"Feature","properties":{"id":"ECU.24","name":"Santo Domingo de los Tsáchilas","level":1,"country":"ECU"},"geometry":{"type":"Polygon","coordinates":[[[-78.92158,-0.34515],[-78.89116,-0.29763],[-78.76439,-0.28495],[-78.74537,-0.21523],[-78.79608,-0.15818],[-78.89116,-0.10747],[-78.92285,-0.07578],[-79.10034,-0.08211],[-79.10667,0.00029],[-79.30951,0.00663],[-79.36383,0.04692],[-79.38355,0.02248],[-79.493,-0.02563],[-79.59555,-0.01359],[-79.59875,-0.07178],[-79.49669,-0.16185],[-79.42504,-0.17601],[-79.41298,-0.20479],[-79.40693,-0.38344],[-79.47997,-0.54374],[-79.37399,-0.54575],[-79.34722,-0.62213],[-79.35076,-0.68249],[-79.30316,-0.69567],[-79.20547,-0.62931],[-79.13155,-0.55552],[-79.08682,-0.5519],[-79.03703,-0.58084],[-78.99639,-0.51025],[-79.03344,-0.48023],[-79.00701,-0.42442],[-78.95802,-0.36649],[-78.92158,-0.34515]]]}}