{"type":"Feature","properties":{"id":"ECU.3","name":"Loja","level":1,"country":"ECU"},"geometry":{"type":"Polygon","coordinates":[[[-80.16507,-3.8807],[-80.18115,-3.90793],[-80.25908,-3.94369],[-80.30463,-4.00518],[-80.34426,-4.01159],[-80.4071,-3.98244],[-80.48108,-3.99877],[-80.51407,-4.08342],[-80.4926,-4.11846],[-80.4696,-4.21323],[-80.35631,-4.22057],[-80.48854,-4.39596],[-80.46997,-4.44608],[-80.4085,-4.4775],[-80.3323,-4.44567],[-80.23967,-4.36981],[-80.20505,-4.29819],[-80.14309,-4.28413],[-80.07965,-4.30904],[-79.98201,-4.38862],[-79.90408,-4.39864],[-79.83287,-4.47895],[-79.79574,-4.48474],[-79.65797,-4.43875],[-79.57984,-4.50231],[-79.50721,-4.53156],[-79.52785,-4.61806],[-79.49871,-4.66064],[-79.46082,-4.77046],[-79.40887,-4.71981],[-79.33159,-4.60819],[-79.31836,-4.51342],[-79.27686,-4.47518],[-79.20506,-4.50298],[-79.16204,-4.47549],[-79.11354,-4.408],[-79.10101,-4.26237],[-79.10617,-4.19008],[-79.1495,-4.15127],[-79.13589,-4.0321],[-79.13961,-3.9473],[-79.11925,-3.88312],[-79.19356,-3.73104],[-79.14803,-3.70417],[-79.10225,-3.636],[-79.12336,-3.55704],[-79.17878,-3.44816],[-79.25647,-3.46067],[-79.29962,-3.42398],[-79.30092,-3.37225],[-79.32949,-3.34088],[-79.40546,-3.34222],[-79.45775,-3.32801],[-79.45662,-3.41576],[-79.42742,-3.46108],[-79.46171,-3.50072],[-79.48641,-3.60583],[-79.41701,-3.59198],[-79.37972,-3.6203],[-79.37249,-3.68412],[-79.40368,-3.72835],[-79.4153,-3.79336],[-79.44639,-3.80514],[-79.5718,-3.79005],[-79.6147,-3.753],[-79.66929,-3.78127],[-79.70539,-3.82085],[-79.80626,-3.83635],[-79.85863,-3.82426],[-79.95421,-3.83387],[-80.01364,-3.8624],[-80.16507,-3.8807]]]}}