{"type":"Feature","properties":{"id":"DEU.1.34","name":"Rhein-Kreis Neuss","level":2,"country":"DEU"},"geometry":{"type":"Polygon","coordinates":[[[6.47742,51.05612],[6.49202,51.04741],[6.53465,51.05947],[6.5396,51.05215],[6.55484,51.05399],[6.56125,51.03523],[6.54919,51.02681],[6.56557,51.0219],[6.63739,51.02672],[6.67356,51.0159],[6.67734,51.02026],[6.71559,51.01499],[6.74378,51.04345],[6.75843,51.04171],[6.75335,51.06592],[6.78843,51.06818],[6.81281,51.04604],[6.8331,51.05944],[6.82853,51.07569],[6.88058,51.09923],[6.88065,51.11181],[6.84876,51.13473],[6.85452,51.16008],[6.83864,51.16177],[6.80559,51.14288],[6.79331,51.15039],[6.79835,51.16972],[6.78993,51.183],[6.73479,51.18472],[6.72233,51.2233],[6.68993,51.22921],[6.71656,51.24464],[6.7246,51.25428],[6.70249,51.27239],[6.73475,51.31394],[6.70498,51.33517],[6.65802,51.31116],[6.62387,51.30859],[6.62013,51.28899],[6.58556,51.2856],[6.5963,51.26165],[6.621,51.24947],[6.57028,51.24097],[6.56057,51.22871],[6.53661,51.2311],[6.53189,51.22453],[6.50976,51.22033],[6.49423,51.22783],[6.48809,51.21229],[6.49329,51.1953],[6.51786,51.18124],[6.53476,51.1475],[6.50261,51.14917],[6.4775,51.14434],[6.46955,51.13265],[6.47531,51.11147],[6.46524,51.11822],[6.4396,51.10723],[6.43584,51.10059],[6.45112,51.08786],[6.44727,51.06245],[6.47742,51.05612]]]}}