{"type":"Feature","properties":{"id":"DEU.1.15","name":"Paderborn","level":2,"country":"DEU"},"geometry":{"type":"Polygon","coordinates":[[[8.82149,51.51866],[8.81482,51.53856],[8.84381,51.53876],[8.85202,51.54859],[8.89,51.54743],[8.89132,51.53264],[8.90062,51.53061],[8.93524,51.53557],[8.9307,51.54437],[8.95706,51.55124],[8.96547,51.5638],[9.01461,51.57543],[9.01363,51.59551],[8.99131,51.60072],[8.98147,51.61219],[8.98816,51.64762],[8.97437,51.66955],[8.98168,51.68926],[8.97535,51.69755],[8.99876,51.70295],[8.98313,51.72352],[8.98927,51.72915],[8.98247,51.73315],[8.98927,51.75008],[8.99992,51.75682],[8.97076,51.77141],[8.95133,51.79703],[8.92536,51.79659],[8.91896,51.80141],[8.9257,51.80586],[8.91629,51.81312],[8.86141,51.79912],[8.79053,51.79805],[8.76843,51.81657],[8.76153,51.84786],[8.74834,51.85858],[8.66351,51.85234],[8.62719,51.86217],[8.53656,51.83236],[8.52048,51.80938],[8.46587,51.7897],[8.41001,51.74974],[8.40281,51.7199],[8.43974,51.7179],[8.46178,51.7241],[8.47682,51.71458],[8.48315,51.69486],[8.47816,51.68378],[8.55115,51.66948],[8.57374,51.6555],[8.57726,51.61859],[8.51084,51.59471],[8.49105,51.58192],[8.47358,51.56499],[8.48541,51.53499],[8.5116,51.53051],[8.51911,51.49226],[8.55057,51.46752],[8.57004,51.46774],[8.60177,51.48335],[8.65376,51.48132],[8.68743,51.47308],[8.69941,51.46374],[8.72082,51.45921],[8.74848,51.46543],[8.76928,51.44822],[8.83642,51.49575],[8.82149,51.51866]]]}}