{"type":"Feature","properties":{"id":"DEU.9.13","name":"Kaiserslautern","level":2,"country":"DEU"},"geometry":{"type":"Polygon","coordinates":[[[7.52224,49.33552],[7.55775,49.35151],[7.57459,49.37263],[7.60487,49.37746],[7.61194,49.36025],[7.62863,49.35899],[7.62579,49.34352],[7.66735,49.34226],[7.68123,49.33832],[7.75942,49.34496],[7.76627,49.33975],[7.76431,49.32],[7.77188,49.31556],[7.79861,49.30695],[7.81165,49.31795],[7.83517,49.32145],[7.82554,49.34209],[7.8378,49.35942],[7.81953,49.36103],[7.76996,49.39485],[7.71235,49.39462],[7.69309,49.38734],[7.66316,49.42523],[7.65014,49.42902],[7.63038,49.42409],[7.63511,49.44415],[7.67082,49.44938],[7.70139,49.44232],[7.702,49.45293],[7.67906,49.46071],[7.68162,49.48786],[7.7014,49.49462],[7.74123,49.4735],[7.75553,49.4761],[7.76218,49.49142],[7.79962,49.48623],[7.80664,49.47773],[7.79951,49.46766],[7.81549,49.46074],[7.84296,49.46482],[7.85863,49.45139],[7.86913,49.41138],[7.84284,49.39854],[7.81611,49.39569],[7.81588,49.38313],[7.8341,49.38072],[7.82603,49.37921],[7.82683,49.37298],[7.85078,49.36768],[7.89824,49.3805],[7.9211,49.39323],[7.94699,49.38775],[7.96501,49.40028],[7.95102,49.41574],[7.98378,49.43355],[7.96671,49.44067],[7.95479,49.45565],[7.9503,49.48443],[7.96376,49.48999],[7.95663,49.49272],[7.95747,49.50843],[7.95787,49.53009],[7.90481,49.53356],[7.83671,49.51379],[7.83996,49.52697],[7.81952,49.53425],[7.79019,49.53807],[7.767,49.54713],[7.78164,49.55817],[7.77599,49.56634],[7.74067,49.57796],[7.74469,49.59712],[7.73544,49.58648],[7.69274,49.59223],[7.65141,49.58882],[7.63923,49.57539],[7.66189,49.57018],[7.66076,49.56191],[7.6357,49.53914],[7.61287,49.53442],[7.6079,49.52341],[7.58562,49.52911],[7.54799,49.51763],[7.47858,49.49474],[7.48057,49.48736],[7.44669,49.45543],[7.46283,49.4387],[7.44001,49.4248],[7.41839,49.41965],[7.40582,49.38541],[7.39253,49.38335],[7.41668,49.359],[7.47944,49.34135],[7.5015,49.35485],[7.52224,49.33552]]]}}