{"type":"Feature","properties":{"id":"DEU.15.7","name":"Cottbus - Chóśebuz","level":2,"country":"DEU"},"geometry":{"type":"MultiPolygon","coordinates":[[[[14.31971,51.85735],[14.32112,51.86223],[14.30475,51.86412],[14.29795,51.84803],[14.30501,51.83598],[14.30289,51.82596],[14.30928,51.8236],[14.30649,51.81573],[14.27361,51.79901],[14.28616,51.77373],[14.27493,51.76711],[14.27571,51.7402],[14.28761,51.72494],[14.30902,51.71944],[14.30464,51.70046],[14.34313,51.69347],[14.40657,51.70315],[14.44339,51.70332],[14.44727,51.72369],[14.39762,51.74117],[14.39176,51.75261],[14.46353,51.7486],[14.47181,51.77456],[14.49092,51.78473],[14.49058,51.80215],[14.45851,51.80067],[14.4463,51.81512],[14.42387,51.80103],[14.40371,51.80302],[14.37164,51.83014],[14.39349,51.85028],[14.39031,51.85302],[14.33565,51.84976],[14.31971,51.85735]]],[[[14.4679,51.75663],[14.47104,51.75764],[14.46981,51.75927],[14.4679,51.75663]]]]}}