{"type":"Feature","properties":{"id":"DEU.2.18","name":"Freudenstadt","level":2,"country":"DEU"},"geometry":{"type":"Polygon","coordinates":[[[8.63523,48.49988],[8.60423,48.50625],[8.60005,48.51771],[8.62702,48.53711],[8.59354,48.55366],[8.58423,48.54542],[8.56012,48.54931],[8.5632,48.55728],[8.57769,48.56431],[8.57525,48.57652],[8.55933,48.57083],[8.54262,48.58681],[8.50376,48.59353],[8.49214,48.60421],[8.45434,48.61668],[8.40814,48.63911],[8.38199,48.62036],[8.35157,48.60901],[8.35496,48.5998],[8.31847,48.58845],[8.2606,48.58906],[8.23888,48.60058],[8.20963,48.6045],[8.23623,48.57942],[8.22737,48.56352],[8.21376,48.55443],[8.21158,48.52183],[8.21912,48.50716],[8.24194,48.4917],[8.26657,48.49067],[8.26883,48.44897],[8.25403,48.43354],[8.25471,48.41442],[8.24201,48.41183],[8.2332,48.40182],[8.24704,48.39535],[8.2506,48.38304],[8.26333,48.37958],[8.25367,48.37039],[8.2539,48.36237],[8.28129,48.36119],[8.30242,48.34895],[8.31988,48.35804],[8.31677,48.37043],[8.33049,48.38706],[8.35348,48.38175],[8.36,48.37629],[8.35655,48.3592],[8.36448,48.33529],[8.39408,48.32333],[8.43071,48.32296],[8.44466,48.30052],[8.45936,48.31278],[8.49429,48.31437],[8.49939,48.32084],[8.50156,48.32954],[8.48741,48.33242],[8.47119,48.34629],[8.49808,48.35689],[8.49585,48.36469],[8.48682,48.36672],[8.48392,48.38178],[8.51962,48.38726],[8.52034,48.39484],[8.51098,48.40353],[8.5458,48.40541],[8.56029,48.40013],[8.59301,48.40814],[8.60045,48.39718],[8.63816,48.40179],[8.65326,48.39475],[8.67589,48.40091],[8.69014,48.38726],[8.7484,48.37915],[8.75644,48.38168],[8.74913,48.38785],[8.7768,48.42005],[8.76642,48.4258],[8.76944,48.4368],[8.78913,48.45076],[8.83013,48.46314],[8.81322,48.46855],[8.79526,48.48496],[8.78054,48.48433],[8.76794,48.5022],[8.7502,48.50676],[8.74133,48.50477],[8.73509,48.48744],[8.69453,48.48406],[8.67408,48.50966],[8.63523,48.49988]]]}}