{"type":"Feature","properties":{"id":"DEU.1.20","name":"Steinfurt","level":2,"country":"DEU"},"geometry":{"type":"Polygon","coordinates":[[[7.25099,52.11952],[7.25394,52.1069],[7.26675,52.10046],[7.26823,52.09139],[7.26139,52.08492],[7.2726,52.07186],[7.2712,52.05797],[7.288,52.06223],[7.29484,52.0582],[7.29133,52.05162],[7.30266,52.04539],[7.35844,52.03606],[7.37271,52.0269],[7.39513,52.0377],[7.40835,52.03367],[7.40544,52.03949],[7.4111,52.04024],[7.43351,52.02378],[7.43331,52.00128],[7.45618,52.00591],[7.47331,51.99489],[7.5175,51.99923],[7.53193,52.01803],[7.53134,52.03337],[7.55403,52.04165],[7.58849,52.04969],[7.58928,52.05734],[7.59862,52.05999],[7.63105,52.0414],[7.64883,52.0527],[7.66788,52.04786],[7.68641,52.03293],[7.70311,52.03465],[7.72435,52.05119],[7.72821,52.0679],[7.75559,52.09839],[7.79585,52.10403],[7.81583,52.09385],[7.84838,52.09442],[7.88233,52.0833],[7.95759,52.10481],[7.96971,52.11427],[8.00796,52.11544],[7.99735,52.15366],[8.00531,52.16002],[8.0231,52.16008],[8.01712,52.17184],[7.93302,52.17683],[7.91339,52.18522],[7.90018,52.20778],[7.92616,52.22514],[7.92815,52.24175],[7.92232,52.25239],[7.92645,52.26359],[7.95444,52.27051],[7.93107,52.28636],[7.93451,52.30169],[7.99116,52.30706],[7.94888,52.33469],[7.95339,52.34696],[7.94129,52.34853],[7.93685,52.3634],[7.89187,52.38064],[7.84529,52.36968],[7.80668,52.37152],[7.71382,52.40099],[7.703,52.43314],[7.6845,52.45668],[7.60423,52.47501],[7.58298,52.45496],[7.57069,52.43224],[7.60432,52.42094],[7.58388,52.40434],[7.57247,52.38034],[7.57759,52.37588],[7.50671,52.36103],[7.438,52.33345],[7.42618,52.31406],[7.38359,52.30761],[7.3618,52.28832],[7.31752,52.28021],[7.29941,52.26515],[7.15292,52.26595],[7.121,52.26122],[7.09917,52.2405],[7.09588,52.20131],[7.1487,52.16681],[7.13535,52.1548],[7.14982,52.13812],[7.21622,52.11609],[7.25099,52.11952]]]}}