{"type":"Feature","properties":{"id":"DEU.3.1","name":"Hanau","level":2,"country":"DEU"},"geometry":{"type":"Polygon","coordinates":[[[9.01837,50.11154],[9.02977,50.11261],[9.00904,50.14416],[8.97831,50.1492],[8.97061,50.13487],[8.95633,50.1326],[8.96284,50.14248],[8.95487,50.14489],[8.95237,50.15867],[8.89863,50.15172],[8.90319,50.17152],[8.90872,50.17323],[8.9086,50.18521],[8.90127,50.1912],[8.88337,50.19467],[8.86204,50.18245],[8.87009,50.18043],[8.88235,50.15676],[8.87336,50.14623],[8.88006,50.12498],[8.88684,50.12448],[8.87448,50.0959],[8.88925,50.07874],[8.909,50.07533],[8.91469,50.07775],[8.91366,50.08623],[8.94318,50.09043],[8.94226,50.09703],[8.96064,50.08843],[9.00183,50.098],[9.01837,50.11154]]]}}