{"type":"Feature","properties":{"id":"DEU.11.83","name":"Regen","level":2,"country":"DEU"},"geometry":{"type":"Polygon","coordinates":[[[13.27568,48.87266],[13.28626,48.87737],[13.28527,48.8898],[13.27852,48.89389],[13.28414,48.8998],[13.28046,48.91098],[13.2949,48.92903],[13.28194,48.93754],[13.28319,48.95807],[13.33301,48.94787],[13.37153,48.98323],[13.40343,48.98683],[13.40863,49.00685],[13.39468,49.03986],[13.34274,49.08922],[13.28658,49.11933],[13.23755,49.11386],[13.18483,49.13354],[13.16463,49.14783],[13.13677,49.12876],[13.12903,49.11092],[13.06984,49.12877],[13.06528,49.14611],[13.05022,49.15389],[12.98457,49.15952],[12.9715,49.16633],[12.94677,49.14131],[12.91518,49.14693],[12.91958,49.13119],[12.89326,49.12758],[12.87998,49.13736],[12.85972,49.13034],[12.83777,49.13416],[12.82579,49.12391],[12.81951,49.12914],[12.79763,49.12217],[12.78634,49.13388],[12.7644,49.12405],[12.79547,49.08363],[12.81034,49.05339],[12.80857,49.03847],[12.8231,49.03226],[12.83087,49.01436],[12.84676,49.01009],[12.87315,48.99007],[12.87829,48.9672],[12.90127,48.9446],[12.91323,48.936],[12.95061,48.94032],[12.94523,48.93165],[12.95183,48.92853],[12.96062,48.94572],[12.97664,48.95437],[13.00856,48.9495],[13.0243,48.94217],[13.02764,48.92847],[13.02089,48.92099],[13.00797,48.92334],[13.00857,48.91871],[13.03404,48.90861],[13.06354,48.88197],[13.11529,48.88207],[13.12128,48.88783],[13.17469,48.86643],[13.17482,48.87334],[13.22178,48.85744],[13.27568,48.87266]]]}}