{"type":"Feature","properties":{"id":"SVN.193.2","name":"Mirna","level":2,"country":"SVN"},"geometry":{"type":"Polygon","coordinates":[[[15.09998,45.94723],[15.09105,45.95155],[15.07452,45.95311],[15.05411,45.97162],[15.04286,45.96844],[15.03525,45.97886],[15.03135,45.97889],[15.01441,45.97308],[15.0185,45.96774],[15.01317,45.96406],[15.00431,45.96578],[14.99831,45.96303],[15.0026,45.95611],[15.00947,45.95221],[15.01759,45.95227],[15.01694,45.94196],[15.02794,45.9395],[15.02858,45.93104],[15.04163,45.93007],[15.05254,45.92435],[15.07485,45.92665],[15.07683,45.92168],[15.08878,45.91306],[15.10372,45.91727],[15.11505,45.91669],[15.11169,45.92787],[15.10415,45.92956],[15.09949,45.93777],[15.09998,45.94723]]]}}