{"type":"Feature","properties":{"id":"SVN.176.1","name":"Radlje ob Dravi","level":2,"country":"SVN"},"geometry":{"type":"Polygon","coordinates":[[[15.18267,46.61614],[15.18951,46.61306],[15.19699,46.60464],[15.2088,46.60314],[15.21792,46.59195],[15.20886,46.58376],[15.19992,46.57016],[15.19292,46.57413],[15.17905,46.57536],[15.19132,46.56357],[15.18497,46.55686],[15.18662,46.55301],[15.17707,46.54912],[15.17755,46.5435],[15.17159,46.53826],[15.17787,46.5352],[15.17836,46.52613],[15.18391,46.523],[15.19908,46.52616],[15.20951,46.53665],[15.20553,46.5398],[15.22153,46.54733],[15.22537,46.54494],[15.23256,46.55504],[15.2424,46.55971],[15.25351,46.56042],[15.2577,46.56467],[15.27099,46.5685],[15.27788,46.5781],[15.2752,46.58208],[15.28493,46.6011],[15.29394,46.59948],[15.29863,46.60613],[15.3239,46.60933],[15.33537,46.61201],[15.32818,46.62239],[15.33401,46.63114],[15.33028,46.64143],[15.33548,46.65318],[15.32747,46.65304],[15.31943,46.64785],[15.31045,46.65239],[15.29479,46.65265],[15.27737,46.64362],[15.26252,46.64472],[15.2359,46.63938],[15.22429,46.64344],[15.21812,46.6422],[15.19735,46.64574],[15.18226,46.65614],[15.16937,46.65384],[15.16024,46.65712],[15.16497,46.64659],[15.1752,46.6435],[15.16998,46.63629],[15.17841,46.6256],[15.18971,46.61868],[15.18267,46.61614]]]}}