{"type":"Feature","properties":{"id":"SVN.137.1","name":"Cerklje na Gorenjskem","level":2,"country":"SVN"},"geometry":{"type":"Polygon","coordinates":[[[14.55401,46.24248],[14.56495,46.24575],[14.56413,46.25086],[14.56947,46.2613],[14.56111,46.26779],[14.56523,46.27169],[14.54873,46.27541],[14.55329,46.28098],[14.55203,46.28595],[14.53709,46.29958],[14.54276,46.30934],[14.52082,46.30292],[14.51805,46.29604],[14.51191,46.29572],[14.49795,46.29089],[14.48634,46.29451],[14.46818,46.29397],[14.46566,46.28891],[14.45637,46.27852],[14.44237,46.26795],[14.43965,46.2541],[14.44476,46.22762],[14.44888,46.22211],[14.45652,46.20524],[14.46508,46.20468],[14.47859,46.20207],[14.49826,46.20275],[14.50056,46.20047],[14.50639,46.20479],[14.50805,46.21207],[14.51412,46.21619],[14.52623,46.21706],[14.53812,46.22537],[14.54237,46.23242],[14.55401,46.24248]]]}}