{"type":"Feature","properties":{"id":"SVN.95.1","name":"Mirna Pec","level":2,"country":"SVN"},"geometry":{"type":"Polygon","coordinates":[[[15.096,45.89763],[15.08668,45.89726],[15.08114,45.89282],[15.08305,45.88627],[15.07351,45.88032],[15.05594,45.88326],[15.05228,45.87201],[15.03497,45.87163],[15.02754,45.86554],[15.02992,45.84342],[15.03665,45.84317],[15.0387,45.83185],[15.04528,45.82639],[15.06244,45.82536],[15.08346,45.80977],[15.09272,45.81188],[15.09285,45.8184],[15.09601,45.82293],[15.10756,45.82161],[15.10736,45.83127],[15.11459,45.83541],[15.11494,45.84191],[15.1099,45.84655],[15.127,45.84818],[15.13339,45.85478],[15.13107,45.86704],[15.13729,45.87474],[15.13309,45.87759],[15.1185,45.88024],[15.10552,45.89022],[15.09555,45.89396],[15.096,45.89763]]]}}