{"type":"Feature","properties":{"id":"SVN.155.1","name":"Labko","level":2,"country":"SVN"},"geometry":{"type":"Polygon","coordinates":[[[15.21082,46.19771],[15.20258,46.19262],[15.19893,46.18546],[15.16746,46.18349],[15.15492,46.18881],[15.14654,46.18596],[15.11176,46.18177],[15.13002,46.16657],[15.12675,46.15772],[15.13602,46.15628],[15.14583,46.1594],[15.15003,46.15254],[15.15773,46.15068],[15.1561,46.14285],[15.16909,46.13773],[15.1798,46.1259],[15.18126,46.11572],[15.18893,46.10996],[15.17322,46.10709],[15.17011,46.1],[15.15159,46.10761],[15.13977,46.10748],[15.13371,46.10471],[15.15108,46.09664],[15.1549,46.09341],[15.15881,46.08849],[15.1679,46.0866],[15.17225,46.07855],[15.18277,46.07836],[15.19678,46.08602],[15.19874,46.08228],[15.2076,46.08161],[15.21768,46.08709],[15.2305,46.07836],[15.24871,46.0773],[15.26254,46.08439],[15.26772,46.08376],[15.26856,46.07368],[15.27665,46.0735],[15.27252,46.05937],[15.27888,46.05848],[15.28092,46.06888],[15.29822,46.06806],[15.30466,46.07289],[15.31362,46.07496],[15.33621,46.07369],[15.34111,46.07224],[15.35861,46.07419],[15.36591,46.07984],[15.3655,46.08455],[15.37455,46.0872],[15.37537,46.10083],[15.36697,46.10313],[15.36841,46.10973],[15.37516,46.1127],[15.36566,46.12553],[15.36309,46.1365],[15.35087,46.14977],[15.35504,46.15581],[15.36888,46.1588],[15.36711,46.17557],[15.36233,46.1831],[15.35521,46.18265],[15.34198,46.17954],[15.33557,46.17602],[15.32709,46.17584],[15.32011,46.16667],[15.30814,46.16604],[15.29699,46.16311],[15.28133,46.16663],[15.27903,46.17254],[15.29585,46.17552],[15.29291,46.18032],[15.29895,46.18304],[15.29435,46.18935],[15.27952,46.19189],[15.26698,46.1909],[15.25436,46.19212],[15.25192,46.19964],[15.24733,46.20095],[15.23846,46.19564],[15.23041,46.19426],[15.2219,46.18895],[15.21082,46.19771]]]}}