{"type":"Feature","properties":{"id":"UGA.96.1","name":"Ntoroko","level":2,"country":"UGA"},"geometry":{"type":"Polygon","coordinates":[[[30.50281,1.04487],[30.52002,1.05458],[30.49947,1.07764],[30.49605,1.08618],[30.50203,1.09686],[30.50545,1.1195],[30.48879,1.14728],[30.48836,1.16821],[30.49904,1.19085],[30.47768,1.21307],[30.5093,1.23614],[30.48793,1.24511],[30.48067,1.24212],[30.47426,1.2246],[30.45802,1.21691],[30.41486,1.21478],[30.39734,1.2105],[30.3435,1.20922],[30.33752,1.19854],[30.33581,1.17846],[30.32427,1.17035],[30.28325,1.19085],[30.26744,1.17974],[30.24778,1.16223],[30.23581,1.14813],[30.23368,1.11028],[30.22958,1.09879],[30.22028,1.0895],[30.21727,1.06871],[30.22657,1.06106],[30.22657,1.0493],[30.21836,1.03946],[30.21864,1.00965],[30.19813,0.99133],[30.18609,0.98586],[30.18527,0.97684],[30.1757,0.95824],[30.17379,0.94676],[30.1582,0.92379],[30.15136,0.90492],[30.16421,0.89754],[30.19129,0.89453],[30.20305,0.88742],[30.23012,0.86008],[30.25911,0.86609],[30.27197,0.8609],[30.28181,0.86336],[30.29877,0.87758],[30.30943,0.89043],[30.3201,0.90902],[30.33131,0.92297],[30.33377,0.93063],[30.35073,0.94758],[30.36874,0.94862],[30.38449,0.97434],[30.42772,0.97557],[30.42685,0.98239],[30.44627,1.0006],[30.4461,1.00952],[30.45608,1.01932],[30.45695,1.03647],[30.4734,1.0426],[30.50281,1.04487]]]}}