{"type":"Feature","properties":{"id":"UGA.35.1","name":"Dokolo","level":2,"country":"UGA"},"geometry":{"type":"Polygon","coordinates":[[[33.27756,2.05973],[33.274,2.06633],[33.27373,2.06786],[33.2669,2.07446],[33.25734,2.09139],[33.25076,2.09657],[33.23908,2.10557],[33.22915,2.0977],[33.21793,2.0988],[33.21384,2.10531],[33.20447,2.10651],[33.19703,2.11402],[33.17992,2.1204],[33.17278,2.13022],[33.16353,2.13037],[33.15322,2.12203],[33.12534,2.12667],[33.12003,2.09909],[33.0842,2.09524],[33.07409,2.07559],[33.06707,2.07119],[33.05215,2.05392],[33.05169,2.0455],[33.03631,2.03839],[33.00662,2.05393],[32.98316,2.05519],[32.977,2.06262],[32.97502,2.06524],[32.95836,2.08064],[32.94187,2.08841],[32.91993,2.08595],[32.89126,2.08846],[32.88196,2.09142],[32.8728,2.07375],[32.86425,2.06553],[32.87319,2.04137],[32.8706,2.02116],[32.85842,2.00728],[32.84631,1.97938],[32.85101,1.96509],[32.86895,1.94669],[32.88831,1.95296],[32.89857,1.95888],[32.91891,1.95973],[32.93604,1.94813],[32.94374,1.93291],[32.93989,1.90344],[32.93408,1.88851],[32.92821,1.85824],[32.91744,1.83992],[32.91334,1.81917],[32.93861,1.81281],[32.94074,1.80213],[32.95143,1.79402],[32.96211,1.78078],[32.97151,1.76327],[32.97237,1.7449],[32.98827,1.72733],[32.99245,1.72098],[33.00783,1.71458],[33.02664,1.70988],[33.05014,1.7103],[33.07749,1.72226],[33.08475,1.73849],[33.08518,1.74875],[33.09244,1.76498],[33.10355,1.78163],[33.10184,1.79487],[33.10569,1.80683],[33.11595,1.82221],[33.11295,1.83032],[33.11295,1.8504],[33.12492,1.85808],[33.14073,1.85851],[33.15227,1.87431],[33.16252,1.87431],[33.20953,1.9119],[33.22501,1.91534],[33.24115,1.92386],[33.25354,1.93966],[33.25397,1.95674],[33.26935,1.96187],[33.27063,1.99987],[33.27833,2.0097],[33.28002,2.05647],[33.27756,2.05973]]]}}