{"type":"Feature","properties":{"id":"UGA.31.1","name":"Nakaseke","level":2,"country":"UGA"},"geometry":{"type":"Polygon","coordinates":[[[31.958,1.49126],[31.95107,1.48477],[31.93569,1.47793],[31.93484,1.46853],[31.91561,1.46213],[31.89082,1.44504],[31.86305,1.43137],[31.85279,1.40873],[31.85322,1.40147],[31.83954,1.38481],[31.81112,1.37594],[31.83954,1.31603],[31.85023,1.28783],[31.88014,1.25494],[31.89766,1.22503],[31.90492,1.19128],[31.89937,1.17547],[31.90578,1.14728],[31.90407,1.12591],[31.91091,1.10284],[31.92843,1.08319],[31.96517,1.05627],[31.9921,1.03235],[31.99765,0.98193],[32.00705,0.95416],[32.01859,0.92938],[32.07329,0.91485],[32.09209,0.90759],[32.11303,0.90673],[32.13439,0.88537],[32.15277,0.87469],[32.18482,0.84051],[32.19379,0.81188],[32.19465,0.77898],[32.17798,0.74992],[32.17798,0.70976],[32.16302,0.6807],[32.16516,0.66532],[32.17883,0.64097],[32.21345,0.61191],[32.21729,0.58627],[32.23524,0.58414],[32.25105,0.56491],[32.26729,0.56662],[32.28396,0.55166],[32.32455,0.5491],[32.32724,0.55903],[32.32882,0.56491],[32.32113,0.57559],[32.3284,0.59097],[32.35574,0.63669],[32.37369,0.65079],[32.39164,0.6619],[32.39762,0.66959],[32.40916,0.66361],[32.46257,0.66532],[32.47112,0.68797],[32.48309,0.70121],[32.48394,0.72941],[32.46856,0.73283],[32.45958,0.74095],[32.46087,0.76659],[32.43993,0.79479],[32.43907,0.80462],[32.43266,0.81273],[32.42241,0.83581],[32.41386,0.84307],[32.41301,0.85247],[32.4036,0.86614],[32.39549,0.8905],[32.37797,0.92126],[32.37754,0.92511],[32.35959,0.95031],[32.35489,0.96612],[32.34421,0.97937],[32.34592,1.0144],[32.33865,1.02722],[32.35062,1.0708],[32.35318,1.1477],[32.34207,1.18188],[32.34378,1.22033],[32.33224,1.23913],[32.30917,1.25579],[32.27626,1.27501],[32.2596,1.27843],[32.24037,1.29467],[32.22114,1.30834],[32.18866,1.33995],[32.16431,1.35832],[32.14294,1.38481],[32.12286,1.40232],[32.09294,1.41727],[32.04168,1.45232],[32.02609,1.45505],[32.00886,1.46818],[31.99683,1.46708],[31.98726,1.47747],[31.97659,1.48021],[31.958,1.49126]]]}}