{"type":"Feature","properties":{"id":"UGA.39.1","name":"Bughendra","level":2,"country":"UGA"},"geometry":{"type":"Polygon","coordinates":[[[30.23012,0.86008],[30.20305,0.88742],[30.19129,0.89453],[30.16421,0.89754],[30.15136,0.90492],[30.09858,0.90328],[30.05728,0.8773],[30.03882,0.87939],[29.99352,0.86144],[29.97387,0.84991],[29.96575,0.8388],[29.96489,0.81231],[29.96233,0.79479],[29.97045,0.7824],[29.97387,0.74181],[29.96917,0.72044],[29.96917,0.68968],[29.95806,0.67173],[29.95763,0.64823],[29.97002,0.61661],[29.97515,0.60806],[29.97243,0.56886],[29.97643,0.53147],[29.94705,0.48674],[29.92435,0.4587],[29.9257,0.45635],[29.93971,0.43199],[29.94839,0.42464],[29.96976,0.42598],[29.98177,0.42932],[29.9933,0.4472],[29.99575,0.45857],[30.00537,0.4766],[30.0241,0.4941],[30.03775,0.49428],[30.05456,0.52771],[30.07749,0.54416],[30.08217,0.57868],[30.08955,0.59126],[30.09885,0.61423],[30.10788,0.62654],[30.11581,0.62736],[30.13577,0.64705],[30.13659,0.66127],[30.14343,0.67002],[30.14425,0.67905],[30.14261,0.6908],[30.15929,0.72089],[30.16968,0.74249],[30.17351,0.75534],[30.18548,0.77431],[30.20351,0.79251],[30.20526,0.80861],[30.19511,0.82226],[30.20332,0.83601],[30.23012,0.86008]]]}}