{"type":"Feature","properties":{"id":"URY.15.4","name":"Rodríguez","level":2,"country":"URY"},"geometry":{"type":"Polygon","coordinates":[[[-56.4479,-34.53694],[-56.5033,-34.53634],[-56.49277,-34.48521],[-56.50041,-34.48222],[-56.48979,-34.43801],[-56.5088,-34.43537],[-56.5104,-34.41667],[-56.50147,-34.40855],[-56.44857,-34.42536],[-56.43247,-34.42043],[-56.43726,-34.41114],[-56.42858,-34.40046],[-56.43278,-34.38186],[-56.44557,-34.37614],[-56.45674,-34.37571],[-56.46021,-34.35467],[-56.4514,-34.33992],[-56.42725,-34.33071],[-56.42639,-34.31938],[-56.42029,-34.31126],[-56.42931,-34.29953],[-56.42144,-34.29509],[-56.42974,-34.27334],[-56.40851,-34.24899],[-56.41806,-34.2305],[-56.4185,-34.22036],[-56.43511,-34.214],[-56.43534,-34.20688],[-56.45548,-34.18975],[-56.44932,-34.18586],[-56.44981,-34.16765],[-56.4376,-34.15369],[-56.42968,-34.14999],[-56.43068,-34.14102],[-56.41572,-34.12535],[-56.40014,-34.09675],[-56.40283,-34.08938],[-56.3977,-34.07103],[-56.41168,-34.0668],[-56.4164,-34.05446],[-56.41273,-34.041],[-56.42102,-34.01864],[-56.42286,-33.97928],[-56.42185,-33.96348],[-56.44409,-33.96468],[-56.45469,-33.95548],[-56.45846,-33.94119],[-56.44599,-33.92846],[-56.44861,-33.90957],[-56.49075,-33.87723],[-56.50052,-33.87588],[-56.51402,-33.86372],[-56.5305,-33.86856],[-56.54886,-33.861],[-56.55419,-33.86229],[-56.5798,-33.8502],[-56.59507,-33.86534],[-56.59566,-33.88165],[-56.60196,-33.90014],[-56.61325,-33.91546],[-56.62365,-33.92008],[-56.63596,-33.9337],[-56.63918,-33.94185],[-56.6342,-33.96239],[-56.63625,-33.9822],[-56.6257,-34.00614],[-56.61266,-34.01744],[-56.61662,-34.02217],[-56.61222,-34.03832],[-56.61618,-34.05666],[-56.58203,-34.08628],[-56.56708,-34.10545],[-56.558,-34.13202],[-56.55757,-34.16013],[-56.5497,-34.17935],[-56.53728,-34.18804],[-56.54454,-34.20005],[-56.55456,-34.19608],[-56.56159,-34.2006],[-56.56609,-34.21668],[-56.58182,-34.23594],[-56.60577,-34.245],[-56.61442,-34.25469],[-56.63493,-34.24658],[-56.66732,-34.25142],[-56.68046,-34.26695],[-56.68227,-34.27685],[-56.67333,-34.29465],[-56.66776,-34.29841],[-56.51433,-34.29877],[-56.50876,-34.31971],[-56.52341,-34.34065],[-56.53411,-34.36484],[-56.53602,-34.38262],[-56.5473,-34.39714],[-56.55946,-34.38758],[-56.58071,-34.37742],[-56.60577,-34.375],[-56.6386,-34.35879],[-56.65692,-34.34307],[-56.68359,-34.34585],[-56.68168,-34.35698],[-56.66161,-34.38782],[-56.64138,-34.40294],[-56.64528,-34.41958],[-56.65344,-34.4211],[-56.64959,-34.43234],[-56.65044,-34.45253],[-56.66239,-34.46271],[-56.66366,-34.47207],[-56.65091,-34.49273],[-56.6419,-34.49822],[-56.63796,-34.51314],[-56.61921,-34.52326],[-56.59951,-34.52079],[-56.58535,-34.52496],[-56.5813,-34.53801],[-56.55946,-34.54972],[-56.5621,-34.55974],[-56.55287,-34.56481],[-56.54027,-34.56541],[-56.50832,-34.59051],[-56.49392,-34.59181],[-56.49214,-34.5789],[-56.47646,-34.57182],[-56.46766,-34.55684],[-56.45028,-34.55434],[-56.4479,-34.53694]]]}}