{"type":"Feature","properties":{"id":"URY.13.3","name":"Lascano","level":2,"country":"URY"},"geometry":{"type":"Polygon","coordinates":[[[-54.36634,-33.61405],[-54.38134,-33.62735],[-54.38686,-33.6368],[-54.38686,-33.67163],[-54.39245,-33.68058],[-54.3893,-33.69552],[-54.39282,-33.69927],[-54.38511,-33.71175],[-54.3894,-33.72284],[-54.37932,-33.72992],[-54.38544,-33.74797],[-54.3912,-33.75155],[-54.39021,-33.7646],[-54.40243,-33.77316],[-54.40096,-33.77958],[-54.40693,-33.79397],[-54.4011,-33.80797],[-54.38459,-33.82753],[-54.38763,-33.84478],[-54.3512,-33.8719],[-54.35019,-33.87948],[-54.3321,-33.89336],[-54.31686,-33.90197],[-54.32278,-33.92602],[-54.29998,-33.92805],[-54.29483,-33.91971],[-54.25542,-33.92081],[-54.23391,-33.93306],[-54.20654,-33.93203],[-54.19764,-33.9096],[-54.1772,-33.87757],[-54.17921,-33.86932],[-54.16623,-33.86778],[-54.15832,-33.85731],[-54.15995,-33.84553],[-54.14682,-33.8312],[-54.13199,-33.82068],[-54.12677,-33.81025],[-54.11543,-33.80012],[-54.10653,-33.77862],[-54.09442,-33.77284],[-54.10472,-33.75999],[-54.09674,-33.75067],[-54.0906,-33.73392],[-54.27812,-33.57712],[-54.29744,-33.59317],[-54.30327,-33.60432],[-54.32937,-33.61312],[-54.33529,-33.61548],[-54.36634,-33.61405]]]}}