{"type":"Feature","properties":{"id":"URY.7.3","name":"Enrique Martínez","level":2,"country":"URY"},"geometry":{"type":"Polygon","coordinates":[[[-54.02306,-33.05515],[-54.09223,-33.12599],[-54.16169,-33.16722],[-54.11904,-33.16833],[-54.08944,-33.17912],[-54.05793,-33.19702],[-54.03786,-33.20328],[-54.01207,-33.20401],[-53.99697,-33.21848],[-53.95447,-33.23381],[-53.94949,-33.24533],[-53.94202,-33.25158],[-53.91391,-33.25391],[-53.91099,-33.26271],[-53.88657,-33.27091],[-53.88471,-33.2818],[-53.85858,-33.27777],[-53.8528,-33.25951],[-53.84556,-33.2587],[-53.84253,-33.2736],[-53.83527,-33.27238],[-53.83069,-33.26],[-53.81772,-33.2624],[-53.80129,-33.24073],[-53.80683,-33.22914],[-53.79468,-33.22583],[-53.79887,-33.20427],[-53.78017,-33.19872],[-53.7709,-33.2008],[-53.76189,-33.19178],[-53.73979,-33.18902],[-53.72824,-33.19092],[-53.7276,-33.18079],[-53.74138,-33.17338],[-53.76338,-33.17348],[-53.77232,-33.17667],[-53.77958,-33.18734],[-53.78668,-33.18182],[-53.7836,-33.17262],[-53.79342,-33.16967],[-53.80602,-33.15925],[-53.83313,-33.15029],[-53.84369,-33.15176],[-53.84544,-33.13422],[-53.84031,-33.12808],[-53.84735,-33.10464],[-53.83533,-33.09543],[-53.83343,-33.08254],[-53.83929,-33.06743],[-53.85775,-33.06977],[-53.86757,-33.05994],[-53.85585,-33.04238],[-53.87519,-33.02788],[-53.88589,-33.02923],[-53.8982,-33.03992],[-53.92341,-33.04017],[-53.95374,-33.05024],[-53.98158,-33.04889],[-54.00972,-33.0554],[-54.02306,-33.05515]]]}}