{"type":"Feature","properties":{"id":"URY.8.16","name":"Sauce","level":2,"country":"URY"},"geometry":{"type":"Polygon","coordinates":[[[-55.93259,-34.6082],[-55.93272,-34.59287],[-55.92595,-34.57923],[-55.93366,-34.57505],[-55.92967,-34.5479],[-55.92959,-34.53368],[-55.95056,-34.52845],[-55.96544,-34.54345],[-55.99049,-34.57275],[-56.00304,-34.58078],[-56.01403,-34.56521],[-56.02674,-34.55323],[-56.04417,-34.55919],[-56.09684,-34.56149],[-56.10607,-34.54839],[-56.1173,-34.5532],[-56.11906,-34.55975],[-56.15231,-34.56159],[-56.14992,-34.54566],[-56.16283,-34.54368],[-56.18583,-34.5495],[-56.1952,-34.5553],[-56.18533,-34.5632],[-56.1886,-34.57762],[-56.17453,-34.57729],[-56.16382,-34.58482],[-56.17206,-34.60091],[-56.17276,-34.62086],[-56.17869,-34.64902],[-56.16843,-34.66993],[-56.1651,-34.66655],[-56.12702,-34.67171],[-56.1284,-34.68265],[-56.13968,-34.7078],[-56.1364,-34.71081],[-56.12776,-34.71045],[-56.10706,-34.69916],[-56.09189,-34.71879],[-56.08417,-34.71574],[-56.08433,-34.70559],[-56.07798,-34.69179],[-56.05939,-34.69208],[-56.05773,-34.70761],[-56.04774,-34.70695],[-56.02465,-34.69178],[-55.9921,-34.66349],[-55.99234,-34.65388],[-55.98036,-34.65114],[-55.96791,-34.63866],[-55.96958,-34.62661],[-55.95479,-34.63072],[-55.93259,-34.6082]]]}}