{"type":"Feature","properties":{"id":"URY.8.12","name":"San Bautista","level":2,"country":"URY"},"geometry":{"type":"Polygon","coordinates":[[[-55.90253,-34.37988],[-55.92285,-34.37125],[-55.91943,-34.36516],[-55.94171,-34.34012],[-55.94221,-34.32895],[-55.9528,-34.31796],[-55.96846,-34.31633],[-55.97444,-34.32312],[-55.99943,-34.33036],[-56.02112,-34.32721],[-56.02959,-34.33606],[-56.05299,-34.33653],[-56.06132,-34.3439],[-56.0745,-34.34474],[-56.09092,-34.35537],[-56.06023,-34.35887],[-56.04081,-34.35373],[-56.01783,-34.36299],[-56.01879,-34.38275],[-56.01244,-34.39265],[-56.00288,-34.39878],[-55.99721,-34.42048],[-55.99006,-34.42654],[-56.00448,-34.44606],[-56.01739,-34.46886],[-56.01527,-34.48627],[-55.99716,-34.48637],[-55.9738,-34.48117],[-55.95663,-34.47984],[-55.94058,-34.48606],[-55.94171,-34.4942],[-55.93209,-34.49981],[-55.92255,-34.51968],[-55.89523,-34.50176],[-55.89881,-34.47634],[-55.90574,-34.46881],[-55.88646,-34.45953],[-55.88654,-34.44985],[-55.88531,-34.41355],[-55.89638,-34.41322],[-55.90273,-34.39416],[-55.90253,-34.37988]]]}}