{"type":"Feature","properties":{"id":"DNK.1.5","name":"Ringkøbing-Skjern","level":2,"country":"DNK"},"geometry":{"type":"Polygon","coordinates":[[[8.18848,55.84236],[8.18745,55.86465],[8.21993,55.87101],[8.23282,55.85915],[8.26324,55.8658],[8.26427,55.88894],[8.2323,55.88981],[8.22921,55.90079],[8.18642,55.88287],[8.17559,55.88836],[8.16528,55.91871],[8.16167,55.95943],[8.14001,55.97703],[8.11733,56.01941],[8.1163,56.06088],[8.12764,56.06664],[8.12712,56.09685],[8.14672,56.10921],[8.19106,56.10979],[8.22405,56.09139],[8.24725,56.09167],[8.25654,56.07959],[8.30139,56.06319],[8.30242,56.01019],[8.32665,55.99693],[8.33748,55.97299],[8.37099,55.95625],[8.37203,55.90802],[8.36223,55.89646],[8.3295,55.88418],[8.2767,55.85363],[8.23249,55.85252],[8.22111,55.84148],[8.25592,55.81749],[8.27802,55.81156],[8.32191,55.81249],[8.3526,55.8364],[8.38692,55.81861],[8.40935,55.81879],[8.42024,55.80618],[8.46248,55.78949],[8.48492,55.7893],[8.51692,55.8073],[8.5156,55.82583],[8.54794,55.83714],[8.54784,55.85683],[8.58909,55.85625],[8.59991,55.84989],[8.63291,55.85654],[8.68395,55.85683],[8.70819,55.83831],[8.75046,55.8207],[8.79429,55.82093],[8.81543,55.83223],[8.81491,55.8632],[8.83502,55.88084],[8.83347,55.89241],[8.82413,55.90453],[8.79113,55.9049],[8.73768,55.92949],[8.72547,55.95278],[8.73669,55.97697],[8.75714,55.98823],[8.75871,56.01826],[8.79893,56.03612],[8.78707,56.06117],[8.79635,56.06578],[8.85203,56.06722],[8.86291,56.07842],[8.83144,56.08973],[8.82974,56.10195],[8.80895,56.11372],[8.78717,56.10747],[8.7644,56.11391],[8.76374,56.1494],[8.75319,56.15528],[8.67696,56.16079],[8.66607,56.14921],[8.63637,56.13745],[8.62252,56.15491],[8.58028,56.16483],[8.58094,56.18394],[8.54695,56.20211],[8.49267,56.20139],[8.48081,56.2249],[8.44782,56.24811],[8.44796,56.26062],[8.35524,56.25952],[8.29623,56.23436],[8.25293,56.23436],[8.2323,56.25183],[8.19982,56.26902],[8.16734,56.263],[8.12145,56.26787],[8.12364,56.22042],[8.11156,56.21415],[8.11237,56.16125],[8.10189,56.15273],[8.10116,56.11832],[8.0939,56.11243],[8.0967,56.01797],[8.11784,56.00125],[8.11733,55.9776],[8.12919,55.97097],[8.1297,55.94788],[8.14208,55.94182],[8.14259,55.89472],[8.15445,55.88778],[8.156,55.82817],[8.16785,55.82904],[8.18848,55.84236]]]}}