{"type":"Feature","properties":{"id":"IND.9","name":"Kerala","level":1,"country":"IND"},"geometry":{"type":"Polygon","coordinates":[[[75.22218,12.02204],[75.22293,12.10017],[75.27616,12.10097],[75.30421,12.04316],[75.29038,11.98111],[75.32651,11.93586],[75.32456,11.89912],[75.37973,11.86498],[75.53077,11.69367],[75.61655,11.47362],[75.66481,11.46263],[75.69516,11.41999],[75.83277,11.09785],[75.88014,10.93269],[75.89454,10.84976],[75.92205,10.76557],[75.99969,10.60554],[76.00807,10.56708],[76.05242,10.51398],[76.07008,10.43281],[76.10613,10.38467],[76.13819,10.26105],[76.1775,10.17064],[76.18238,10.10566],[76.21461,10.02448],[76.24513,10.1022],[76.27817,9.97793],[76.31153,9.96695],[76.35922,9.91543],[76.39405,9.84284],[76.38209,9.77473],[76.41456,9.68268],[76.41969,9.59418],[76.50327,9.53498],[76.459,9.4973],[76.35743,9.5207],[76.3729,9.62434],[76.39405,9.67894],[76.33888,9.69941],[76.31381,9.86131],[76.27735,9.80927],[76.29713,9.65843],[76.29103,9.63321],[76.31178,9.49299],[76.36297,9.32518],[76.44256,9.14517],[76.51385,9.00214],[76.5215,8.96133],[76.58277,9.00056],[76.60328,8.97321],[76.54396,8.9125],[76.64454,8.819],[76.69565,8.73981],[76.81373,8.60126],[76.82651,8.56981],[76.88014,8.5207],[76.99586,8.36811],[77.11033,8.28517],[77.16555,8.30745],[77.16607,8.33693],[77.21589,8.41879],[77.20597,8.4562],[77.2441,8.47651],[77.27883,8.52641],[77.26911,8.5555],[77.20379,8.61198],[77.17889,8.69523],[77.23542,8.78414],[77.24927,8.8591],[77.20255,8.89416],[77.16493,9.001],[77.2101,9.03521],[77.25454,9.12211],[77.31211,9.30088],[77.36347,9.41617],[77.40378,9.46108],[77.39862,9.49996],[77.34063,9.57996],[77.26322,9.55738],[77.19274,9.5881],[77.18767,9.61277],[77.23542,9.76468],[77.22591,9.85888],[77.26023,9.96221],[77.22426,10.05781],[77.2748,10.17357],[77.27697,10.2101],[77.24162,10.28444],[77.1915,10.35131],[77.06458,10.2963],[76.98634,10.23129],[76.92805,10.23555],[76.84154,10.31066],[76.83813,10.37288],[76.80857,10.43712],[76.82666,10.55155],[76.82108,10.63318],[76.87555,10.6785],[76.88971,10.78004],[76.81984,10.87595],[76.69044,10.93336],[76.67246,10.9893],[76.70026,11.04129],[76.76258,11.03656],[76.71917,11.13873],[76.68858,11.17381],[76.6984,11.24006],[76.64125,11.20864],[76.46627,11.20523],[76.44415,11.2341],[76.53376,11.31313],[76.49541,11.38476],[76.40911,11.43682],[76.25626,11.47845],[76.23052,11.52914],[76.24075,11.60397],[76.33925,11.59149],[76.41594,11.66683],[76.38927,11.74401],[76.31661,11.74685],[76.25067,11.81013],[76.21223,11.80726],[76.17657,11.85703],[76.11549,11.85749],[76.08014,11.88977],[76.08355,11.95005],[76.05575,11.96374],[75.96056,11.92863],[75.84605,11.95111],[75.77618,12.00978],[75.76109,12.06875],[75.62921,12.10205],[75.60606,12.13505],[75.53661,12.16895],[75.42623,12.29178],[75.38933,12.29473],[75.33972,12.40462],[75.36432,12.47637],[75.31202,12.4695],[75.25136,12.53691],[75.27089,12.60073],[75.22531,12.61259],[75.17642,12.59975],[75.15503,12.62907],[75.11049,12.63001],[75.10211,12.67887],[74.95845,12.73212],[74.94522,12.77387],[74.85426,12.76529],[74.87965,12.72549],[74.95525,12.53726],[75.0184,12.41474],[75.08286,12.30589],[75.10548,12.22126],[75.13087,12.20783],[75.1937,12.02228],[75.22218,12.02204]]]}}