{"type":"Feature","properties":{"id":"IND.14","name":"Maharashtra","level":1,"country":"IND"},"geometry":{"type":"Polygon","coordinates":[[[73.70086,15.72321],[73.79274,15.7416],[73.8131,15.77188],[73.90839,15.72124],[73.94281,15.63246],[73.99035,15.61354],[74.10062,15.64029],[74.09287,15.6693],[74.13814,15.72951],[74.1861,15.76573],[74.22351,15.7261],[74.2816,15.72987],[74.3311,15.76193],[74.37306,15.83549],[74.35446,15.87257],[74.42877,15.99375],[74.41595,16.09636],[74.46959,16.10979],[74.47631,16.20281],[74.45192,16.25394],[74.36624,16.29288],[74.33245,16.28053],[74.30578,16.35272],[74.34671,16.38812],[74.31084,16.45887],[74.27178,16.48954],[74.22568,16.49253],[74.24356,16.53959],[74.29245,16.52837],[74.35322,16.54351],[74.41141,16.59266],[74.43001,16.64433],[74.52458,16.62384],[74.55744,16.55165],[74.61408,16.59056],[74.66576,16.60622],[74.64447,16.65193],[74.68488,16.70844],[74.79609,16.76631],[74.86668,16.77621],[74.84456,16.85202],[74.92228,16.88933],[74.96,16.95114],[75.04341,16.95282],[75.11824,16.8822],[75.1665,16.86794],[75.24257,16.9021],[75.25601,16.95917],[75.32525,16.96359],[75.37083,16.98447],[75.42613,16.98486],[75.45341,16.96405],[75.50912,16.97666],[75.55377,17.01491],[75.61671,16.97468],[75.64151,17.01018],[75.62291,17.04917],[75.64678,17.09141],[75.60513,17.15813],[75.62208,17.22094],[75.55284,17.36592],[75.61309,17.4716],[75.6596,17.46707],[75.678,17.42527],[75.72998,17.41824],[75.78393,17.3748],[75.83179,17.41697],[75.87003,17.41615],[75.89772,17.35217],[75.93648,17.32587],[76.09471,17.37775],[76.14629,17.37111],[76.21037,17.38891],[76.25502,17.36041],[76.3438,17.35186],[76.37811,17.38977],[76.34741,17.41343],[76.31806,17.48738],[76.34007,17.51555],[76.32219,17.61771],[76.39061,17.63678],[76.46627,17.70476],[76.51298,17.77282],[76.59267,17.7706],[76.67597,17.70685],[76.70553,17.79212],[76.75566,17.82584],[76.74088,17.89842],[76.83906,17.88423],[76.86314,17.90374],[76.88505,17.97446],[76.89622,18.07959],[76.89291,18.14429],[76.94955,18.17998],[77.00577,18.17835],[77.08773,18.19706],[77.11791,18.25385],[77.23108,18.33379],[77.23273,18.41066],[77.26477,18.45306],[77.30188,18.46027],[77.34373,18.41663],[77.34663,18.35152],[77.42735,18.31614],[77.46145,18.28193],[77.5091,18.31457],[77.55116,18.30788],[77.5583,18.33694],[77.50259,18.38159],[77.53783,18.41725],[77.55478,18.50034],[77.5923,18.54815],[77.67994,18.56998],[77.70981,18.62269],[77.7034,18.66912],[77.7466,18.70501],[77.78112,18.70377],[77.83931,18.80955],[77.91207,18.83536],[77.89709,18.86802],[77.84241,18.90921],[77.83394,18.95076],[77.76438,18.99352],[77.75198,19.04589],[77.83363,19.12144],[77.85502,19.22836],[77.88995,19.27136],[77.86949,19.30327],[77.92003,19.33166],[77.99238,19.32275],[78.0147,19.28872],[78.0639,19.2641],[78.16787,19.2641],[78.18007,19.279],[78.17438,19.37466],[78.24011,19.46018],[78.30264,19.48277],[78.30326,19.55129],[78.33344,19.64327],[78.38357,19.68454],[78.39938,19.73608],[78.36321,19.76045],[78.32176,19.86326],[78.38326,19.86615],[78.41488,19.82225],[78.47772,19.79913],[78.53374,19.82466],[78.61663,19.8152],[78.71171,19.77435],[78.78003,19.77667],[78.84752,19.72453],[78.87253,19.65012],[78.93485,19.59818],[79.02435,19.54153],[79.05888,19.54706],[79.15071,19.49998],[79.19773,19.46188],[79.24328,19.53114],[79.266,19.58956],[79.34888,19.5801],[79.4204,19.53638],[79.53895,19.53382],[79.59001,19.51052],[79.60892,19.55307],[79.73542,19.60335],[79.79578,19.5941],[79.86492,19.50899],[79.93107,19.48253],[79.96549,19.40192],[79.93055,19.21193],[79.94378,19.16922],[79.89366,19.13741],[79.86182,19.08108],[79.88208,19.04194],[79.93355,19.05313],[79.96487,18.93536],[79.96032,18.86712],[79.91691,18.82658],[80.00187,18.78562],[80.09054,18.69749],[80.16971,18.69005],[80.27038,18.71369],[80.27482,18.77694],[80.3389,18.81335],[80.34417,18.85071],[80.28392,18.92027],[80.27182,18.97944],[80.29043,19.01931],[80.3666,19.11739],[80.39709,19.23418],[80.44732,19.27213],[80.47109,19.31585],[80.57599,19.39197],[80.61744,19.31856],[80.67997,19.32153],[80.71666,19.2627],[80.8322,19.34541],[80.80575,19.40334],[80.88099,19.42791],[80.89391,19.48444],[80.83096,19.5471],[80.71293,19.5926],[80.68503,19.62224],[80.67573,19.67655],[80.56555,19.73978],[80.53775,19.81091],[80.4898,19.79921],[80.46954,19.76616],[80.41145,19.78368],[80.46303,19.82411],[80.48504,19.86626],[80.4251,19.89282],[80.46024,19.94103],[80.53114,19.9207],[80.55718,20.04834],[80.53062,20.13487],[80.42634,20.14624],[80.42437,20.23409],[80.45383,20.25732],[80.53424,20.26938],[80.6224,20.32589],[80.61444,20.46431],[80.6349,20.51234],[80.6224,20.60091],[80.58602,20.61649],[80.53248,20.59314],[80.50302,20.63329],[80.55894,20.66719],[80.57299,20.69757],[80.55677,20.78083],[80.55212,20.91932],[80.48132,20.93198],[80.43533,20.99924],[80.45683,21.12546],[80.48452,21.1677],[80.6256,21.24266],[80.67841,21.30198],[80.67903,21.35115],[80.6256,21.32648],[80.50271,21.39531],[80.4099,21.39205],[80.41755,21.44683],[80.38779,21.49256],[80.33745,21.52553],[80.31017,21.58023],[80.24805,21.5968],[80.18666,21.63948],[80.10842,21.60424],[80.08031,21.57158],[80.00528,21.54832],[79.97789,21.56197],[79.91536,21.53812],[79.84033,21.53435],[79.79837,21.5878],[79.75878,21.59408],[79.65047,21.58155],[79.60013,21.54737],[79.55156,21.55003],[79.53306,21.61928],[79.48634,21.66348],[79.41307,21.68981],[79.33193,21.69028],[79.24005,21.71276],[79.21577,21.65457],[79.08151,21.61287],[78.99614,21.60344],[78.92193,21.57228],[78.90416,21.50928],[78.696,21.47476],[78.56123,21.4961],[78.51369,21.52659],[78.42791,21.50848],[78.41333,21.6063],[78.366,21.62543],[78.31019,21.58633],[78.19267,21.55111],[78.14441,21.49866],[78.02917,21.43768],[77.91021,21.40058],[77.87145,21.3981],[77.78753,21.42301],[77.7126,21.38027],[77.62702,21.39947],[77.57804,21.38446],[77.53153,21.41611],[77.48181,21.42389],[77.43313,21.49882],[77.4568,21.5485],[77.55519,21.54248],[77.5614,21.58354],[77.55178,21.69676],[77.46073,21.77004],[77.33298,21.77446],[77.25113,21.73121],[77.21899,21.70085],[77.17889,21.72617],[77.11553,21.72405],[77.02882,21.69359],[76.9174,21.61809],[76.84361,21.61336],[76.79369,21.577],[76.78553,21.50169],[76.72951,21.41301],[76.63339,21.34105],[76.65396,21.25131],[76.61406,21.20248],[76.49831,21.18036],[76.43661,21.10781],[76.37883,21.08683],[76.28664,21.07481],[76.1868,21.08582],[76.14391,21.10688],[76.10856,21.15313],[76.14288,21.19313],[76.13048,21.28012],[76.08293,21.36808],[76.03963,21.3657],[75.9523,21.39092],[75.87778,21.39978],[75.81401,21.38337],[75.70652,21.37815],[75.62518,21.38547],[75.53475,21.3718],[75.31192,21.38146],[75.2095,21.40288],[75.12992,21.43768],[75.04796,21.55406],[74.95608,21.57793],[74.89407,21.61204],[74.70813,21.61116],[74.6609,21.64529],[74.60819,21.65891],[74.51249,21.72692],[74.48696,21.82014],[74.48561,21.94597],[74.40769,22.02305],[74.28439,21.94494],[74.20491,21.92507],[74.12884,21.95176],[74.06104,21.94032],[73.91759,21.86688],[73.80938,21.83647],[73.80348,21.73978],[73.83718,21.69759],[73.8286,21.65093],[73.7516,21.61103],[73.82085,21.50833],[73.99593,21.55533],[74.109,21.55261],[74.1615,21.56623],[74.19158,21.54551],[74.27984,21.57403],[74.29152,21.51386],[74.24056,21.48613],[74.10869,21.45156],[74.0535,21.46572],[73.96017,21.39438],[73.91862,21.29157],[73.85371,21.26777],[73.80007,21.28095],[73.77744,21.21664],[73.69807,21.16558],[73.55988,21.17419],[73.63399,21.11938],[73.69517,21.12264],[73.7423,21.07311],[73.78984,21.05848],[73.86829,20.97477],[73.90291,20.88387],[73.90901,20.77571],[73.88917,20.74065],[73.81103,20.6769],[73.79232,20.60618],[73.69982,20.56241],[73.62996,20.56386],[73.59947,20.60458],[73.47575,20.67871],[73.45353,20.71721],[73.40423,20.66985],[73.41695,20.59259],[73.4587,20.53802],[73.44206,20.49555],[73.36072,20.36938],[73.38325,20.34871],[73.3941,20.27039],[73.36382,20.1783],[73.27184,20.19342],[73.24331,20.13864],[73.16632,20.11487],[73.16094,20.04749],[72.99723,20.03981],[72.94721,20.1274],[72.87259,20.1018],[72.77078,20.09965],[72.7081,20.07264],[72.70777,20.01276],[72.66521,19.95295],[72.65008,19.84199],[72.67986,19.80048],[72.67579,19.76415],[72.71404,19.74584],[72.71803,19.60668],[72.79591,19.5268],[72.74684,19.46796],[72.75978,19.38898],[72.78761,19.3452],[72.77223,19.26512],[72.78338,19.16865],[72.81219,19.15371],[72.82423,19.05353],[72.79591,18.98493],[72.82765,18.91836],[72.85109,18.98713],[72.89145,18.99177],[72.94337,19.05512],[72.99187,19.06721],[72.99204,18.98249],[72.93678,18.94741],[72.89682,18.89448],[72.98797,18.82494],[72.97478,18.77949],[72.92693,18.82665],[72.87916,18.80736],[72.85239,18.76992],[72.85532,18.68114],[72.92115,18.55488],[72.89576,18.503],[72.88966,18.44131],[72.90984,18.36807],[72.97739,18.29507],[73.05698,18.28095],[73.07398,18.22419],[72.97674,18.24258],[72.9673,18.19599],[72.98097,18.08055],[73.0088,18.03901],[73.01856,17.95173],[73.0652,17.87836],[73.12322,17.72333],[73.10817,17.69977],[73.12135,17.62641],[73.16342,17.56949],[73.13168,17.53937],[73.18067,17.47769],[73.16529,17.41303],[73.23471,17.30231],[73.21803,17.25324],[73.25514,17.16519],[73.27735,17.05467],[73.25457,17.00674],[73.2894,16.98383],[73.26938,16.92919],[73.27467,16.84882],[73.30445,16.79352],[73.28956,16.74022],[73.32163,16.69245],[73.31219,16.64472],[73.32277,16.57616],[73.365,16.55439],[73.31918,16.50975],[73.34132,16.43207],[73.38494,16.4016],[73.35825,16.3675],[73.37867,16.33271],[73.4402,16.16201],[73.4607,16.14468],[73.44703,16.06892],[73.49098,15.99348],[73.58758,15.9029],[73.63885,15.81721],[73.64356,15.74909],[73.70086,15.72321]]]}}