{"type":"Feature","properties":{"id":"SGP.3.2","name":"YISHUN","level":2,"country":"SGP"},"geometry":{"type":"Polygon","coordinates":[[[103.85239,1.39709],[103.85564,1.40123],[103.85506,1.40487],[103.86089,1.40978],[103.86206,1.41859],[103.86724,1.42508],[103.86213,1.42463],[103.85463,1.42779],[103.85282,1.42896],[103.84682,1.43473],[103.84415,1.43974],[103.83669,1.44562],[103.83031,1.44163],[103.82588,1.43536],[103.82685,1.42825],[103.82308,1.41341],[103.80578,1.41436],[103.81453,1.39667],[103.81882,1.39434],[103.82737,1.39295],[103.84268,1.39644],[103.85239,1.39709]]]}}