{"type":"Feature","properties":{"id":"SGP.2.3","name":"WESTERN WATER CATCHMENT","level":2,"country":"SGP"},"geometry":{"type":"MultiPolygon","coordinates":[[[[103.74602,1.40549],[103.74156,1.41019],[103.74209,1.41398],[103.73933,1.42228],[103.72789,1.41117],[103.71856,1.41107],[103.71287,1.41285],[103.7056,1.41218],[103.69865,1.41864],[103.69503,1.43153],[103.69301,1.43367],[103.67806,1.42912],[103.6743,1.42518],[103.67483,1.41925],[103.66805,1.40874],[103.66249,1.40553],[103.66274,1.39252],[103.65746,1.38423],[103.65271,1.37301],[103.64935,1.37264],[103.64376,1.36074],[103.63879,1.3531],[103.64696,1.34545],[103.65658,1.33467],[103.66772,1.32799],[103.67493,1.33105],[103.67765,1.33808],[103.68272,1.34001],[103.69067,1.34622],[103.70625,1.36435],[103.71028,1.36693],[103.723,1.37084],[103.73267,1.37893],[103.74157,1.38661],[103.74024,1.39129],[103.74602,1.40549]]],[[[103.68527,1.43353],[103.6854,1.43506],[103.68425,1.43422],[103.68527,1.43353]]]]}}