{"type":"Feature","properties":{"id":"PHL.18","name":"Palawan","level":1,"country":"PHL"},"geometry":{"type":"MultiPolygon","coordinates":[[[[121.25245,9.63117],[121.22364,9.6057],[121.22364,9.58332],[121.25717,9.62446],[121.25245,9.63117]]],[[[119.63209,11.06989],[119.57976,11.09785],[119.57976,11.04597],[119.63209,11.06989]]],[[[119.61313,11.20026],[119.57553,11.17837],[119.58334,11.13882],[119.6277,11.17304],[119.61313,11.20026]]],[[[118.53761,7.00629],[118.52459,7.04365],[118.43141,7.02709],[118.44516,6.98233],[118.51873,6.97093],[118.53761,7.00629]]],[[[117.08497,8.05785],[116.96168,8.062],[116.95493,7.92601],[117.00164,7.82368],[117.02622,7.79841],[117.06715,7.8487],[117.08579,7.92113],[117.07154,7.99315],[117.08497,8.05785]]],[[[117.03053,8.06826],[117.06837,8.09276],[117.02711,8.12873],[117.00904,8.09715],[117.03053,8.06826]]],[[[117.16774,8.17813],[117.16179,8.15672],[117.18483,8.15013],[117.18971,8.17674],[117.16774,8.17813]]],[[[117.32545,8.32274],[117.28443,8.32274],[117.27003,8.26752],[117.28972,8.18431],[117.34254,8.19721],[117.35532,8.30272],[117.32545,8.32274]]],[[[117.24285,8.31525],[117.18946,8.29955],[117.21461,8.26512],[117.24285,8.31525]]],[[[119.95021,10.60375],[119.84986,10.64476],[119.77833,10.53547],[119.80649,10.44611],[119.91489,10.48086],[119.99318,10.53998],[120.00001,10.58047],[119.95021,10.60375]]],[[[118.63878,9.52112],[118.38234,9.65778],[118.27719,9.51972],[118.21632,9.47797],[118.19288,9.42182],[118.13356,9.38471],[118.12696,9.33784],[118.05437,9.29145],[118.00318,9.2333],[117.96632,9.25727],[117.90447,9.26122],[117.86647,9.2036],[117.79656,9.16328],[117.76808,9.08641],[117.65553,9.05793],[117.62273,8.99185],[117.51979,8.89973],[117.45037,8.79116],[117.37599,8.74681],[117.34205,8.68427],[117.29152,8.64082],[117.22234,8.50023],[117.22234,8.43818],[117.18824,8.36652],[117.19801,8.33478],[117.31861,8.45185],[117.37892,8.48631],[117.47218,8.51382],[117.51287,8.50678],[117.55812,8.59642],[117.5656,8.66108],[117.66733,8.66474],[117.77369,8.70307],[117.8401,8.77448],[117.91041,8.82974],[118.01368,8.8876],[118.05836,8.95209],[118.13209,9.12665],[118.18914,9.15599],[118.33579,9.17927],[118.43084,9.27318],[118.4979,9.31367],[118.5573,9.41169],[118.63878,9.52112]]],[[[118.99342,10.30028],[119.08991,10.20372],[119.08336,10.16442],[119.1963,10.05634],[119.22071,10.08417],[119.23715,10.17935],[119.28598,10.26138],[119.35597,10.32884],[119.47267,10.37812],[119.56324,10.37348],[119.70997,10.49453],[119.71412,10.53266],[119.67189,10.55256],[119.63445,10.65217],[119.59083,10.67243],[119.60011,10.71735],[119.59344,10.83714],[119.5193,10.83771],[119.50457,10.97089],[119.56178,11.05903],[119.52052,11.13841],[119.56902,11.26166],[119.55242,11.33739],[119.51295,11.39777],[119.42058,11.29755],[119.42897,11.22753],[119.39877,11.15925],[119.43214,11.12222],[119.4061,11.04955],[119.32,11.00088],[119.3191,10.94302],[119.37013,10.86774],[119.43507,10.85224],[119.43971,10.79605],[119.46949,10.74103],[119.33326,10.82347],[119.27312,10.92748],[119.2234,10.85082],[119.31691,10.77269],[119.34498,10.72358],[119.3191,10.59007],[119.27809,10.50821],[119.22999,10.48542],[119.15284,10.39851],[119.07203,10.39151],[118.99342,10.30028]]],[[[119.8672,11.51557],[119.8401,11.47565],[119.77084,11.44042],[119.83286,11.42617],[119.8698,11.44062],[119.8672,11.51557]]],[[[120.02475,11.89297],[119.92921,11.96117],[119.85402,11.95441],[119.86801,11.90656],[119.92237,11.83771],[119.92921,11.77558],[119.95924,11.76586],[119.9546,11.68012],[120.01417,11.68212],[120.06707,11.74177],[120.07993,11.78925],[120.03907,11.8166],[120.05258,11.87124],[120.02475,11.89297]]],[[[120.3475,12.02949],[120.3475,12.06733],[120.28639,12.13544],[120.25196,12.14248],[120.19606,12.11201],[120.11695,12.16645],[120.0215,12.25312],[119.93588,12.27652],[119.92693,12.31647],[119.88502,12.3227],[119.8672,12.23184],[119.93409,12.13483],[119.94239,12.08714],[119.98406,12.0257],[120.03907,11.99531],[120.08229,12.00153],[120.13461,11.97484],[120.1421,12.02949],[120.23764,11.98794],[120.31276,11.99201],[120.3475,12.02949]]],[[[121.09449,10.89582],[121.02516,10.86445],[121.03468,10.81981],[121.08074,10.84174],[121.09449,10.89582]]],[[[120.28517,11.93016],[120.2588,11.9676],[120.2033,11.94758],[120.23748,11.88544],[120.28517,11.93016]]],[[[119.95973,8.8806],[119.95834,8.87718],[119.96062,8.8771],[119.95973,8.8806]]],[[[119.96925,8.88093],[119.97193,8.88239],[119.96827,8.8841],[119.96925,8.88093]]],[[[119.96534,8.88719],[119.96323,8.88703],[119.96485,8.885],[119.96534,8.88719]]],[[[119.96778,8.89155],[119.96567,8.89143],[119.9673,8.88935],[119.96778,8.89155]]]]}}