{"type":"Feature","properties":{"id":"PHL.50","name":"Rizal","level":1,"country":"PHL"},"geometry":{"type":"Polygon","coordinates":[[[121.34208,14.88927],[121.30808,14.89046],[121.26839,14.84855],[121.20576,14.82638],[121.15427,14.75843],[121.12621,14.66346],[121.11844,14.60907],[121.12535,14.5249],[121.17227,14.50242],[121.20545,14.42008],[121.22653,14.31962],[121.26281,14.34956],[121.2377,14.39395],[121.24679,14.50247],[121.32317,14.46594],[121.33454,14.38998],[121.30632,14.31954],[121.38838,14.34509],[121.35955,14.46646],[121.3859,14.53224],[121.46053,14.57151],[121.37402,14.70344],[121.3458,14.79284],[121.34208,14.88927]]]}}