{"type":"Feature","properties":{"id":"PHL.47","name":"Batangas","level":1,"country":"PHL"},"geometry":{"type":"MultiPolygon","coordinates":[[[[121.45458,13.81922],[121.39552,13.8422],[121.31976,13.89843],[121.26446,13.96153],[121.22374,14.00592],[121.20545,14.11165],[121.12969,14.14937],[121.03295,14.144],[120.93415,14.08653],[120.86893,14.07609],[120.8154,14.10989],[120.71762,14.13955],[120.67763,14.20399],[120.59668,14.2188],[120.59571,14.14794],[120.61948,14.10423],[120.61744,14.01789],[120.60133,13.96914],[120.61842,13.93163],[120.62013,13.84663],[120.72291,13.85541],[120.70485,13.92744],[120.74594,13.93378],[120.89503,13.90644],[120.91236,13.88178],[120.90919,13.80463],[120.92905,13.7836],[120.88071,13.71686],[120.90309,13.69294],[120.98097,13.78046],[121.03981,13.75869],[121.05348,13.72211],[121.03395,13.64183],[121.08041,13.61909],[121.1587,13.63947],[121.27882,13.59504],[121.37477,13.66747],[121.43002,13.65693],[121.46412,13.69477],[121.44077,13.72639],[121.43344,13.79637],[121.45458,13.81922]]],[[[121.08863,13.53034],[121.07749,13.57225],[121.04347,13.56123],[121.08863,13.53034]]],[[[120.90984,13.65892],[120.8458,13.67211],[120.84083,13.65563],[120.91025,13.62755],[120.90984,13.65892]]]]}}