{"type":"Feature","properties":{"id":"AFG.17","name":"Khost","level":1,"country":"AFG"},"geometry":{"type":"Polygon","coordinates":[[[69.99648,33.74209],[69.98878,33.71259],[69.77526,33.61154],[69.64477,33.5902],[69.58364,33.55465],[69.55661,33.50454],[69.57465,33.47718],[69.52964,33.38241],[69.45264,33.3304],[69.40117,33.24456],[69.39032,33.20619],[69.40009,33.13206],[69.34081,33.0677],[69.38375,33.04026],[69.47813,33.01135],[69.54752,33.07501],[69.68601,33.08077],[69.77184,33.11478],[69.83871,33.08666],[69.88093,33.08925],[69.95581,33.1277],[70.01452,33.14077],[70.048,33.19407],[70.12479,33.19903],[70.29445,33.31895],[70.28572,33.38287],[70.18546,33.46897],[70.15497,33.50661],[70.17022,33.63867],[70.13255,33.66143],[70.10815,33.7273],[70.06557,33.72102],[69.99648,33.74209]]]}}