{"type":"Feature","properties":{"id":"BRA.24","name":"Rio Grande do Norte","level":1,"country":"BRA"},"geometry":{"type":"MultiPolygon","coordinates":[[[[-37.23639,-4.82989],[-37.54093,-4.93014],[-37.59478,-4.95691],[-37.72126,-5.06289],[-37.91522,-5.46349],[-37.99625,-5.56452],[-38.04754,-5.61402],[-38.07785,-5.68725],[-38.07795,-5.76063],[-38.12183,-5.82486],[-38.13901,-5.89473],[-38.25236,-6.01049],[-38.2997,-6.07415],[-38.36778,-6.09332],[-38.41566,-6.06175],[-38.49338,-6.1264],[-38.58705,-6.28546],[-38.57947,-6.40509],[-38.52576,-6.38163],[-38.4362,-6.41253],[-38.28223,-6.50544],[-38.24097,-6.48405],[-38.13025,-6.51976],[-38.08144,-6.45847],[-38.0032,-6.43325],[-37.84412,-6.34101],[-37.8203,-6.28907],[-37.79229,-6.29155],[-37.75846,-6.1758],[-37.63987,-6.12629],[-37.47406,-6.08557],[-37.42445,-6.09751],[-37.26067,-6.0248],[-37.17773,-6.0525],[-37.17543,-6.11684],[-37.22498,-6.16991],[-37.28883,-6.26292],[-37.33244,-6.30365],[-37.3952,-6.39088],[-37.43024,-6.51795],[-37.50701,-6.55371],[-37.52615,-6.62543],[-37.51538,-6.68052],[-37.42533,-6.69897],[-37.33557,-6.69944],[-37.26917,-6.74119],[-37.24289,-6.81276],[-37.21896,-6.82398],[-37.15326,-6.78486],[-37.04381,-6.75437],[-36.98807,-6.70858],[-36.94288,-6.74915],[-36.84307,-6.75209],[-36.79095,-6.76858],[-36.74263,-6.82449],[-36.77137,-6.93089],[-36.7114,-6.97601],[-36.65969,-6.9312],[-36.5752,-6.92671],[-36.53691,-6.87875],[-36.50151,-6.7832],[-36.53167,-6.73365],[-36.53497,-6.6383],[-36.5049,-6.61221],[-36.44276,-6.6228],[-36.47725,-6.53743],[-36.51513,-6.48012],[-36.50784,-6.40591],[-36.38348,-6.30282],[-36.31186,-6.29786],[-36.27703,-6.32778],[-36.28065,-6.36597],[-36.25202,-6.41366],[-35.92514,-6.46581],[-35.72159,-6.444],[-35.66999,-6.42586],[-35.56219,-6.45506],[-35.46638,-6.46441],[-35.36383,-6.51526],[-35.30603,-6.52844],[-35.25689,-6.50632],[-35.07953,-6.52229],[-35.04783,-6.53603],[-34.96328,-6.50333],[-34.98917,-6.37762],[-35.02424,-6.34287],[-35.0382,-6.2365],[-35.09284,-6.1858],[-35.10505,-5.99554],[-35.14745,-5.92107],[-35.17113,-5.79632],[-35.19522,-5.76002],[-35.19567,-5.68955],[-35.26228,-5.48333],[-35.31876,-5.38323],[-35.34862,-5.35564],[-35.37121,-5.27907],[-35.42052,-5.21152],[-35.51057,-5.14373],[-35.58194,-5.11891],[-35.65941,-5.11126],[-35.91759,-5.05828],[-35.99718,-5.04754],[-36.13121,-5.09588],[-36.33975,-5.08904],[-36.42235,-5.08099],[-36.57055,-5.09173],[-36.59,-5.10296],[-36.79088,-5.0512],[-36.81029,-5.02011],[-36.89875,-4.93825],[-36.98298,-4.92978],[-37.04939,-4.93792],[-37.09813,-4.92059],[-37.13492,-4.93141],[-37.18293,-4.9109],[-37.23639,-4.82989]]],[[[-32.40339,-3.83782],[-32.43692,-3.84987],[-32.44152,-3.88079],[-32.38858,-3.8528],[-32.40339,-3.83782]]],[[[-29.40803,0.88483],[-29.41027,0.83487],[-29.36937,0.83356],[-29.35619,0.88276],[-29.40803,0.88483]]]]}}