{"type":"Feature","properties":{"id":"MLI.5.4","name":"Kayes","level":2,"country":"MLI"},"geometry":{"type":"Polygon","coordinates":[[[-10.76957,14.62765],[-10.77667,14.63065],[-10.81916,14.61995],[-10.83966,14.62075],[-10.82954,14.64153],[-10.81726,14.69616],[-10.82026,14.77717],[-10.82626,14.81717],[-10.83726,14.83117],[-10.87884,14.86718],[-10.90826,14.93318],[-10.9181,14.94603],[-10.96068,14.9664],[-10.97133,14.98811],[-10.9598,15.01541],[-10.96252,15.04284],[-10.98734,15.03483],[-11.00626,15.03919],[-11.01226,15.06219],[-11.01826,15.1332],[-11.00926,15.17921],[-10.99069,15.22742],[-11.04427,15.26526],[-11.05965,15.28421],[-11.07322,15.29083],[-11.1408,15.34704],[-11.1887,15.37611],[-11.2021,15.39257],[-11.25275,15.41602],[-11.26456,15.43662],[-11.29825,15.46643],[-11.32172,15.50098],[-11.34052,15.51997],[-11.35712,15.52712],[-11.35819,15.55269],[-11.39035,15.59744],[-11.40283,15.60821],[-11.40901,15.63115],[-11.44941,15.63943],[-11.45913,15.63419],[-11.48974,15.63716],[-11.5027,15.62828],[-11.49231,15.61387],[-11.51854,15.59195],[-11.53619,15.59716],[-11.56464,15.57896],[-11.57342,15.55527],[-11.61966,15.5273],[-11.64154,15.52225],[-11.65225,15.533],[-11.7112,15.5384],[-11.71471,15.52593],[-11.70878,15.48897],[-11.72661,15.47673],[-11.74787,15.4498],[-11.74671,15.41536],[-11.76466,15.34632],[-11.79022,15.31993],[-11.79171,15.29314],[-11.80791,15.26561],[-11.80214,15.23377],[-11.80968,15.20879],[-11.83862,15.17752],[-11.83103,15.14834],[-11.81894,15.1442],[-11.81468,15.12689],[-11.84721,15.09345],[-11.83155,15.06215],[-11.84481,15.0434],[-11.83136,15.03012],[-11.81062,15.04185],[-11.79119,15.02255],[-11.81825,14.92566],[-11.79989,14.90365],[-11.80057,14.89356],[-11.82546,14.89102],[-11.82539,14.88066],[-11.84462,14.85435],[-11.85681,14.85258],[-11.89576,14.82216],[-11.92672,14.82022],[-11.93651,14.81116],[-11.93771,14.7871],[-11.94454,14.7734],[-11.97924,14.76116],[-11.99554,14.76366],[-12.0486,14.75937],[-12.04427,14.73216],[-12.05287,14.71922],[-12.07126,14.7257],[-12.1099,14.74807],[-12.12231,14.76999],[-12.13966,14.77251],[-12.17288,14.75802],[-12.23632,14.75416],[-12.23363,14.73462],[-12.21373,14.72762],[-12.20721,14.69543],[-12.18293,14.6923],[-12.15937,14.6771],[-12.1758,14.66528],[-12.14399,14.64376],[-12.14953,14.61744],[-12.17254,14.60671],[-12.17372,14.58303],[-12.18721,14.55214],[-12.20926,14.55227],[-12.21627,14.5435],[-12.21362,14.52122],[-12.22223,14.4937],[-12.21709,14.48299],[-12.19922,14.47577],[-12.20667,14.45613],[-12.19032,14.4346],[-12.20082,14.41476],[-12.19976,14.40287],[-12.16131,14.38368],[-12.12729,14.37198],[-12.09344,14.36473],[-12.09492,14.33905],[-12.0882,14.33152],[-12.09493,14.30987],[-12.07202,14.29365],[-12.06234,14.29572],[-12.02681,14.28349],[-12.00193,14.21356],[-11.98746,14.20045],[-11.98819,14.18785],[-11.97411,14.18068],[-11.97675,14.14658],[-11.98916,14.11907],[-11.97559,14.09755],[-11.99666,14.08231],[-11.99476,14.06049],[-12.00997,14.04664],[-12.01596,14.02321],[-12.00478,13.99603],[-12.01032,13.98374],[-11.99316,13.97181],[-11.98879,13.96011],[-11.93425,13.91879],[-11.94734,13.83847],[-11.95311,13.81354],[-11.97483,13.79011],[-11.98272,13.77412],[-12.00404,13.75167],[-12.04019,13.73022],[-12.07317,13.7154],[-12.06884,13.70194],[-12.04066,13.66053],[-12.03807,13.61907],[-12.01718,13.59736],[-11.99825,13.58463],[-11.99907,13.56728],[-11.97532,13.54776],[-11.9706,13.53389],[-11.96234,13.55155],[-11.94424,13.56925],[-11.92284,13.55665],[-11.8746,13.54298],[-11.85524,13.54705],[-11.80124,13.52605],[-11.73324,13.54205],[-11.63725,13.57805],[-11.58825,13.59205],[-11.53625,13.61406],[-11.49825,13.63606],[-11.46925,13.69106],[-11.44263,13.78904],[-11.41774,13.82227],[-11.38155,13.84538],[-11.26025,13.77407],[-11.18326,13.75307],[-11.10226,13.76207],[-11.07726,13.77507],[-11.04826,13.83508],[-10.97726,13.87608],[-10.95326,13.94809],[-10.92626,14.01309],[-10.93826,14.0841],[-10.93326,14.1091],[-10.91326,14.12611],[-10.86326,14.15211],[-10.83526,14.20611],[-10.82626,14.24612],[-10.85526,14.33013],[-10.84126,14.37913],[-10.81026,14.43313],[-10.77027,14.48214],[-10.76426,14.56415],[-10.76957,14.62765]]]}}