{"type":"Feature","properties":{"id":"ZMB.8.6","name":"Chikankanta","level":2,"country":"ZMB"},"geometry":{"type":"Polygon","coordinates":[[[28.58997,-15.90694],[28.57911,-15.90852],[28.57408,-15.89961],[28.56945,-15.89541],[28.56031,-15.89567],[28.55632,-15.89395],[28.55327,-15.88728],[28.54675,-15.88022],[28.53744,-15.87849],[28.53673,-15.87221],[28.52207,-15.8678],[28.51404,-15.87118],[28.51068,-15.86472],[28.50254,-15.85873],[28.49672,-15.85028],[28.48802,-15.85022],[28.48196,-15.8461],[28.47426,-15.84792],[28.46905,-15.84123],[28.45843,-15.83502],[28.45022,-15.84753],[28.44451,-15.84757],[28.4373,-15.83807],[28.43092,-15.83355],[28.42879,-15.82577],[28.43152,-15.81965],[28.42821,-15.81324],[28.4161,-15.80529],[28.40824,-15.80452],[28.39516,-15.79803],[28.3863,-15.78907],[28.38044,-15.78712],[28.35974,-15.78654],[28.34936,-15.78117],[28.34084,-15.78109],[28.33074,-15.78467],[28.32437,-15.79337],[28.31372,-15.79558],[28.30958,-15.80051],[28.30076,-15.80513],[28.28518,-15.8],[28.27565,-15.79338],[28.27029,-15.80401],[28.26411,-15.80629],[28.25734,-15.8162],[28.25247,-15.8182],[28.25025,-15.83143],[28.24591,-15.8345],[28.23316,-15.83931],[28.22417,-15.83849],[28.20347,-15.82476],[28.19086,-15.81822],[28.18173,-15.80812],[28.18035,-15.79383],[28.17535,-15.78708],[28.14228,-15.78271],[28.13351,-15.77895],[28.12047,-15.7761],[28.10851,-15.76805],[28.09577,-15.76287],[28.0801,-15.74685],[28.06656,-15.74278],[28.04841,-15.74323],[28.04107,-15.74205],[28.02897,-15.73608],[28.02317,-15.72918],[28.02263,-15.73782],[28.0191,-15.7486],[28.02034,-15.76202],[28.01675,-15.76318],[28.03678,-15.82236],[28.03502,-15.82312],[28.03971,-15.8373],[28.05465,-15.84082],[28.06521,-15.84512],[28.07072,-15.84526],[28.07207,-15.85322],[28.07707,-15.85756],[28.08277,-15.85923],[28.08267,-15.86356],[28.09104,-15.87452],[28.16128,-15.93104],[28.14254,-15.94703],[28.12419,-15.95496],[28.10226,-15.97006],[28.09671,-15.97861],[28.0766,-16.0005],[28.05349,-16.02319],[28.0511,-16.02416],[28.01907,-16.02314],[28.00192,-16.0296],[27.99255,-16.02747],[27.96676,-16.02739],[27.94467,-16.01735],[27.93261,-16.00933],[27.91867,-15.99644],[27.91243,-15.99371],[27.90352,-15.98635],[27.90797,-16.00566],[27.90991,-16.02227],[27.91433,-16.02871],[27.90487,-16.03585],[27.90478,-16.04981],[27.89656,-16.06369],[27.89281,-16.07767],[27.89381,-16.08154],[27.91028,-16.0891],[27.91494,-16.08877],[27.94791,-16.11121],[27.95889,-16.13381],[27.96818,-16.14148],[27.98125,-16.16225],[27.98047,-16.17704],[27.99012,-16.18814],[27.99679,-16.18925],[27.99957,-16.19758],[28.00706,-16.1998],[28.01003,-16.20645],[28.01845,-16.21341],[28.02816,-16.21873],[28.02772,-16.22613],[28.03434,-16.22798],[28.04105,-16.24515],[28.042,-16.26445],[28.03706,-16.2675],[28.04106,-16.27617],[28.03967,-16.27991],[28.04694,-16.28664],[28.05508,-16.30064],[28.0544,-16.31465],[28.04694,-16.31514],[28.04372,-16.31856],[28.10641,-16.3345],[28.33984,-16.26235],[28.40402,-16.24368],[28.46639,-16.15299],[28.45802,-16.14664],[28.44607,-16.14212],[28.4351,-16.14002],[28.43074,-16.13489],[28.42262,-16.1331],[28.41993,-16.12401],[28.4142,-16.11991],[28.41899,-16.11385],[28.42072,-16.10808],[28.4248,-16.1047],[28.42724,-16.09732],[28.42614,-16.08764],[28.43392,-16.0849],[28.43219,-16.08053],[28.43894,-16.07877],[28.43967,-16.07505],[28.45154,-16.08144],[28.45705,-16.07521],[28.45946,-16.06824],[28.47798,-16.06719],[28.48857,-16.05834],[28.49019,-16.05473],[28.49682,-16.05521],[28.50072,-16.04862],[28.51126,-16.04783],[28.52139,-16.04436],[28.52064,-16.03963],[28.52555,-16.0366],[28.53178,-16.027],[28.52811,-16.01182],[28.52464,-16.01008],[28.53231,-16.00054],[28.53043,-15.99334],[28.52708,-15.99164],[28.52552,-15.98395],[28.5302,-15.98041],[28.53506,-15.96737],[28.54179,-15.97069],[28.54752,-15.96548],[28.55559,-15.94867],[28.55939,-15.94657],[28.5608,-15.93007],[28.56264,-15.92551],[28.57507,-15.92481],[28.58054,-15.91453],[28.58997,-15.90694]]]}}