{"type":"Feature","properties":{"id":"ZMB.1.8","name":"Mwense","level":2,"country":"ZMB"},"geometry":{"type":"Polygon","coordinates":[[[28.84479,-10.13618],[28.8414,-10.13105],[28.83306,-10.12871],[28.82719,-10.13308],[28.81641,-10.12723],[28.80559,-10.12926],[28.79893,-10.1247],[28.79093,-10.1222],[28.78695,-10.11404],[28.78619,-10.10739],[28.77989,-10.09823],[28.77878,-10.08998],[28.77463,-10.08358],[28.76127,-10.07742],[28.76117,-10.07103],[28.75424,-10.06918],[28.75371,-10.06265],[28.74605,-10.05682],[28.74207,-10.05059],[28.73225,-10.04497],[28.72023,-10.04415],[28.71312,-10.03799],[28.70859,-10.0262],[28.70174,-10.02236],[28.70024,-10.01304],[28.70716,-10.00497],[28.70545,-9.99338],[28.69575,-9.98865],[28.68967,-9.99097],[28.68444,-9.99004],[28.67888,-10.00076],[28.68121,-10.01325],[28.678,-10.01778],[28.67709,-10.02614],[28.67272,-10.03698],[28.67234,-10.04645],[28.64806,-10.05494],[28.63994,-10.05176],[28.63058,-10.05751],[28.62893,-10.06401],[28.63268,-10.08064],[28.6299,-10.10795],[28.62536,-10.12487],[28.62664,-10.13537],[28.62441,-10.14827],[28.62764,-10.16233],[28.62538,-10.16595],[28.61892,-10.16736],[28.61414,-10.16364],[28.60948,-10.16682],[28.61272,-10.17367],[28.60794,-10.182],[28.59539,-10.19124],[28.57571,-10.22254],[28.5754,-10.22808],[28.58127,-10.23559],[28.59411,-10.24301],[28.59796,-10.25379],[28.60806,-10.26391],[28.61093,-10.28503],[28.62218,-10.28609],[28.62802,-10.2884],[28.63482,-10.3014],[28.63589,-10.31375],[28.63209,-10.33524],[28.62579,-10.35111],[28.61997,-10.35906],[28.61844,-10.36538],[28.62427,-10.37543],[28.62213,-10.39074],[28.62729,-10.40568],[28.63993,-10.41552],[28.64383,-10.423],[28.64685,-10.44783],[28.64547,-10.45157],[28.63622,-10.46017],[28.63299,-10.46545],[28.63228,-10.47529],[28.63972,-10.48913],[28.6415,-10.50436],[28.63019,-10.51537],[28.63161,-10.52238],[28.64768,-10.53414],[28.65809,-10.53631],[28.66348,-10.55243],[28.67359,-10.56288],[28.67373,-10.57031],[28.66589,-10.57813],[28.66531,-10.59215],[28.65978,-10.60269],[28.65797,-10.61355],[28.65837,-10.6264],[28.67031,-10.62775],[28.68466,-10.63486],[28.68987,-10.64226],[28.69489,-10.6535],[28.6983,-10.6684],[28.6969,-10.67358],[28.68483,-10.67953],[28.66957,-10.68388],[28.66272,-10.68393],[28.66249,-10.69224],[28.66505,-10.69706],[28.66337,-10.70969],[28.66584,-10.71833],[28.6647,-10.723],[28.65911,-10.72303],[28.65141,-10.71873],[28.64385,-10.7188],[28.63629,-10.71572],[28.6232,-10.71544],[28.60825,-10.7252],[28.60628,-10.73176],[28.60875,-10.74322],[28.60335,-10.76849],[28.59446,-10.78145],[28.58253,-10.78852],[28.58108,-10.79483],[28.58177,-10.8076],[28.57966,-10.81229],[28.56896,-10.82011],[28.55988,-10.82219],[28.5475,-10.85095],[28.54291,-10.87317],[28.54303,-10.88122],[28.54648,-10.89726],[28.54621,-10.90914],[28.54348,-10.92334],[28.55185,-10.92892],[28.55327,-10.93278],[28.5631,-10.94179],[28.57138,-10.94166],[28.57897,-10.94556],[28.5832,-10.95562],[28.58982,-10.96409],[28.61224,-10.9726],[28.61351,-10.97615],[28.62642,-10.97891],[28.6359,-10.98706],[28.64285,-10.98295],[28.66067,-10.99369],[28.66727,-10.99971],[28.68082,-10.99928],[28.68922,-11.00981],[28.71532,-11.00921],[28.72298,-11.01662],[28.72936,-11.01619],[28.73441,-11.02788],[28.73369,-11.03382],[28.73725,-11.04239],[28.74629,-11.04899],[28.7643,-11.05125],[28.76735,-11.04165],[28.77843,-11.03422],[28.76781,-11.02105],[28.76363,-11.01075],[28.76391,-11.00128],[28.76959,-10.99227],[28.76839,-10.98399],[28.75818,-10.97808],[28.73155,-10.96997],[28.72731,-10.96006],[28.73253,-10.936],[28.73224,-10.92535],[28.73609,-10.92248],[28.74177,-10.90789],[28.74079,-10.89888],[28.74475,-10.89223],[28.75422,-10.88316],[28.75714,-10.87656],[28.75904,-10.86084],[28.75617,-10.84963],[28.76036,-10.83239],[28.76747,-10.82489],[28.76506,-10.81869],[28.76879,-10.80336],[28.76495,-10.7948],[28.77327,-10.79418],[28.77361,-10.78476],[28.77654,-10.78116],[28.77579,-10.77518],[28.77923,-10.76802],[28.77677,-10.76464],[28.77803,-10.75805],[28.77671,-10.75157],[28.77275,-10.74396],[28.77728,-10.73424],[28.77502,-10.72733],[28.77654,-10.71721],[28.77602,-10.7038],[28.77359,-10.69916],[28.78379,-10.69703],[28.79653,-10.70081],[28.80907,-10.71393],[28.81435,-10.71564],[28.82101,-10.71403],[28.82512,-10.71015],[28.83389,-10.70943],[28.83887,-10.70758],[28.84366,-10.69937],[28.84099,-10.69436],[28.84604,-10.68854],[28.84943,-10.67958],[28.85391,-10.67427],[28.86028,-10.67116],[28.86549,-10.65967],[28.86834,-10.64402],[28.87263,-10.63805],[28.86549,-10.62225],[28.86665,-10.61087],[28.86563,-10.60368],[28.86732,-10.59606],[28.87143,-10.58842],[28.85933,-10.58225],[28.85467,-10.57716],[28.85541,-10.55487],[28.85284,-10.52884],[28.84884,-10.51303],[28.84958,-10.49473],[28.84728,-10.48338],[28.8518,-10.47464],[28.85817,-10.41765],[28.85909,-10.39514],[28.8727,-10.35409],[28.87782,-10.34553],[28.87818,-10.33959],[28.88407,-10.32743],[28.88564,-10.30374],[28.87982,-10.28549],[28.90221,-10.2415],[28.90153,-10.20834],[28.8917,-10.20666],[28.87685,-10.20992],[28.87124,-10.20641],[28.86135,-10.20435],[28.86164,-10.19317],[28.86402,-10.18475],[28.85998,-10.16912],[28.85551,-10.16575],[28.85722,-10.16173],[28.85361,-10.15602],[28.85351,-10.14587],[28.8441,-10.13899],[28.84479,-10.13618]]]}}