{"type":"Feature","properties":{"id":"SWE.20.30","name":"Dals-Ed","level":2,"country":"SWE"},"geometry":{"type":"Polygon","coordinates":[[[11.8432,59.24139],[11.79666,59.19329],[11.78809,59.15375],[11.78594,59.08995],[11.73879,59.03596],[11.71521,59.02383],[11.69164,58.94431],[11.66361,58.91016],[11.68396,58.9019],[11.73361,58.85669],[11.73836,58.81818],[11.80631,58.81349],[11.82478,58.76372],[11.86576,58.75132],[11.89438,58.77835],[11.92984,58.79428],[12.02015,58.8031],[12.08588,58.84446],[12.13553,58.85547],[12.12371,58.87869],[12.12134,58.94096],[12.16863,58.96169],[12.17336,58.98606],[12.14735,59.02015],[12.11662,59.0384],[12.07169,59.04448],[12.02677,59.06393],[12.00313,59.09916],[12.01259,59.12829],[11.98185,59.15012],[11.93457,59.1683],[11.90147,59.1683],[11.84473,59.20342],[11.87074,59.23542],[11.8432,59.24139]]]}}