{"type":"Feature","properties":{"id":"SWE.13.14","name":"Boden","level":2,"country":"SWE"},"geometry":{"type":"Polygon","coordinates":[[[21.94229,66.43661],[21.84773,66.43508],[21.69291,66.40791],[21.616,66.40151],[21.49077,66.36565],[21.36279,66.32182],[21.22332,66.29659],[21.10372,66.34061],[21.06938,66.35959],[20.95233,66.40648],[20.76944,66.37523],[20.71335,66.36155],[20.63288,66.29301],[20.58898,66.24787],[20.35838,66.0655],[20.3229,66.02546],[20.68077,65.92956],[20.91956,65.85498],[21.20427,65.72784],[21.29373,65.69279],[21.32407,65.66957],[21.37062,65.69387],[21.45277,65.69002],[21.47149,65.73194],[21.51932,65.72809],[21.56299,65.69601],[21.6181,65.68488],[21.71689,65.69858],[21.75328,65.72724],[21.86662,65.75714],[21.87702,65.77208],[21.85415,65.81046],[21.98412,65.84154],[22.033,65.86876],[22.01636,65.89893],[21.95293,65.94983],[21.90094,65.96423],[21.84271,65.96805],[21.82295,65.98794],[21.90614,66.03698],[21.93629,66.06526],[22.01948,66.10151],[21.97477,66.13309],[21.95501,66.16966],[21.98516,66.17554],[22.01636,66.20409],[21.98516,66.22841],[22.04547,66.28201],[22.11186,66.29259],[21.94337,66.42315],[21.94229,66.43661]]]}}