{"type":"Feature","properties":{"id":"SWE.17.19","name":"Haninge","level":2,"country":"SWE"},"geometry":{"type":"MultiPolygon","coordinates":[[[[18.22444,58.91183],[18.33473,58.94793],[18.3159,58.97151],[18.24596,58.96041],[18.16526,58.93405],[18.15181,58.91183],[18.22444,58.91183]]],[[[18.21342,59.0229],[18.17389,59.02817],[18.10678,59.02188],[18.08517,59.01002],[18.09512,58.97692],[18.14716,58.97413],[18.17645,59.01134],[18.21342,59.0229]]],[[[18.43721,59.04719],[18.49095,59.09688],[18.47147,59.11476],[18.42079,59.08374],[18.37497,59.07411],[18.3536,59.02773],[18.37692,59.0087],[18.43095,59.00988],[18.43721,59.04719]]],[[[18.00246,59.03673],[18.03455,59.02422],[18.05901,59.04938],[18.09654,59.05275],[18.11645,59.07073],[18.22962,59.0979],[18.24441,59.07658],[18.30599,59.08708],[18.29177,59.11491],[18.42951,59.13703],[18.44906,59.1589],[18.37875,59.16802],[18.33522,59.16313],[18.29118,59.19259],[18.23222,59.21672],[18.17849,59.20904],[18.10228,59.18672],[18.08244,59.15136],[18.03655,59.1436],[17.98083,59.15739],[17.91845,59.13541],[17.92328,59.12379],[17.96765,59.11595],[17.98296,59.09902],[17.95951,59.05535],[18.00246,59.03673]]]]}}