{"type":"Feature","properties":{"id":"SWE.21.28","name":"Helsingborg","level":2,"country":"SWE"},"geometry":{"type":"Polygon","coordinates":[[[12.59086,56.1473],[12.68612,56.05803],[12.75191,55.981],[12.8364,55.981],[12.88853,55.96583],[12.92815,55.97517],[12.96294,55.96498],[12.99904,55.97284],[12.99654,55.99749],[12.94274,56.02414],[12.949,56.07887],[12.89583,56.12481],[12.85777,56.15792],[12.82806,56.19506],[12.83432,56.21594],[12.81721,56.23797],[12.77152,56.23355],[12.74048,56.20086],[12.71337,56.1939],[12.67584,56.16721],[12.65082,56.16721],[12.59086,56.1473]]]}}