{"type":"Feature","properties":{"id":"SWE.11.11","name":"Arvika","level":2,"country":"SWE"},"geometry":{"type":"Polygon","coordinates":[[[12.51765,60.13796],[12.48251,60.06769],[12.46492,60.05063],[12.49613,59.98618],[12.49613,59.95662],[12.47297,59.92355],[12.46833,59.85848],[12.51119,59.81774],[12.49961,59.80551],[12.41853,59.79036],[12.36409,59.73904],[12.34556,59.68354],[12.31545,59.6385],[12.31186,59.60716],[12.35324,59.55856],[12.35866,59.53655],[12.32609,59.48789],[12.30075,59.46858],[12.31161,59.45295],[12.44553,59.45479],[12.51973,59.44467],[12.53162,59.41253],[12.59212,59.38851],[12.71156,59.40417],[12.80205,59.40969],[12.85634,59.42719],[12.89543,59.45185],[12.85453,59.47686],[12.87263,59.50809],[12.89796,59.52554],[12.91063,59.5714],[12.95847,59.57366],[12.9975,59.58789],[13.02827,59.61353],[13.05541,59.60438],[13.07713,59.66476],[13.10179,59.67062],[13.10066,59.68943],[12.96854,59.75148],[12.89977,59.81887],[12.82377,59.86251],[12.78576,59.86706],[12.71735,59.89452],[12.70809,59.92065],[12.76368,59.96242],[12.76832,59.98329],[12.63164,60.04291],[12.60616,60.08616],[12.58302,60.14],[12.51765,60.13796]]]}}