{"type":"Feature","properties":{"id":"SWE.20.7","name":"Mullsjö","level":2,"country":"SWE"},"geometry":{"type":"Polygon","coordinates":[[[13.98185,58.04304],[13.95972,58.06317],[13.89878,58.06492],[13.87243,58.07624],[13.82811,58.07367],[13.80819,58.0684],[13.80655,58.03877],[13.75879,58.01697],[13.73408,57.98992],[13.7595,57.9647],[13.80984,57.95673],[13.81808,57.93575],[13.78196,57.8706],[13.80881,57.86995],[13.87315,57.84804],[13.90145,57.86174],[13.90403,57.91235],[13.9555,57.94651],[13.96064,58.01473],[13.98185,58.04304]]]}}