{"type":"Feature","properties":{"id":"SWE.15.12","name":"Vilhelmina","level":2,"country":"SWE"},"geometry":{"type":"Polygon","coordinates":[[[14.48915,65.43931],[14.48246,65.29904],[14.39878,65.26118],[14.34529,65.21234],[14.32745,65.14036],[14.30303,65.11155],[14.39583,65.08401],[14.55965,65.01767],[14.69874,64.97126],[14.8591,64.96229],[14.94987,64.95209],[15.24623,64.91207],[15.39442,64.88928],[15.50741,64.86805],[15.77043,64.78059],[15.88898,64.73319],[15.96678,64.69363],[16.07977,64.61434],[16.13233,64.56123],[16.1931,64.5376],[16.25388,64.52391],[16.36097,64.48903],[16.3928,64.47282],[16.45937,64.46908],[16.55777,64.45286],[16.65328,64.42289],[16.70827,64.36911],[16.7066,64.3597],[16.81825,64.35408],[16.8935,64.35784],[16.95717,64.40414],[16.99769,64.41664],[17.17135,64.44037],[17.41157,64.46783],[17.56785,64.48155],[17.65179,64.49651],[17.70744,64.5275],[17.65179,64.58484],[17.61995,64.60099],[17.63153,64.62208],[17.66915,64.63324],[17.6431,64.67413],[17.55628,64.68279],[17.50418,64.71866],[17.54007,64.74919],[17.46133,64.76407],[17.34161,64.7672],[17.33428,64.78594],[17.26587,64.81506],[17.15837,64.84831],[17.0069,64.90122],[16.76014,64.97677],[16.58423,65.03354],[16.54514,65.06137],[16.40832,65.14058],[16.21287,65.26865],[16.10537,65.32175],[15.73401,65.39713],[15.55566,65.40221],[15.40662,65.4134],[15.25515,65.41238],[15.19162,65.42153],[15.13054,65.40933],[14.97662,65.40628],[14.88378,65.42559],[14.83736,65.42559],[14.78361,65.41035],[14.68589,65.41136],[14.57106,65.43474],[14.48915,65.43931]]]}}