{"type":"Feature","properties":{"id":"SWE.20.35","name":"Alingsås","level":2,"country":"SWE"},"geometry":{"type":"Polygon","coordinates":[[[12.69112,57.87125],[12.69454,57.94281],[12.65774,57.98339],[12.59286,57.99623],[12.58511,58.00905],[12.61416,58.05469],[12.67033,58.08746],[12.74393,58.10793],[12.74913,58.11824],[12.72069,58.14577],[12.74005,58.18102],[12.70907,58.1994],[12.60448,58.21215],[12.58177,58.2055],[12.57252,58.18612],[12.50861,58.16876],[12.51829,58.14833],[12.47179,58.1127],[12.48004,58.10301],[12.45281,58.07341],[12.45886,58.01656],[12.37295,57.98604],[12.40136,57.97887],[12.40893,57.95078],[12.43465,57.94194],[12.43768,57.90096],[12.46794,57.88166],[12.46642,57.84786],[12.48004,57.82208],[12.52241,57.79709],[12.52241,57.78144],[12.55893,57.77976],[12.62249,57.81299],[12.63449,57.8379],[12.69112,57.87125]]]}}