{"type":"Feature","properties":{"id":"PRI.1.20","name":"Coamo","level":2,"country":"PRI"},"geometry":{"type":"Polygon","coordinates":[[[-66.37377,18.17369],[-66.38904,18.17244],[-66.39233,18.16639],[-66.41053,18.16317],[-66.4209,18.16632],[-66.43607,18.1755],[-66.44456,18.17667],[-66.43277,18.17265],[-66.42879,18.16405],[-66.42872,18.15506],[-66.41931,18.14499],[-66.42085,18.134],[-66.4243,18.13208],[-66.42776,18.11066],[-66.42677,18.10191],[-66.42138,18.09859],[-66.42922,18.09096],[-66.43031,18.08205],[-66.42756,18.07163],[-66.43154,18.06353],[-66.42404,18.05192],[-66.42699,18.04263],[-66.39518,18.03704],[-66.38814,18.04019],[-66.37176,18.03262],[-66.35678,18.03694],[-66.34855,18.03053],[-66.34793,18.02577],[-66.33599,18.02276],[-66.33124,18.01589],[-66.3256,18.01847],[-66.31196,18.03924],[-66.31305,18.04441],[-66.29752,18.05719],[-66.28481,18.05972],[-66.27938,18.06892],[-66.26775,18.06954],[-66.25753,18.07588],[-66.26305,18.08564],[-66.27294,18.08659],[-66.27726,18.09564],[-66.28168,18.0954],[-66.32091,18.12601],[-66.31307,18.13628],[-66.31674,18.14018],[-66.31485,18.15209],[-66.32305,18.1571],[-66.32232,18.1655],[-66.33838,18.16866],[-66.35126,18.16549],[-66.35554,18.16938],[-66.36504,18.1697],[-66.37377,18.17369]]]}}