{"type":"Feature","properties":{"id":"BTN.9","name":"Bumthang","level":1,"country":"BTN"},"geometry":{"type":"Polygon","coordinates":[[[90.47523,28.07234],[90.42914,28.02522],[90.45105,27.99997],[90.44144,27.96372],[90.47916,27.92215],[90.48691,27.85437],[90.45756,27.816],[90.465,27.77624],[90.52453,27.73575],[90.51296,27.64175],[90.5606,27.50793],[90.56758,27.44988],[90.66938,27.40262],[90.72416,27.349],[90.7639,27.37624],[90.83325,27.32616],[90.93164,27.36908],[90.96978,27.38998],[90.95427,27.41791],[90.98094,27.47008],[90.94668,27.50768],[90.93955,27.56493],[90.95748,27.62232],[90.94544,27.68565],[90.88368,27.72136],[90.87045,27.79014],[90.79676,27.83828],[90.77366,27.90101],[90.72772,27.92928],[90.75594,27.97183],[90.75528,28.05517],[90.6839,28.08707],[90.57528,28.06583],[90.47523,28.07234]]]}}