{"type":"Feature","properties":{"id":"SLB.1.10","name":"West Kwaio","level":2,"country":"SLB"},"geometry":{"type":"MultiPolygon","coordinates":[[[[160.76658,-8.91388],[160.76321,-8.91579],[160.76535,-8.91979],[160.75997,-8.9259],[160.76227,-8.9291],[160.75804,-8.93548],[160.76259,-8.94299],[160.76165,-8.94744],[160.76737,-8.9499],[160.7615,-8.95885],[160.75616,-8.95835],[160.75189,-8.96514],[160.75802,-8.96993],[160.75971,-8.97674],[160.75835,-8.979],[160.76168,-8.98513],[160.77126,-8.98908],[160.78016,-8.98844],[160.77624,-8.99372],[160.7679,-8.9906],[160.76557,-8.99197],[160.7678,-8.99769],[160.77165,-8.99903],[160.77768,-9.00984],[160.77828,-9.01488],[160.77657,-9.0189],[160.79217,-9.02844],[160.79482,-9.02783],[160.80091,-9.04018],[160.80333,-9.04893],[160.79838,-9.0599],[160.79836,-9.06353],[160.80195,-9.06804],[160.80655,-9.06902],[160.81016,-9.07373],[160.80877,-9.07729],[160.81028,-9.08411],[160.8192,-9.09169],[160.82811,-9.094],[160.83067,-9.09647],[160.83004,-9.10105],[160.8341,-9.11105],[160.83869,-9.11606],[160.84347,-9.12526],[160.84402,-9.13241],[160.85114,-9.14027],[160.85819,-9.14054],[160.85829,-9.14452],[160.86308,-9.14838],[160.87241,-9.16104],[160.87366,-9.1649],[160.88239,-9.16729],[160.90053,-9.17903],[160.9072,-9.18172],[160.91148,-9.18118],[160.9171,-9.17748],[160.91947,-9.17151],[160.92905,-9.1716],[160.92945,-9.17696],[160.93653,-9.17336],[160.93661,-9.17726],[160.9327,-9.18291],[160.93922,-9.18815],[160.95058,-9.19464],[161.03666,-9.11726],[160.99891,-9.05688],[160.92394,-8.93512],[160.86567,-8.87096],[160.7625,-8.88793],[160.77039,-8.91365],[160.76658,-8.91388]]],[[[160.77496,-9.01689],[160.77227,-9.01403],[160.77311,-9.01648],[160.77496,-9.01689]]]]}}