{"type":"Feature","properties":{"id":"AUS.7.41","name":"Lower Eyre Peninsula","level":2,"country":"AUS"},"geometry":{"type":"MultiPolygon","coordinates":[[[[135.9758,-35.02497],[135.96562,-35.02204],[135.9675,-35.03212],[135.97488,-35.0361],[135.98307,-35.03359],[135.9816,-35.02452],[135.9758,-35.02497]]],[[[135.61775,-34.99335],[135.62524,-34.98921],[135.62635,-34.9821],[135.61737,-34.98018],[135.61775,-34.99335]]],[[[136.0275,-34.98152],[136.0272,-34.98639],[136.02976,-34.98692],[136.03085,-34.98278],[136.0275,-34.98152]]],[[[136.05137,-34.97027],[136.06264,-34.96759],[136.06997,-34.96319],[136.05991,-34.95738],[136.05137,-34.97027]]],[[[136.30657,-34.59392],[136.32174,-34.59643],[136.32195,-34.58932],[136.30975,-34.58944],[136.30657,-34.59392]]],[[[136.20914,-34.55156],[136.21423,-34.55301],[136.21674,-34.54742],[136.2108,-34.54819],[136.20914,-34.55156]]],[[[136.25748,-34.5445],[136.26058,-34.5442],[136.26158,-34.54054],[136.25785,-34.54164],[136.25748,-34.5445]]],[[[136.27944,-34.48809],[136.28595,-34.49202],[136.28641,-34.48853],[136.27944,-34.48809]]],[[[135.25846,-34.25864],[135.26085,-34.26056],[135.25968,-34.25634],[135.25846,-34.25864]]],[[[136.03132,-34.95752],[136.03308,-34.95567],[136.03057,-34.95348],[136.03132,-34.95752]]],[[[136.02575,-34.95034],[136.0264,-34.94937],[136.0244,-34.94912],[136.02575,-34.95034]]],[[[136.03151,-34.9087],[136.02756,-34.9115],[136.0324,-34.91805],[136.03822,-34.90735],[136.03151,-34.9087]]],[[[136.00763,-34.85843],[136.00944,-34.86038],[136.00852,-34.85645],[136.00763,-34.85843]]],[[[136.3658,-34.64816],[136.3698,-34.64827],[136.36908,-34.64534],[136.366,-34.64536],[136.3658,-34.64816]]],[[[136.28828,-34.5807],[136.29669,-34.58385],[136.30158,-34.58051],[136.29441,-34.58018],[136.2909,-34.57767],[136.28828,-34.5807]]],[[[135.86473,-34.95357],[135.86691,-34.95577],[135.86574,-34.95195],[135.86473,-34.95357]]],[[[135.04675,-34.75385],[135.04457,-34.75247],[135.03818,-34.75912],[135.04514,-34.75757],[135.04675,-34.75385]]],[[[135.02982,-34.76949],[135.02798,-34.77512],[135.03096,-34.77716],[135.03229,-34.77138],[135.02982,-34.76949]]],[[[135.03041,-34.78436],[135.03395,-34.7852],[135.03699,-34.78243],[135.0325,-34.78097],[135.03041,-34.78436]]],[[[135.08122,-34.75383],[135.08045,-34.75293],[135.07886,-34.75466],[135.08182,-34.75499],[135.08122,-34.75383]]],[[[136.318,-34.6558],[136.32152,-34.65448],[136.31872,-34.65371],[136.318,-34.6558]]],[[[136.29133,-34.56892],[136.29344,-34.56696],[136.29044,-34.56764],[136.29133,-34.56892]]],[[[136.25131,-34.52659],[136.26103,-34.52344],[136.25562,-34.51899],[136.25131,-34.52659]]],[[[136.24986,-34.51311],[136.25245,-34.51388],[136.25079,-34.50995],[136.24908,-34.51136],[136.24986,-34.51311]]],[[[135.15859,-34.72934],[135.16473,-34.72238],[135.15333,-34.72649],[135.15859,-34.72934]]],[[[135.28352,-34.70929],[135.28679,-34.71031],[135.29194,-34.70644],[135.28677,-34.7054],[135.28352,-34.70929]]],[[[136.27869,-34.68107],[136.27486,-34.67595],[136.26951,-34.67562],[136.26573,-34.68029],[136.26918,-34.68332],[136.27255,-34.67896],[136.27869,-34.68107]]],[[[136.24861,-34.59694],[136.25441,-34.59717],[136.25573,-34.5942],[136.25079,-34.59363],[136.24861,-34.59694]]],[[[136.23558,-34.56404],[136.2389,-34.562],[136.23657,-34.56217],[136.23558,-34.56404]]],[[[136.00145,-34.87862],[136.0065,-34.88893],[136.01289,-34.88991],[136.01448,-34.87604],[136.01182,-34.86609],[136.00786,-34.86523],[136.00076,-34.87282],[136.00145,-34.87862]]],[[[135.87304,-34.94234],[135.86805,-34.94526],[135.86908,-34.94927],[135.87527,-34.94291],[135.87304,-34.94234]]],[[[135.87119,-34.93877],[135.87483,-34.93955],[135.87465,-34.9334],[135.87313,-34.93349],[135.87119,-34.93877]]],[[[135.85536,-34.90031],[135.85472,-34.89825],[135.85246,-34.89805],[135.85455,-34.90145],[135.85536,-34.90031]]],[[[136.00959,-34.89481],[136.01138,-34.8944],[136.01155,-34.89227],[136.00959,-34.89481]]],[[[135.84723,-34.88909],[135.8486,-34.88924],[135.84777,-34.88748],[135.84723,-34.88909]]],[[[135.68495,-34.94742],[135.68679,-34.94759],[135.68692,-34.94648],[135.68495,-34.94742]]],[[[135.32551,-34.70415],[135.33611,-34.70052],[135.32941,-34.69972],[135.32551,-34.70415]]],[[[136.18392,-34.64952],[136.1858,-34.64853],[136.18131,-34.64044],[136.17987,-34.64706],[136.18392,-34.64952]]],[[[136.19708,-34.63802],[136.19513,-34.63694],[136.1953,-34.63848],[136.19708,-34.63802]]],[[[135.95631,-34.74155],[135.95262,-34.7413],[135.95614,-34.74353],[135.95631,-34.74155]]],[[[135.95572,-34.74961],[135.95663,-34.74898],[135.955,-34.74769],[135.95377,-34.74942],[135.95572,-34.74961]]],[[[135.20959,-34.5626],[135.21314,-34.56332],[135.2106,-34.56132],[135.20959,-34.5626]]],[[[135.21688,-33.94021],[135.22363,-33.94556],[135.22852,-33.95348],[135.23704,-33.96183],[135.25218,-33.98132],[135.25876,-33.9998],[135.26675,-34.0101],[135.27156,-34.01993],[135.26898,-34.03492],[135.27272,-34.04265],[135.27527,-34.05692],[135.28113,-34.07024],[135.27305,-34.08672],[135.27478,-34.09877],[135.27457,-34.11327],[135.27901,-34.12129],[135.27296,-34.12583],[135.2621,-34.12824],[135.25259,-34.13784],[135.24405,-34.14077],[135.24124,-34.15012],[135.25573,-34.15803],[135.26641,-34.16743],[135.28287,-34.17093],[135.29226,-34.17505],[135.30503,-34.18587],[135.31999,-34.21054],[135.34187,-34.25628],[135.35132,-34.28421],[135.34897,-34.2962],[135.35767,-34.32372],[135.35867,-34.3433],[135.35599,-34.34907],[135.35855,-34.35831],[135.35737,-34.36615],[135.34986,-34.3686],[135.36146,-34.37702],[135.3656,-34.38498],[135.36339,-34.39198],[135.36375,-34.41137],[135.35894,-34.41869],[135.36586,-34.42306],[135.3691,-34.43058],[135.37821,-34.43081],[135.38837,-34.44126],[135.38692,-34.45326],[135.39134,-34.46444],[135.38843,-34.4707],[135.39303,-34.47952],[135.39107,-34.4881],[135.39532,-34.49393],[135.39014,-34.50449],[135.37903,-34.51035],[135.37758,-34.52481],[135.38669,-34.53015],[135.39033,-34.5418],[135.39528,-34.54667],[135.39833,-34.55566],[135.39921,-34.56707],[135.38924,-34.59505],[135.39321,-34.59948],[135.40343,-34.59516],[135.40025,-34.58868],[135.41365,-34.58784],[135.40966,-34.57414],[135.41177,-34.56226],[135.40639,-34.55503],[135.41276,-34.54964],[135.39145,-34.53401],[135.39735,-34.53033],[135.39524,-34.52425],[135.4011,-34.51875],[135.40139,-34.50971],[135.40509,-34.50722],[135.41228,-34.51364],[135.41459,-34.52079],[135.41036,-34.53882],[135.42035,-34.53922],[135.42262,-34.53116],[135.42867,-34.52737],[135.44579,-34.53717],[135.44175,-34.55485],[135.44404,-34.57001],[135.4317,-34.60342],[135.44586,-34.60894],[135.45241,-34.6054],[135.44314,-34.60054],[135.44534,-34.5947],[135.45808,-34.58643],[135.46726,-34.59176],[135.49616,-34.59968],[135.50805,-34.59497],[135.51442,-34.60418],[135.51677,-34.61295],[135.51044,-34.62094],[135.50134,-34.6202],[135.49402,-34.61328],[135.47868,-34.61657],[135.47403,-34.62281],[135.46521,-34.6202],[135.46267,-34.61495],[135.45493,-34.6161],[135.45107,-34.62677],[135.44622,-34.6309],[135.43155,-34.63488],[135.41204,-34.63805],[135.39898,-34.63691],[135.38571,-34.64404],[135.37777,-34.64487],[135.37192,-34.64196],[135.37431,-34.6288],[135.39652,-34.63401],[135.3987,-34.62722],[135.39115,-34.62302],[135.37059,-34.62282],[135.36163,-34.62072],[135.35885,-34.61324],[135.35226,-34.60829],[135.35186,-34.59691],[135.35807,-34.58917],[135.3547,-34.58005],[135.34975,-34.57542],[135.33059,-34.57229],[135.32577,-34.56675],[135.31648,-34.56617],[135.30446,-34.55998],[135.29901,-34.54714],[135.30841,-34.53167],[135.31414,-34.52698],[135.31626,-34.52065],[135.32474,-34.5194],[135.34433,-34.52287],[135.34618,-34.51969],[135.31336,-34.51812],[135.30409,-34.51644],[135.29892,-34.51018],[135.28515,-34.5082],[135.26133,-34.51011],[135.23898,-34.50495],[135.22139,-34.49862],[135.21541,-34.4939],[135.21256,-34.48144],[135.21419,-34.47274],[135.21165,-34.46244],[135.21648,-34.45557],[135.2096,-34.43399],[135.20633,-34.42929],[135.19499,-34.43405],[135.19092,-34.44063],[135.19033,-34.45305],[135.18659,-34.45992],[135.16902,-34.46879],[135.16885,-34.47442],[135.15957,-34.48888],[135.14632,-34.5017],[135.14367,-34.50929],[135.14361,-34.51976],[135.12988,-34.52778],[135.13262,-34.53195],[135.13425,-34.54434],[135.13073,-34.55376],[135.1233,-34.55739],[135.12638,-34.56737],[135.12216,-34.57693],[135.11195,-34.58154],[135.11381,-34.59008],[135.12437,-34.58724],[135.13346,-34.58749],[135.14351,-34.59182],[135.14765,-34.58598],[135.14665,-34.57291],[135.15862,-34.56174],[135.16602,-34.56099],[135.17374,-34.55499],[135.18114,-34.55703],[135.2027,-34.55531],[135.21364,-34.54545],[135.22525,-34.5436],[135.23874,-34.54596],[135.25244,-34.55186],[135.27523,-34.56722],[135.28371,-34.57602],[135.29058,-34.58745],[135.29684,-34.59361],[135.29902,-34.59999],[135.30851,-34.60208],[135.32138,-34.60798],[135.33402,-34.61807],[135.34169,-34.62909],[135.34957,-34.65291],[135.34728,-34.66603],[135.3406,-34.67127],[135.33226,-34.67121],[135.32581,-34.67475],[135.32503,-34.68636],[135.32942,-34.6892],[135.34169,-34.68197],[135.3505,-34.68046],[135.36719,-34.68316],[135.37971,-34.6871],[135.41379,-34.70278],[135.45519,-34.72898],[135.47435,-34.74409],[135.47914,-34.75283],[135.48689,-34.75854],[135.49441,-34.76923],[135.49155,-34.77271],[135.4959,-34.78257],[135.50309,-34.78513],[135.52928,-34.80512],[135.53297,-34.81112],[135.55375,-34.82664],[135.55785,-34.83603],[135.56985,-34.84474],[135.57611,-34.85375],[135.60451,-34.87865],[135.60494,-34.89166],[135.61446,-34.89271],[135.61858,-34.89879],[135.61812,-34.90462],[135.62405,-34.90635],[135.62436,-34.91573],[135.61948,-34.9231],[135.61835,-34.93277],[135.62247,-34.94206],[135.63953,-34.94279],[135.64,-34.93711],[135.66473,-34.94032],[135.6771,-34.94525],[135.6846,-34.94585],[135.69035,-34.93868],[135.68691,-34.93601],[135.68841,-34.9233],[135.67922,-34.91369],[135.68665,-34.90859],[135.69249,-34.91028],[135.70105,-34.90517],[135.70776,-34.89521],[135.70778,-34.87436],[135.71272,-34.86509],[135.72686,-34.85967],[135.75184,-34.85614],[135.7921,-34.86094],[135.82287,-34.87032],[135.84624,-34.88044],[135.85225,-34.89152],[135.85934,-34.89934],[135.85568,-34.9066],[135.85584,-34.91493],[135.85256,-34.9202],[135.85607,-34.92727],[135.8624,-34.92003],[135.87574,-34.92255],[135.88016,-34.92912],[135.89316,-34.93091],[135.90958,-34.93676],[135.92888,-34.94828],[135.93244,-34.95286],[135.92752,-34.95959],[135.93459,-34.97352],[135.94677,-34.97539],[135.94856,-34.98069],[135.94135,-34.98567],[135.94448,-34.99621],[135.94339,-35.00294],[135.95447,-35.00634],[135.9587,-35.0046],[135.95951,-34.99231],[135.97082,-34.99044],[135.97659,-34.99464],[135.98409,-34.98944],[135.98722,-34.98169],[136.00264,-34.98584],[136.00453,-34.98033],[135.99831,-34.96827],[135.9873,-34.95867],[135.99299,-34.9449],[135.9864,-34.94106],[135.98646,-34.93379],[135.99317,-34.92988],[135.98962,-34.92093],[135.98469,-34.91659],[135.98354,-34.90763],[135.97612,-34.90636],[135.97691,-34.8953],[135.97126,-34.8915],[135.97279,-34.88609],[135.96268,-34.87544],[135.95996,-34.84859],[135.96512,-34.84128],[135.98359,-34.82888],[135.99353,-34.82778],[136.00073,-34.8157],[136.00373,-34.80174],[136.00814,-34.79476],[136.00159,-34.78417],[136.00389,-34.77444],[136.01434,-34.75487],[136.00935,-34.75127],[136.01069,-34.74283],[136.00626,-34.73571],[135.99742,-34.73338],[135.9905,-34.72808],[135.98032,-34.72872],[135.98575,-34.73489],[135.99083,-34.74707],[135.98699,-34.76419],[135.98959,-34.77205],[135.98432,-34.7773],[135.98355,-34.78322],[135.96771,-34.78623],[135.96087,-34.7838],[135.96233,-34.77263],[135.9605,-34.76704],[135.95302,-34.76257],[135.93862,-34.76958],[135.9289,-34.76881],[135.92195,-34.78297],[135.90534,-34.79241],[135.89706,-34.80446],[135.88112,-34.80829],[135.86062,-34.80744],[135.8561,-34.81261],[135.84656,-34.81342],[135.84279,-34.81742],[135.83438,-34.81899],[135.80542,-34.81311],[135.79857,-34.81374],[135.78575,-34.80889],[135.78981,-34.80291],[135.80281,-34.794],[135.80977,-34.78208],[135.82837,-34.76719],[135.8296,-34.753],[135.83454,-34.74779],[135.8261,-34.73722],[135.82685,-34.72496],[135.82288,-34.71788],[135.82134,-34.70843],[135.82866,-34.70111],[135.8321,-34.6874],[135.8555,-34.68758],[135.85397,-34.66537],[135.86052,-34.64075],[135.86006,-34.63656],[135.86861,-34.62688],[135.88074,-34.61933],[135.8947,-34.61533],[135.90934,-34.61823],[135.91447,-34.62176],[135.91263,-34.63147],[135.92295,-34.63335],[135.92691,-34.64178],[135.93484,-34.64548],[135.93077,-34.63233],[135.93469,-34.62335],[135.93057,-34.61723],[135.93343,-34.60981],[135.92456,-34.60778],[135.91389,-34.6113],[135.90426,-34.60229],[135.90213,-34.59257],[135.90582,-34.58105],[135.91331,-34.57061],[135.92276,-34.54997],[135.93483,-34.54395],[135.92825,-34.53808],[135.93189,-34.52898],[135.94309,-34.5188],[135.95676,-34.51065],[135.97413,-34.50469],[135.9823,-34.5066],[135.98264,-34.514],[135.99545,-34.51398],[136.00831,-34.50774],[136.01574,-34.50891],[136.01908,-34.50225],[136.01583,-34.49773],[136.02567,-34.49027],[136.02576,-34.48332],[136.03496,-34.48042],[136.03496,-34.47736],[135.77738,-34.47733],[135.77769,-33.93856],[135.21688,-33.94021]]],[[[135.98647,-34.60485],[135.98391,-34.60473],[135.98197,-34.60942],[135.98507,-34.60904],[135.98647,-34.60485]]],[[[135.43371,-34.62058],[135.43103,-34.61933],[135.43278,-34.62126],[135.43371,-34.62058]]]]}}