{"type":"Feature","properties":{"id":"AUS.9.52","name":"Goondiwindi","level":2,"country":"AUS"},"geometry":{"type":"Polygon","coordinates":[[[151.36587,-29.1739],[151.37695,-29.17679],[151.38756,-29.17513],[151.39412,-29.17802],[151.40212,-29.17134],[151.40253,-29.16584],[151.4099,-29.15392],[151.41647,-29.14915],[151.42858,-29.14711],[151.43236,-29.14008],[151.45275,-29.12624],[151.45784,-29.11713],[151.46295,-29.0983],[151.47674,-29.09129],[151.48535,-29.08932],[151.49656,-29.07036],[151.50238,-29.06551],[151.4901,-29.05656],[151.49726,-29.04222],[151.49492,-29.0329],[151.4978,-29.02087],[151.50511,-29.00968],[151.49553,-29.00697],[151.49215,-29.00299],[151.4825,-29.00136],[151.47524,-29.005],[151.46691,-28.99825],[151.4581,-28.99877],[151.4557,-29.01027],[151.44688,-29.01748],[151.44353,-29.0252],[151.44392,-29.03196],[151.45022,-29.04267],[151.44729,-29.05951],[151.43912,-29.06263],[151.43389,-29.06796],[151.42599,-29.061],[151.41945,-29.0636],[151.40624,-29.05939],[151.39912,-29.05363],[151.38546,-29.05499],[151.38638,-29.05982],[151.37549,-29.05885],[151.37589,-29.04924],[151.36804,-29.04526],[151.36087,-29.04688],[151.35091,-29.0286],[151.35572,-29.02257],[151.36591,-29.02018],[151.36319,-29.00271],[151.37109,-29.00249],[151.37821,-28.99227],[151.37863,-28.97628],[151.38277,-28.96921],[151.37975,-28.96232],[151.37856,-28.92813],[151.38322,-28.91784],[151.38538,-28.90095],[151.38257,-28.87466],[151.38502,-28.87196],[151.38684,-28.85641],[151.39276,-28.8511],[151.39018,-28.84055],[151.39304,-28.83445],[151.40535,-28.82931],[151.41814,-28.81604],[151.42245,-28.80756],[151.41908,-28.79412],[151.42706,-28.78589],[151.43533,-28.78714],[151.44024,-28.77986],[151.45057,-28.77182],[151.45363,-28.75935],[151.46754,-28.75312],[151.47844,-28.74474],[151.47377,-28.73139],[151.48751,-28.72312],[151.50022,-28.70537],[151.5166,-28.6913],[151.52564,-28.67865],[151.53207,-28.64799],[151.53634,-28.6485],[151.54629,-28.6371],[151.5459,-28.62439],[151.55835,-28.623],[151.57133,-28.60851],[151.57015,-28.60209],[151.57646,-28.59718],[151.57574,-28.59205],[151.58181,-28.58616],[151.59115,-28.58248],[151.5996,-28.5852],[151.60518,-28.57532],[151.60113,-28.56692],[151.60164,-28.55839],[151.59511,-28.55155],[151.61615,-28.54542],[151.64022,-28.52414],[151.6403,-28.51566],[151.64353,-28.50809],[151.64667,-28.49318],[151.63957,-28.4761],[151.64176,-28.46135],[151.63929,-28.45285],[151.64905,-28.44621],[151.65062,-28.44251],[151.66219,-28.44361],[151.6721,-28.43056],[151.67874,-28.42839],[151.68159,-28.40861],[151.69106,-28.40805],[151.70223,-28.39074],[151.69948,-28.38247],[151.6988,-28.3612],[151.6934,-28.35162],[151.69653,-28.34726],[151.70771,-28.34148],[151.71014,-28.33777],[151.70356,-28.33108],[151.70643,-28.32612],[151.70194,-28.31965],[151.69105,-28.31011],[151.68345,-28.30946],[151.67842,-28.3012],[151.65238,-28.30208],[151.648,-28.29351],[151.64056,-28.2865],[151.63727,-28.2801],[151.6297,-28.27422],[151.61369,-28.27748],[151.60423,-28.27752],[151.58804,-28.27417],[151.57932,-28.27954],[151.56754,-28.27806],[151.55767,-28.28337],[151.54065,-28.28429],[151.53434,-28.27541],[151.5309,-28.27833],[151.5242,-28.27279],[151.52432,-28.26713],[151.50897,-28.25851],[151.50917,-28.24874],[151.50521,-28.2435],[151.50316,-28.23353],[151.49502,-28.22812],[151.4887,-28.22725],[151.48294,-28.22004],[151.47721,-28.2073],[151.48159,-28.20246],[151.483,-28.1944],[151.47707,-28.1857],[151.46407,-28.17952],[151.44115,-28.15175],[151.42293,-28.15528],[151.4099,-28.16312],[151.40201,-28.16287],[151.39693,-28.16735],[151.39178,-28.16015],[151.37643,-28.15408],[151.36681,-28.15617],[151.36097,-28.16525],[151.34696,-28.16999],[151.34015,-28.17815],[151.32812,-28.17946],[151.32107,-28.17775],[151.31995,-28.1726],[151.30934,-28.17228],[151.29762,-28.18292],[151.28804,-28.18111],[151.28062,-28.18434],[151.27334,-28.19232],[151.20588,-28.18353],[151.20696,-28.17736],[151.19073,-28.18009],[151.18502,-28.18371],[151.17061,-28.18187],[151.17324,-28.16701],[151.14353,-28.1693],[151.12555,-28.17642],[151.09075,-28.17425],[151.09186,-28.16751],[151.05443,-28.16226],[151.04672,-28.16706],[151.04268,-28.15848],[151.03757,-28.14121],[151.0399,-28.13465],[151.04921,-28.12399],[151.05711,-28.10052],[151.05571,-28.09395],[150.85623,-28.06961],[150.85192,-28.05977],[150.83643,-28.06513],[150.82557,-28.05417],[150.82669,-28.03909],[150.83212,-28.03053],[150.80517,-28.01479],[150.7965,-28.00424],[150.79509,-27.99253],[150.7606,-27.98323],[150.75918,-27.97682],[150.75094,-27.96978],[150.74202,-27.97555],[150.73565,-27.97099],[150.73505,-27.94847],[150.72373,-27.9404],[150.70905,-27.93836],[150.70268,-27.93451],[150.69401,-27.93307],[150.67748,-27.91882],[150.67422,-27.90365],[150.64641,-27.89506],[150.64479,-27.85065],[150.63346,-27.82552],[150.6212,-27.81098],[150.60363,-27.80615],[150.59215,-27.78998],[150.57502,-27.77927],[150.52084,-27.77237],[150.51371,-27.76601],[150.48901,-27.78787],[150.45821,-27.7603],[150.45065,-27.76701],[150.44597,-27.76112],[150.4394,-27.76251],[150.43923,-27.76828],[150.41,-27.74651],[150.38309,-27.76431],[150.39327,-27.77633],[150.3869,-27.78332],[150.37878,-27.78254],[150.3611,-27.76491],[150.33509,-27.76137],[150.32638,-27.8087],[150.27424,-27.80274],[150.27674,-27.85158],[150.24613,-27.85174],[150.24828,-27.90771],[150.23209,-27.90579],[150.22329,-27.89426],[150.1567,-27.92259],[150.13632,-27.91044],[150.11688,-27.96325],[150.06949,-27.95821],[150.06593,-27.98548],[149.93179,-27.96714],[149.78647,-28.00629],[149.63201,-27.98709],[149.62743,-28.01445],[149.45758,-27.99293],[149.4454,-28.07148],[149.43078,-28.06997],[149.40554,-28.22859],[149.1892,-28.19979],[149.18872,-28.20377],[149.14542,-28.19925],[149.14324,-28.2003],[149.07454,-28.19302],[149.07506,-28.18926],[149.04161,-28.18592],[148.95869,-28.28837],[148.93249,-28.48462],[148.93591,-28.48501],[148.92406,-28.55907],[148.93533,-28.56028],[148.92768,-28.62001],[148.92369,-28.62112],[148.91956,-28.65693],[148.98719,-28.66352],[148.97477,-28.75908],[148.99124,-28.76034],[148.98168,-28.82028],[149.04382,-28.89259],[149.04813,-28.88638],[149.05629,-28.89974],[149.06404,-28.8891],[149.05503,-28.88437],[149.07058,-28.87161],[149.08233,-28.84312],[149.09338,-28.83363],[149.10905,-28.83315],[149.11926,-28.82946],[149.12788,-28.83552],[149.13106,-28.8294],[149.14257,-28.82416],[149.13957,-28.80672],[149.15853,-28.80908],[149.16246,-28.80585],[149.1694,-28.80803],[149.18685,-28.79404],[149.18842,-28.77704],[149.19454,-28.77092],[149.21021,-28.76839],[149.21421,-28.7634],[149.22549,-28.76099],[149.23179,-28.75561],[149.23043,-28.75068],[149.23942,-28.74878],[149.24728,-28.73978],[149.26209,-28.73411],[149.26933,-28.74325],[149.27556,-28.73344],[149.28045,-28.73065],[149.29676,-28.70974],[149.31015,-28.71222],[149.32285,-28.70779],[149.33203,-28.70239],[149.34013,-28.69494],[149.35477,-28.68793],[149.36895,-28.68741],[149.37588,-28.69278],[149.38093,-28.68978],[149.3875,-28.69616],[149.39396,-28.68656],[149.39282,-28.68225],[149.40188,-28.67619],[149.41615,-28.66287],[149.41682,-28.65132],[149.42285,-28.64955],[149.42824,-28.6435],[149.43015,-28.62617],[149.43504,-28.62642],[149.44001,-28.61872],[149.43904,-28.61165],[149.444,-28.60624],[149.45182,-28.6042],[149.45556,-28.59598],[149.46183,-28.59142],[149.46685,-28.59397],[149.47945,-28.59139],[149.48598,-28.58224],[149.50366,-28.57427],[149.51015,-28.57756],[149.52515,-28.57954],[149.52945,-28.57439],[149.55292,-28.5776],[149.56837,-28.57158],[149.58725,-28.57336],[149.59833,-28.57984],[149.59775,-28.58887],[149.60332,-28.58903],[149.61032,-28.59741],[149.63487,-28.59544],[149.64209,-28.59919],[149.64757,-28.61228],[149.65368,-28.61335],[149.66009,-28.60951],[149.6635,-28.61763],[149.67101,-28.62113],[149.67266,-28.63071],[149.69305,-28.63204],[149.70397,-28.6339],[149.70717,-28.62747],[149.70712,-28.61475],[149.71389,-28.61671],[149.71858,-28.61164],[149.7352,-28.61763],[149.74648,-28.61201],[149.75554,-28.61165],[149.76417,-28.61469],[149.77259,-28.6145],[149.7798,-28.61018],[149.79381,-28.6115],[149.80007,-28.60804],[149.81168,-28.60606],[149.81938,-28.61681],[149.8222,-28.60908],[149.83141,-28.6038],[149.83926,-28.60393],[149.84494,-28.61058],[149.85443,-28.60437],[149.86065,-28.60715],[149.87486,-28.60739],[149.8822,-28.60981],[149.88955,-28.61892],[149.90353,-28.6199],[149.90316,-28.61555],[149.91734,-28.60813],[149.92502,-28.609],[149.9421,-28.61837],[149.95092,-28.60832],[149.96274,-28.61253],[149.97225,-28.60811],[149.97726,-28.61355],[149.98506,-28.60256],[149.99343,-28.60025],[149.99498,-28.5939],[150.01294,-28.58356],[150.02187,-28.5827],[150.02688,-28.579],[150.0362,-28.58615],[150.05654,-28.58648],[150.05811,-28.57897],[150.06382,-28.57749],[150.07979,-28.58171],[150.09277,-28.57841],[150.09102,-28.56864],[150.09707,-28.5633],[150.11115,-28.57033],[150.11619,-28.56175],[150.13162,-28.56563],[150.13286,-28.5615],[150.14344,-28.55766],[150.1474,-28.55306],[150.16326,-28.55575],[150.18028,-28.56248],[150.18678,-28.5689],[150.19804,-28.56727],[150.20355,-28.57324],[150.21365,-28.57289],[150.21951,-28.56663],[150.22663,-28.56864],[150.23544,-28.55568],[150.24848,-28.55262],[150.25386,-28.54643],[150.26128,-28.54485],[150.27026,-28.53957],[150.28212,-28.5428],[150.28797,-28.53776],[150.29579,-28.53965],[150.30054,-28.54848],[150.30926,-28.55062],[150.31318,-28.55535],[150.32016,-28.55694],[150.3231,-28.56659],[150.32788,-28.5711],[150.34164,-28.57498],[150.35058,-28.57504],[150.34908,-28.58114],[150.35491,-28.58926],[150.36284,-28.58905],[150.36283,-28.59674],[150.36823,-28.59826],[150.36416,-28.60878],[150.36858,-28.61343],[150.37015,-28.62112],[150.38483,-28.63163],[150.39169,-28.63402],[150.40161,-28.62716],[150.40886,-28.63401],[150.41532,-28.63461],[150.41439,-28.65198],[150.42463,-28.65061],[150.43286,-28.65571],[150.44045,-28.66364],[150.45893,-28.66895],[150.47329,-28.66069],[150.48384,-28.66225],[150.48633,-28.65735],[150.51385,-28.66229],[150.52179,-28.6553],[150.5307,-28.65531],[150.53929,-28.66004],[150.52557,-28.66554],[150.52747,-28.66932],[150.55103,-28.67159],[150.55443,-28.66426],[150.54836,-28.65975],[150.55594,-28.65403],[150.5609,-28.66229],[150.56691,-28.65851],[150.58063,-28.65582],[150.59995,-28.66506],[150.60046,-28.67131],[150.61799,-28.67398],[150.6254,-28.66903],[150.63224,-28.67708],[150.64153,-28.66535],[150.66481,-28.65653],[150.67343,-28.65045],[150.68138,-28.66166],[150.69202,-28.65388],[150.70137,-28.65535],[150.70956,-28.65214],[150.71028,-28.6455],[150.72425,-28.64096],[150.72729,-28.63555],[150.75127,-28.63424],[150.75438,-28.64008],[150.76716,-28.63845],[150.77203,-28.64476],[150.78249,-28.64551],[150.79634,-28.65612],[150.8045,-28.65369],[150.81898,-28.65983],[150.81878,-28.66668],[150.82853,-28.66718],[150.8393,-28.6725],[150.84905,-28.67371],[150.85219,-28.68017],[150.8635,-28.68825],[150.87006,-28.68625],[150.87407,-28.69438],[150.88026,-28.68904],[150.88443,-28.69502],[150.89094,-28.69499],[150.89473,-28.68846],[150.90744,-28.68851],[150.91139,-28.69539],[150.91985,-28.70069],[150.92477,-28.69901],[150.93062,-28.7051],[150.93241,-28.72233],[150.94593,-28.72881],[150.95245,-28.73669],[150.96335,-28.73783],[150.97043,-28.73206],[150.9795,-28.73262],[150.98343,-28.73616],[151.00993,-28.74093],[151.01201,-28.74451],[151.02457,-28.75305],[151.02823,-28.76196],[151.02854,-28.77052],[151.01957,-28.77132],[151.02582,-28.78194],[151.02409,-28.79347],[151.03329,-28.79392],[151.04271,-28.80158],[151.04227,-28.81575],[151.03759,-28.81842],[151.03658,-28.82568],[151.043,-28.83307],[151.03892,-28.83829],[151.04441,-28.84388],[151.05885,-28.84624],[151.0715,-28.8449],[151.07218,-28.84069],[151.08267,-28.8345],[151.09685,-28.83838],[151.10333,-28.83657],[151.11536,-28.85052],[151.12516,-28.85054],[151.1319,-28.86005],[151.1398,-28.86308],[151.14358,-28.86014],[151.15162,-28.86543],[151.16107,-28.86537],[151.16303,-28.87031],[151.17299,-28.88029],[151.18401,-28.87821],[151.1996,-28.88424],[151.20678,-28.89197],[151.20701,-28.89832],[151.21497,-28.90429],[151.22939,-28.90879],[151.23864,-28.90929],[151.24232,-28.92336],[151.25015,-28.92618],[151.25782,-28.93205],[151.27475,-28.93856],[151.28162,-28.949],[151.28043,-28.96496],[151.27332,-28.96769],[151.27195,-28.97272],[151.28209,-28.98095],[151.27663,-28.9847],[151.2787,-28.99685],[151.28368,-29.00376],[151.28382,-29.01606],[151.27399,-29.02464],[151.27168,-29.03038],[151.27639,-29.0357],[151.28652,-29.03673],[151.2858,-29.04738],[151.29055,-29.05108],[151.28543,-29.05815],[151.28552,-29.06543],[151.27514,-29.07641],[151.27463,-29.08182],[151.2792,-29.08652],[151.27908,-29.09914],[151.29035,-29.11387],[151.29784,-29.11259],[151.31801,-29.13804],[151.30932,-29.14657],[151.31207,-29.16191],[151.3349,-29.17482],[151.33843,-29.17925],[151.35321,-29.17571],[151.35848,-29.17227],[151.36587,-29.1739]]]}}