{"type":"Feature","properties":{"id":"AUS.7.62","name":"Loxton Waikerie","level":2,"country":"AUS"},"geometry":{"type":"Polygon","coordinates":[[[140.96355,-34.32278],[140.59954,-34.32309],[140.57544,-34.32794],[140.5713,-34.33494],[140.5768,-34.34244],[140.57437,-34.34669],[140.5655,-34.34594],[140.55497,-34.34198],[140.55315,-34.34669],[140.56243,-34.34989],[140.56662,-34.35564],[140.5685,-34.36584],[140.57563,-34.36415],[140.57949,-34.37302],[140.58607,-34.3643],[140.59465,-34.36355],[140.59689,-34.37223],[140.59155,-34.37814],[140.59663,-34.38519],[140.59383,-34.39028],[140.56721,-34.39493],[140.56182,-34.3988],[140.56791,-34.41131],[140.57673,-34.41338],[140.58549,-34.41111],[140.59098,-34.41773],[140.58797,-34.4278],[140.5817,-34.43461],[140.57138,-34.43674],[140.57249,-34.44374],[140.56269,-34.44809],[140.54764,-34.44671],[140.5473,-34.45282],[140.52524,-34.45625],[140.51253,-34.45174],[140.49815,-34.44038],[140.49551,-34.42241],[140.49591,-34.41031],[140.48528,-34.40624],[140.48295,-34.40047],[140.48954,-34.3957],[140.48742,-34.38303],[140.47729,-34.37775],[140.47074,-34.37696],[140.46015,-34.38118],[140.44942,-34.37944],[140.44355,-34.38129],[140.43115,-34.39736],[140.41723,-34.38263],[140.39908,-34.35958],[140.39163,-34.33881],[140.38631,-34.33352],[140.37895,-34.32296],[140.38401,-34.31141],[140.3838,-34.30671],[140.36757,-34.28302],[140.36716,-34.27688],[140.37214,-34.26657],[140.38265,-34.26244],[140.39372,-34.26603],[140.39806,-34.26309],[140.3956,-34.25657],[140.38556,-34.25025],[140.39479,-34.23936],[140.38953,-34.23504],[140.38064,-34.23486],[140.37469,-34.22911],[140.36687,-34.23089],[140.36795,-34.22125],[140.3628,-34.2152],[140.34935,-34.21988],[140.34633,-34.21259],[140.36284,-34.20285],[140.36395,-34.19461],[140.35665,-34.18696],[140.34408,-34.18647],[140.33883,-34.18235],[140.34096,-34.17525],[140.34914,-34.17232],[140.34805,-34.16653],[140.33733,-34.16388],[140.33439,-34.15504],[140.32882,-34.1556],[140.32261,-34.16128],[140.30681,-34.17305],[140.29396,-34.18676],[140.28247,-34.1838],[140.27068,-34.17485],[140.25568,-34.16943],[140.2453,-34.17318],[140.23537,-34.18063],[140.21621,-34.17406],[140.21625,-34.05517],[140.05526,-34.05714],[140.05326,-33.95965],[140.0448,-33.95241],[139.99712,-33.94853],[139.98361,-33.93192],[139.98004,-33.9443],[139.91666,-33.94396],[139.91656,-34.00787],[139.90086,-34.02427],[139.85742,-34.02435],[139.85759,-34.1587],[139.65925,-34.15919],[139.65915,-34.1657],[139.65125,-34.17069],[139.64998,-34.18592],[139.64657,-34.19739],[139.63387,-34.21348],[139.64102,-34.23695],[139.63293,-34.2481],[139.63199,-34.25893],[139.62387,-34.26519],[139.63003,-34.27486],[139.64022,-34.27767],[139.64085,-34.2844],[139.6324,-34.28781],[139.63665,-34.29616],[139.64532,-34.2992],[139.63901,-34.30862],[139.62889,-34.31596],[139.61775,-34.32991],[139.61694,-34.35165],[139.63006,-34.36295],[139.62081,-34.39031],[139.6171,-34.39627],[139.6153,-34.41701],[139.61059,-34.42893],[139.61013,-34.4595],[139.60062,-34.47643],[139.75698,-34.47682],[139.75646,-34.49416],[139.75868,-34.5105],[139.75884,-34.60694],[139.76787,-34.60901],[139.80007,-34.61125],[139.8195,-34.61091],[139.84115,-34.61298],[139.85773,-34.6122],[139.88365,-34.60806],[139.89878,-34.6101],[139.91438,-34.61441],[139.9287,-34.61362],[139.96766,-34.62045],[139.99327,-34.6159],[139.99638,-34.61404],[140.0642,-34.59964],[140.06424,-34.57545],[140.10168,-34.57548],[140.15409,-34.56509],[140.18818,-34.56511],[140.18799,-34.66073],[140.1772,-34.6614],[140.1771,-34.69467],[140.36759,-34.69451],[140.36723,-34.87001],[140.42966,-34.87017],[140.42992,-35.01926],[140.51409,-35.01945],[140.53583,-35.0174],[140.54058,-35.01872],[140.56203,-35.01727],[140.57217,-35.01884],[140.60732,-35.01669],[140.6073,-35.00333],[140.63032,-35.00006],[140.63971,-35.00206],[140.65666,-34.99851],[140.67628,-34.99631],[140.68085,-34.99406],[140.70417,-34.98884],[140.76041,-34.99137],[140.77393,-34.98872],[140.78646,-34.99674],[140.79597,-34.98665],[140.80472,-34.98749],[140.82293,-34.99842],[140.82781,-35.00379],[140.8405,-35.00789],[140.85871,-35.00486],[140.87455,-35.00742],[140.89198,-35.00557],[140.92027,-35.00778],[140.94995,-35.00603],[140.96563,-35.00824],[140.96482,-34.63767],[140.96355,-34.32278]]]}}