{"type":"Feature","properties":{"id":"AUS.9.38","name":"Quilpie","level":2,"country":"AUS"},"geometry":{"type":"Polygon","coordinates":[[[141.82583,-26.74754],[141.99729,-26.76614],[142.05397,-26.765],[142.25238,-26.78551],[142.25976,-26.79153],[142.36176,-26.78366],[142.42202,-26.79022],[142.69142,-26.99159],[142.69475,-26.99615],[142.77159,-27.05353],[142.77186,-27.05137],[142.85541,-27.11367],[142.88802,-27.11689],[142.88322,-27.15869],[142.86597,-27.23381],[143.15793,-27.26201],[143.32194,-27.27568],[143.32052,-27.28932],[143.38736,-27.29555],[143.39407,-27.28295],[143.51744,-27.29533],[143.51487,-27.31636],[143.58665,-27.3233],[143.58045,-27.37977],[143.7203,-27.39841],[143.71931,-27.36869],[143.83568,-27.45588],[143.96835,-27.62685],[144.1241,-27.64125],[144.32181,-27.65179],[144.32931,-27.59632],[144.42334,-27.60638],[144.4326,-27.53722],[144.5055,-27.54496],[144.50798,-27.54428],[144.51965,-27.45621],[144.78769,-27.48619],[144.79968,-27.48446],[144.80418,-27.48788],[144.90016,-27.49785],[144.90864,-27.43327],[144.9146,-27.40363],[144.99224,-27.41154],[145.00068,-27.34057],[145.01731,-27.27588],[145.16327,-27.29149],[145.18192,-27.1465],[145.16514,-27.14468],[145.18267,-26.99921],[145.20681,-27.00173],[145.21623,-27.00631],[145.22561,-27.00368],[145.25296,-27.00639],[145.2542,-26.95924],[145.25543,-26.958],[145.2588,-26.89689],[145.25876,-26.88452],[145.27383,-26.75133],[145.32092,-26.75514],[145.32226,-26.73618],[145.32566,-26.72677],[145.32679,-26.70598],[145.33027,-26.70226],[145.322,-26.6843],[145.30819,-26.67945],[145.29338,-26.66086],[145.2881,-26.64879],[145.28484,-26.63641],[145.3164,-26.61635],[145.33923,-26.61024],[145.35862,-26.46548],[145.30993,-26.46019],[145.3302,-26.30457],[145.31495,-26.30524],[145.28284,-26.30264],[145.29977,-26.15445],[145.35522,-26.1603],[145.37372,-26.01855],[145.4128,-26.02321],[145.42271,-25.95981],[145.40838,-25.95809],[145.4305,-25.79248],[145.4231,-25.79182],[145.43557,-25.70911],[145.45857,-25.5221],[145.46235,-25.50363],[145.44747,-25.49965],[145.44096,-25.49233],[145.42468,-25.49025],[145.40685,-25.49519],[145.39587,-25.4717],[145.35973,-25.45497],[145.35405,-25.45057],[145.32622,-25.44633],[145.31667,-25.45955],[145.29616,-25.46514],[145.28778,-25.48283],[145.24977,-25.47861],[145.2533,-25.45049],[145.27166,-25.45234],[145.28408,-25.35812],[145.12232,-25.3399],[145.11262,-25.33589],[145.09773,-25.33904],[145.05253,-25.33323],[145.05575,-25.32096],[145.05993,-25.31279],[145.06006,-25.30395],[145.04739,-25.29382],[145.05872,-25.28798],[145.06136,-25.27583],[144.98346,-25.26846],[144.97372,-25.27011],[144.96401,-25.26317],[144.92434,-25.26061],[144.8955,-25.25931],[144.88235,-25.25579],[144.88018,-25.25853],[144.86948,-25.25795],[144.93094,-25.21315],[144.94012,-25.20983],[144.93991,-25.19648],[144.94592,-25.1926],[144.96937,-25.18577],[144.97762,-25.12583],[144.97716,-25.11786],[144.97999,-25.10095],[144.98476,-25.06244],[144.99569,-25.00766],[144.97573,-25.02103],[144.96541,-25.02602],[144.95982,-25.03177],[144.94187,-25.03386],[144.926,-25.03387],[144.91255,-25.03217],[144.90427,-25.03765],[144.89863,-25.03827],[144.88983,-25.02905],[144.88474,-25.01988],[144.87464,-25.0195],[144.86226,-24.9998],[144.84676,-24.99022],[144.845,-24.98442],[144.85753,-24.94688],[144.85844,-24.93703],[144.85303,-24.92677],[144.8606,-24.91905],[144.79603,-24.91305],[144.80396,-24.84045],[144.69842,-24.8308],[144.71666,-24.68247],[144.68173,-24.67896],[144.68532,-24.64894],[144.65178,-24.66251],[144.62755,-24.96753],[144.48183,-25.07817],[144.46174,-25.03232],[144.39875,-25.13239],[144.38118,-25.11355],[144.25348,-25.2095],[144.22499,-25.25547],[144.2163,-25.26438],[144.1577,-25.35807],[144.15567,-25.37087],[144.16173,-25.37533],[144.16884,-25.39431],[144.16206,-25.4121],[144.1505,-25.43329],[144.12159,-25.44301],[144.12008,-25.44781],[144.12502,-25.46449],[144.12018,-25.47409],[144.11164,-25.47873],[144.11388,-25.50185],[144.10673,-25.50807],[144.10646,-25.51437],[144.09594,-25.52329],[144.09072,-25.53347],[144.08438,-25.53409],[144.07223,-25.54173],[144.07077,-25.55788],[144.03458,-25.58128],[144.0008,-25.58296],[143.92215,-25.49397],[143.82269,-25.4845],[143.82238,-25.4872],[143.80351,-25.48577],[143.76665,-25.40063],[143.75175,-25.38241],[143.7522,-25.37881],[143.73435,-25.36166],[143.70566,-25.35222],[143.70036,-25.34321],[143.67982,-25.32857],[143.67693,-25.32426],[143.66776,-25.32198],[143.66194,-25.31624],[143.65012,-25.31162],[143.64494,-25.30665],[143.63807,-25.30471],[143.62738,-25.31118],[143.62078,-25.31259],[143.61484,-25.30437],[143.60815,-25.29913],[143.59301,-25.28212],[143.47435,-25.37102],[143.44162,-25.36838],[143.43732,-25.37387],[143.43614,-25.38329],[143.43928,-25.38659],[143.43003,-25.4806],[143.42557,-25.48649],[143.43013,-25.49556],[143.42799,-25.49985],[143.41765,-25.59449],[143.4542,-25.59762],[143.44823,-25.65188],[143.39431,-25.64656],[143.39316,-25.65063],[143.37561,-25.64124],[143.36836,-25.64193],[143.36397,-25.63866],[143.27568,-25.63079],[143.27558,-25.6317],[143.21047,-25.62476],[143.19859,-25.73735],[142.98377,-25.71772],[142.97185,-25.82246],[142.88517,-25.81381],[142.90262,-25.66917],[142.72869,-25.65251],[142.71934,-25.64387],[142.73305,-25.64142],[142.73681,-25.62543],[142.73959,-25.62053],[142.57099,-25.60736],[142.56332,-25.6159],[142.55629,-25.61774],[142.54575,-25.62462],[142.53454,-25.63767],[142.53099,-25.63743],[142.51555,-25.64383],[142.50354,-25.65917],[142.49066,-25.66897],[142.48945,-25.67768],[142.48314,-25.68129],[142.47155,-25.69658],[142.46472,-25.69977],[142.45767,-25.71209],[142.44158,-25.72496],[142.42794,-25.72785],[142.42292,-25.73227],[142.40873,-25.7378],[142.39279,-25.73983],[142.38613,-25.73822],[142.37171,-25.75199],[142.35587,-25.75741],[142.3512,-25.76266],[142.33712,-25.76092],[142.32214,-25.7665],[142.30891,-25.77699],[142.2969,-25.77935],[142.28866,-25.78522],[142.28416,-25.78452],[142.27596,-25.78886],[142.26188,-25.78832],[142.25358,-25.78607],[142.23921,-25.78932],[142.2248,-25.8013],[142.20115,-25.81228],[142.19397,-25.85759],[142.17324,-25.85544],[142.14349,-26.09184],[142.16145,-26.19601],[142.15594,-26.20608],[142.14178,-26.22174],[142.13441,-26.22723],[142.13433,-26.23199],[142.12888,-26.24205],[142.1294,-26.24566],[142.12404,-26.2585],[142.12593,-26.26431],[142.11887,-26.27482],[142.11231,-26.28072],[142.11402,-26.28507],[142.10979,-26.29303],[142.11075,-26.29783],[142.09909,-26.30706],[142.09178,-26.32832],[142.08111,-26.34231],[142.08071,-26.35968],[142.07455,-26.38527],[142.05914,-26.37478],[142.05826,-26.38126],[141.89105,-26.36647],[141.89132,-26.35818],[141.79806,-26.35016],[141.79732,-26.35751],[141.71881,-26.35054],[141.71723,-26.35901],[141.70649,-26.37867],[141.70419,-26.38667],[141.70774,-26.39827],[141.70724,-26.40438],[141.71177,-26.42095],[141.70665,-26.42442],[141.71528,-26.44014],[141.71632,-26.44597],[141.71079,-26.45165],[141.7141,-26.46289],[141.71948,-26.46774],[141.72174,-26.48296],[141.7319,-26.48837],[141.73643,-26.49715],[141.73457,-26.50134],[141.7413,-26.5096],[141.74304,-26.51656],[141.73955,-26.52526],[141.74425,-26.52928],[141.74374,-26.53622],[141.75289,-26.54747],[141.76154,-26.54993],[141.75976,-26.55523],[141.76916,-26.5656],[141.77152,-26.57401],[141.78373,-26.59],[141.78559,-26.59967],[141.79794,-26.61001],[141.79626,-26.61283],[141.80693,-26.62684],[141.81222,-26.62855],[141.8118,-26.64149],[141.80498,-26.66014],[141.81142,-26.66398],[141.81674,-26.67185],[141.81244,-26.67584],[141.82079,-26.68767],[141.82296,-26.69686],[141.83757,-26.69478],[141.83856,-26.70279],[141.83159,-26.71242],[141.8386,-26.71641],[141.83177,-26.73271],[141.8342,-26.73746],[141.82487,-26.74064],[141.82583,-26.74754]]]}}