{"type":"Feature","properties":{"id":"AUS.4.71","name":"Brookton","level":2,"country":"AUS"},"geometry":{"type":"Polygon","coordinates":[[[116.53439,-32.35764],[116.53494,-32.48672],[116.70406,-32.4867],[116.70974,-32.48466],[116.72812,-32.48392],[116.74004,-32.48751],[116.75271,-32.48363],[116.76131,-32.48697],[116.77042,-32.48313],[116.7761,-32.49251],[116.79172,-32.48699],[116.8234,-32.48851],[116.81966,-32.48087],[116.83339,-32.48088],[116.83335,-32.46568],[116.8417,-32.46087],[116.8417,-32.45306],[116.87463,-32.45201],[116.89996,-32.45232],[116.89996,-32.45456],[116.92232,-32.45454],[116.92233,-32.46727],[116.9322,-32.46727],[116.93219,-32.45557],[116.97109,-32.45636],[116.98536,-32.45034],[116.98865,-32.46201],[117.04741,-32.46171],[117.10111,-32.43857],[117.13051,-32.43019],[117.13748,-32.4422],[117.15499,-32.43641],[117.15154,-32.43105],[117.17452,-32.42143],[117.17247,-32.41824],[117.19056,-32.40982],[117.20059,-32.40302],[117.20598,-32.41123],[117.2155,-32.40963],[117.22508,-32.40542],[117.22877,-32.41117],[117.23786,-32.40881],[117.2491,-32.40886],[117.24907,-32.40451],[117.2632,-32.40402],[117.26319,-32.40804],[117.29734,-32.40683],[117.29737,-32.40099],[117.31822,-32.41028],[117.33148,-32.40407],[117.34889,-32.40402],[117.34887,-32.41387],[117.40482,-32.41383],[117.40492,-32.40974],[117.41667,-32.40978],[117.41657,-32.40209],[117.42957,-32.402],[117.43201,-32.40528],[117.44797,-32.4055],[117.45468,-32.41119],[117.46202,-32.41148],[117.46551,-32.41148],[117.46533,-32.38314],[117.44825,-32.38318],[117.43094,-32.38586],[117.43087,-32.33425],[117.41664,-32.31156],[117.41663,-32.29693],[117.42115,-32.26943],[117.41275,-32.2497],[117.41207,-32.22606],[117.41192,-32.22125],[117.37475,-32.22187],[117.37455,-32.22733],[117.36537,-32.22534],[117.34558,-32.22536],[117.33509,-32.22757],[117.33477,-32.22031],[117.3163,-32.22067],[117.3166,-32.22973],[117.27537,-32.23032],[117.2668,-32.22618],[117.26284,-32.22828],[117.23963,-32.2283],[117.23565,-32.23146],[117.23386,-32.24018],[117.22431,-32.2385],[117.20749,-32.23947],[117.19203,-32.24546],[117.19102,-32.25763],[117.17824,-32.25835],[117.13947,-32.25843],[117.13947,-32.26186],[117.11113,-32.26193],[117.09986,-32.26755],[117.09546,-32.25982],[117.08822,-32.26117],[117.06896,-32.27],[117.06306,-32.25972],[117.04407,-32.26751],[117.04048,-32.26148],[117.01424,-32.27274],[117.0086,-32.26325],[116.9895,-32.25822],[116.83395,-32.2582],[116.83385,-32.27291],[116.8242,-32.2768],[116.82284,-32.28405],[116.81512,-32.28716],[116.81878,-32.29372],[116.79812,-32.30125],[116.79675,-32.30943],[116.77836,-32.31835],[116.78392,-32.3278],[116.78392,-32.33331],[116.75981,-32.33332],[116.75981,-32.33876],[116.74404,-32.33999],[116.72462,-32.34836],[116.69024,-32.3486],[116.68106,-32.34679],[116.68106,-32.3524],[116.65814,-32.35268],[116.64725,-32.35425],[116.62513,-32.35314],[116.62513,-32.34848],[116.61531,-32.34848],[116.61511,-32.35755],[116.53439,-32.35764]]]}}