{"type":"Feature","properties":{"id":"AUS.9.30","name":"Barcoo","level":2,"country":"AUS"},"geometry":{"type":"Polygon","coordinates":[[[142.14503,-23.7008],[142.10046,-24.09519],[142.0527,-24.13339],[142.02382,-24.16765],[141.91926,-24.05736],[141.80581,-24.15479],[141.96474,-24.31084],[141.92212,-24.34325],[141.93002,-24.35264],[141.86355,-24.40313],[141.97051,-24.51994],[141.96261,-24.5302],[141.95596,-24.53414],[141.93627,-24.53844],[141.92794,-24.53818],[141.92404,-24.54166],[141.90829,-24.54935],[141.90137,-24.55604],[141.87867,-24.55997],[141.87314,-24.56402],[141.86784,-24.57306],[141.86237,-24.57677],[141.85644,-24.58696],[141.82948,-24.60371],[141.82254,-24.61217],[141.81336,-24.61844],[141.7766,-24.6238],[141.76307,-24.6332],[141.74609,-24.631],[141.73448,-24.63353],[141.73106,-24.63671],[141.52308,-24.58362],[141.51801,-24.57762],[141.43009,-24.48351],[141.37552,-24.48293],[141.36108,-24.6291],[141.2389,-24.72513],[141.24249,-24.68599],[141.08449,-24.67418],[140.96164,-24.67353],[140.83871,-24.66889],[140.83706,-24.69187],[140.88338,-24.695],[140.87428,-24.842],[140.81303,-24.83837],[140.80237,-24.98618],[140.87897,-24.99259],[140.85924,-25.22156],[140.72582,-25.21212],[140.69899,-25.20505],[140.67629,-25.46445],[140.77384,-25.47313],[140.82446,-25.5253],[140.84143,-25.48749],[140.86373,-25.48063],[140.87053,-25.47483],[140.87247,-25.46915],[140.88035,-25.46602],[140.91422,-25.52727],[140.89676,-25.68094],[140.92265,-25.6826],[140.92092,-25.7146],[140.9377,-25.71599],[140.90964,-25.99639],[140.9994,-25.99638],[140.99945,-26.37574],[140.99944,-26.76177],[141.12291,-26.7751],[141.13374,-26.69635],[141.21446,-26.70382],[141.21889,-26.66315],[141.39613,-26.66247],[141.54346,-26.67655],[141.58388,-26.72186],[141.65468,-26.72895],[141.66272,-26.72606],[141.67249,-26.73067],[141.70301,-26.73631],[141.72578,-26.734],[141.75643,-26.73715],[141.77281,-26.74157],[141.82583,-26.74754],[141.82487,-26.74064],[141.8342,-26.73746],[141.83177,-26.73271],[141.8386,-26.71641],[141.83159,-26.71242],[141.83856,-26.70279],[141.83757,-26.69478],[141.82296,-26.69686],[141.82079,-26.68767],[141.81244,-26.67584],[141.81674,-26.67185],[141.81142,-26.66398],[141.80498,-26.66014],[141.8118,-26.64149],[141.81222,-26.62855],[141.80693,-26.62684],[141.79626,-26.61283],[141.79794,-26.61001],[141.78559,-26.59967],[141.78373,-26.59],[141.77152,-26.57401],[141.76916,-26.5656],[141.75976,-26.55523],[141.76154,-26.54993],[141.75289,-26.54747],[141.74374,-26.53622],[141.74425,-26.52928],[141.73955,-26.52526],[141.74304,-26.51656],[141.7413,-26.5096],[141.73457,-26.50134],[141.73643,-26.49715],[141.7319,-26.48837],[141.72174,-26.48296],[141.71948,-26.46774],[141.7141,-26.46289],[141.71079,-26.45165],[141.71632,-26.44597],[141.71528,-26.44014],[141.70665,-26.42442],[141.71177,-26.42095],[141.70724,-26.40438],[141.70774,-26.39827],[141.70419,-26.38667],[141.70649,-26.37867],[141.71723,-26.35901],[141.71881,-26.35054],[141.79732,-26.35751],[141.79806,-26.35016],[141.89132,-26.35818],[141.89105,-26.36647],[142.05826,-26.38126],[142.05914,-26.37478],[142.07455,-26.38527],[142.08071,-26.35968],[142.08111,-26.34231],[142.09178,-26.32832],[142.09909,-26.30706],[142.11075,-26.29783],[142.10979,-26.29303],[142.11402,-26.28507],[142.11231,-26.28072],[142.11887,-26.27482],[142.12593,-26.26431],[142.12404,-26.2585],[142.1294,-26.24566],[142.12888,-26.24205],[142.13433,-26.23199],[142.13441,-26.22723],[142.14178,-26.22174],[142.15594,-26.20608],[142.16145,-26.19601],[142.14349,-26.09184],[142.17324,-25.85544],[142.19397,-25.85759],[142.20115,-25.81228],[142.2248,-25.8013],[142.23921,-25.78932],[142.25358,-25.78607],[142.26188,-25.78832],[142.27596,-25.78886],[142.28416,-25.78452],[142.28866,-25.78522],[142.2969,-25.77935],[142.30891,-25.77699],[142.32214,-25.7665],[142.33712,-25.76092],[142.3512,-25.76266],[142.35587,-25.75741],[142.37171,-25.75199],[142.38613,-25.73822],[142.39279,-25.73983],[142.40873,-25.7378],[142.42292,-25.73227],[142.42794,-25.72785],[142.44158,-25.72496],[142.45767,-25.71209],[142.46472,-25.69977],[142.47155,-25.69658],[142.48314,-25.68129],[142.48945,-25.67768],[142.49066,-25.66897],[142.50354,-25.65917],[142.51555,-25.64383],[142.53099,-25.63743],[142.53454,-25.63767],[142.54575,-25.62462],[142.55629,-25.61774],[142.56332,-25.6159],[142.57099,-25.60736],[142.73959,-25.62053],[142.73681,-25.62543],[142.73305,-25.64142],[142.71934,-25.64387],[142.72869,-25.65251],[142.90262,-25.66917],[142.88517,-25.81381],[142.97185,-25.82246],[142.98377,-25.71772],[143.19859,-25.73735],[143.21047,-25.62476],[143.27558,-25.6317],[143.27568,-25.63079],[143.36397,-25.63866],[143.36836,-25.64193],[143.37561,-25.64124],[143.39316,-25.65063],[143.39431,-25.64656],[143.44823,-25.65188],[143.4542,-25.59762],[143.41765,-25.59449],[143.42799,-25.49985],[143.43013,-25.49556],[143.42557,-25.48649],[143.43003,-25.4806],[143.43928,-25.38659],[143.43614,-25.38329],[143.43732,-25.37387],[143.44162,-25.36838],[143.47435,-25.37102],[143.59301,-25.28212],[143.60815,-25.29913],[143.61484,-25.30437],[143.62078,-25.31259],[143.62738,-25.31118],[143.63807,-25.30471],[143.64494,-25.30665],[143.65012,-25.31162],[143.66194,-25.31624],[143.66776,-25.32198],[143.67693,-25.32426],[143.67982,-25.32857],[143.70036,-25.34321],[143.70566,-25.35222],[143.73435,-25.36166],[143.7522,-25.37881],[143.75175,-25.38241],[143.76665,-25.40063],[143.80351,-25.48577],[143.82238,-25.4872],[143.82269,-25.4845],[143.92215,-25.49397],[144.0008,-25.58296],[144.03458,-25.58128],[144.07077,-25.55788],[144.07223,-25.54173],[144.08438,-25.53409],[144.09072,-25.53347],[144.09594,-25.52329],[144.10646,-25.51437],[144.10673,-25.50807],[144.11388,-25.50185],[144.11164,-25.47873],[144.12018,-25.47409],[144.12502,-25.46449],[144.12008,-25.44781],[144.12159,-25.44301],[144.1505,-25.43329],[144.16206,-25.4121],[144.16884,-25.39431],[144.16173,-25.37533],[144.15567,-25.37087],[144.1577,-25.35807],[144.2163,-25.26438],[144.22499,-25.25547],[144.23185,-25.23078],[144.21021,-25.19363],[144.19603,-25.16539],[144.2003,-25.15544],[144.25335,-25.11685],[144.18214,-25.0367],[144.15005,-25.06048],[144.00895,-24.90178],[144.01572,-24.89643],[143.96594,-24.84535],[143.95801,-24.84255],[143.94459,-24.82939],[143.92841,-24.84137],[143.8946,-24.80286],[143.88569,-24.81408],[143.8834,-24.83292],[143.87948,-24.83879],[143.85854,-24.84864],[143.84249,-24.85206],[143.83926,-24.85778],[143.82092,-24.86485],[143.75426,-24.92363],[143.7456,-24.92629],[143.73389,-24.94104],[143.72976,-24.95142],[143.72356,-24.95873],[143.71758,-24.98527],[143.70191,-25.00033],[143.69507,-25.00926],[143.68755,-25.01197],[143.67502,-25.01308],[143.66424,-25.01652],[143.62663,-24.97244],[143.61969,-24.96743],[143.61903,-24.96336],[143.6103,-24.95315],[143.59695,-24.95733],[143.59407,-24.9657],[143.58415,-24.96768],[143.57512,-24.9747],[143.57489,-24.98035],[143.57896,-24.99072],[143.57263,-25.0006],[143.56419,-25.00523],[143.5592,-25.0118],[143.42843,-24.8721],[143.42976,-24.86193],[143.43375,-24.8496],[143.51348,-24.7902],[143.51458,-24.77773],[143.57032,-24.73798],[143.59491,-24.74006],[143.60611,-24.73236],[143.53543,-24.64225],[143.72032,-24.50821],[143.74624,-24.53792],[143.757,-24.54694],[143.76957,-24.44597],[143.75864,-24.44488],[143.758,-24.43637],[143.69361,-24.44048],[143.70256,-24.35126],[143.71058,-24.35183],[143.71652,-24.30721],[143.72548,-24.30804],[143.72687,-24.29598],[143.73113,-24.29638],[143.74419,-24.18648],[143.63023,-24.17554],[143.63676,-24.11822],[143.46298,-24.10126],[143.45949,-24.13048],[143.37461,-24.12035],[143.37314,-24.12946],[143.36538,-24.1341],[143.36142,-24.1519],[143.36291,-24.16224],[143.36163,-24.17262],[143.35497,-24.18225],[143.34723,-24.18801],[143.34295,-24.19669],[143.34589,-24.20978],[143.34457,-24.21473],[143.34697,-24.22579],[143.3347,-24.23265],[143.33687,-24.2416],[143.3286,-24.24454],[143.33047,-24.25077],[143.32131,-24.25031],[143.31827,-24.25816],[143.31102,-24.25743],[143.30693,-24.27094],[143.29799,-24.27803],[143.28037,-24.28175],[143.20415,-24.2751],[143.1002,-24.26822],[143.09485,-24.21786],[143.09668,-24.21763],[143.10382,-24.13822],[143.04006,-24.13435],[143.04438,-24.08342],[143.04637,-24.08358],[143.06902,-23.87853],[142.93409,-23.86716],[142.95005,-23.70788],[142.8779,-23.7021],[142.78777,-23.69508],[142.63081,-23.67695],[142.45481,-23.66623],[142.457,-23.61721],[142.39542,-23.6138],[142.3973,-23.586],[142.15965,-23.57072],[142.14503,-23.7008]]]}}