{"type":"Feature","properties":{"id":"AUS.6.99","name":"Penrith","level":2,"country":"AUS"},"geometry":{"type":"Polygon","coordinates":[[[150.8124,-33.6776],[150.79644,-33.66017],[150.79078,-33.6475],[150.78215,-33.6375],[150.71182,-33.61437],[150.69953,-33.61227],[150.69437,-33.62009],[150.68522,-33.62202],[150.67721,-33.63079],[150.66637,-33.65361],[150.66715,-33.66642],[150.65895,-33.67306],[150.65898,-33.68548],[150.65983,-33.69287],[150.65797,-33.71371],[150.64968,-33.71602],[150.64406,-33.7212],[150.64416,-33.7341],[150.64058,-33.74802],[150.64492,-33.75177],[150.64173,-33.75758],[150.64304,-33.77976],[150.61969,-33.81405],[150.60915,-33.82257],[150.59983,-33.826],[150.59126,-33.83498],[150.58805,-33.84492],[150.59366,-33.8563],[150.61085,-33.85873],[150.6128,-33.86183],[150.63096,-33.86092],[150.63671,-33.86649],[150.63953,-33.87632],[150.6925,-33.88316],[150.69051,-33.87226],[150.69827,-33.86403],[150.71065,-33.8651],[150.71951,-33.86925],[150.77993,-33.87734],[150.79344,-33.88069],[150.81507,-33.87943],[150.8235,-33.83589],[150.82078,-33.82666],[150.81291,-33.82235],[150.81582,-33.81695],[150.81435,-33.79828],[150.81042,-33.7942],[150.81011,-33.78395],[150.80337,-33.77707],[150.80201,-33.77002],[150.7955,-33.76409],[150.78326,-33.74036],[150.76904,-33.73307],[150.7625,-33.72096],[150.76774,-33.71353],[150.76611,-33.7055],[150.7955,-33.68462],[150.80054,-33.67458],[150.8124,-33.6776]]]}}