{"type":"Feature","properties":{"id":"SDN.11.1","name":"Al Golid","level":2,"country":"SDN"},"geometry":{"type":"Polygon","coordinates":[[[31.30435,18.54953],[31.49903,18.65914],[31.71288,18.91875],[30.55666,18.70785],[30.51758,18.79053],[30.41663,18.77948],[30.32003,18.82648],[30.21275,18.86859],[30.12631,18.86886],[29.99963,18.79597],[29.87213,18.71722],[29.8244,18.71173],[29.21606,18.71283],[28.75393,18.71359],[28.17052,18.71455],[27.4949,18.71532],[27.49257,16.52626],[28.24815,16.52507],[28.63998,16.52492],[29.40427,17.17644],[29.6959,17.42504],[30.32881,17.96456],[30.50043,18.11182],[30.62891,18.21082],[30.69733,18.26031],[30.72552,18.25348],[30.73513,18.23012],[30.85422,18.29597],[31.30435,18.54953]]]}}