{"type":"Feature","properties":{"id":"SDN.16.12","name":"Gharb Bara","level":2,"country":"SDN"},"geometry":{"type":"Polygon","coordinates":[[[29.52727,13.35474],[29.54568,13.37374],[29.60799,13.33053],[29.68811,13.31509],[29.71226,13.34588],[29.75509,13.35239],[29.82995,13.41796],[29.89142,13.39563],[29.90568,13.41435],[29.86296,13.45975],[29.88089,13.49388],[29.87408,13.50523],[29.83108,13.51279],[29.83809,13.54099],[29.89924,13.55322],[29.93256,13.57817],[29.96068,13.58224],[29.97818,13.56212],[30.06004,13.56286],[30.06759,13.60316],[30.1115,13.62443],[30.1016,13.65875],[30.10735,13.6967],[30.09402,13.71335],[30.07934,13.75665],[30.07691,13.81387],[30.10381,13.84971],[30.12353,13.8969],[30.1186,13.9314],[30.13128,13.94126],[30.17353,13.93563],[30.21252,14.03261],[30.22077,14.11238],[30.2194,14.15915],[30.26639,14.31327],[30.25541,14.38707],[30.23204,14.45717],[30.16068,14.47816],[29.9718,14.55371],[29.86267,14.58729],[29.79958,14.53239],[29.78712,14.39841],[29.6696,14.38162],[29.59054,14.40358],[29.54171,14.38052],[29.5355,14.34535],[29.57378,14.31121],[29.57274,14.27189],[29.55516,14.19844],[29.53131,14.16693],[29.56111,14.13176],[29.51284,14.11385],[29.49205,14.06913],[29.47343,14.07326],[29.46324,14.09544],[29.41957,14.07923],[29.40308,14.05361],[29.36049,14.05685],[29.31963,14.02951],[29.20083,14.11585],[29.15603,14.10945],[29.10964,14.03425],[28.99604,13.94466],[28.99604,13.88215],[28.87164,13.85558],[28.87164,13.7763],[28.95965,13.74151],[28.99206,13.71868],[29.02685,13.71246],[29.07482,13.68866],[29.10663,13.68731],[29.21924,13.5509],[29.26843,13.52825],[29.25964,13.50207],[29.38183,13.43609],[29.51587,13.40747],[29.52727,13.35474]]]}}