{"type":"Feature","properties":{"id":"SDN.15.21","name":"Al Meiram","level":2,"country":"SDN"},"geometry":{"type":"Polygon","coordinates":[[[27.26132,10.8572],[27.29949,10.78072],[27.33994,10.66889],[27.41917,10.53769],[27.47557,10.38811],[27.4494,10.23821],[27.47795,10.08592],[27.48279,9.9487],[27.48465,9.79173],[27.58314,9.6142],[27.75859,9.60335],[27.84604,9.60539],[27.89844,9.61085],[27.83162,9.73659],[27.83635,9.7851],[27.83062,9.79864],[27.83623,10.16629],[28.22036,10.16707],[28.16589,10.25508],[28.12691,10.34604],[28.09164,10.46298],[28.07884,10.5211],[28.00293,10.45779],[27.88804,10.4263],[27.8278,10.43206],[27.81718,10.46392],[27.8101,10.52173],[27.76209,10.54034],[27.64294,10.53949],[27.49363,10.56307],[27.4592,10.5766],[27.43478,10.62954],[27.42118,10.69909],[27.35318,10.85189],[27.3486,10.91714],[27.29789,11.04995],[27.28832,10.94579],[27.26132,10.8572]]]}}