{"type":"Feature","properties":{"id":"SDN.15.17","name":"Ar Rashad","level":2,"country":"SDN"},"geometry":{"type":"Polygon","coordinates":[[[31.11671,12.05463],[31.0468,12.03546],[31.01468,12.06222],[30.97363,12.05152],[30.95579,12.03546],[30.954,11.95872],[30.95757,11.91767],[30.93794,11.90161],[30.90403,11.89269],[30.89511,11.85521],[30.89333,11.74635],[30.92009,11.69281],[30.91296,11.66247],[30.92009,11.61964],[30.96756,11.61806],[31.01135,11.60568],[31.11224,11.56381],[31.16649,11.55429],[31.20075,11.55905],[31.2512,11.60854],[31.28927,11.6666],[31.31639,11.76535],[31.30491,11.80557],[31.29301,11.84304],[31.27041,11.88944],[31.25494,11.90372],[31.13181,11.93108],[31.10742,11.94536],[31.10623,11.99176],[31.11671,12.05463]]]}}