{"type":"Feature","properties":{"id":"DOM.12.1","name":"Villa Tapia","level":2,"country":"DOM"},"geometry":{"type":"Polygon","coordinates":[[[-70.35254,19.3314],[-70.35551,19.33423],[-70.37305,19.33785],[-70.3833,19.34533],[-70.39212,19.34589],[-70.41011,19.33724],[-70.41414,19.33215],[-70.44172,19.32911],[-70.44368,19.32298],[-70.43353,19.30917],[-70.43488,19.29496],[-70.42192,19.28523],[-70.40929,19.28],[-70.41119,19.25727],[-70.4045,19.24428],[-70.40556,19.22592],[-70.40113,19.22431],[-70.35549,19.22423],[-70.35586,19.23639],[-70.36378,19.24152],[-70.36722,19.25664],[-70.36055,19.26978],[-70.34284,19.28692],[-70.34058,19.29258],[-70.34591,19.31241],[-70.34402,19.32198],[-70.35254,19.3314]]]}}