{"type":"Feature","properties":{"id":"DOM.21.2","name":"Baní","level":2,"country":"DOM"},"geometry":{"type":"MultiPolygon","coordinates":[[[[-70.57769,18.26264],[-70.56042,18.25708],[-70.5332,18.23014],[-70.51875,18.23014],[-70.50625,18.2243],[-70.5043,18.21681],[-70.51764,18.21625],[-70.52792,18.20736],[-70.51375,18.19486],[-70.50375,18.19625],[-70.45431,18.2107],[-70.42986,18.22569],[-70.39291,18.23736],[-70.37125,18.23069],[-70.35542,18.23125],[-70.33403,18.22597],[-70.3093,18.22792],[-70.28042,18.23792],[-70.26403,18.23569],[-70.24625,18.22903],[-70.23736,18.22208],[-70.22449,18.22903],[-70.22775,18.24352],[-70.2254,18.27562],[-70.24127,18.29173],[-70.23978,18.30405],[-70.21909,18.30399],[-70.20986,18.30668],[-70.21806,18.31388],[-70.22151,18.32341],[-70.23304,18.33075],[-70.23689,18.35673],[-70.24754,18.36306],[-70.26063,18.35826],[-70.26048,18.37233],[-70.27229,18.38603],[-70.2685,18.39889],[-70.25868,18.39554],[-70.23579,18.41186],[-70.23439,18.42015],[-70.2505,18.42637],[-70.25665,18.43566],[-70.25236,18.44392],[-70.27113,18.45576],[-70.28024,18.45311],[-70.27877,18.4671],[-70.28197,18.47382],[-70.29206,18.47741],[-70.29795,18.48685],[-70.3094,18.49216],[-70.31546,18.49968],[-70.32285,18.50356],[-70.3369,18.4997],[-70.34363,18.50492],[-70.35172,18.50241],[-70.36475,18.48018],[-70.38198,18.47627],[-70.40701,18.46338],[-70.42255,18.46257],[-70.43007,18.45254],[-70.44015,18.45443],[-70.45689,18.44851],[-70.46053,18.43476],[-70.47199,18.41872],[-70.46119,18.41379],[-70.45786,18.40635],[-70.46338,18.38119],[-70.48019,18.36028],[-70.48028,18.33955],[-70.47582,18.31678],[-70.48715,18.28831],[-70.50396,18.28512],[-70.52743,18.27765],[-70.5428,18.2803],[-70.55257,18.27553],[-70.57169,18.27418],[-70.57769,18.26264]]],[[[-70.50819,18.22319],[-70.50986,18.22181],[-70.50764,18.22069],[-70.50681,18.22236],[-70.50819,18.22319]]]]}}