{"type":"Feature","properties":{"id":"GIN.22","name":"Labé","level":1,"country":"GIN"},"geometry":{"type":"Polygon","coordinates":[[[-12.12184,11.29303],[-12.05549,11.29102],[-12.06805,11.36258],[-12.1041,11.39863],[-12.29939,11.67804],[-12.31747,11.72777],[-12.50058,11.72568],[-12.50669,11.65701],[-12.47665,11.62997],[-12.46163,11.5128],[-12.49167,11.48576],[-12.52172,11.38361],[-12.52567,11.29921],[-12.48474,11.17805],[-12.41634,11.14842],[-12.25439,11.19642],[-12.23541,11.26646],[-12.12184,11.29303]]]}}