{"type":"Feature","properties":{"id":"JPN.34","name":"Tochigi","level":1,"country":"JPN"},"geometry":{"type":"Polygon","coordinates":[[[139.35959,36.90204],[139.33918,36.84871],[139.36662,36.80827],[139.33261,36.76907],[139.31205,36.63216],[139.44589,36.58593],[139.39705,36.49844],[139.3384,36.36856],[139.44051,36.26848],[139.50283,36.27438],[139.58867,36.26011],[139.65373,36.20314],[139.70365,36.20469],[139.79181,36.24159],[139.84039,36.29995],[139.89485,36.30931],[139.9535,36.36212],[140.01417,36.36486],[140.18114,36.41488],[140.23003,36.49963],[140.23762,36.54134],[140.22103,36.67719],[140.26677,36.71864],[140.25064,36.7613],[140.23731,36.92483],[140.23127,36.99999],[140.18502,37.05293],[140.0981,37.10582],[139.95816,37.13939],[139.86131,37.13045],[139.79119,37.08123],[139.67853,37.05322],[139.50955,36.9749],[139.44589,36.95614],[139.35959,36.90204]]]}}