{"type":"Feature","properties":{"id":"COL.15.9","name":"El Paujil","level":2,"country":"COL"},"geometry":{"type":"Polygon","coordinates":[[[-75.40404,1.76944],[-75.34003,1.66118],[-75.34507,1.65918],[-75.34727,1.64551],[-75.35691,1.64004],[-75.35472,1.62096],[-75.36053,1.60502],[-75.36684,1.60294],[-75.37194,1.59672],[-75.39466,1.58523],[-75.40217,1.57563],[-75.39107,1.5711],[-75.38035,1.5734],[-75.37312,1.56543],[-75.36849,1.56596],[-75.36127,1.55656],[-75.35511,1.54169],[-75.3563,1.53659],[-75.35206,1.52858],[-75.34523,1.52614],[-75.33656,1.51414],[-75.33676,1.5074],[-75.33051,1.50514],[-75.33133,1.49507],[-75.32861,1.48326],[-75.31727,1.48688],[-75.31525,1.47957],[-75.30833,1.47337],[-75.29994,1.46953],[-75.29709,1.45876],[-75.2893,1.45755],[-75.2781,1.44649],[-75.27758,1.44112],[-75.27107,1.43629],[-75.26253,1.42276],[-75.26042,1.4084],[-75.26623,1.40183],[-75.26652,1.38725],[-75.25958,1.37142],[-75.25239,1.36598],[-75.23715,1.36137],[-75.2293,1.35412],[-75.2277,1.3485],[-75.21727,1.34489],[-75.11781,1.34047],[-75.09116,1.23233],[-75.08144,1.27395],[-75.0686,1.28858],[-75.07403,1.29825],[-75.07526,1.31288],[-75.07237,1.31293],[-75.06682,1.3285],[-75.07171,1.33742],[-75.06841,1.34714],[-75.06647,1.3658],[-75.06927,1.37656],[-75.06633,1.38177],[-75.06788,1.38815],[-75.07605,1.3974],[-75.06882,1.39844],[-75.06419,1.38939],[-75.05585,1.38767],[-75.04914,1.39665],[-75.03986,1.39967],[-75.03184,1.39658],[-75.02077,1.40465],[-75.01126,1.40351],[-75.00954,1.41446],[-75.0039,1.41619],[-74.99397,1.42648],[-74.98578,1.42654],[-74.98083,1.43624],[-74.97467,1.44288],[-74.96733,1.44024],[-74.96431,1.44356],[-74.97723,1.44683],[-74.98565,1.45332],[-74.9909,1.46066],[-74.99899,1.45988],[-75.00623,1.46254],[-75.00881,1.46846],[-75.01688,1.47023],[-75.01833,1.47515],[-75.02834,1.47382],[-75.03938,1.48328],[-75.03533,1.48962],[-75.04,1.50075],[-75.05038,1.50447],[-75.05441,1.51455],[-75.0637,1.5214],[-75.06294,1.53081],[-75.07247,1.53698],[-75.07789,1.54742],[-75.0998,1.55705],[-75.10663,1.55374],[-75.11123,1.55555],[-75.11669,1.565],[-75.11728,1.5746],[-75.12373,1.58056],[-75.13026,1.58256],[-75.13377,1.58891],[-75.14699,1.59452],[-75.15463,1.59072],[-75.16941,1.5901],[-75.17971,1.59723],[-75.18244,1.60309],[-75.18802,1.60322],[-75.19513,1.61096],[-75.19822,1.60834],[-75.20637,1.61306],[-75.22153,1.61034],[-75.22547,1.61798],[-75.23444,1.61561],[-75.24428,1.61904],[-75.24516,1.62536],[-75.25344,1.6293],[-75.26025,1.62847],[-75.26542,1.63279],[-75.28123,1.62704],[-75.29237,1.62891],[-75.30992,1.64538],[-75.31653,1.64618],[-75.3183,1.6526],[-75.33123,1.6589],[-75.33213,1.67005],[-75.34475,1.69502],[-75.35021,1.69888],[-75.34933,1.70902],[-75.34375,1.71628],[-75.34546,1.72754],[-75.35299,1.73005],[-75.35708,1.74326],[-75.36155,1.7483],[-75.35249,1.75384],[-75.35127,1.76566],[-75.34506,1.77129],[-75.33724,1.78555],[-75.34224,1.79065],[-75.33701,1.80014],[-75.33345,1.81214],[-75.34023,1.8161],[-75.33528,1.82779],[-75.3345,1.83757],[-75.33828,1.84842],[-75.33707,1.85784],[-75.33907,1.86705],[-75.3345,1.86833],[-75.32393,1.88211],[-75.31044,1.91402],[-75.31016,1.93037],[-75.31936,1.93629],[-75.32436,1.95057],[-75.32208,1.95785],[-75.32493,1.96292],[-75.32058,1.96963],[-75.38628,2.31458],[-75.39447,2.30227],[-75.39054,2.29371],[-75.39667,2.28768],[-75.40769,2.26119],[-75.41332,2.25067],[-75.41041,2.24565],[-75.41853,2.2384],[-75.43346,2.23241],[-75.43966,2.22071],[-75.44024,2.2135],[-75.43583,2.20104],[-75.42628,2.19504],[-75.41659,2.19383],[-75.41315,2.18428],[-75.40601,2.17336],[-75.40661,2.16333],[-75.40322,2.15305],[-75.39887,2.14823],[-75.3993,2.1376],[-75.39537,2.13481],[-75.39255,2.12606],[-75.38367,2.12493],[-75.38885,2.1086],[-75.39197,2.10391],[-75.39301,2.08775],[-75.38415,2.06897],[-75.37759,2.05974],[-75.38758,2.04642],[-75.38611,2.03922],[-75.38783,2.02544],[-75.39132,2.0169],[-75.39268,1.99541],[-75.38556,1.98462],[-75.37882,1.98806],[-75.36428,1.98408],[-75.36141,1.98772],[-75.35344,1.98607],[-75.35545,1.97782],[-75.34127,1.97344],[-75.34578,1.96529],[-75.34551,1.95705],[-75.35288,1.93238],[-75.34672,1.92139],[-75.35361,1.90729],[-75.35205,1.89696],[-75.35538,1.88461],[-75.35327,1.87352],[-75.35493,1.86669],[-75.36515,1.85425],[-75.37538,1.82874],[-75.37972,1.83017],[-75.3976,1.80982],[-75.40842,1.80902],[-75.40785,1.79664],[-75.40985,1.79158],[-75.40698,1.78213],[-75.40885,1.77437],[-75.40404,1.76944]]]}}