{"type":"Feature","properties":{"id":"COL.4.123","name":"Cuìtiva","level":2,"country":"COL"},"geometry":{"type":"Polygon","coordinates":[[[-72.89553,5.61373],[-72.89745,5.61662],[-72.92301,5.62016],[-72.93013,5.61495],[-72.94499,5.6119],[-72.95915,5.594],[-72.96637,5.59592],[-72.97127,5.59284],[-72.98644,5.59519],[-72.99212,5.58961],[-73.00364,5.59284],[-72.99893,5.58595],[-72.99151,5.58212],[-72.98504,5.58285],[-72.9765,5.57087],[-72.96136,5.55996],[-72.95,5.55427],[-72.92576,5.56724],[-72.90172,5.58008],[-72.89841,5.58584],[-72.90029,5.59847],[-72.89553,5.61373]]]}}