{"type":"Feature","properties":{"id":"COL.6.31","name":"El Guacamayo","level":2,"country":"COL"},"geometry":{"type":"Polygon","coordinates":[[[-73.48087,6.186],[-73.47411,6.1983],[-73.45785,6.21905],[-73.45431,6.23067],[-73.45085,6.23193],[-73.45478,6.23849],[-73.46355,6.23699],[-73.47015,6.24403],[-73.46633,6.25633],[-73.46873,6.25914],[-73.49502,6.26822],[-73.50311,6.26717],[-73.51609,6.2704],[-73.52424,6.27041],[-73.53349,6.26672],[-73.54597,6.26573],[-73.55218,6.25682],[-73.5619,6.25896],[-73.5684,6.26736],[-73.56616,6.28881],[-73.58623,6.29346],[-73.58698,6.29713],[-73.59889,6.30729],[-73.59964,6.3203],[-73.60301,6.3222],[-73.61029,6.31542],[-73.61825,6.3161],[-73.62828,6.31053],[-73.63454,6.31192],[-73.63862,6.29668],[-73.63675,6.29049],[-73.63433,6.29174],[-73.61427,6.28016],[-73.6064,6.26879],[-73.59382,6.26122],[-73.58742,6.26044],[-73.57712,6.25346],[-73.56283,6.24038],[-73.55694,6.24086],[-73.55393,6.23503],[-73.54667,6.23725],[-73.54149,6.24437],[-73.52975,6.23805],[-73.52801,6.2214],[-73.52016,6.21203],[-73.51136,6.20671],[-73.49359,6.20309],[-73.49079,6.1963],[-73.48087,6.186]]]}}