{"type":"Feature","properties":{"id":"COL.10.16","name":"Arbeláez","level":2,"country":"COL"},"geometry":{"type":"Polygon","coordinates":[[[-74.4661,4.21699],[-74.44869,4.22676],[-74.44408,4.2248],[-74.4335,4.22678],[-74.42157,4.21827],[-74.41673,4.2026],[-74.41197,4.19936],[-74.40084,4.19692],[-74.39029,4.2027],[-74.36237,4.19248],[-74.35558,4.19277],[-74.34833,4.18276],[-74.33231,4.18782],[-74.32198,4.18498],[-74.31578,4.17958],[-74.3112,4.18035],[-74.29711,4.17614],[-74.28433,4.17776],[-74.27311,4.18165],[-74.26183,4.18107],[-74.2517,4.18603],[-74.24437,4.1836],[-74.24005,4.18674],[-74.23773,4.19549],[-74.2467,4.19903],[-74.26043,4.19604],[-74.26211,4.1927],[-74.27485,4.19329],[-74.28321,4.1975],[-74.29377,4.19576],[-74.30411,4.19767],[-74.31214,4.19629],[-74.32308,4.20882],[-74.32537,4.22551],[-74.33556,4.22785],[-74.3483,4.23702],[-74.36145,4.24364],[-74.36591,4.25267],[-74.36692,4.26305],[-74.38234,4.26948],[-74.38927,4.27031],[-74.39798,4.27503],[-74.41322,4.28749],[-74.43042,4.29264],[-74.43482,4.28689],[-74.44864,4.28296],[-74.45762,4.27635],[-74.47941,4.272],[-74.49048,4.25757],[-74.51106,4.25001],[-74.53236,4.25391],[-74.54118,4.25159],[-74.53534,4.24617],[-74.51886,4.24049],[-74.50536,4.24379],[-74.48319,4.24087],[-74.4661,4.21699]]]}}