{"type":"Feature","properties":{"id":"COL.5.18","name":"Chimá","level":2,"country":"COL"},"geometry":{"type":"Polygon","coordinates":[[[-75.6007,9.23875],[-75.60689,9.23274],[-75.61654,9.23146],[-75.6225,9.21841],[-75.62322,9.2126],[-75.62856,9.20866],[-75.64768,9.20948],[-75.66827,9.19812],[-75.68834,9.16245],[-75.69979,9.15131],[-75.70417,9.15906],[-75.71163,9.15821],[-75.73101,9.14139],[-75.74831,9.13214],[-75.74824,9.12407],[-75.73979,9.11353],[-75.73695,9.10853],[-75.73561,9.09685],[-75.72533,9.08174],[-75.72411,9.07453],[-75.72762,9.06808],[-75.72313,9.06657],[-75.72701,9.05365],[-75.72202,9.05187],[-75.72531,9.03774],[-75.72178,9.03316],[-75.72366,9.0162],[-75.71971,8.99739],[-75.72788,8.99386],[-75.71088,8.98386],[-75.70767,8.98329],[-75.69967,8.9982],[-75.69653,8.99564],[-75.68483,9.00174],[-75.68436,9.01197],[-75.67036,9.00883],[-75.65446,9.0195],[-75.65072,9.01545],[-75.64384,9.02152],[-75.63672,9.02153],[-75.62563,9.02888],[-75.61513,9.04167],[-75.59987,9.04298],[-75.59018,9.03756],[-75.58726,9.0437],[-75.59506,9.05104],[-75.59341,9.06051],[-75.58872,9.06609],[-75.59512,9.06968],[-75.59575,9.07649],[-75.57936,9.09325],[-75.58013,9.10859],[-75.57271,9.11263],[-75.5772,9.12197],[-75.57681,9.12861],[-75.56864,9.13559],[-75.57057,9.14712],[-75.5689,9.15553],[-75.56175,9.15801],[-75.56116,9.16265],[-75.56584,9.16285],[-75.57018,9.16996],[-75.56941,9.18894],[-75.58667,9.19739],[-75.58883,9.21189],[-75.5938,9.21471],[-75.59649,9.2377],[-75.6007,9.23875]]]}}