{"type":"Feature","properties":{"id":"COL.18.45","name":"Mosquera","level":2,"country":"COL"},"geometry":{"type":"Polygon","coordinates":[[[-78.50072,2.27735],[-78.49175,2.27912],[-78.48302,2.27364],[-78.47691,2.25653],[-78.46995,2.24994],[-78.45118,2.24509],[-78.44334,2.24546],[-78.43511,2.23865],[-78.42406,2.24252],[-78.41797,2.2367],[-78.41664,2.22908],[-78.424,2.2231],[-78.41709,2.21565],[-78.4133,2.2037],[-78.40708,2.20362],[-78.40399,2.19752],[-78.39869,2.19982],[-78.38478,2.19337],[-78.4261,2.27269],[-78.42414,2.28187],[-78.4151,2.2814],[-78.41179,2.2991],[-78.39351,2.33643],[-78.39114,2.34696],[-78.38497,2.35414],[-78.38141,2.36707],[-78.37158,2.38425],[-78.35867,2.40022],[-78.35307,2.41012],[-78.34956,2.42149],[-78.34472,2.4258],[-78.34219,2.44002],[-78.33663,2.45279],[-78.33613,2.46863],[-78.34499,2.4793],[-78.34056,2.49876],[-78.34227,2.52112],[-78.33283,2.52351],[-78.32708,2.528],[-78.32063,2.52862],[-78.30562,2.53824],[-78.30339,2.55085],[-78.3062,2.55903],[-78.31417,2.56823],[-78.31912,2.57843],[-78.31948,2.58734],[-78.32273,2.59807],[-78.32654,2.65659],[-78.33301,2.65626],[-78.34855,2.64965],[-78.37122,2.63719],[-78.38094,2.62706],[-78.39553,2.60303],[-78.41168,2.6036],[-78.41438,2.60532],[-78.42588,2.60065],[-78.44795,2.59674],[-78.45219,2.5895],[-78.45121,2.58223],[-78.45424,2.57553],[-78.46034,2.57444],[-78.46937,2.55498],[-78.47441,2.55572],[-78.48794,2.54747],[-78.50195,2.53062],[-78.50859,2.51981],[-78.50743,2.50815],[-78.51335,2.50816],[-78.52449,2.49879],[-78.52729,2.50619],[-78.54454,2.49488],[-78.55089,2.48599],[-78.55604,2.46382],[-78.55674,2.45506],[-78.54853,2.45443],[-78.55179,2.44721],[-78.5573,2.44498],[-78.55731,2.43767],[-78.56394,2.43279],[-78.5627,2.425],[-78.5671,2.42057],[-78.56207,2.40822],[-78.56535,2.40013],[-78.56215,2.39308],[-78.56895,2.38634],[-78.56635,2.37623],[-78.55871,2.37879],[-78.55534,2.37514],[-78.56154,2.36911],[-78.55451,2.35655],[-78.5559,2.33991],[-78.56097,2.33978],[-78.56245,2.32859],[-78.55747,2.31823],[-78.54741,2.31651],[-78.54721,2.30827],[-78.53664,2.31367],[-78.52861,2.30947],[-78.52609,2.2962],[-78.50003,2.28526],[-78.50072,2.27735]]]}}