{"type":"Feature","properties":{"id":"COL.32.3","name":"San Martín","level":2,"country":"COL"},"geometry":{"type":"Polygon","coordinates":[[[-73.71909,3.80536],[-73.72443,3.80347],[-73.73216,3.80969],[-73.74367,3.80803],[-73.74955,3.81132],[-73.74253,3.79877],[-73.73768,3.79546],[-73.72587,3.77072],[-73.72699,3.76343],[-73.73833,3.76057],[-73.75095,3.76227],[-73.76046,3.76606],[-73.76654,3.7576],[-73.76517,3.74776],[-73.77572,3.74261],[-73.78764,3.72404],[-73.77946,3.71081],[-73.77615,3.69432],[-73.76777,3.6817],[-73.76508,3.6586],[-73.76023,3.65382],[-73.75291,3.63743],[-73.74724,3.61871],[-73.72751,3.63205],[-73.71214,3.64607],[-73.70394,3.63972],[-73.69989,3.64126],[-73.69361,3.62842],[-73.69424,3.62337],[-73.68585,3.6147],[-73.68045,3.60308],[-73.68266,3.59988],[-73.67222,3.58568],[-73.66511,3.58751],[-73.65604,3.57882],[-73.65409,3.56848],[-73.644,3.56129],[-73.64304,3.55105],[-73.63464,3.54602],[-73.62447,3.54307],[-73.61685,3.52595],[-73.59529,3.50586],[-73.59603,3.49991],[-73.59127,3.49584],[-73.59112,3.48999],[-73.58051,3.47219],[-73.57523,3.46736],[-73.57159,3.45564],[-73.57351,3.45036],[-73.55656,3.44852],[-73.5523,3.44046],[-73.54392,3.43256],[-73.53546,3.42742],[-73.53559,3.42331],[-73.52727,3.41423],[-73.51659,3.4055],[-73.5092,3.40595],[-73.49926,3.41135],[-73.48267,3.41446],[-73.46753,3.40894],[-73.46238,3.40101],[-73.45677,3.39776],[-73.4545,3.38502],[-73.44595,3.38641],[-73.43399,3.37959],[-73.42801,3.3689],[-73.42807,3.35358],[-73.42344,3.34561],[-73.42196,3.35391],[-73.41558,3.36744],[-73.41415,3.37665],[-73.4065,3.38509],[-73.40892,3.41021],[-73.40643,3.41961],[-73.39479,3.43138],[-73.38548,3.4368],[-73.37996,3.44484],[-73.38423,3.45709],[-73.37776,3.46948],[-73.37742,3.47793],[-73.36253,3.48732],[-73.36259,3.49156],[-73.35526,3.49629],[-73.34612,3.49822],[-73.33582,3.49371],[-73.33059,3.48416],[-73.32189,3.48121],[-73.3168,3.4834],[-73.30777,3.47597],[-73.2993,3.47565],[-73.29344,3.46973],[-73.27684,3.4662],[-73.27516,3.45807],[-73.26937,3.44792],[-73.25317,3.44101],[-73.25685,3.43214],[-73.24992,3.42626],[-73.24106,3.42359],[-73.23241,3.42596],[-73.23437,3.41809],[-73.22175,3.41443],[-73.21652,3.40943],[-73.21836,3.40363],[-73.22571,3.40344],[-73.22871,3.39771],[-73.22105,3.39525],[-73.22152,3.38556],[-73.21601,3.38498],[-73.20943,3.37897],[-73.20982,3.37179],[-73.20602,3.36085],[-73.19812,3.36016],[-73.18639,3.36373],[-73.18064,3.36138],[-73.17394,3.35113],[-73.16496,3.35263],[-73.14582,3.33952],[-73.13561,3.33828],[-73.12598,3.34365],[-73.12307,3.33485],[-73.11749,3.33081],[-73.11917,3.31744],[-73.10609,3.30986],[-73.09977,3.31154],[-73.09337,3.30902],[-73.09168,3.30391],[-73.09358,3.29401],[-73.08746,3.28697],[-73.0889,3.28054],[-73.07967,3.27951],[-73.07531,3.28462],[-73.06594,3.28288],[-73.06195,3.27295],[-73.05435,3.27316],[-73.04401,3.26208],[-73.03781,3.26867],[-73.03228,3.26297],[-73.02333,3.26806],[-73.01649,3.26738],[-73.00727,3.2566],[-73.00072,3.26365],[-72.99564,3.25638],[-72.98609,3.25543],[-72.98966,3.24522],[-72.98277,3.23931],[-72.98026,3.24927],[-72.97557,3.25609],[-72.95081,3.25301],[-72.94245,3.25834],[-72.93836,3.25552],[-72.92784,3.25922],[-72.92657,3.25297],[-72.91181,3.25986],[-72.90318,3.25824],[-72.89452,3.26063],[-72.89335,3.26721],[-72.88655,3.27214],[-72.87822,3.26373],[-72.86291,3.26156],[-72.85662,3.26464],[-72.84466,3.26393],[-72.83726,3.26816],[-72.83621,3.26131],[-72.82339,3.26188],[-72.82363,3.26836],[-72.81403,3.26395],[-72.79284,3.26067],[-72.78199,3.27367],[-72.765,3.27873],[-72.75774,3.27503],[-72.75951,3.26384],[-72.75123,3.26681],[-72.75012,3.26129],[-72.744,3.26044],[-72.73896,3.26631],[-72.73261,3.26627],[-72.73416,3.27492],[-72.72381,3.2823],[-72.71555,3.27146],[-72.71157,3.27989],[-72.70232,3.27831],[-72.7005,3.2846],[-72.70549,3.28857],[-72.70388,3.29816],[-72.69613,3.30278],[-72.694,3.29096],[-72.68862,3.28932],[-72.67585,3.29125],[-72.66855,3.30515],[-72.66298,3.3043],[-72.65455,3.29673],[-72.65004,3.30808],[-72.64193,3.30749],[-72.63793,3.31102],[-72.64608,3.32193],[-72.63727,3.32733],[-72.63246,3.32398],[-72.61677,3.32724],[-72.60474,3.32664],[-72.60397,3.3374],[-72.59293,3.34807],[-72.58724,3.34316],[-72.58462,3.33653],[-72.58737,3.33041],[-72.58213,3.32465],[-72.57286,3.3205],[-72.56231,3.33066],[-72.55586,3.3245],[-72.54919,3.32375],[-72.54699,3.33034],[-72.53737,3.31851],[-72.52684,3.31689],[-72.53095,3.32595],[-72.52816,3.33784],[-72.52048,3.33343],[-72.5032,3.3311],[-72.49602,3.34755],[-72.48504,3.34695],[-72.48412,3.35548],[-72.47303,3.36404],[-72.46253,3.36701],[-72.45535,3.3724],[-72.44771,3.37196],[-72.44827,3.379],[-72.43959,3.37758],[-72.43188,3.38024],[-72.43001,3.38567],[-72.43486,3.39806],[-72.4301,3.40204],[-72.42903,3.41143],[-72.42434,3.41451],[-72.41078,3.41381],[-72.40591,3.43531],[-72.39515,3.44791],[-72.39209,3.45505],[-72.38648,3.4565],[-72.38,3.45346],[-72.38062,3.4636],[-72.37411,3.47098],[-72.37895,3.47902],[-72.3756,3.48858],[-72.38252,3.49209],[-72.38027,3.50283],[-72.37331,3.504],[-72.36717,3.51301],[-72.36133,3.50615],[-72.35717,3.51401],[-72.35205,3.51596],[-72.34868,3.52531],[-72.35837,3.52804],[-72.35709,3.53634],[-72.35979,3.54205],[-72.35636,3.55521],[-72.36808,3.56323],[-72.35978,3.56886],[-72.34846,3.57095],[-72.34079,3.58145],[-72.33189,3.58088],[-72.32495,3.57665],[-72.32194,3.58489],[-72.32828,3.59155],[-72.32788,3.60216],[-72.32169,3.61374],[-72.31584,3.6087],[-72.30888,3.61308],[-72.30464,3.62479],[-72.31206,3.62702],[-72.30905,3.63611],[-72.30467,3.63349],[-72.2905,3.63654],[-72.29493,3.64208],[-72.30621,3.6428],[-72.30907,3.65004],[-72.30672,3.65595],[-72.29933,3.65908],[-72.29919,3.67447],[-72.30405,3.6915],[-72.29994,3.69532],[-72.29409,3.68976],[-72.29175,3.69863],[-72.28218,3.70103],[-72.28096,3.70691],[-72.2874,3.71132],[-72.29574,3.71041],[-72.29682,3.73256],[-72.29302,3.73865],[-72.287,3.73688],[-72.2833,3.74855],[-72.29488,3.75648],[-72.30789,3.75465],[-72.31412,3.74696],[-72.32171,3.74878],[-72.32986,3.74332],[-72.33676,3.74429],[-72.33888,3.73917],[-72.34726,3.73516],[-72.35879,3.73809],[-72.36873,3.73448],[-72.37776,3.72876],[-72.38107,3.7153],[-72.3941,3.71206],[-72.39645,3.70211],[-72.40269,3.69648],[-72.42207,3.69692],[-72.43817,3.70212],[-72.44876,3.71367],[-72.45548,3.7136],[-72.46121,3.72],[-72.46866,3.72045],[-72.47583,3.72423],[-72.48888,3.72274],[-72.49437,3.73323],[-72.50542,3.72304],[-72.51901,3.73072],[-72.52387,3.72817],[-72.53319,3.73613],[-72.5356,3.73357],[-72.54665,3.73735],[-72.5535,3.73026],[-72.56112,3.72797],[-72.56463,3.7235],[-72.57213,3.7341],[-72.57788,3.73144],[-72.57955,3.72286],[-72.58997,3.72712],[-72.60245,3.74322],[-72.60997,3.74909],[-72.61829,3.74306],[-72.62635,3.7446],[-72.63837,3.74193],[-72.64454,3.74424],[-72.64682,3.73875],[-72.65629,3.73724],[-72.66041,3.74131],[-72.67699,3.73435],[-72.68952,3.73653],[-72.697,3.72594],[-72.70598,3.73033],[-72.7164,3.71875],[-72.72161,3.71988],[-72.72888,3.71625],[-72.73649,3.71981],[-72.74336,3.71139],[-72.75115,3.71127],[-72.75242,3.70183],[-72.76291,3.70128],[-72.7649,3.69486],[-72.77626,3.68849],[-72.77758,3.6848],[-72.7866,3.68221],[-72.79258,3.67431],[-72.81881,3.67019],[-72.82819,3.66224],[-72.84286,3.66495],[-72.85577,3.66459],[-72.87114,3.67056],[-72.87709,3.66165],[-72.89103,3.65443],[-72.97202,3.65612],[-72.97882,3.65214],[-72.9955,3.63722],[-73.01429,3.64097],[-73.02661,3.65294],[-73.02712,3.6631],[-73.03238,3.68132],[-73.043,3.68113],[-73.04818,3.6778],[-73.05659,3.68193],[-73.07441,3.68437],[-73.07653,3.68976],[-73.08365,3.69061],[-73.08785,3.69597],[-73.08747,3.70926],[-73.09478,3.71162],[-73.09768,3.72415],[-73.10158,3.72658],[-73.10191,3.73558],[-73.11013,3.73819],[-73.11134,3.74415],[-73.10635,3.75205],[-73.11116,3.75751],[-73.11922,3.75314],[-73.13146,3.75488],[-73.13943,3.74045],[-73.1466,3.73918],[-73.15221,3.73011],[-73.1576,3.72667],[-73.16229,3.73094],[-73.16994,3.73018],[-73.16282,3.72179],[-73.15984,3.7083],[-73.16815,3.70415],[-73.17461,3.70696],[-73.18576,3.69616],[-73.19811,3.69074],[-73.20393,3.69452],[-73.20969,3.69063],[-73.21476,3.69679],[-73.22377,3.70268],[-73.23219,3.70303],[-73.23531,3.70655],[-73.24609,3.70503],[-73.25119,3.70832],[-73.26102,3.70258],[-73.26953,3.70213],[-73.2877,3.71085],[-73.303,3.70807],[-73.32286,3.70823],[-73.33809,3.70409],[-73.35738,3.71041],[-73.38006,3.70667],[-73.38257,3.71042],[-73.39041,3.70558],[-73.39663,3.71167],[-73.40238,3.71152],[-73.41334,3.71926],[-73.4378,3.7202],[-73.45305,3.72892],[-73.45933,3.72562],[-73.47207,3.72585],[-73.48299,3.723],[-73.49008,3.73035],[-73.5173,3.72477],[-73.52028,3.73005],[-73.53399,3.73012],[-73.54029,3.73253],[-73.54502,3.74189],[-73.55979,3.75106],[-73.56474,3.75191],[-73.56788,3.7607],[-73.57871,3.76107],[-73.58876,3.75688],[-73.59138,3.76207],[-73.60419,3.76428],[-73.60729,3.76937],[-73.61709,3.77254],[-73.62877,3.7686],[-73.63675,3.77644],[-73.65474,3.77821],[-73.66461,3.78641],[-73.67828,3.78986],[-73.68308,3.78846],[-73.69128,3.79315],[-73.69831,3.79364],[-73.71304,3.79826],[-73.71909,3.80536]]]}}