{"type":"Feature","properties":{"id":"COL.3.96","name":"Dabeiba","level":2,"country":"COL"},"geometry":{"type":"Polygon","coordinates":[[[-75.98235,7.0012],[-75.97603,7.00475],[-75.97178,7.02004],[-75.9731,7.04382],[-75.96791,7.06771],[-75.96843,7.07467],[-75.96365,7.08481],[-75.9656,7.09544],[-75.96981,7.09987],[-75.96787,7.11322],[-75.97008,7.12491],[-75.96667,7.13134],[-75.97284,7.12984],[-75.97782,7.13404],[-75.98453,7.1319],[-75.99167,7.14583],[-76.00079,7.14383],[-76.01318,7.15798],[-76.0206,7.15908],[-76.02953,7.15701],[-76.03702,7.16044],[-76.0428,7.1676],[-76.0561,7.172],[-76.06148,7.17148],[-76.07507,7.1626],[-76.09213,7.1588],[-76.10167,7.13814],[-76.11362,7.13622],[-76.12827,7.14513],[-76.13778,7.14645],[-76.14057,7.13664],[-76.15749,7.12727],[-76.17628,7.1301],[-76.19127,7.14019],[-76.20269,7.13838],[-76.21803,7.1501],[-76.22571,7.14853],[-76.2379,7.15031],[-76.24891,7.15399],[-76.25769,7.15054],[-76.26394,7.14478],[-76.27294,7.14599],[-76.27517,7.15098],[-76.28257,7.15355],[-76.30525,7.15375],[-76.31743,7.15254],[-76.32423,7.15886],[-76.32509,7.1664],[-76.33057,7.16664],[-76.34206,7.17446],[-76.3532,7.17901],[-76.3625,7.18007],[-76.3741,7.1775],[-76.38613,7.18075],[-76.39412,7.18719],[-76.40503,7.18641],[-76.41009,7.18934],[-76.42225,7.18758],[-76.43355,7.19122],[-76.43085,7.17551],[-76.43522,7.16707],[-76.44248,7.16208],[-76.4433,7.15549],[-76.4531,7.14315],[-76.45889,7.13281],[-76.47249,7.13659],[-76.48527,7.13508],[-76.49271,7.13158],[-76.49771,7.13697],[-76.50719,7.13949],[-76.50999,7.12073],[-76.51408,7.11115],[-76.52506,7.10579],[-76.52444,7.10053],[-76.53116,7.09357],[-76.53006,7.07962],[-76.53876,7.06874],[-76.53061,7.0601],[-76.5362,7.04981],[-76.53539,7.03845],[-76.5453,7.01994],[-76.54945,7.01672],[-76.54575,7.01003],[-76.54746,7.00296],[-76.54797,6.99666],[-76.54278,6.98838],[-76.54493,6.98275],[-76.54402,6.9625],[-76.53635,6.95519],[-76.53069,6.96198],[-76.52457,6.96317],[-76.51259,6.92551],[-76.52403,6.91106],[-76.52504,6.90394],[-76.53457,6.89749],[-76.54124,6.88977],[-76.55085,6.88525],[-76.55896,6.88584],[-76.56009,6.87604],[-76.56429,6.87078],[-76.56135,6.86184],[-76.5701,6.85416],[-76.57257,6.84637],[-76.57285,6.82898],[-76.57066,6.82353],[-76.57734,6.81332],[-76.58032,6.8042],[-76.58026,6.79335],[-76.57603,6.78636],[-76.58563,6.76746],[-76.59261,6.76314],[-76.59794,6.75501],[-76.61873,6.74777],[-76.6143,6.73628],[-76.60752,6.72813],[-76.60184,6.71542],[-76.59279,6.71577],[-76.58678,6.71232],[-76.58422,6.69889],[-76.57753,6.69481],[-76.56411,6.70087],[-76.56296,6.71445],[-76.5537,6.72381],[-76.54197,6.72699],[-76.54331,6.73794],[-76.53487,6.74803],[-76.53316,6.75547],[-76.52773,6.75729],[-76.52118,6.76458],[-76.4965,6.75236],[-76.4746,6.75018],[-76.46648,6.75078],[-76.44553,6.74284],[-76.44204,6.73824],[-76.42864,6.74501],[-76.42704,6.75645],[-76.43454,6.76612],[-76.43333,6.77157],[-76.43395,6.7908],[-76.43786,6.80006],[-76.4394,6.81208],[-76.43628,6.82785],[-76.43877,6.83434],[-76.43693,6.84454],[-76.43041,6.84897],[-76.42605,6.85645],[-76.40685,6.84936],[-76.40296,6.84062],[-76.39596,6.83139],[-76.38317,6.82696],[-76.36868,6.81356],[-76.36461,6.80626],[-76.34876,6.80657],[-76.33283,6.79898],[-76.32875,6.79367],[-76.32974,6.78458],[-76.31497,6.77477],[-76.3113,6.77888],[-76.29939,6.77967],[-76.29119,6.79388],[-76.27578,6.80432],[-76.27503,6.80884],[-76.28632,6.82705],[-76.2807,6.83575],[-76.28841,6.84396],[-76.29995,6.84646],[-76.295,6.8539],[-76.29626,6.8683],[-76.29908,6.87401],[-76.29373,6.88189],[-76.28911,6.90015],[-76.27578,6.90426],[-76.267,6.91352],[-76.24401,6.90855],[-76.22469,6.9205],[-76.23219,6.92704],[-76.23937,6.93982],[-76.24053,6.94929],[-76.23417,6.96307],[-76.20276,6.95846],[-76.17091,6.95931],[-76.15531,6.97759],[-76.1475,6.97283],[-76.12991,6.96725],[-76.12167,6.96017],[-76.10669,6.95922],[-76.07317,6.93993],[-76.06988,6.94425],[-76.06044,6.94652],[-76.05644,6.94294],[-76.04935,6.94417],[-76.0395,6.9521],[-76.03271,6.95458],[-76.02952,6.96187],[-76.01643,6.96742],[-76.01181,6.97603],[-76.00729,6.99093],[-75.99995,7.00034],[-75.98235,7.0012]]]}}