{"type":"Feature","properties":{"id":"COL.16.39","name":"Caloto","level":2,"country":"COL"},"geometry":{"type":"Polygon","coordinates":[[[-76.42046,3.20755],[-76.42533,3.20479],[-76.42973,3.21334],[-76.43265,3.20664],[-76.43901,3.20052],[-76.43776,3.16476],[-76.44405,3.1566],[-76.44799,3.1612],[-76.45733,3.1644],[-76.45737,3.15371],[-76.44773,3.13684],[-76.43337,3.12262],[-76.43093,3.11459],[-76.4311,3.1041],[-76.41843,3.07982],[-76.42893,3.06738],[-76.43461,3.05326],[-76.44192,3.04733],[-76.45048,3.04567],[-76.4431,3.03666],[-76.43105,3.02913],[-76.43154,3.02245],[-76.43788,3.01851],[-76.44035,3.01135],[-76.43508,3.00922],[-76.4331,2.99959],[-76.42698,2.99193],[-76.42542,2.97814],[-76.42175,2.97742],[-76.41049,2.96362],[-76.40135,2.9589],[-76.4008,2.95367],[-76.39491,2.9478],[-76.39153,2.93359],[-76.37899,2.93052],[-76.36677,2.9203],[-76.36335,2.92917],[-76.36612,2.93641],[-76.36118,2.94401],[-76.35331,2.95018],[-76.34067,2.97676],[-76.33569,2.98332],[-76.32219,2.99132],[-76.31422,2.99181],[-76.31109,2.99749],[-76.3019,3.00382],[-76.29814,3.01526],[-76.28974,3.01754],[-76.28813,3.02905],[-76.28916,3.03868],[-76.28631,3.04993],[-76.27571,3.06992],[-76.28614,3.07677],[-76.29241,3.08562],[-76.2991,3.09106],[-76.29692,3.10033],[-76.30099,3.10443],[-76.30024,3.11128],[-76.30395,3.11544],[-76.30715,3.12868],[-76.31365,3.13412],[-76.32293,3.13466],[-76.3317,3.13135],[-76.34191,3.13065],[-76.35129,3.13938],[-76.35014,3.14447],[-76.35504,3.1513],[-76.3551,3.17292],[-76.36221,3.16303],[-76.36323,3.14705],[-76.36594,3.1349],[-76.36196,3.12659],[-76.36169,3.11463],[-76.35496,3.11455],[-76.35355,3.09923],[-76.35796,3.09193],[-76.35471,3.08577],[-76.35735,3.08009],[-76.35626,3.07084],[-76.3629,3.06799],[-76.36893,3.07259],[-76.37743,3.07441],[-76.38629,3.08761],[-76.39511,3.08304],[-76.39975,3.07487],[-76.40581,3.07639],[-76.41291,3.09138],[-76.41121,3.10214],[-76.4168,3.10197],[-76.42687,3.11771],[-76.4217,3.11999],[-76.42792,3.12827],[-76.42064,3.13514],[-76.41483,3.12839],[-76.40866,3.13737],[-76.42058,3.14898],[-76.41759,3.15938],[-76.42345,3.16298],[-76.4349,3.16306],[-76.43338,3.18039],[-76.43585,3.19365],[-76.42988,3.20296],[-76.42613,3.20428],[-76.41639,3.19786],[-76.42046,3.20755]]]}}