{"type":"Feature","properties":{"id":"COL.24.29","name":"El Cantón Del San Pablo (Managrú)","level":2,"country":"COL"},"geometry":{"type":"Polygon","coordinates":[[[-76.84145,5.2688],[-76.83929,5.2649],[-76.82753,5.26796],[-76.81052,5.26453],[-76.80052,5.26972],[-76.7846,5.27273],[-76.77385,5.27963],[-76.75213,5.28315],[-76.73992,5.28315],[-76.73975,5.27426],[-76.75149,5.24908],[-76.7046,5.24544],[-76.67538,5.23955],[-76.65167,5.27128],[-76.65714,5.26874],[-76.66083,5.27711],[-76.66753,5.28109],[-76.67227,5.29368],[-76.67912,5.29335],[-76.69042,5.30048],[-76.70136,5.30974],[-76.70858,5.31999],[-76.71507,5.32179],[-76.72424,5.32979],[-76.71332,5.33514],[-76.70791,5.33122],[-76.70226,5.3346],[-76.65519,5.33317],[-76.65722,5.3478],[-76.6686,5.36558],[-76.66944,5.37285],[-76.67996,5.38267],[-76.68216,5.39105],[-76.69075,5.39568],[-76.68542,5.4001],[-76.6911,5.40755],[-76.69906,5.407],[-76.71771,5.41453],[-76.72126,5.42168],[-76.73247,5.41358],[-76.74268,5.4144],[-76.75397,5.42315],[-76.77383,5.43361],[-76.79965,5.43265],[-76.80977,5.44201],[-76.81317,5.44991],[-76.81171,5.45518],[-76.81499,5.46379],[-76.82959,5.4752],[-76.83965,5.47241],[-76.85242,5.48192],[-76.85779,5.49015],[-76.85724,5.49769],[-76.86509,5.50827],[-76.87561,5.51434],[-76.87912,5.49617],[-76.88193,5.49059],[-76.8787,5.48395],[-76.88369,5.47971],[-76.88591,5.46631],[-76.89188,5.45248],[-76.89497,5.4407],[-76.88744,5.43674],[-76.87863,5.42794],[-76.87307,5.42777],[-76.85798,5.40102],[-76.85616,5.39396],[-76.86116,5.38769],[-76.85785,5.38101],[-76.84592,5.37394],[-76.83521,5.35378],[-76.8292,5.35227],[-76.8248,5.34594],[-76.82792,5.33667],[-76.82614,5.32518],[-76.83387,5.32043],[-76.83175,5.31493],[-76.83504,5.30996],[-76.83512,5.30021],[-76.82985,5.29357],[-76.83716,5.28616],[-76.83791,5.27416],[-76.84145,5.2688]]]}}