{"type":"Feature","properties":{"id":"COL.4.119","name":"Siachoque","level":2,"country":"COL"},"geometry":{"type":"Polygon","coordinates":[[[-73.28476,5.52417],[-73.28468,5.51759],[-73.27839,5.50707],[-73.28769,5.49686],[-73.28592,5.48539],[-73.27588,5.48377],[-73.27589,5.47446],[-73.26688,5.47456],[-73.26166,5.46131],[-73.23289,5.45585],[-73.21998,5.44629],[-73.21567,5.44021],[-73.20415,5.45685],[-73.19444,5.45855],[-73.18627,5.46555],[-73.17419,5.46775],[-73.16385,5.47939],[-73.15366,5.47932],[-73.14729,5.48205],[-73.1409,5.48414],[-73.14048,5.49979],[-73.135,5.50562],[-73.14984,5.51474],[-73.17721,5.52589],[-73.18754,5.53393],[-73.19496,5.53703],[-73.19757,5.54282],[-73.20464,5.54228],[-73.21004,5.5495],[-73.21587,5.5454],[-73.22184,5.55227],[-73.22795,5.55392],[-73.2378,5.53389],[-73.24499,5.53227],[-73.2534,5.53998],[-73.25959,5.5389],[-73.26529,5.53133],[-73.27195,5.53195],[-73.27723,5.52391],[-73.28476,5.52417]]]}}