{"type":"Feature","properties":{"id":"COL.10.99","name":"Madrid","level":2,"country":"COL"},"geometry":{"type":"Polygon","coordinates":[[[-74.1776,4.85779],[-74.19651,4.85823],[-74.20156,4.85683],[-74.20455,4.8519],[-74.21206,4.84828],[-74.21675,4.838],[-74.22769,4.82761],[-74.23511,4.82747],[-74.24058,4.82109],[-74.24969,4.82336],[-74.25352,4.81967],[-74.26043,4.82321],[-74.26703,4.81542],[-74.2637,4.80736],[-74.27237,4.79026],[-74.28117,4.78664],[-74.29528,4.79297],[-74.30426,4.79443],[-74.3152,4.7809],[-74.32852,4.76718],[-74.32788,4.76474],[-74.32803,4.76111],[-74.32208,4.74289],[-74.3138,4.73694],[-74.30327,4.72015],[-74.29948,4.71683],[-74.28988,4.71394],[-74.28644,4.70805],[-74.26392,4.69249],[-74.25639,4.68537],[-74.25504,4.6971],[-74.2512,4.70354],[-74.25371,4.70913],[-74.24944,4.7216],[-74.23231,4.73699],[-74.22734,4.74272],[-74.23948,4.7521],[-74.24565,4.75435],[-74.24485,4.76706],[-74.2321,4.78241],[-74.22487,4.79729],[-74.21833,4.79371],[-74.21182,4.80086],[-74.20259,4.80131],[-74.18762,4.83927],[-74.17752,4.84453],[-74.1751,4.85504],[-74.1776,4.85779]]]}}