{"type":"Feature","properties":{"id":"COL.2.9","name":"Leticia","level":2,"country":"COL"},"geometry":{"type":"Polygon","coordinates":[[[-70.30765,-3.81214],[-70.2881,-3.82059],[-70.27836,-3.82731],[-70.27072,-3.83893],[-70.26202,-3.86845],[-70.25597,-3.88297],[-70.24809,-3.89508],[-70.2201,-3.91601],[-70.19201,-3.92334],[-70.18322,-3.92863],[-70.17752,-3.94162],[-70.1728,-3.97149],[-70.17219,-3.9883],[-70.17638,-4.00878],[-70.17658,-4.03512],[-70.17406,-4.04237],[-70.16745,-4.05151],[-70.15863,-4.05686],[-70.13359,-4.06347],[-70.12068,-4.06452],[-70.09804,-4.06305],[-70.08901,-4.06505],[-70.06493,-4.08091],[-70.05603,-4.09073],[-70.04514,-4.11842],[-70.03388,-4.13215],[-70.01686,-4.14338],[-69.99663,-4.16799],[-69.98285,-4.19012],[-69.9691,-4.19747],[-69.95693,-4.21075],[-69.95376,-4.21902],[-69.95569,-4.23285],[-69.93322,-4.2197],[-69.84389,-3.72298],[-69.77878,-3.36125],[-69.71422,-3.00261],[-69.97981,-3.00299],[-69.98369,-3.01203],[-69.99044,-3.01481],[-70.00095,-3.01349],[-70.00334,-3.01671],[-70.00231,-3.0287],[-69.99579,-3.0278],[-69.99044,-3.04085],[-69.99955,-3.04672],[-70.00579,-3.03778],[-70.01475,-3.03781],[-70.01807,-3.03035],[-70.02359,-3.03511],[-70.02416,-3.04277],[-70.0299,-3.04402],[-70.03677,-3.03848],[-70.04233,-3.0441],[-70.05141,-3.04442],[-70.05416,-3.05354],[-70.05016,-3.05885],[-70.05048,-3.06946],[-70.04531,-3.07074],[-70.04916,-3.08447],[-70.05549,-3.08754],[-70.0635,-3.10393],[-70.0656,-3.09605],[-70.0717,-3.09574],[-70.07646,-3.10256],[-70.08168,-3.09538],[-70.09013,-3.10038],[-70.0961,-3.09976],[-70.09918,-3.08989],[-70.11132,-3.09709],[-70.11431,-3.10733],[-70.11982,-3.11741],[-70.12662,-3.12366],[-70.12293,-3.13016],[-70.13521,-3.12886],[-70.13915,-3.13557],[-70.14604,-3.13857],[-70.15241,-3.15143],[-70.14609,-3.16142],[-70.16245,-3.17025],[-70.17026,-3.18078],[-70.17439,-3.17414],[-70.18385,-3.17097],[-70.18857,-3.17762],[-70.18878,-3.18814],[-70.19326,-3.18994],[-70.1977,-3.19781],[-70.20349,-3.19211],[-70.20805,-3.20106],[-70.21968,-3.19696],[-70.21994,-3.19212],[-70.22651,-3.18324],[-70.23523,-3.18607],[-70.24165,-3.17933],[-70.25335,-3.17869],[-70.26934,-3.18807],[-70.2841,-3.19999],[-70.29234,-3.19757],[-70.3109,-3.19785],[-70.31799,-3.20276],[-70.32261,-3.19839],[-70.33571,-3.19691],[-70.34652,-3.36178],[-70.3655,-3.68987],[-70.35728,-3.69319],[-70.33849,-3.70957],[-70.33386,-3.70923],[-70.32356,-3.72042],[-70.3202,-3.72151],[-70.3138,-3.74222],[-70.30642,-3.75073],[-70.31104,-3.76235],[-70.31192,-3.77329],[-70.30372,-3.77526],[-70.30347,-3.78263],[-70.30821,-3.78597],[-70.30334,-3.79534],[-70.30765,-3.81214]]]}}