{"type":"Feature","properties":{"id":"COL.32.28","name":"Acacías","level":2,"country":"COL"},"geometry":{"type":"Polygon","coordinates":[[[-73.9334,4.14883],[-73.93765,4.14074],[-73.93969,4.1302],[-73.94466,4.12787],[-73.94499,4.11839],[-73.95074,4.11304],[-73.95548,4.09994],[-73.96692,4.09072],[-73.97357,4.09307],[-73.97357,4.10085],[-73.97975,4.10934],[-73.99148,4.10277],[-74.0013,4.10317],[-74.00515,4.11012],[-74.01626,4.09781],[-74.02417,4.09915],[-74.0302,4.08425],[-74.03589,4.08238],[-74.03712,4.07156],[-74.03344,4.06794],[-74.02863,4.07744],[-74.01877,4.07633],[-74.01306,4.06806],[-74.00437,4.06094],[-73.9994,4.06094],[-73.9865,4.04913],[-73.98173,4.04255],[-73.97345,4.03879],[-73.96031,4.02252],[-73.96473,3.99892],[-73.96142,3.99267],[-73.95241,3.99294],[-73.94571,3.98588],[-73.93143,3.9918],[-73.92272,3.98935],[-73.91268,3.99413],[-73.90174,3.99051],[-73.89716,3.9837],[-73.88389,3.98171],[-73.87661,3.98259],[-73.861,3.96126],[-73.85817,3.95373],[-73.8497,3.95245],[-73.84195,3.95549],[-73.8311,3.95247],[-73.82303,3.94399],[-73.81586,3.94186],[-73.80912,3.93067],[-73.80103,3.92639],[-73.79518,3.92859],[-73.7861,3.92629],[-73.77449,3.93133],[-73.75534,3.9254],[-73.75112,3.92834],[-73.74541,3.92371],[-73.73619,3.92553],[-73.72848,3.92078],[-73.71864,3.91589],[-73.70852,3.915],[-73.70044,3.9095],[-73.69545,3.90079],[-73.6579,3.88205],[-73.65172,3.87395],[-73.64501,3.87339],[-73.62494,3.86699],[-73.62193,3.86859],[-73.6103,3.86358],[-73.60339,3.86646],[-73.58903,3.86217],[-73.58601,3.86576],[-73.5885,3.87392],[-73.583,3.87695],[-73.57231,3.87091],[-73.5634,3.87195],[-73.56002,3.87546],[-73.55312,3.87053],[-73.54834,3.87531],[-73.54328,3.86641],[-73.5358,3.86115],[-73.52888,3.86328],[-73.52267,3.85423],[-73.49864,3.84243],[-73.48874,3.84312],[-73.4724,3.84688],[-73.46667,3.84659],[-73.45793,3.85497],[-73.45879,3.8687],[-73.45226,3.86987],[-73.4506,3.87538],[-73.44181,3.87502],[-73.44627,3.88428],[-73.43923,3.92255],[-73.4315,3.93883],[-73.43095,3.95236],[-73.42462,3.96543],[-73.4178,3.97555],[-73.41607,3.98387],[-73.43785,3.98794],[-73.44892,3.98796],[-73.46399,3.99447],[-73.48205,3.99833],[-73.48989,3.99596],[-73.49538,3.99845],[-73.50914,3.99938],[-73.56087,4.01188],[-73.57709,4.01765],[-73.60013,4.01653],[-73.61524,4.02066],[-73.62575,4.01838],[-73.64233,4.02015],[-73.65567,4.02603],[-73.66954,4.02908],[-73.6824,4.02727],[-73.69802,4.03072],[-73.7091,4.02915],[-73.72044,4.033],[-73.7287,4.02936],[-73.75011,4.03256],[-73.75706,4.04233],[-73.76421,4.04638],[-73.76804,4.06323],[-73.76138,4.0738],[-73.7644,4.08012],[-73.76204,4.09837],[-73.76562,4.10789],[-73.7661,4.11726],[-73.76121,4.12162],[-73.74409,4.12597],[-73.72507,4.13806],[-73.71735,4.14796],[-73.70931,4.16611],[-73.71279,4.17663],[-73.71223,4.18366],[-73.72187,4.19635],[-73.73264,4.20314],[-73.74259,4.19869],[-73.75438,4.19285],[-73.77749,4.19634],[-73.79008,4.20068],[-73.80458,4.19749],[-73.81506,4.19945],[-73.81923,4.18],[-73.82589,4.16834],[-73.84055,4.17734],[-73.84787,4.17632],[-73.85308,4.17153],[-73.86089,4.17183],[-73.87115,4.16783],[-73.87861,4.15901],[-73.87938,4.15469],[-73.89178,4.14877],[-73.89583,4.14264],[-73.91363,4.14881],[-73.92075,4.14392],[-73.9284,4.14465],[-73.9334,4.14883]]]}}