{"type":"Feature","properties":{"id":"COL.6.63","name":"California","level":2,"country":"COL"},"geometry":{"type":"Polygon","coordinates":[[[-72.86576,7.37706],[-72.87599,7.38259],[-72.87657,7.38995],[-72.8824,7.3919],[-72.8823,7.39771],[-72.88951,7.40073],[-72.90004,7.39781],[-72.90429,7.39356],[-72.92208,7.38461],[-72.92636,7.37643],[-72.93432,7.37252],[-72.93637,7.36452],[-72.94366,7.36054],[-72.95046,7.3484],[-72.96317,7.34917],[-72.97085,7.35252],[-72.97968,7.35314],[-72.97924,7.34213],[-72.96859,7.32947],[-72.96256,7.32686],[-72.95295,7.31502],[-72.94663,7.31398],[-72.93857,7.3053],[-72.92636,7.29797],[-72.9225,7.2924],[-72.91758,7.30611],[-72.9317,7.31543],[-72.93323,7.32631],[-72.93074,7.33863],[-72.92512,7.34],[-72.9235,7.34686],[-72.90924,7.35583],[-72.9012,7.35796],[-72.89035,7.36775],[-72.88418,7.3682],[-72.88752,7.37652],[-72.88096,7.3779],[-72.86576,7.37706]]]}}