{"type":"Feature","properties":{"id":"COL.21.17","name":"Usiacurí","level":2,"country":"COL"},"geometry":{"type":"Polygon","coordinates":[[[-74.98495,10.79027],[-74.99259,10.785],[-74.9992,10.7844],[-75.00306,10.77584],[-75.02036,10.77622],[-75.02229,10.76882],[-75.03837,10.77081],[-75.04437,10.76697],[-75.04639,10.75816],[-75.03125,10.75616],[-75.03177,10.74878],[-75.02958,10.72775],[-75.03736,10.72399],[-75.04167,10.71855],[-75.0418,10.70791],[-75.04555,10.70168],[-75.03851,10.69945],[-75.03218,10.71312],[-75.02276,10.70462],[-75.01356,10.7046],[-75.00648,10.70926],[-74.98704,10.69874],[-74.98093,10.70065],[-74.96991,10.68059],[-74.96427,10.69199],[-74.94638,10.69668],[-74.93884,10.70109],[-74.93251,10.71145],[-74.9421,10.71497],[-74.93475,10.72765],[-74.9366,10.73381],[-74.93135,10.73851],[-74.93562,10.74406],[-74.92614,10.75448],[-74.93249,10.76105],[-74.93092,10.76666],[-74.93921,10.7721],[-74.94582,10.78067],[-74.95088,10.77949],[-74.95478,10.78615],[-74.96093,10.78467],[-74.97547,10.78989],[-74.98495,10.79027]]]}}