{"type":"Feature","properties":{"id":"COL.24.28","name":"Acandí","level":2,"country":"COL"},"geometry":{"type":"Polygon","coordinates":[[[-77.07816,8.31792],[-77.07641,8.32524],[-77.08721,8.32949],[-77.094,8.34111],[-77.0945,8.34732],[-77.10522,8.35517],[-77.10875,8.36397],[-77.11787,8.37164],[-77.1138,8.38324],[-77.12789,8.39726],[-77.13074,8.41191],[-77.1551,8.41983],[-77.16509,8.43458],[-77.16916,8.43321],[-77.18988,8.4378],[-77.2489,8.47205],[-77.2536,8.49208],[-77.2721,8.50252],[-77.27552,8.50993],[-77.26925,8.52649],[-77.2768,8.53562],[-77.27692,8.55379],[-77.28582,8.56397],[-77.28662,8.57176],[-77.29426,8.57295],[-77.29876,8.58252],[-77.3084,8.58721],[-77.31006,8.59526],[-77.32081,8.60103],[-77.32365,8.61228],[-77.33145,8.62091],[-77.34257,8.62486],[-77.34691,8.63603],[-77.34453,8.64639],[-77.36411,8.66664],[-77.3704,8.66169],[-77.36734,8.64433],[-77.37264,8.63734],[-77.39302,8.65121],[-77.40222,8.6494],[-77.40795,8.64535],[-77.40897,8.63511],[-77.40533,8.63157],[-77.39989,8.6174],[-77.40421,8.60942],[-77.39826,8.59844],[-77.39328,8.5953],[-77.39563,8.58394],[-77.40482,8.58457],[-77.41404,8.58891],[-77.41928,8.5847],[-77.41087,8.57657],[-77.41173,8.56965],[-77.42366,8.56344],[-77.42884,8.55809],[-77.43696,8.56312],[-77.44036,8.55585],[-77.43714,8.5403],[-77.44058,8.52272],[-77.4452,8.51395],[-77.45626,8.50854],[-77.44956,8.50065],[-77.44928,8.49183],[-77.4459,8.47984],[-77.44756,8.47261],[-77.43801,8.47065],[-77.41782,8.47818],[-77.40186,8.47647],[-77.40368,8.4661],[-77.39762,8.46164],[-77.39472,8.45169],[-77.38612,8.44052],[-77.38502,8.43109],[-77.37915,8.42467],[-77.37615,8.41637],[-77.36986,8.40783],[-77.35888,8.40096],[-77.35512,8.38819],[-77.36162,8.37684],[-77.35785,8.36511],[-77.35058,8.3614],[-77.34615,8.35227],[-77.34959,8.3469],[-77.34949,8.33417],[-77.35275,8.32997],[-77.3554,8.31714],[-77.34967,8.29646],[-77.34006,8.29031],[-77.33223,8.28134],[-77.33271,8.27336],[-77.3191,8.27416],[-77.31224,8.27078],[-77.30604,8.28332],[-77.29813,8.27713],[-77.29034,8.27294],[-77.27596,8.27513],[-77.27036,8.27052],[-77.2504,8.27238],[-77.24724,8.27038],[-77.23034,8.28756],[-77.2216,8.29358],[-77.21892,8.28514],[-77.20324,8.29305],[-77.19651,8.29116],[-77.19349,8.28618],[-77.18444,8.28952],[-77.18116,8.28718],[-77.15658,8.28431],[-77.156,8.28835],[-77.12476,8.3495],[-77.10421,8.32441],[-77.09727,8.32298],[-77.09677,8.31076],[-77.08903,8.30648],[-77.07816,8.31792]]]}}