{"type":"Feature","properties":{"id":"COL.3.91","name":"Cocorná","level":2,"country":"COL"},"geometry":{"type":"Polygon","coordinates":[[[-75.26856,6.05643],[-75.2552,6.05412],[-75.24628,6.05036],[-75.24251,6.05622],[-75.22758,6.05189],[-75.22047,6.04189],[-75.2235,6.03322],[-75.22194,6.02575],[-75.21318,6.01931],[-75.21498,6.01561],[-75.20878,6.00787],[-75.19136,6.00019],[-75.18371,5.99052],[-75.16975,5.98533],[-75.16657,5.9803],[-75.17295,5.97384],[-75.18328,5.96818],[-75.17806,5.96049],[-75.16565,5.95979],[-75.16038,5.96263],[-75.15603,5.94662],[-75.146,5.93972],[-75.13629,5.94054],[-75.14092,5.92294],[-75.14029,5.91587],[-75.14964,5.91507],[-75.15617,5.90722],[-75.15697,5.89205],[-75.16106,5.88045],[-75.16582,5.8734],[-75.16299,5.8705],[-75.1657,5.86137],[-75.15734,5.86156],[-75.15225,5.86564],[-75.14479,5.86536],[-75.14367,5.87176],[-75.13451,5.88251],[-75.11747,5.88527],[-75.10974,5.88387],[-75.10161,5.89337],[-75.09141,5.89049],[-75.07434,5.89242],[-75.06667,5.90016],[-75.06469,5.91059],[-75.05538,5.91942],[-75.06645,5.91686],[-75.07705,5.9122],[-75.08376,5.91303],[-75.08664,5.92771],[-75.11123,5.93871],[-75.11073,5.94699],[-75.11479,5.95165],[-75.11943,5.96664],[-75.11711,5.97544],[-75.10578,5.97659],[-75.10168,5.9795],[-75.10386,5.98921],[-75.06923,5.99959],[-75.07827,6.00938],[-75.0779,6.01502],[-75.08498,6.02035],[-75.09013,6.01866],[-75.09427,6.02816],[-75.10343,6.03124],[-75.10816,6.04152],[-75.12017,6.04264],[-75.13697,6.05107],[-75.14512,6.06296],[-75.15608,6.06481],[-75.15821,6.073],[-75.15614,6.08196],[-75.16345,6.09208],[-75.16705,6.1014],[-75.18355,6.09911],[-75.19111,6.10064],[-75.19294,6.10678],[-75.1993,6.10764],[-75.21059,6.10463],[-75.2206,6.11334],[-75.22279,6.12133],[-75.22894,6.12417],[-75.22939,6.11276],[-75.23521,6.11139],[-75.23927,6.10321],[-75.24954,6.10065],[-75.25542,6.0965],[-75.26869,6.07993],[-75.26856,6.05643]]]}}