{"type":"Feature","properties":{"id":"COL.10.47","name":"Choachí","level":2,"country":"COL"},"geometry":{"type":"Polygon","coordinates":[[[-73.98747,4.63119],[-73.99228,4.62178],[-73.99708,4.60633],[-73.99437,4.60147],[-73.997,4.59422],[-74.00345,4.58599],[-74.00535,4.56059],[-73.98125,4.54902],[-73.9815,4.53938],[-73.97271,4.53975],[-73.96613,4.53341],[-73.95956,4.51013],[-73.95178,4.50495],[-73.94439,4.50382],[-73.93383,4.50975],[-73.9251,4.50592],[-73.91809,4.50648],[-73.90465,4.50062],[-73.90341,4.50743],[-73.90749,4.52332],[-73.9008,4.5256],[-73.89714,4.53118],[-73.89183,4.53136],[-73.88449,4.54075],[-73.86818,4.54392],[-73.85743,4.55457],[-73.85352,4.56191],[-73.84574,4.56763],[-73.84182,4.57399],[-73.83317,4.57807],[-73.8273,4.58367],[-73.82085,4.59615],[-73.81526,4.59972],[-73.80223,4.61867],[-73.79977,4.62762],[-73.79227,4.63085],[-73.79281,4.63774],[-73.7991,4.63631],[-73.81029,4.64095],[-73.83091,4.6395],[-73.83694,4.63605],[-73.84691,4.63876],[-73.85722,4.63655],[-73.86723,4.64018],[-73.87406,4.63991],[-73.88719,4.63397],[-73.89073,4.62984],[-73.89322,4.6191],[-73.90177,4.6106],[-73.9114,4.58997],[-73.92123,4.59931],[-73.93144,4.618],[-73.94175,4.62259],[-73.93615,4.64288],[-73.94521,4.64184],[-73.95604,4.65428],[-73.96339,4.6516],[-73.96659,4.64225],[-73.98747,4.63119]]]}}