{"type":"Feature","properties":{"id":"SAU.9","name":"Al Jawf","level":1,"country":"SAU"},"geometry":{"type":"Polygon","coordinates":[[[37.98652,31.75336],[37.45501,31.61771],[36.95953,31.491],[37.48002,31.00726],[37.98107,30.49948],[37.6707,30.34761],[37.63453,30.31278],[37.4917,30.01119],[37.4702,29.99455],[36.75624,29.86552],[36.70487,29.83115],[36.47708,29.49461],[36.06946,29.20003],[36.01644,29.18995],[35.47363,29.27207],[34.94939,29.35169],[34.94207,29.25047],[34.90935,29.23066],[34.85255,29.04507],[34.84278,28.88456],[34.9965,28.89085],[35.21995,28.86118],[35.37374,28.92929],[35.57884,28.96387],[35.85521,28.98428],[36.05122,28.9419],[36.1524,28.87937],[36.40995,28.58311],[36.50509,28.56182],[36.61433,28.59867],[36.85453,28.64461],[36.99111,28.63735],[37.22587,28.5774],[37.39827,28.56849],[37.44963,28.58469],[37.54539,28.75429],[37.69447,28.85989],[37.7724,28.80705],[37.76258,28.64611],[37.77256,28.50051],[37.84439,28.3631],[37.95658,28.29119],[38.1282,28.24608],[38.36389,28.22936],[38.45608,28.25822],[38.59649,28.22789],[38.66186,28.13952],[38.73586,28.14875],[38.90375,28.20794],[39.00013,28.16792],[39.15635,28.30272],[39.53467,28.46126],[39.70955,28.50402],[40.08043,28.69045],[40.45891,28.82716],[40.5436,28.81625],[40.68453,28.93916],[40.71646,29.00038],[40.74178,29.33356],[40.81129,29.43831],[40.9196,29.51099],[41.75474,29.96422],[41.88275,30.06184],[41.87918,30.13994],[41.68131,30.28151],[41.58902,30.43822],[41.53145,30.50057],[41.46427,30.52995],[41.21116,30.55082],[41.15049,30.57229],[40.95107,30.71102],[40.88002,30.73283],[40.7222,30.72469],[40.17536,30.73632],[40.02146,30.7773],[39.86783,30.86825],[39.1919,30.95806],[39.05894,30.96093],[38.75121,30.92152],[38.3057,30.883],[38.21289,30.89452],[38.12959,30.94868],[38.04939,31.07808],[37.87648,31.23109],[37.86609,31.37194],[37.98652,31.75336]]]}}