{"type":"Feature","properties":{"id":"FRA.83.1","name":"Autun","level":2,"country":"FRA"},"geometry":{"type":"Polygon","coordinates":[[[4.12457,46.75511],[4.124,46.7388],[4.13339,46.71796],[4.15,46.73168],[4.16338,46.71213],[4.19731,46.70599],[4.19975,46.68724],[4.22005,46.6898],[4.23372,46.67493],[4.25195,46.673],[4.24621,46.64893],[4.19182,46.63932],[4.1828,46.63141],[4.17501,46.61434],[4.18381,46.59934],[4.20002,46.59744],[4.20517,46.57651],[4.25287,46.5675],[4.25035,46.55243],[4.2558,46.54638],[4.28005,46.55471],[4.30136,46.5505],[4.31282,46.55902],[4.3084,46.58025],[4.32657,46.57338],[4.38889,46.59878],[4.41371,46.60009],[4.44498,46.59258],[4.45963,46.60702],[4.50241,46.58918],[4.51225,46.5945],[4.5247,46.59175],[4.51924,46.60406],[4.52765,46.61228],[4.52087,46.62582],[4.49205,46.63356],[4.52359,46.65336],[4.52624,46.66427],[4.54202,46.66789],[4.56023,46.68271],[4.55748,46.70963],[4.53297,46.71],[4.52875,46.71705],[4.55501,46.75891],[4.57382,46.76405],[4.56752,46.77321],[4.62484,46.79197],[4.61824,46.80094],[4.58332,46.80779],[4.58097,46.81782],[4.58963,46.81871],[4.59028,46.83019],[4.61796,46.83608],[4.62239,46.84801],[4.61768,46.85401],[4.61416,46.86558],[4.62156,46.87353],[4.61428,46.8837],[4.5911,46.89157],[4.5881,46.91502],[4.6004,46.91598],[4.60911,46.90768],[4.62887,46.91567],[4.60908,46.92867],[4.61508,46.94873],[4.58968,46.95585],[4.57401,46.97279],[4.56864,46.99075],[4.55606,47.0026],[4.55531,47.01933],[4.50795,47.01226],[4.49001,47.03345],[4.46999,47.03129],[4.45538,47.04179],[4.43009,47.03862],[4.40351,47.05294],[4.40501,47.06952],[4.41537,47.07619],[4.40055,47.0829],[4.37054,47.07915],[4.36223,47.06373],[4.353,47.06415],[4.34461,47.07224],[4.34674,47.10118],[4.30691,47.10322],[4.29823,47.1128],[4.2674,47.11051],[4.2552,47.11683],[4.25128,47.13146],[4.24338,47.13197],[4.2443,47.1405],[4.23701,47.14277],[4.24536,47.14591],[4.21334,47.14431],[4.2166,47.14761],[4.20981,47.15539],[4.19623,47.14735],[4.18187,47.15026],[4.18805,47.13992],[4.17911,47.12574],[4.15092,47.11358],[4.12719,47.13054],[4.1104,47.11802],[4.09006,47.11618],[4.06039,47.12121],[4.03956,47.0827],[4.07228,47.05693],[4.05666,47.03779],[4.05532,47.0127],[3.997,46.98652],[3.99366,46.9792],[4.01564,46.97243],[4.03583,46.98541],[4.05576,46.95703],[4.0388,46.94837],[4.03649,46.92785],[4.03953,46.90984],[4.04673,46.89953],[4.0704,46.89589],[4.10053,46.8629],[4.0447,46.8369],[4.05813,46.81782],[4.06281,46.78848],[4.05544,46.7771],[4.0466,46.77818],[4.06801,46.76601],[4.11099,46.77561],[4.12457,46.75511]]]}}