{"type":"Feature","properties":{"id":"FRA.41.2","name":"Calvi","level":2,"country":"FRA"},"geometry":{"type":"MultiPolygon","coordinates":[[[[8.79811,42.60114],[8.79843,42.60133],[8.79746,42.60095],[8.79811,42.60114]]],[[[8.79919,42.6019],[8.7998,42.60216],[8.79892,42.60195],[8.79919,42.6019]]],[[[8.58241,42.38599],[8.58159,42.38652],[8.58164,42.38611],[8.58241,42.38599]]],[[[8.93367,42.64682],[8.93364,42.64673],[8.93374,42.64676],[8.93367,42.64682]]],[[[9.28646,42.67585],[9.28635,42.67571],[9.28661,42.67573],[9.28646,42.67585]]],[[[8.79971,42.6003],[8.80046,42.6012],[8.79858,42.60015],[8.79971,42.6003]]],[[[8.92964,42.6452],[8.92963,42.64489],[8.93,42.64472],[8.92964,42.6452]]],[[[8.6497,42.47119],[8.64912,42.47214],[8.64877,42.47114],[8.6497,42.47119]]],[[[8.71374,42.56595],[8.71386,42.56607],[8.7136,42.56597],[8.71374,42.56595]]],[[[8.71418,42.56674],[8.71383,42.56645],[8.71434,42.56673],[8.71418,42.56674]]],[[[8.71383,42.53041],[8.71379,42.53065],[8.71327,42.53059],[8.71383,42.53041]]],[[[8.93307,42.64603],[8.93171,42.64644],[8.93324,42.64541],[8.93307,42.64603]]],[[[8.71119,42.56588],[8.7112,42.56619],[8.71083,42.56594],[8.71119,42.56588]]],[[[8.93359,42.64606],[8.93433,42.64596],[8.93381,42.64669],[8.93359,42.64606]]],[[[8.64974,42.47913],[8.64911,42.4779],[8.6503,42.47924],[8.64974,42.47913]]],[[[8.93519,42.63956],[8.93943,42.64109],[8.93285,42.64526],[8.93519,42.63956]]],[[[9.41194,42.58411],[9.42068,42.60919],[9.39906,42.61991],[9.40518,42.62478],[9.3875,42.64271],[9.38018,42.66225],[9.39131,42.67149],[9.40788,42.71728],[9.38796,42.74786],[9.37213,42.75135],[9.34715,42.73939],[9.32225,42.7148],[9.32295,42.6973],[9.29405,42.67443],[9.28582,42.67541],[9.25684,42.71715],[9.2013,42.72524],[9.16591,42.73681],[9.12358,42.73152],[9.08639,42.71523],[9.06993,42.69217],[9.05832,42.65941],[9.01546,42.64121],[8.94774,42.63359],[8.92338,42.63923],[8.90665,42.62765],[8.88231,42.62945],[8.86942,42.60895],[8.85228,42.61247],[8.81129,42.59454],[8.80417,42.56969],[8.78211,42.55667],[8.72981,42.56317],[8.71817,42.52433],[8.66854,42.51685],[8.66488,42.49366],[8.67502,42.47651],[8.66462,42.45652],[8.66054,42.42288],[8.60541,42.41559],[8.60698,42.38655],[8.57457,42.3824],[8.59953,42.3696],[8.63859,42.37317],[8.65171,42.36223],[8.68082,42.3602],[8.6859,42.34922],[8.71152,42.3495],[8.72947,42.33936],[8.75876,42.33825],[8.77431,42.32528],[8.8234,42.31755],[8.87852,42.34297],[8.91348,42.37702],[8.90116,42.38263],[8.9017,42.39096],[8.92171,42.42755],[8.91898,42.45738],[8.96533,42.45633],[8.98816,42.46674],[9.01628,42.49374],[9.07817,42.50747],[9.0796,42.5523],[9.09713,42.56703],[9.13115,42.55973],[9.13175,42.54631],[9.14657,42.53302],[9.17473,42.51023],[9.19431,42.50746],[9.20395,42.51646],[9.22081,42.51692],[9.22623,42.54772],[9.23571,42.55511],[9.30062,42.5518],[9.32043,42.54475],[9.37593,42.55667],[9.38234,42.56734],[9.41194,42.58411]]]]}}