{"type":"Feature","properties":{"id":"FRA.75.4","name":"Clermont","level":2,"country":"FRA"},"geometry":{"type":"Polygon","coordinates":[[[2.63935,49.51953],[2.6389,49.52782],[2.65701,49.55724],[2.64742,49.56296],[2.64865,49.57198],[2.62876,49.58148],[2.62728,49.60995],[2.59324,49.61229],[2.58442,49.60797],[2.58712,49.60454],[2.57806,49.59633],[2.5591,49.6054],[2.56647,49.61892],[2.54517,49.61486],[2.53968,49.62378],[2.5054,49.6389],[2.47794,49.62071],[2.46587,49.6268],[2.47321,49.63184],[2.47046,49.6352],[2.45408,49.63518],[2.44388,49.65304],[2.40869,49.66211],[2.37297,49.65636],[2.36303,49.66518],[2.35141,49.66239],[2.33643,49.67038],[2.33505,49.67911],[2.31713,49.6875],[2.29843,49.68214],[2.24311,49.70219],[2.20429,49.69844],[2.213,49.68785],[2.20081,49.68775],[2.1871,49.67261],[2.20362,49.67186],[2.21925,49.65064],[2.20841,49.64534],[2.21199,49.6381],[2.20523,49.63428],[2.20303,49.61487],[2.16399,49.6125],[2.15428,49.5977],[2.15591,49.58956],[2.17398,49.57822],[2.19685,49.56276],[2.18157,49.52598],[2.23332,49.50035],[2.24961,49.49907],[2.26861,49.49398],[2.25752,49.47431],[2.24078,49.4672],[2.25901,49.4684],[2.27783,49.43808],[2.27249,49.40042],[2.27985,49.38892],[2.28031,49.37123],[2.26997,49.34546],[2.25729,49.34459],[2.25174,49.33293],[2.27,49.3118],[2.28681,49.30461],[2.33171,49.30854],[2.36819,49.28441],[2.40799,49.29545],[2.4433,49.28089],[2.51062,49.28867],[2.52354,49.29873],[2.6007,49.30948],[2.60757,49.33863],[2.6318,49.34944],[2.64614,49.35597],[2.63404,49.35631],[2.64782,49.39363],[2.63648,49.39346],[2.63193,49.38516],[2.6233,49.39106],[2.613,49.41005],[2.61493,49.4177],[2.59971,49.43165],[2.61319,49.43779],[2.62698,49.43364],[2.64099,49.45179],[2.65411,49.45572],[2.66269,49.47482],[2.65644,49.48869],[2.63899,49.49325],[2.63935,49.51953]]]}}