{"type":"Feature","properties":{"id":"FRA.3.4","name":"Saint-Pierre","level":2,"country":"FRA"},"geometry":{"type":"MultiPolygon","coordinates":[[[[55.56857,-21.37679],[55.56836,-21.37585],[55.56723,-21.37742],[55.56857,-21.37679]]],[[[55.77886,-21.36291],[55.77891,-21.36296],[55.77889,-21.3629],[55.77886,-21.36291]]],[[[55.63772,-21.16686],[55.62346,-21.18148],[55.60822,-21.18166],[55.59164,-21.17361],[55.58966,-21.15731],[55.57382,-21.134],[55.50986,-21.13949],[55.50048,-21.11606],[55.46688,-21.0862],[55.41025,-21.12722],[55.40173,-21.14932],[55.33824,-21.211],[55.32058,-21.24924],[55.34025,-21.28093],[55.38908,-21.29155],[55.41548,-21.31845],[55.44992,-21.32872],[55.45943,-21.3411],[55.50096,-21.35071],[55.54969,-21.37295],[55.58635,-21.37149],[55.60953,-21.38701],[55.6463,-21.38935],[55.67885,-21.37552],[55.77488,-21.36545],[55.79774,-21.34903],[55.80855,-21.33225],[55.80299,-21.2552],[55.6503,-21.23731],[55.65764,-21.19968],[55.63772,-21.16686]]]]}}