{"type":"Feature","properties":{"id":"FRA.36.1","name":"Brest","level":2,"country":"FRA"},"geometry":{"type":"MultiPolygon","coordinates":[[[[-4.50332,48.63354],[-4.50308,48.63362],[-4.50335,48.63366],[-4.50332,48.63354]]],[[[-4.50391,48.63412],[-4.50385,48.63411],[-4.50384,48.63414],[-4.50391,48.63412]]],[[[-4.4897,48.62817],[-4.48964,48.62814],[-4.48965,48.6282],[-4.4897,48.62817]]],[[[-4.50616,48.63302],[-4.50616,48.63299],[-4.50611,48.633],[-4.50616,48.63302]]],[[[-4.50691,48.63362],[-4.50692,48.63354],[-4.50682,48.63361],[-4.50691,48.63362]]],[[[-4.50598,48.63323],[-4.50594,48.63319],[-4.50592,48.63323],[-4.50598,48.63323]]],[[[-4.50518,48.63292],[-4.50514,48.63293],[-4.50517,48.63296],[-4.50518,48.63292]]],[[[-4.50137,48.63315],[-4.50134,48.63318],[-4.50141,48.63318],[-4.50137,48.63315]]],[[[-4.5021,48.63323],[-4.50202,48.63325],[-4.50211,48.63328],[-4.5021,48.63323]]],[[[-4.50446,48.62694],[-4.50435,48.62701],[-4.50449,48.62707],[-4.50446,48.62694]]],[[[-4.35068,48.67821],[-4.35068,48.67816],[-4.35062,48.67819],[-4.35068,48.67821]]],[[[-4.34899,48.67843],[-4.34899,48.67838],[-4.34892,48.67841],[-4.34899,48.67843]]],[[[-4.34749,48.67893],[-4.34753,48.67885],[-4.3474,48.67893],[-4.34749,48.67893]]],[[[-4.34888,48.67868],[-4.34889,48.67864],[-4.34881,48.67866],[-4.34888,48.67868]]],[[[-4.34877,48.6786],[-4.34883,48.67856],[-4.34873,48.67857],[-4.34877,48.6786]]],[[[-4.57172,48.63999],[-4.5716,48.6399],[-4.57163,48.64001],[-4.57172,48.63999]]],[[[-4.55198,48.63349],[-4.55207,48.63344],[-4.55199,48.63341],[-4.55198,48.63349]]],[[[-4.55322,48.63406],[-4.5533,48.63398],[-4.55324,48.63396],[-4.55322,48.63406]]],[[[-4.57546,48.63614],[-4.57543,48.63624],[-4.57554,48.63626],[-4.57546,48.63614]]],[[[-4.57361,48.63785],[-4.5735,48.63789],[-4.57363,48.63799],[-4.57361,48.63785]]],[[[-4.57346,48.63848],[-4.57333,48.63854],[-4.57351,48.63858],[-4.57346,48.63848]]],[[[-4.5709,48.64181],[-4.57069,48.64173],[-4.57078,48.64185],[-4.5709,48.64181]]],[[[-4.55156,48.63478],[-4.55159,48.63475],[-4.55154,48.63474],[-4.55156,48.63478]]],[[[-4.56948,48.63276],[-4.56953,48.63272],[-4.56946,48.63272],[-4.56948,48.63276]]],[[[-4.57532,48.63578],[-4.57525,48.63575],[-4.57525,48.63581],[-4.57532,48.63578]]],[[[-4.55586,48.63335],[-4.55589,48.63331],[-4.55584,48.63331],[-4.55586,48.63335]]],[[[-4.57502,48.63565],[-4.57508,48.63561],[-4.575,48.63559],[-4.57502,48.63565]]],[[[-4.57034,48.63278],[-4.5704,48.63272],[-4.57028,48.63272],[-4.57034,48.63278]]],[[[-4.52119,48.64661],[-4.52124,48.64655],[-4.52096,48.64651],[-4.52119,48.64661]]],[[[-4.52655,48.64908],[-4.5266,48.649],[-4.52638,48.64894],[-4.52655,48.64908]]],[[[-4.52161,48.64675],[-4.52167,48.64667],[-4.52151,48.6467],[-4.52161,48.64675]]],[[[-4.53096,48.65036],[-4.53089,48.65032],[-4.53084,48.65036],[-4.53096,48.65036]]],[[[-4.54004,48.64911],[-4.54012,48.64909],[-4.54004,48.64903],[-4.54004,48.64911]]],[[[-4.53103,48.65048],[-4.53122,48.65047],[-4.53114,48.65043],[-4.53103,48.65048]]],[[[-4.49636,48.63465],[-4.4963,48.63466],[-4.49633,48.63468],[-4.49636,48.63465]]],[[[-4.5384,48.65285],[-4.53837,48.65276],[-4.53829,48.65284],[-4.5384,48.65285]]],[[[-4.49701,48.63479],[-4.4969,48.63484],[-4.49693,48.63485],[-4.49701,48.63479]]],[[[-4.4968,48.63481],[-4.49677,48.63473],[-4.49671,48.63477],[-4.4968,48.63481]]],[[[-4.53092,48.65115],[-4.53097,48.65106],[-4.53083,48.65109],[-4.53092,48.65115]]],[[[-4.53705,48.64976],[-4.53707,48.64958],[-4.537,48.6497],[-4.53705,48.64976]]],[[[-4.47282,48.63937],[-4.47275,48.63941],[-4.47281,48.63942],[-4.47282,48.63937]]],[[[-4.47721,48.64087],[-4.47719,48.64091],[-4.47723,48.64094],[-4.47721,48.64087]]],[[[-4.47229,48.63969],[-4.47233,48.63969],[-4.4723,48.63966],[-4.47229,48.63969]]],[[[-4.46215,48.63806],[-4.46224,48.63802],[-4.46224,48.63797],[-4.46215,48.63806]]],[[[-4.47799,48.6413],[-4.47793,48.64135],[-4.47803,48.64133],[-4.47799,48.6413]]],[[[-4.47245,48.63939],[-4.47245,48.63942],[-4.47249,48.63941],[-4.47245,48.63939]]],[[[-5.12434,48.46203],[-5.12438,48.46205],[-5.12441,48.46202],[-5.12434,48.46203]]],[[[-4.99985,48.41641],[-4.99987,48.41635],[-4.9998,48.41634],[-4.99985,48.41641]]],[[[-4.50606,48.63304],[-4.50602,48.63318],[-4.50608,48.63317],[-4.50606,48.63304]]],[[[-4.50452,48.6333],[-4.50445,48.63329],[-4.50446,48.63335],[-4.50452,48.6333]]],[[[-4.50391,48.62706],[-4.50381,48.62708],[-4.50388,48.62715],[-4.50391,48.62706]]],[[[-4.5063,48.63319],[-4.50621,48.63322],[-4.50633,48.63321],[-4.5063,48.63319]]],[[[-4.50425,48.63264],[-4.50415,48.63269],[-4.50423,48.63278],[-4.50425,48.63264]]],[[[-4.50624,48.63306],[-4.50615,48.63309],[-4.50628,48.63309],[-4.50624,48.63306]]],[[[-4.50114,48.63315],[-4.50103,48.63317],[-4.50116,48.63324],[-4.50114,48.63315]]],[[[-4.50677,48.63373],[-4.5068,48.63367],[-4.50672,48.63369],[-4.50677,48.63373]]],[[[-4.34941,48.67873],[-4.34953,48.67871],[-4.3495,48.67867],[-4.34941,48.67873]]],[[[-4.35038,48.67843],[-4.35041,48.67839],[-4.35031,48.67841],[-4.35038,48.67843]]],[[[-4.34997,48.67814],[-4.34998,48.67808],[-4.34992,48.67811],[-4.34997,48.67814]]],[[[-4.3488,48.67818],[-4.34878,48.67814],[-4.34866,48.67814],[-4.3488,48.67818]]],[[[-4.34733,48.67911],[-4.34734,48.67907],[-4.34725,48.67909],[-4.34733,48.67911]]],[[[-4.35014,48.67829],[-4.35013,48.67825],[-4.35004,48.67828],[-4.35014,48.67829]]],[[[-4.34939,48.67865],[-4.34938,48.67861],[-4.34932,48.67864],[-4.34939,48.67865]]],[[[-4.5732,48.62999],[-4.57326,48.62992],[-4.57294,48.62985],[-4.5732,48.62999]]],[[[-4.57067,48.63286],[-4.5705,48.63277],[-4.57054,48.63299],[-4.57067,48.63286]]],[[[-4.57181,48.63991],[-4.57173,48.63992],[-4.57176,48.63997],[-4.57181,48.63991]]],[[[-4.57463,48.63002],[-4.57467,48.62992],[-4.57455,48.62991],[-4.57463,48.63002]]],[[[-4.55184,48.63331],[-4.55184,48.63314],[-4.55171,48.63319],[-4.55184,48.63331]]],[[[-4.57468,48.6298],[-4.57452,48.62966],[-4.57446,48.62976],[-4.57468,48.6298]]],[[[-4.57414,48.62963],[-4.57429,48.62941],[-4.57401,48.6296],[-4.57414,48.62963]]],[[[-4.57314,48.63852],[-4.57307,48.63837],[-4.5729,48.63845],[-4.57314,48.63852]]],[[[-4.57203,48.63875],[-4.57181,48.63881],[-4.57192,48.63893],[-4.57203,48.63875]]],[[[-4.57371,48.62901],[-4.57373,48.6289],[-4.57353,48.62892],[-4.57371,48.62901]]],[[[-4.55787,48.64943],[-4.55775,48.64946],[-4.55791,48.6495],[-4.55787,48.64943]]],[[[-4.56976,48.6326],[-4.56973,48.63239],[-4.56958,48.63244],[-4.56976,48.6326]]],[[[-4.56235,48.63101],[-4.56226,48.63096],[-4.56224,48.63102],[-4.56235,48.63101]]],[[[-4.56328,48.63208],[-4.56321,48.63201],[-4.56318,48.63207],[-4.56328,48.63208]]],[[[-4.57422,48.63208],[-4.57423,48.63181],[-4.57394,48.6319],[-4.57422,48.63208]]],[[[-4.56921,48.64134],[-4.56907,48.64142],[-4.56929,48.64156],[-4.56921,48.64134]]],[[[-4.55239,48.63193],[-4.55223,48.63192],[-4.55233,48.6321],[-4.55239,48.63193]]],[[[-4.56015,48.63237],[-4.5603,48.63229],[-4.56008,48.6323],[-4.56015,48.63237]]],[[[-4.56425,48.63698],[-4.56407,48.637],[-4.56432,48.63705],[-4.56425,48.63698]]],[[[-4.57249,48.63784],[-4.5723,48.63791],[-4.57243,48.63805],[-4.57249,48.63784]]],[[[-4.5684,48.64128],[-4.56836,48.6414],[-4.56851,48.6414],[-4.5684,48.64128]]],[[[-4.57161,48.632],[-4.57126,48.63177],[-4.57126,48.63189],[-4.57161,48.632]]],[[[-4.56867,48.64127],[-4.56859,48.6412],[-4.56851,48.64127],[-4.56867,48.64127]]],[[[-4.56879,48.63248],[-4.56884,48.63245],[-4.56879,48.63237],[-4.56879,48.63248]]],[[[-4.5685,48.64148],[-4.56845,48.64152],[-4.56854,48.64155],[-4.5685,48.64148]]],[[[-4.57252,48.63109],[-4.57249,48.63092],[-4.57231,48.631],[-4.57252,48.63109]]],[[[-4.55215,48.63149],[-4.55204,48.63149],[-4.55212,48.63155],[-4.55215,48.63149]]],[[[-4.57155,48.64058],[-4.57144,48.64063],[-4.57161,48.64066],[-4.57155,48.64058]]],[[[-4.52527,48.64863],[-4.52532,48.64856],[-4.52515,48.64845],[-4.52527,48.64863]]],[[[-4.52276,48.64669],[-4.52289,48.64665],[-4.52268,48.64664],[-4.52276,48.64669]]],[[[-4.52249,48.64609],[-4.52262,48.64605],[-4.52249,48.646],[-4.52249,48.64609]]],[[[-4.53683,48.64998],[-4.53685,48.64983],[-4.53677,48.64994],[-4.53683,48.64998]]],[[[-4.53867,48.65634],[-4.53875,48.6563],[-4.5386,48.65632],[-4.53867,48.65634]]],[[[-4.53072,48.65081],[-4.53069,48.65072],[-4.53066,48.65078],[-4.53072,48.65081]]],[[[-4.53957,48.65596],[-4.53948,48.65581],[-4.53937,48.65594],[-4.53957,48.65596]]],[[[-4.54252,48.65763],[-4.54242,48.65749],[-4.54235,48.65767],[-4.54252,48.65763]]],[[[-4.486,48.6384],[-4.48594,48.63842],[-4.48598,48.63843],[-4.486,48.6384]]],[[[-4.48076,48.6366],[-4.48074,48.63663],[-4.48077,48.63663],[-4.48076,48.6366]]],[[[-4.49687,48.63472],[-4.49688,48.63477],[-4.49696,48.63477],[-4.49695,48.63472],[-4.49687,48.63472]]],[[[-4.54147,48.65534],[-4.54148,48.65529],[-4.5414,48.65528],[-4.54147,48.65534]]],[[[-4.53994,48.65266],[-4.53983,48.65246],[-4.53971,48.65264],[-4.53994,48.65266]]],[[[-4.49439,48.63497],[-4.49416,48.63502],[-4.49444,48.6352],[-4.49439,48.63497]]],[[[-4.5408,48.65543],[-4.54085,48.65539],[-4.54067,48.65537],[-4.5408,48.65543]]],[[[-4.47759,48.64116],[-4.47754,48.64122],[-4.47764,48.64121],[-4.47759,48.64116]]],[[[-4.47061,48.63893],[-4.47056,48.63895],[-4.47063,48.63896],[-4.47061,48.63893]]],[[[-4.47265,48.63934],[-4.47263,48.63938],[-4.47268,48.6394],[-4.47265,48.63934]]],[[[-4.47287,48.63946],[-4.47289,48.6395],[-4.4729,48.63946],[-4.47287,48.63946]]],[[[-4.46466,48.63933],[-4.4648,48.63931],[-4.46473,48.63927],[-4.46466,48.63933]]],[[[-4.47786,48.64083],[-4.47784,48.64089],[-4.4779,48.64089],[-4.47786,48.64083]]],[[[-4.34768,48.68412],[-4.34753,48.68416],[-4.34775,48.68421],[-4.34768,48.68412]]],[[[-4.33955,48.68173],[-4.3394,48.68179],[-4.33952,48.68189],[-4.33955,48.68173]]],[[[-4.34022,48.67935],[-4.34009,48.67941],[-4.34022,48.67944],[-4.34022,48.67935]]],[[[-4.3397,48.67889],[-4.33951,48.67895],[-4.33967,48.67906],[-4.3397,48.67889]]],[[[-4.34089,48.67907],[-4.3408,48.67915],[-4.34096,48.67935],[-4.34089,48.67907]]],[[[-4.34361,48.68219],[-4.34353,48.68229],[-4.34373,48.68234],[-4.34361,48.68219]]],[[[-4.34719,48.67989],[-4.34699,48.67993],[-4.34706,48.68026],[-4.34719,48.67989]]],[[[-4.79746,48.42812],[-4.79814,48.4292],[-4.79949,48.42909],[-4.79746,48.42812]]],[[[-4.50459,48.62292],[-4.50448,48.62302],[-4.50471,48.6229],[-4.50459,48.62292]]],[[[-5.13919,48.44752],[-5.13916,48.44752],[-5.13917,48.44756],[-5.13919,48.44752]]],[[[-5.1295,48.4607],[-5.12942,48.46063],[-5.12935,48.46068],[-5.1295,48.4607]]],[[[-5.12573,48.46249],[-5.12569,48.4625],[-5.12576,48.46251],[-5.12573,48.46249]]],[[[-5.14155,48.44881],[-5.14154,48.44883],[-5.14161,48.44886],[-5.14155,48.44881]]],[[[-5.1402,48.45322],[-5.14023,48.45324],[-5.14023,48.4532],[-5.1402,48.45322]]],[[[-4.9599,48.40253],[-4.95994,48.4025],[-4.95983,48.40252],[-4.9599,48.40253]]],[[[-4.50351,48.63386],[-4.50358,48.63406],[-4.50365,48.63395],[-4.50351,48.63386]]],[[[-4.50339,48.6337],[-4.50308,48.63374],[-4.50312,48.63378],[-4.50339,48.6337]]],[[[-4.34718,48.67872],[-4.34729,48.67851],[-4.3471,48.67859],[-4.34718,48.67872]]],[[[-4.34735,48.67881],[-4.34753,48.6788],[-4.34738,48.67874],[-4.34735,48.67881]]],[[[-4.34905,48.67865],[-4.34905,48.67856],[-4.34899,48.67856],[-4.34905,48.67865]]],[[[-4.55591,48.63282],[-4.55586,48.63273],[-4.5558,48.6328],[-4.55591,48.63282]]],[[[-4.57169,48.63922],[-4.57156,48.63938],[-4.57191,48.63933],[-4.57169,48.63922]]],[[[-4.55556,48.63337],[-4.55555,48.63328],[-4.5555,48.63336],[-4.55556,48.63337]]],[[[-4.56953,48.63243],[-4.56965,48.63235],[-4.5693,48.63243],[-4.56953,48.63243]]],[[[-4.56666,48.63344],[-4.56665,48.6335],[-4.5667,48.63348],[-4.56666,48.63344]]],[[[-4.56035,48.63212],[-4.56024,48.63202],[-4.56014,48.63207],[-4.56035,48.63212]]],[[[-4.56893,48.63243],[-4.56895,48.6324],[-4.56887,48.63238],[-4.56893,48.63243]]],[[[-4.55233,48.63169],[-4.55228,48.63156],[-4.55222,48.63165],[-4.55233,48.63169]]],[[[-4.55578,48.63326],[-4.55593,48.63296],[-4.55576,48.63293],[-4.55578,48.63326]]],[[[-4.5231,48.64686],[-4.52298,48.64668],[-4.52276,48.64675],[-4.5231,48.64686]]],[[[-4.54061,48.64899],[-4.54069,48.64894],[-4.54058,48.6489],[-4.54061,48.64899]]],[[[-4.54114,48.65578],[-4.5413,48.65577],[-4.54103,48.65567],[-4.54114,48.65578]]],[[[-4.54071,48.65649],[-4.54064,48.65629],[-4.54031,48.65636],[-4.54071,48.65649]]],[[[-4.53792,48.65729],[-4.53804,48.65712],[-4.53778,48.6571],[-4.53792,48.65729]]],[[[-4.49293,48.63587],[-4.49287,48.63587],[-4.49289,48.63591],[-4.49293,48.63587]]],[[[-4.54109,48.65669],[-4.5412,48.65651],[-4.54098,48.65653],[-4.54109,48.65669]]],[[[-4.54083,48.65641],[-4.54076,48.65625],[-4.54068,48.65633],[-4.54083,48.65641]]],[[[-4.54116,48.65556],[-4.54119,48.6554],[-4.54096,48.65542],[-4.54116,48.65556]]],[[[-4.47466,48.63583],[-4.47459,48.63581],[-4.47459,48.63584],[-4.47466,48.63583]]],[[[-4.53991,48.6491],[-4.53985,48.64902],[-4.53981,48.6491],[-4.53991,48.6491]]],[[[-4.47811,48.64098],[-4.47811,48.64105],[-4.47817,48.64104],[-4.47811,48.64098]]],[[[-4.46449,48.63912],[-4.46457,48.63913],[-4.46445,48.63906],[-4.46449,48.63912]]],[[[-4.47788,48.64117],[-4.47791,48.64125],[-4.47796,48.64122],[-4.47788,48.64117]]],[[[-4.47757,48.64097],[-4.47747,48.64107],[-4.47766,48.64104],[-4.47757,48.64097]]],[[[-4.47789,48.64099],[-4.47787,48.64113],[-4.47796,48.64106],[-4.47789,48.64099]]],[[[-4.3476,48.68548],[-4.34742,48.68567],[-4.3477,48.68567],[-4.3476,48.68548]]],[[[-4.34576,48.67874],[-4.34547,48.67865],[-4.34573,48.67901],[-4.34576,48.67874]]],[[[-4.34719,48.68148],[-4.34704,48.68184],[-4.34735,48.68178],[-4.34719,48.68148]]],[[[-4.64628,48.59198],[-4.64669,48.59274],[-4.64706,48.59222],[-4.64628,48.59198]]],[[[-4.88818,48.3911],[-4.88813,48.39104],[-4.88807,48.39105],[-4.88818,48.3911]]],[[[-5.14308,48.45123],[-5.14306,48.45116],[-5.14304,48.45123],[-5.14308,48.45123]]],[[[-5.13007,48.46057],[-5.13012,48.46063],[-5.13014,48.46059],[-5.13007,48.46057]]],[[[-5.1409,48.45344],[-5.14095,48.4534],[-5.14092,48.45338],[-5.1409,48.45344]]],[[[-5.12689,48.4609],[-5.1268,48.46091],[-5.1268,48.46098],[-5.12689,48.4609]]],[[[-5.1383,48.44719],[-5.13823,48.44721],[-5.13832,48.44723],[-5.1383,48.44719]]],[[[-5.1277,48.46061],[-5.12762,48.46053],[-5.12761,48.46064],[-5.1277,48.46061]]],[[[-5.14349,48.45084],[-5.14343,48.45086],[-5.14345,48.45091],[-5.14349,48.45084]]],[[[-5.14209,48.45263],[-5.14217,48.45264],[-5.14203,48.45259],[-5.14209,48.45263]]],[[[-5.1428,48.4513],[-5.14287,48.45131],[-5.14288,48.45125],[-5.1428,48.4513]]],[[[-4.97603,48.40247],[-4.97609,48.40245],[-4.97601,48.40241],[-4.97603,48.40247]]],[[[-4.48985,48.62792],[-4.48956,48.6279],[-4.48974,48.62799],[-4.48985,48.62792]]],[[[-4.34745,48.67931],[-4.34749,48.67915],[-4.34726,48.67927],[-4.34745,48.67931]]],[[[-4.35041,48.67878],[-4.3504,48.67868],[-4.35028,48.67867],[-4.35041,48.67878]]],[[[-4.57634,48.62867],[-4.576,48.62842],[-4.57567,48.62858],[-4.57634,48.62867]]],[[[-4.57223,48.63888],[-4.57214,48.63917],[-4.57248,48.6392],[-4.57223,48.63888]]],[[[-4.55423,48.63267],[-4.55403,48.63264],[-4.55415,48.6328],[-4.55423,48.63267]]],[[[-4.573,48.62895],[-4.57341,48.62896],[-4.57289,48.62856],[-4.573,48.62895]]],[[[-4.52615,48.64989],[-4.52575,48.64988],[-4.52591,48.65013],[-4.52615,48.64989]]],[[[-4.52117,48.64762],[-4.5214,48.64753],[-4.52104,48.64748],[-4.52117,48.64762]]],[[[-4.54115,48.65619],[-4.54108,48.65602],[-4.54098,48.65613],[-4.54115,48.65619]]],[[[-4.54074,48.65672],[-4.5408,48.65651],[-4.54055,48.65658],[-4.54074,48.65672]]],[[[-4.53027,48.65121],[-4.53036,48.65097],[-4.53005,48.65091],[-4.53027,48.65121]]],[[[-4.53449,48.64841],[-4.5347,48.64829],[-4.53408,48.64829],[-4.53449,48.64841]]],[[[-4.47631,48.64068],[-4.47622,48.64068],[-4.47624,48.64075],[-4.47631,48.64068]]],[[[-4.34173,48.6815],[-4.34138,48.68169],[-4.34172,48.68173],[-4.34173,48.6815]]],[[[-4.54813,48.63045],[-4.54868,48.63095],[-4.54913,48.63043],[-4.54813,48.63045]]],[[[-4.69885,48.57162],[-4.6986,48.57174],[-4.69899,48.57177],[-4.69885,48.57162]]],[[[-5.14088,48.45219],[-5.14083,48.45214],[-5.14082,48.45218],[-5.14088,48.45219]]],[[[-5.13545,48.4553],[-5.13545,48.45527],[-5.1354,48.45528],[-5.13545,48.4553]]],[[[-5.12097,48.46225],[-5.12088,48.46225],[-5.12091,48.46228],[-5.12097,48.46225]]],[[[-5.14352,48.44934],[-5.14373,48.44938],[-5.14354,48.44927],[-5.14352,48.44934]]],[[[-5.1381,48.44772],[-5.13816,48.44772],[-5.13814,48.44766],[-5.1381,48.44772]]],[[[-5.14339,48.44975],[-5.14341,48.44971],[-5.14334,48.44965],[-5.14339,48.44975]]],[[[-5.0574,48.47108],[-5.05736,48.47105],[-5.05735,48.47111],[-5.0574,48.47108]]],[[[-5.12619,48.4503],[-5.12623,48.45026],[-5.12618,48.45024],[-5.12619,48.4503]]],[[[-5.12823,48.44968],[-5.1283,48.44965],[-5.12824,48.44965],[-5.12823,48.44968]]],[[[-5.13968,48.45607],[-5.13976,48.45605],[-5.13967,48.456],[-5.13968,48.45607]]],[[[-5.00074,48.41572],[-5.00082,48.41573],[-5.00076,48.41569],[-5.00074,48.41572]]],[[[-4.97881,48.41014],[-4.97887,48.41014],[-4.97886,48.41011],[-4.97881,48.41014]]],[[[-5.00934,48.42798],[-5.00933,48.42795],[-5.00929,48.42797],[-5.00934,48.42798]]],[[[-5.01645,48.42397],[-5.01658,48.42391],[-5.01647,48.42389],[-5.01645,48.42397]]],[[[-4.35123,48.68147],[-4.35132,48.68144],[-4.35114,48.68146],[-4.35123,48.68147]]],[[[-4.57111,48.63034],[-4.57116,48.62981],[-4.57061,48.63005],[-4.57111,48.63034]]],[[[-4.52647,48.64967],[-4.52613,48.64926],[-4.52607,48.64951],[-4.52647,48.64967]]],[[[-4.54088,48.65609],[-4.54073,48.65585],[-4.54061,48.65607],[-4.54088,48.65609]]],[[[-4.54098,48.65514],[-4.54113,48.65509],[-4.54058,48.65502],[-4.54098,48.65514]]],[[[-4.54106,48.65561],[-4.54091,48.6555],[-4.54055,48.65552],[-4.54106,48.65561]]],[[[-4.47827,48.64121],[-4.47844,48.64122],[-4.47836,48.64117],[-4.47827,48.64121]]],[[[-4.47803,48.64095],[-4.47816,48.64097],[-4.47813,48.64091],[-4.47803,48.64095]]],[[[-4.33965,48.68198],[-4.33935,48.68218],[-4.33967,48.68224],[-4.33965,48.68198]]],[[[-4.3447,48.67832],[-4.34418,48.67854],[-4.34442,48.67876],[-4.3447,48.67832]]],[[[-4.3505,48.68086],[-4.35056,48.68093],[-4.35058,48.68084],[-4.3505,48.68086]]],[[[-5.13458,48.45598],[-5.13467,48.45607],[-5.13471,48.45602],[-5.13458,48.45598]]],[[[-5.12104,48.46279],[-5.12105,48.46276],[-5.12097,48.46274],[-5.12104,48.46279]]],[[[-5.14093,48.45166],[-5.14099,48.45162],[-5.14091,48.45157],[-5.14093,48.45166]]],[[[-5.12954,48.46055],[-5.12946,48.4606],[-5.12954,48.46066],[-5.12954,48.46055]]],[[[-5.1433,48.45026],[-5.14335,48.45026],[-5.14326,48.45019],[-5.1433,48.45026]]],[[[-5.14002,48.44713],[-5.14008,48.44711],[-5.13997,48.44711],[-5.14002,48.44713]]],[[[-5.12211,48.46256],[-5.12205,48.46256],[-5.12208,48.46262],[-5.12211,48.46256]]],[[[-5.14045,48.45386],[-5.14036,48.45386],[-5.1404,48.45392],[-5.14045,48.45386]]],[[[-5.13742,48.45534],[-5.13745,48.45531],[-5.1374,48.45527],[-5.13742,48.45534]]],[[[-5.14193,48.44829],[-5.14177,48.44826],[-5.14189,48.44835],[-5.14193,48.44829]]],[[[-5.13729,48.4486],[-5.13734,48.44856],[-5.13729,48.44854],[-5.13729,48.4486]]],[[[-5.08356,48.47277],[-5.08356,48.4727],[-5.08346,48.47276],[-5.08356,48.47277]]],[[[-5.12166,48.45236],[-5.12163,48.4524],[-5.12173,48.45243],[-5.12166,48.45236]]],[[[-5.0571,48.4711],[-5.05712,48.47107],[-5.05703,48.47112],[-5.0571,48.4711]]],[[[-5.06531,48.48182],[-5.0654,48.48179],[-5.06517,48.48179],[-5.06531,48.48182]]],[[[-5.01772,48.41875],[-5.0176,48.41873],[-5.01769,48.41879],[-5.01772,48.41875]]],[[[-4.95125,48.40523],[-4.95115,48.40522],[-4.95124,48.40525],[-4.95125,48.40523]]],[[[-4.9727,48.41771],[-4.9728,48.4178],[-4.97282,48.41772],[-4.9727,48.41771]]],[[[-4.50742,48.62613],[-4.50744,48.62606],[-4.50712,48.62609],[-4.50742,48.62613]]],[[[-4.34998,48.67833],[-4.34992,48.67819],[-4.34982,48.67825],[-4.34998,48.67833]]],[[[-4.5652,48.63602],[-4.56527,48.63583],[-4.5649,48.63599],[-4.5652,48.63602]]],[[[-4.5658,48.63309],[-4.56542,48.6333],[-4.56572,48.63355],[-4.5658,48.63309]]],[[[-4.54104,48.65592],[-4.54087,48.65569],[-4.54059,48.65565],[-4.54104,48.65592]]],[[[-4.54148,48.6567],[-4.54159,48.65646],[-4.54135,48.65637],[-4.54148,48.6567]]],[[[-4.53966,48.65253],[-4.5397,48.65225],[-4.53943,48.65242],[-4.53966,48.65253]]],[[[-4.54115,48.65536],[-4.54115,48.65514],[-4.54087,48.65521],[-4.54115,48.65536]]],[[[-4.34372,48.68402],[-4.34365,48.6843],[-4.34383,48.68415],[-4.34372,48.68402]]],[[[-4.34276,48.68384],[-4.34255,48.68382],[-4.34269,48.68397],[-4.34276,48.68384]]],[[[-4.64506,48.5902],[-4.64548,48.59097],[-4.64585,48.5907],[-4.64506,48.5902]]],[[[-4.61858,48.59945],[-4.6185,48.59848],[-4.61764,48.59837],[-4.61858,48.59945]]],[[[-4.86452,48.34781],[-4.86459,48.34779],[-4.86451,48.34778],[-4.86452,48.34781]]],[[[-5.12822,48.46072],[-5.12827,48.46068],[-5.1281,48.46075],[-5.12822,48.46072]]],[[[-5.13102,48.44803],[-5.13092,48.44802],[-5.13095,48.44807],[-5.13102,48.44803]]],[[[-5.13382,48.45984],[-5.13391,48.45977],[-5.13377,48.45984],[-5.13382,48.45984]]],[[[-5.14374,48.44855],[-5.14369,48.44867],[-5.14376,48.44864],[-5.14374,48.44855]]],[[[-5.13061,48.44923],[-5.13059,48.44918],[-5.13054,48.44923],[-5.13061,48.44923]]],[[[-5.1422,48.45396],[-5.14209,48.45379],[-5.14206,48.45383],[-5.1422,48.45396]]],[[[-5.12577,48.44988],[-5.12567,48.44988],[-5.12574,48.44993],[-5.12577,48.44988]]],[[[-5.13076,48.44926],[-5.13085,48.44927],[-5.13083,48.44923],[-5.13076,48.44926]]],[[[-5.12058,48.45223],[-5.12049,48.45226],[-5.12054,48.4523],[-5.12058,48.45223]]],[[[-4.97416,48.41789],[-4.97423,48.41786],[-4.97415,48.41779],[-4.97416,48.41789]]],[[[-5.01198,48.43139],[-5.01182,48.43149],[-5.01198,48.43153],[-5.01198,48.43139]]],[[[-4.96054,48.4021],[-4.96062,48.40207],[-4.96058,48.40204],[-4.96054,48.4021]]],[[[-4.95915,48.40166],[-4.95916,48.40159],[-4.95907,48.40161],[-4.95915,48.40166]]],[[[-4.94663,48.408],[-4.94669,48.408],[-4.94665,48.40793],[-4.94663,48.408]]],[[[-5.02051,48.41863],[-5.02059,48.41867],[-5.02061,48.41861],[-5.02051,48.41863]]],[[[-5.02079,48.41773],[-5.02086,48.41772],[-5.02085,48.41769],[-5.02079,48.41773]]],[[[-4.99868,48.41572],[-4.99874,48.4157],[-4.99868,48.41566],[-4.99868,48.41572]]],[[[-5.00874,48.43109],[-5.00868,48.43115],[-5.00871,48.43116],[-5.00874,48.43109]]],[[[-4.87992,48.31753],[-4.87999,48.31752],[-4.87988,48.31751],[-4.87992,48.31753]]],[[[-4.50673,48.62496],[-4.50644,48.62506],[-4.5067,48.62519],[-4.50673,48.62496]]],[[[-4.57694,48.63188],[-4.57721,48.63144],[-4.57675,48.63136],[-4.57694,48.63188]]],[[[-4.57233,48.63706],[-4.57158,48.63726],[-4.57243,48.63722],[-4.57233,48.63706]]],[[[-4.53825,48.6515],[-4.53797,48.65124],[-4.53774,48.65164],[-4.53825,48.6515]]],[[[-4.34515,48.67872],[-4.34475,48.67881],[-4.34523,48.67912],[-4.34515,48.67872]]],[[[-4.94728,48.41169],[-4.94731,48.4116],[-4.94721,48.4116],[-4.94728,48.41169]]],[[[-4.88079,48.30332],[-4.88089,48.30324],[-4.88076,48.30319],[-4.88079,48.30332]]],[[[-4.70259,48.57492],[-4.70351,48.57479],[-4.70296,48.57459],[-4.70259,48.57492]]],[[[-5.14093,48.45023],[-5.14098,48.4502],[-5.1409,48.45017],[-5.14093,48.45023]]],[[[-5.12671,48.4608],[-5.12669,48.4607],[-5.12661,48.46082],[-5.12671,48.4608]]],[[[-5.10707,48.46689],[-5.10714,48.46683],[-5.10708,48.46682],[-5.10707,48.46689]]],[[[-5.10938,48.46588],[-5.10936,48.46582],[-5.10928,48.46586],[-5.10938,48.46588]]],[[[-5.14071,48.45266],[-5.14057,48.45259],[-5.14058,48.45265],[-5.14071,48.45266]]],[[[-5.13926,48.44805],[-5.13939,48.44801],[-5.13929,48.44798],[-5.13926,48.44805]]],[[[-5.12797,48.44966],[-5.12795,48.44964],[-5.12788,48.44969],[-5.12797,48.44966]]],[[[-5.12664,48.44968],[-5.12668,48.44954],[-5.12653,48.4496],[-5.12664,48.44968]]],[[[-4.97784,48.42675],[-4.97793,48.4267],[-4.9778,48.42665],[-4.97784,48.42675]]],[[[-5.01338,48.43144],[-5.01332,48.43141],[-5.01332,48.43148],[-5.01338,48.43144]]],[[[-5.0086,48.43141],[-5.0085,48.43144],[-5.00858,48.43148],[-5.0086,48.43141]]],[[[-4.95215,48.40306],[-4.95208,48.40307],[-4.95219,48.40311],[-4.95215,48.40306]]],[[[-5.00518,48.41282],[-5.00522,48.41277],[-5.00508,48.41279],[-5.00518,48.41282]]],[[[-5.01551,48.42345],[-5.01559,48.42344],[-5.0155,48.42338],[-5.01551,48.42345]]],[[[-4.87906,48.31778],[-4.87905,48.3177],[-4.87897,48.31774],[-4.87906,48.31778]]],[[[-4.522,48.64694],[-4.52197,48.64676],[-4.52146,48.64683],[-4.522,48.64694]]],[[[-4.63916,48.5809],[-4.63895,48.58212],[-4.63983,48.58173],[-4.63916,48.5809]]],[[[-4.95851,48.40346],[-4.9584,48.40331],[-4.95831,48.40338],[-4.95851,48.40346]]],[[[-4.87354,48.34401],[-4.87362,48.34401],[-4.8735,48.34395],[-4.87354,48.34401]]],[[[-4.8868,48.37768],[-4.88678,48.37761],[-4.88671,48.37766],[-4.8868,48.37768]]],[[[-5.11798,48.46375],[-5.11793,48.46372],[-5.11791,48.46377],[-5.11798,48.46375]]],[[[-5.14105,48.45332],[-5.14117,48.45323],[-5.14105,48.45328],[-5.14105,48.45332]]],[[[-5.1419,48.45012],[-5.14197,48.45019],[-5.14194,48.45009],[-5.1419,48.45012]]],[[[-5.13531,48.44835],[-5.13528,48.44843],[-5.13536,48.44843],[-5.13531,48.44835]]],[[[-5.13512,48.45562],[-5.13522,48.45565],[-5.13512,48.45553],[-5.13512,48.45562]]],[[[-5.05245,48.47778],[-5.05254,48.47775],[-5.05245,48.47771],[-5.05245,48.47778]]],[[[-5.05118,48.47695],[-5.05141,48.47694],[-5.05115,48.47685],[-5.05118,48.47695]]],[[[-5.01791,48.43686],[-5.01782,48.4368],[-5.0178,48.43695],[-5.01791,48.43686]]],[[[-5.02271,48.41801],[-5.02262,48.41803],[-5.02267,48.41807],[-5.02271,48.41801]]],[[[-4.57022,48.63609],[-4.56973,48.63585],[-4.56937,48.63654],[-4.57022,48.63609]]],[[[-4.56327,48.63604],[-4.56297,48.63637],[-4.56335,48.63653],[-4.56327,48.63604]]],[[[-4.57276,48.6297],[-4.57231,48.62897],[-4.57197,48.62944],[-4.57276,48.6297]]],[[[-4.32212,48.33321],[-4.32288,48.33298],[-4.32231,48.33284],[-4.32212,48.33321]]],[[[-4.69776,48.57302],[-4.69768,48.57322],[-4.69795,48.57313],[-4.69776,48.57302]]],[[[-4.86293,48.37186],[-4.86302,48.37192],[-4.8629,48.37177],[-4.86293,48.37186]]],[[[-5.14364,48.45354],[-5.1438,48.45365],[-5.14379,48.45353],[-5.14364,48.45354]]],[[[-5.13948,48.45634],[-5.13942,48.45621],[-5.13935,48.45624],[-5.13948,48.45634]]],[[[-5.12296,48.46271],[-5.12291,48.46264],[-5.12285,48.46273],[-5.12296,48.46271]]],[[[-5.14014,48.45296],[-5.1399,48.45281],[-5.13992,48.4529],[-5.14014,48.45296]]],[[[-5.0735,48.48446],[-5.07343,48.48439],[-5.07355,48.48456],[-5.0735,48.48446]]],[[[-5.0951,48.47364],[-5.09515,48.47373],[-5.0952,48.47363],[-5.0951,48.47364]]],[[[-5.07087,48.47896],[-5.07101,48.47895],[-5.07072,48.47894],[-5.07087,48.47896]]],[[[-5.06539,48.48209],[-5.0654,48.48221],[-5.06559,48.48212],[-5.06539,48.48209]]],[[[-4.98452,48.41356],[-4.98461,48.41351],[-4.9845,48.41345],[-4.98452,48.41356]]],[[[-4.94247,48.40899],[-4.94253,48.40897],[-4.94246,48.40894],[-4.94247,48.40899]]],[[[-5.01901,48.42189],[-5.01893,48.42189],[-5.01898,48.42198],[-5.01901,48.42189]]],[[[-4.99447,48.42636],[-4.99441,48.42648],[-4.99455,48.42652],[-4.99447,48.42636]]],[[[-4.95223,48.40335],[-4.95214,48.40336],[-4.95221,48.40342],[-4.95223,48.40335]]],[[[-4.95007,48.40574],[-4.94978,48.40566],[-4.94986,48.40575],[-4.95007,48.40574]]],[[[-5.00909,48.42909],[-5.00914,48.42904],[-5.00904,48.42903],[-5.00909,48.42909]]],[[[-4.49003,48.62716],[-4.48975,48.62783],[-4.49022,48.62755],[-4.49003,48.62716]]],[[[-4.52628,48.64983],[-4.52541,48.64964],[-4.52566,48.64985],[-4.52628,48.64983]]],[[[-4.35085,48.68013],[-4.35072,48.67993],[-4.35065,48.68006],[-4.35085,48.68013]]],[[[-4.66444,48.57865],[-4.66395,48.58017],[-4.66563,48.58007],[-4.66444,48.57865]]],[[[-4.95773,48.40431],[-4.95763,48.4042],[-4.95756,48.40426],[-4.95773,48.40431]]],[[[-4.86461,48.34793],[-4.86448,48.348],[-4.86459,48.348],[-4.86461,48.34793]]],[[[-4.88047,48.37157],[-4.88056,48.37147],[-4.88039,48.37159],[-4.88047,48.37157]]],[[[-5.13268,48.45992],[-5.13261,48.45981],[-5.13255,48.45992],[-5.13268,48.45992]]],[[[-5.1385,48.44701],[-5.13857,48.44699],[-5.13832,48.4469],[-5.1385,48.44701]]],[[[-5.13465,48.45535],[-5.13471,48.45529],[-5.1346,48.45528],[-5.13465,48.45535]]],[[[-5.14123,48.45056],[-5.14121,48.45041],[-5.1411,48.45039],[-5.14123,48.45056]]],[[[-5.10923,48.46906],[-5.10913,48.4691],[-5.10928,48.46924],[-5.10923,48.46906]]],[[[-5.14152,48.45138],[-5.14167,48.45138],[-5.14159,48.45125],[-5.14152,48.45138]]],[[[-5.14396,48.44982],[-5.14389,48.44972],[-5.14385,48.44982],[-5.14396,48.44982]]],[[[-4.97796,48.41012],[-4.97813,48.41008],[-4.97808,48.40999],[-4.97796,48.41012]]],[[[-4.98777,48.41462],[-4.98784,48.41455],[-4.98772,48.41453],[-4.98777,48.41462]]],[[[-4.89506,48.31645],[-4.89527,48.31646],[-4.89524,48.31637],[-4.89506,48.31645]]],[[[-4.50629,48.62528],[-4.50538,48.6255],[-4.50584,48.62564],[-4.50629,48.62528]]],[[[-4.50686,48.62592],[-4.50722,48.62524],[-4.5066,48.62529],[-4.50686,48.62592]]],[[[-4.96936,48.4047],[-4.96954,48.40464],[-4.96936,48.40462],[-4.96936,48.4047]]],[[[-5.12101,48.4627],[-5.1211,48.46271],[-5.12107,48.46264],[-5.12101,48.4627]]],[[[-5.1387,48.44817],[-5.13884,48.44825],[-5.13886,48.44811],[-5.1387,48.44817]]],[[[-5.14332,48.44903],[-5.14323,48.44899],[-5.14321,48.44911],[-5.14332,48.44903]]],[[[-5.05746,48.47142],[-5.05731,48.47148],[-5.05737,48.47151],[-5.05746,48.47142]]],[[[-5.13756,48.45549],[-5.13747,48.45547],[-5.1375,48.45558],[-5.13756,48.45549]]],[[[-5.13768,48.45547],[-5.13777,48.45541],[-5.13759,48.45532],[-5.13768,48.45547]]],[[[-5.10808,48.47266],[-5.1082,48.47273],[-5.10822,48.47267],[-5.10808,48.47266]]],[[[-5.10995,48.46844],[-5.10984,48.46835],[-5.10976,48.46837],[-5.10995,48.46844]]],[[[-5.00885,48.42916],[-5.00899,48.42909],[-5.00883,48.4291],[-5.00885,48.42916]]],[[[-4.89478,48.31667],[-4.89482,48.31675],[-4.89509,48.31683],[-4.89478,48.31667]]],[[[-4.62115,48.59997],[-4.62224,48.60159],[-4.62373,48.60089],[-4.62115,48.59997]]],[[[-4.5711,48.6206],[-4.57131,48.62283],[-4.57338,48.6214],[-4.5711,48.6206]]],[[[-4.56162,48.62756],[-4.56289,48.62657],[-4.56225,48.62603],[-4.56162,48.62756]]],[[[-5.12204,48.46298],[-5.12184,48.46302],[-5.12204,48.46305],[-5.12204,48.46298]]],[[[-5.07186,48.4797],[-5.07198,48.47958],[-5.07177,48.47958],[-5.07186,48.4797]]],[[[-4.94451,48.4058],[-4.94435,48.40574],[-4.94442,48.40591],[-4.94451,48.4058]]],[[[-4.98691,48.4209],[-4.98713,48.42094],[-4.98692,48.42079],[-4.98691,48.4209]]],[[[-5.00991,48.42625],[-5.0099,48.42612],[-5.00981,48.42616],[-5.00991,48.42625]]],[[[-4.97364,48.39733],[-4.97356,48.39723],[-4.97351,48.39732],[-4.97364,48.39733]]],[[[-4.88032,48.30654],[-4.88057,48.30654],[-4.88047,48.30644],[-4.88032,48.30654]]],[[[-4.47774,48.64078],[-4.47738,48.64082],[-4.47773,48.64101],[-4.47774,48.64078]]],[[[-4.89522,48.39503],[-4.89504,48.39499],[-4.89509,48.39507],[-4.89522,48.39503]]],[[[-5.12713,48.46129],[-5.12722,48.46116],[-5.1271,48.46115],[-5.12713,48.46129]]],[[[-5.14386,48.44849],[-5.14396,48.44841],[-5.1439,48.44838],[-5.14386,48.44849]]],[[[-5.1407,48.44728],[-5.14077,48.44722],[-5.14067,48.44721],[-5.1407,48.44728]]],[[[-5.10601,48.47304],[-5.10606,48.47327],[-5.10619,48.47327],[-5.10601,48.47304]]],[[[-5.09622,48.4754],[-5.09608,48.47547],[-5.09637,48.4755],[-5.09622,48.4754]]],[[[-5.00242,48.43245],[-5.00254,48.43241],[-5.00238,48.43233],[-5.00242,48.43245]]],[[[-4.95171,48.40405],[-4.95146,48.40393],[-4.95147,48.40399],[-4.95171,48.40405]]],[[[-4.94013,48.37843],[-4.94021,48.37832],[-4.94004,48.37833],[-4.94013,48.37843]]],[[[-5.01803,48.4187],[-5.01773,48.41866],[-5.01807,48.41881],[-5.01803,48.4187]]],[[[-5.0256,48.43741],[-5.02579,48.4374],[-5.02575,48.43729],[-5.0256,48.43741]]],[[[-5.00958,48.42745],[-5.00912,48.4274],[-5.00936,48.4275],[-5.00958,48.42745]]],[[[-5.01048,48.42599],[-5.01036,48.42586],[-5.01025,48.42591],[-5.01048,48.42599]]],[[[-4.835,48.31938],[-4.83513,48.3193],[-4.83483,48.31919],[-4.835,48.31938]]],[[[-4.88045,48.30687],[-4.88063,48.30677],[-4.8804,48.30677],[-4.88045,48.30687]]],[[[-4.50669,48.62492],[-4.50673,48.62471],[-4.50608,48.62457],[-4.50669,48.62492]]],[[[-4.35081,48.67869],[-4.35087,48.6785],[-4.3506,48.67859],[-4.35081,48.67869]]],[[[-4.87275,48.34383],[-4.87286,48.34377],[-4.87277,48.34371],[-4.87275,48.34383]]],[[[-5.14035,48.44814],[-5.14053,48.4482],[-5.14053,48.44808],[-5.14035,48.44814]]],[[[-5.0962,48.47534],[-5.09637,48.47532],[-5.09617,48.47527],[-5.0962,48.47534]]],[[[-5.09548,48.47444],[-5.09554,48.47463],[-5.09569,48.47446],[-5.09548,48.47444]]],[[[-5.09124,48.47652],[-5.09105,48.47664],[-5.09112,48.4767],[-5.09124,48.47652]]],[[[-5.01223,48.42408],[-5.01221,48.42415],[-5.01239,48.4242],[-5.01223,48.42408]]],[[[-4.9352,48.38437],[-4.9353,48.38442],[-4.93538,48.38437],[-4.9352,48.38437]]],[[[-5.00722,48.41601],[-5.0072,48.4159],[-5.00704,48.416],[-5.00722,48.41601]]],[[[-4.88014,48.31928],[-4.88031,48.31923],[-4.88027,48.31909],[-4.88014,48.31928]]],[[[-4.34713,48.67976],[-4.34706,48.67913],[-4.34662,48.67929],[-4.34713,48.67976]]],[[[-4.46254,48.32283],[-4.46164,48.32354],[-4.46342,48.32441],[-4.46254,48.32283]]],[[[-4.57152,48.62358],[-4.57087,48.62389],[-4.57209,48.62472],[-4.57152,48.62358]]],[[[-4.86348,48.34501],[-4.86353,48.3451],[-4.86374,48.34502],[-4.86348,48.34501]]],[[[-4.88372,48.37106],[-4.88392,48.37095],[-4.88367,48.37094],[-4.88372,48.37106]]],[[[-5.11127,48.47188],[-5.11145,48.4719],[-5.11151,48.47177],[-5.11127,48.47188]]],[[[-5.14097,48.44747],[-5.14092,48.44734],[-5.14084,48.44736],[-5.14097,48.44747]]],[[[-5.14223,48.45413],[-5.14212,48.45395],[-5.14184,48.45383],[-5.14223,48.45413]]],[[[-5.10952,48.47158],[-5.10942,48.47162],[-5.10957,48.47178],[-5.10952,48.47158]]],[[[-5.14107,48.45211],[-5.14089,48.45198],[-5.14083,48.45209],[-5.14107,48.45211]]],[[[-5.01351,48.4243],[-5.0136,48.42436],[-5.01366,48.42428],[-5.01351,48.4243]]],[[[-4.95942,48.40173],[-4.95959,48.40169],[-4.95927,48.40164],[-4.95942,48.40173]]],[[[-4.96472,48.41955],[-4.96456,48.41944],[-4.96452,48.41964],[-4.96472,48.41955]]],[[[-5.02201,48.41833],[-5.02225,48.41841],[-5.02229,48.41829],[-5.02201,48.41833]]],[[[-5.01367,48.43017],[-5.01379,48.43016],[-5.01361,48.43008],[-5.01367,48.43017]]],[[[-4.97664,48.39429],[-4.97671,48.39412],[-4.97646,48.39432],[-4.97664,48.39429]]],[[[-5.01925,48.42189],[-5.01917,48.42198],[-5.01937,48.42203],[-5.01925,48.42189]]],[[[-4.78999,48.36193],[-4.7897,48.362],[-4.78999,48.36206],[-4.78999,48.36193]]],[[[-4.60418,48.61449],[-4.60486,48.61512],[-4.60457,48.6141],[-4.60418,48.61449]]],[[[-4.64068,48.58553],[-4.6398,48.58874],[-4.64082,48.59052],[-4.64068,48.58553]]],[[[-4.70199,48.5725],[-4.70281,48.57281],[-4.70223,48.57221],[-4.70199,48.5725]]],[[[-5.11326,48.47042],[-5.11348,48.47052],[-5.11349,48.47038],[-5.11326,48.47042]]],[[[-4.97193,48.41573],[-4.9721,48.41572],[-4.97187,48.41565],[-4.97193,48.41573]]],[[[-4.97658,48.42663],[-4.97643,48.42665],[-4.97652,48.42676],[-4.97658,48.42663]]],[[[-4.82327,48.31843],[-4.82317,48.3185],[-4.82334,48.31865],[-4.82327,48.31843]]],[[[-4.88056,48.3182],[-4.88103,48.31828],[-4.88087,48.31805],[-4.88056,48.3182]]],[[[-4.99167,48.41319],[-4.99181,48.41325],[-4.99158,48.41308],[-4.99167,48.41319]]],[[[-4.61609,48.60187],[-4.61642,48.60203],[-4.61629,48.6018],[-4.61609,48.60187]]],[[[-4.97227,48.4036],[-4.97219,48.4034],[-4.97199,48.40352],[-4.97227,48.4036]]],[[[-4.86342,48.34526],[-4.86369,48.34542],[-4.86371,48.34526],[-4.86342,48.34526]]],[[[-4.89279,48.37323],[-4.89272,48.37307],[-4.89263,48.37315],[-4.89279,48.37323]]],[[[-4.88007,48.37001],[-4.8801,48.3698],[-4.87991,48.36986],[-4.88007,48.37001]]],[[[-5.13383,48.45809],[-5.1336,48.45812],[-5.1338,48.45821],[-5.13383,48.45809]]],[[[-5.13455,48.45557],[-5.13433,48.45574],[-5.13447,48.45582],[-5.13455,48.45557]]],[[[-5.11586,48.46519],[-5.11581,48.46532],[-5.11598,48.46526],[-5.11586,48.46519]]],[[[-5.14091,48.451],[-5.14075,48.45099],[-5.1408,48.45116],[-5.14091,48.451]]],[[[-5.11917,48.45202],[-5.11917,48.45221],[-5.11935,48.45211],[-5.11917,48.45202]]],[[[-5.13372,48.45929],[-5.13366,48.45944],[-5.13392,48.45922],[-5.13372,48.45929]]],[[[-5.0133,48.43109],[-5.01344,48.431],[-5.01331,48.43091],[-5.0133,48.43109]]],[[[-4.9692,48.40495],[-4.96933,48.40485],[-4.96921,48.40478],[-4.9692,48.40495]]],[[[-4.77842,48.49235],[-4.77822,48.49178],[-4.77722,48.4926],[-4.77842,48.49235]]],[[[-4.58309,48.60174],[-4.58108,48.60177],[-4.58037,48.60243],[-4.58309,48.60174]]],[[[-4.86228,48.37314],[-4.86204,48.37321],[-4.86209,48.3733],[-4.86228,48.37314]]],[[[-5.13431,48.45899],[-5.13446,48.45896],[-5.13432,48.45881],[-5.13431,48.45899]]],[[[-5.09003,48.47631],[-5.08984,48.47642],[-5.09011,48.47637],[-5.09003,48.47631]]],[[[-4.97505,48.41991],[-4.97489,48.41999],[-4.97521,48.42003],[-4.97505,48.41991]]],[[[-4.34136,48.67823],[-4.34057,48.67832],[-4.34194,48.67915],[-4.34136,48.67823]]],[[[-4.34952,48.6819],[-4.34903,48.68106],[-4.34859,48.68138],[-4.34952,48.6819]]],[[[-4.67022,48.58312],[-4.67136,48.58364],[-4.67062,48.58232],[-4.67022,48.58312]]],[[[-4.87935,48.36965],[-4.87945,48.3694],[-4.87898,48.36952],[-4.87935,48.36965]]],[[[-5.14103,48.451],[-5.14098,48.45111],[-5.14116,48.45125],[-5.14103,48.451]]],[[[-5.00885,48.42679],[-5.00848,48.42675],[-5.00872,48.42684],[-5.00885,48.42679]]],[[[-4.87783,48.31817],[-4.8777,48.31825],[-4.87801,48.31835],[-4.87783,48.31817]]],[[[-4.33595,48.31287],[-4.33946,48.31298],[-4.33797,48.31208],[-4.33595,48.31287]]],[[[-4.86415,48.3479],[-4.86434,48.34791],[-4.86428,48.34778],[-4.86415,48.3479]]],[[[-5.14174,48.45297],[-5.14198,48.45289],[-5.14172,48.45278],[-5.14174,48.45297]]],[[[-4.96926,48.41195],[-4.96954,48.41184],[-4.96922,48.41182],[-4.96926,48.41195]]],[[[-5.02091,48.41863],[-5.02121,48.41851],[-5.02111,48.41836],[-5.02091,48.41863]]],[[[-4.8881,48.37391],[-4.88757,48.374],[-4.88798,48.37416],[-4.8881,48.37391]]],[[[-5.12633,48.46201],[-5.12654,48.46219],[-5.1265,48.46199],[-5.12633,48.46201]]],[[[-5.14229,48.44877],[-5.14206,48.44875],[-5.14215,48.44892],[-5.14229,48.44877]]],[[[-5.02307,48.41844],[-5.02265,48.41865],[-5.02297,48.41864],[-5.02307,48.41844]]],[[[-4.78741,48.43781],[-4.78966,48.43853],[-4.78959,48.43796],[-4.78741,48.43781]]],[[[-5.10928,48.46894],[-5.10947,48.46905],[-5.10952,48.46884],[-5.10928,48.46894]]],[[[-5.11818,48.46379],[-5.11792,48.46386],[-5.11821,48.46393],[-5.11818,48.46379]]],[[[-4.57768,48.61319],[-4.57952,48.61411],[-4.58065,48.61287],[-4.57768,48.61319]]],[[[-4.93925,48.38997],[-4.9382,48.38945],[-4.93791,48.38986],[-4.93925,48.38997]]],[[[-5.14351,48.44912],[-5.14375,48.44918],[-5.14366,48.44908],[-5.14351,48.44912]]],[[[-5.12117,48.45191],[-5.12102,48.45162],[-5.12094,48.45169],[-5.12117,48.45191]]],[[[-5.10012,48.47304],[-5.10013,48.47291],[-5.09981,48.47314],[-5.10012,48.47304]]],[[[-5.10725,48.47254],[-5.10702,48.47254],[-5.1074,48.47265],[-5.10725,48.47254]]],[[[-4.5014,48.62449],[-4.50072,48.62427],[-4.50134,48.62554],[-4.5014,48.62449]]],[[[-4.56096,48.6313],[-4.56047,48.63001],[-4.56029,48.63134],[-4.56096,48.6313]]],[[[-5.14256,48.45044],[-5.14291,48.45066],[-5.14294,48.45052],[-5.14256,48.45044]]],[[[-5.14278,48.45436],[-5.14267,48.45401],[-5.14241,48.45397],[-5.14278,48.45436]]],[[[-5.13465,48.45566],[-5.13467,48.45595],[-5.13483,48.45591],[-5.13465,48.45566]]],[[[-5.13413,48.44847],[-5.13445,48.44857],[-5.13428,48.4483],[-5.13413,48.44847]]],[[[-5.09285,48.4757],[-5.09278,48.47586],[-5.09303,48.47578],[-5.09285,48.4757]]],[[[-5.13359,48.45994],[-5.13372,48.45987],[-5.1334,48.45994],[-5.13359,48.45994]]],[[[-4.8818,48.30623],[-4.88218,48.30624],[-4.88211,48.30611],[-4.8818,48.30623]]],[[[-4.46301,48.63789],[-4.46396,48.63903],[-4.46438,48.63852],[-4.46301,48.63789]]],[[[-4.97176,48.39182],[-4.97213,48.39176],[-4.97157,48.39156],[-4.97176,48.39182]]],[[[-4.70178,48.57495],[-4.70035,48.57617],[-4.70091,48.57644],[-4.70178,48.57495]]],[[[-5.13417,48.4591],[-5.13435,48.45907],[-5.13405,48.45903],[-5.13417,48.4591]]],[[[-5.11015,48.47211],[-5.11011,48.47233],[-5.11032,48.47225],[-5.11015,48.47211]]],[[[-5.14311,48.44945],[-5.14297,48.44955],[-5.14307,48.44971],[-5.14311,48.44945]]],[[[-5.14205,48.45426],[-5.14198,48.45406],[-5.14181,48.45417],[-5.14205,48.45426]]],[[[-5.01635,48.43739],[-5.01607,48.4373],[-5.016,48.4376],[-5.01635,48.43739]]],[[[-4.99926,48.41254],[-4.99951,48.41266],[-4.99937,48.41244],[-4.99926,48.41254]]],[[[-4.69867,48.57498],[-4.69778,48.57482],[-4.6979,48.57527],[-4.69867,48.57498]]],[[[-4.8861,48.37079],[-4.88635,48.37078],[-4.886,48.37058],[-4.8861,48.37079]]],[[[-5.11005,48.47083],[-5.11032,48.47095],[-5.11029,48.47074],[-5.11005,48.47083]]],[[[-5.10978,48.47132],[-5.10963,48.47144],[-5.11002,48.47153],[-5.10978,48.47132]]],[[[-5.14383,48.45421],[-5.14394,48.45399],[-5.14344,48.45396],[-5.14383,48.45421]]],[[[-5.00967,48.42727],[-5.00941,48.42717],[-5.00938,48.42731],[-5.00967,48.42727]]],[[[-4.9707,48.41174],[-4.9709,48.41164],[-4.97075,48.41148],[-4.9707,48.41174]]],[[[-4.96341,48.40271],[-4.96338,48.40284],[-4.96384,48.40288],[-4.96341,48.40271]]],[[[-5.00186,48.43147],[-5.00172,48.43152],[-5.00203,48.43151],[-5.00186,48.43147]]],[[[-5.00899,48.43115],[-5.00878,48.43114],[-5.00908,48.43132],[-5.00899,48.43115]]],[[[-4.77597,48.527],[-4.77356,48.53068],[-4.77723,48.53008],[-4.77597,48.527]]],[[[-4.57561,48.61419],[-4.57386,48.61644],[-4.57485,48.61884],[-4.57561,48.61419]]],[[[-4.55569,48.62722],[-4.55188,48.62819],[-4.55887,48.63012],[-4.55569,48.62722]]],[[[-5.13393,48.45945],[-5.13395,48.45964],[-5.13411,48.45951],[-5.13393,48.45945]]],[[[-5.13126,48.44823],[-5.13149,48.44808],[-5.13126,48.44794],[-5.13126,48.44823]]],[[[-4.34783,48.67924],[-4.34764,48.67968],[-4.34818,48.67971],[-4.34783,48.67924]]],[[[-4.56892,48.63704],[-4.56592,48.63915],[-4.57221,48.63807],[-4.56892,48.63704]]],[[[-4.93805,48.38031],[-4.93837,48.38027],[-4.93809,48.38018],[-4.93805,48.38031]]],[[[-5.14233,48.44785],[-5.14261,48.44795],[-5.1427,48.44785],[-5.14233,48.44785]]],[[[-5.10548,48.47294],[-5.10497,48.47314],[-5.10514,48.47318],[-5.10548,48.47294]]],[[[-4.59173,48.62175],[-4.59101,48.6217],[-4.59037,48.62351],[-4.59173,48.62175]]],[[[-5.1268,48.46119],[-5.12663,48.46134],[-5.12707,48.46129],[-5.1268,48.46119]]],[[[-5.01124,48.42304],[-5.01114,48.42279],[-5.01105,48.42286],[-5.01124,48.42304]]],[[[-4.98365,48.42052],[-4.98334,48.42062],[-4.98393,48.42073],[-4.98365,48.42052]]],[[[-4.87865,48.31772],[-4.87897,48.31738],[-4.87857,48.31749],[-4.87865,48.31772]]],[[[-4.5724,48.60445],[-4.56905,48.60668],[-4.57441,48.61148],[-4.5724,48.60445]]],[[[-5.11286,48.47103],[-5.11247,48.47111],[-5.11324,48.47106],[-5.11286,48.47103]]],[[[-5.11338,48.4711],[-5.11294,48.47148],[-5.11318,48.47162],[-5.11338,48.4711]]],[[[-5.13831,48.44745],[-5.13843,48.4473],[-5.13805,48.4473],[-5.13831,48.44745]]],[[[-5.14257,48.45365],[-5.14245,48.45381],[-5.14279,48.45399],[-5.14257,48.45365]]],[[[-5.12721,48.44956],[-5.12732,48.44931],[-5.12719,48.44925],[-5.12721,48.44956]]],[[[-4.97834,48.39985],[-4.97879,48.39968],[-4.97866,48.39947],[-4.97834,48.39985]]],[[[-4.59316,48.62226],[-4.59199,48.62552],[-4.59403,48.62601],[-4.59316,48.62226]]],[[[-4.43572,48.6564],[-4.4375,48.65868],[-4.43855,48.65747],[-4.43572,48.6564]]],[[[-5.14203,48.44918],[-5.14162,48.44899],[-5.14161,48.44921],[-5.14203,48.44918]]],[[[-5.114,48.47121],[-5.11408,48.47143],[-5.11426,48.47101],[-5.114,48.47121]]],[[[-5.01271,48.4245],[-5.01313,48.42465],[-5.01312,48.42443],[-5.01271,48.4245]]],[[[-4.97157,48.39224],[-4.97196,48.39201],[-4.97124,48.39154],[-4.97087,48.39188],[-4.97157,48.39224]]],[[[-4.45807,48.63802],[-4.45767,48.63953],[-4.45907,48.63825],[-4.45807,48.63802]]],[[[-4.88143,48.37153],[-4.88168,48.37138],[-4.88063,48.37101],[-4.88143,48.37153]]],[[[-4.88808,48.37462],[-4.88866,48.37439],[-4.88806,48.37432],[-4.88808,48.37462]]],[[[-4.94102,48.37786],[-4.9415,48.3779],[-4.94132,48.37775],[-4.94102,48.37786]]],[[[-5.03243,48.46324],[-5.0327,48.4634],[-5.03276,48.46283],[-5.03243,48.46324]]],[[[-5.14402,48.45463],[-5.14338,48.45428],[-5.14379,48.45469],[-5.14402,48.45463]]],[[[-4.34961,48.6777],[-4.34897,48.6776],[-4.34984,48.67832],[-4.34961,48.6777]]],[[[-5.06588,48.48222],[-5.06572,48.48248],[-5.06609,48.4827],[-5.06588,48.48222]]],[[[-5.01884,48.42172],[-5.01843,48.42165],[-5.01846,48.42185],[-5.01884,48.42172]]],[[[-5.13391,48.45673],[-5.13349,48.45719],[-5.1339,48.45707],[-5.13391,48.45673]]],[[[-4.5041,48.63146],[-4.50085,48.63281],[-4.50332,48.633],[-4.5041,48.63146]]],[[[-4.67963,48.57984],[-4.68196,48.5808],[-4.68206,48.58002],[-4.67963,48.57984]]],[[[-4.72754,48.56542],[-4.73262,48.56483],[-4.72421,48.56478],[-4.72754,48.56542]]],[[[-4.77872,48.48577],[-4.77625,48.48363],[-4.77699,48.48665],[-4.77872,48.48577]]],[[[-4.97507,48.41823],[-4.97523,48.41836],[-4.97479,48.41796],[-4.97507,48.41823]]],[[[-5.10569,48.47301],[-5.10511,48.47337],[-5.10537,48.4736],[-5.10569,48.47301]]],[[[-4.69292,48.57439],[-4.69215,48.57613],[-4.6942,48.57461],[-4.69292,48.57439]]],[[[-5.12193,48.45158],[-5.12231,48.4514],[-5.12231,48.45095],[-5.12193,48.45158]]],[[[-5.01999,48.41834],[-5.02076,48.41795],[-5.02032,48.41765],[-5.01999,48.41834]]],[[[-5.10001,48.47365],[-5.09957,48.47383],[-5.1005,48.47395],[-5.10001,48.47365]]],[[[-4.93867,48.37839],[-4.93798,48.37869],[-4.93881,48.37981],[-4.93867,48.37839]]],[[[-4.6129,48.59285],[-4.61261,48.59338],[-4.61343,48.59332],[-4.6129,48.59285]]],[[[-4.67767,48.58034],[-4.67664,48.57817],[-4.67426,48.57803],[-4.67767,48.58034]]],[[[-5.03328,48.46395],[-5.03359,48.46438],[-5.03419,48.46425],[-5.03328,48.46395]]],[[[-5.11186,48.47083],[-5.11307,48.47071],[-5.1129,48.47029],[-5.11186,48.47083]]],[[[-4.87877,48.31931],[-4.87868,48.31891],[-4.87751,48.31893],[-4.87877,48.31931]]],[[[-5.07255,48.48352],[-5.07171,48.48401],[-5.07341,48.48464],[-5.07255,48.48352]]],[[[-4.58529,48.60579],[-4.585,48.60696],[-4.5872,48.60747],[-4.58529,48.60579]]],[[[-4.88805,48.37859],[-4.88726,48.37807],[-4.88826,48.37896],[-4.88805,48.37859]]],[[[-5.06237,48.4809],[-5.061,48.48136],[-5.06312,48.48077],[-5.06237,48.4809]]],[[[-4.94474,48.40605],[-4.94601,48.40581],[-4.946,48.40443],[-4.94474,48.40605]]],[[[-4.78782,48.36937],[-4.78685,48.36902],[-4.78747,48.37],[-4.78782,48.36937]]],[[[-4.57414,48.63562],[-4.57243,48.63315],[-4.57158,48.63456],[-4.57414,48.63562]]],[[[-5.10823,48.47181],[-5.10781,48.4719],[-5.10838,48.47242],[-5.10823,48.47181]]],[[[-5.13292,48.45983],[-5.1337,48.45917],[-5.13276,48.45924],[-5.13292,48.45983]]],[[[-5.10904,48.4707],[-5.10889,48.47149],[-5.10992,48.47068],[-5.10904,48.4707]]],[[[-5.01516,48.4241],[-5.01602,48.42368],[-5.01465,48.42397],[-5.01516,48.4241]]],[[[-5.07601,48.48167],[-5.07768,48.48119],[-5.07517,48.48191],[-5.07601,48.48167]]],[[[-5.11751,48.44555],[-5.11798,48.44498],[-5.11585,48.4457],[-5.11751,48.44555]]],[[[-5.03468,48.46375],[-5.0331,48.46302],[-5.03376,48.46405],[-5.03468,48.46375]]],[[[-5.01665,48.42297],[-5.0181,48.42176],[-5.01628,48.42204],[-5.01665,48.42297]]],[[[-4.97779,48.41874],[-4.97844,48.4175],[-4.97592,48.41862],[-4.97779,48.41874]]],[[[-4.95093,48.39811],[-4.94822,48.40262],[-4.95262,48.40054],[-4.95093,48.39811]]],[[[-4.6158,48.58495],[-4.61563,48.58691],[-4.61952,48.58605],[-4.6158,48.58495]]],[[[-4.88589,48.37431],[-4.8834,48.37421],[-4.88724,48.3773],[-4.88589,48.37431]]],[[[-4.89684,48.38028],[-4.90001,48.3833],[-4.89875,48.37905],[-4.89684,48.38028]]],[[[-4.63505,48.60101],[-4.63748,48.60035],[-4.63354,48.59961],[-4.63505,48.60101]]],[[[-4.90353,48.37391],[-4.90757,48.37416],[-4.89576,48.3722],[-4.90353,48.37391]]],[[[-4.93921,48.37118],[-4.93543,48.37277],[-4.94379,48.37199],[-4.93921,48.37118]]],[[[-4.85507,48.35166],[-4.86368,48.34385],[-4.84282,48.3545],[-4.85507,48.35166]]],[[[-5.1021,48.47906],[-5.09118,48.47849],[-5.10316,48.48274],[-5.1021,48.47906]]],[[[-4.95674,48.40223],[-4.96423,48.39952],[-4.96361,48.39181],[-4.95599,48.39209],[-4.95674,48.40223]]],[[[-5.01059,48.42697],[-5.01048,48.43028],[-5.01352,48.42533],[-5.01059,48.42697]]],[[[-4.98309,48.41658],[-4.9825,48.42054],[-4.98662,48.41446],[-4.98309,48.41658]]],[[[-5.10866,48.44071],[-5.05897,48.45009],[-5.05519,48.4773],[-5.1048,48.4727],[-5.13053,48.46052],[-5.14081,48.44874],[-5.09459,48.45304],[-5.10866,48.44071]]],[[[-4.24999,48.60089],[-4.26284,48.60083],[-4.27292,48.60926],[-4.27193,48.63215],[-4.30052,48.63382],[-4.31204,48.64022],[-4.29583,48.66466],[-4.33978,48.6776],[-4.37374,48.66993],[-4.43174,48.64728],[-4.46273,48.62745],[-4.50261,48.62176],[-4.51299,48.62759],[-4.50812,48.63161],[-4.52122,48.63555],[-4.5456,48.62411],[-4.56599,48.62575],[-4.56834,48.60896],[-4.54177,48.59739],[-4.59448,48.5933],[-4.60868,48.57491],[-4.67079,48.57611],[-4.72828,48.55673],[-4.77946,48.49933],[-4.76194,48.47164],[-4.79508,48.41509],[-4.76102,48.37525],[-4.77945,48.3598],[-4.77351,48.3319],[-4.7143,48.33011],[-4.68155,48.35525],[-4.62607,48.33782],[-4.60595,48.33907],[-4.54814,48.36101],[-4.53547,48.35769],[-4.48594,48.38212],[-4.42776,48.39758],[-4.40238,48.38968],[-4.43717,48.35991],[-4.447,48.32557],[-4.37648,48.32541],[-4.36604,48.3451],[-4.31494,48.33604],[-4.3083,48.31789],[-4.2391,48.30405],[-4.22195,48.29596],[-4.19314,48.2975],[-4.18435,48.30473],[-4.1629,48.30261],[-4.14222,48.32077],[-4.12635,48.32375],[-4.09252,48.31102],[-4.06464,48.313],[-4.052,48.3239],[-4.04576,48.34844],[-4.04942,48.35615],[-4.05746,48.35319],[-4.07727,48.362],[-4.10453,48.40708],[-4.09838,48.41591],[-4.10409,48.43346],[-4.09879,48.45172],[-4.10074,48.46542],[-4.11431,48.46694],[-4.10682,48.48033],[-4.11877,48.49109],[-4.15623,48.48957],[-4.18847,48.47842],[-4.20098,48.48584],[-4.18685,48.49417],[-4.19848,48.50585],[-4.21497,48.49492],[-4.2407,48.51314],[-4.25147,48.56088],[-4.25295,48.56869],[-4.23918,48.57439],[-4.24999,48.60089]]]]}}