{"type":"Feature","properties":{"id":"FRA.39.3","name":"Arcachon","level":2,"country":"FRA"},"geometry":{"type":"MultiPolygon","coordinates":[[[[-1.03603,44.6562],[-1.03562,44.65783],[-1.03656,44.65786],[-1.03603,44.6562]]],[[[-1.25281,44.58852],[-1.23927,44.59558],[-1.24296,44.59624],[-1.25143,44.59323],[-1.25281,44.58852]]],[[[-1.22884,44.59606],[-1.25421,44.57371],[-1.25401,44.56473],[-1.22884,44.59606]]],[[[-1.17267,44.70318],[-1.1879,44.69973],[-1.18144,44.69368],[-1.16892,44.69454],[-1.17267,44.70318]]],[[[-1.05009,44.82353],[-1.08298,44.8287],[-1.14597,44.82414],[-1.16731,44.81339],[-1.2335,44.80575],[-1.26144,44.64616],[-1.23903,44.67324],[-1.22905,44.69987],[-1.17294,44.74561],[-1.16806,44.77407],[-1.09567,44.73631],[-1.03676,44.69385],[-1.05187,44.68322],[-1.01863,44.66865],[-1.03058,44.65373],[-1.07741,44.64213],[-1.10779,44.6489],[-1.14525,44.64584],[-1.15227,44.66301],[-1.19483,44.65909],[-1.20511,44.63904],[-1.21155,44.59914],[-1.25661,44.53392],[-1.25003,44.49693],[-1.25337,44.47123],[-1.107,44.50276],[-1.08513,44.53238],[-1.02656,44.5072],[-0.98747,44.50818],[-0.98056,44.48284],[-1.00701,44.43664],[-1.02928,44.42275],[-0.91763,44.44247],[-0.84309,44.41843],[-0.81099,44.42054],[-0.77936,44.42905],[-0.78052,44.43993],[-0.73048,44.44641],[-0.6927,44.44056],[-0.70582,44.45738],[-0.69504,44.47588],[-0.69905,44.48439],[-0.71605,44.48536],[-0.73984,44.50323],[-0.72871,44.5145],[-0.65421,44.50799],[-0.61783,44.51362],[-0.60565,44.52505],[-0.60178,44.5532],[-0.61584,44.58214],[-0.61888,44.61122],[-0.66311,44.61046],[-0.7298,44.67225],[-0.80948,44.71339],[-0.83747,44.73714],[-0.88172,44.75996],[-0.90492,44.80807],[-0.88499,44.84981],[-0.96777,44.83033],[-1.00624,44.83005],[-1.03975,44.84832],[-1.05009,44.82353]]]]}}