{"type":"Feature","properties":{"id":"FRA.74.5","name":"Cambrai","level":2,"country":"FRA"},"geometry":{"type":"MultiPolygon","coordinates":[[[[3.08903,50.17131],[3.06127,50.17405],[3.03809,50.1594],[3.04051,50.15162],[3.00407,50.15048],[2.99582,50.1403],[3.00215,50.13384],[2.99965,50.11947],[3.02175,50.11563],[3.03705,50.1305],[3.07385,50.13147],[3.06809,50.1472],[3.08903,50.17131]]],[[[3.30949,50.24794],[3.27839,50.25166],[3.25925,50.26669],[3.18273,50.2589],[3.1453,50.26127],[3.14748,50.24666],[3.17295,50.24185],[3.18459,50.22612],[3.17871,50.21895],[3.14098,50.21754],[3.13132,50.19956],[3.15768,50.18399],[3.13251,50.16569],[3.1028,50.16316],[3.11739,50.14704],[3.13481,50.14312],[3.09496,50.12333],[3.11402,50.09261],[3.1049,50.08074],[3.08807,50.08309],[3.08465,50.05881],[3.12768,50.02438],[3.14803,50.02122],[3.16704,50.02107],[3.18148,50.01253],[3.20665,50.01863],[3.22827,50.0326],[3.25828,50.02441],[3.26111,50.03126],[3.27093,50.02937],[3.27993,50.0152],[3.3121,50.01979],[3.32935,50.0159],[3.35092,50.02732],[3.35268,50.03567],[3.37615,50.03667],[3.43202,50.02219],[3.491,50.01906],[3.50917,50.03531],[3.52589,50.03623],[3.5296,50.04393],[3.54157,50.04685],[3.54069,50.05461],[3.59308,50.04426],[3.61889,50.02654],[3.6431,50.03813],[3.65786,50.03079],[3.66202,50.03836],[3.65073,50.04172],[3.66428,50.05448],[3.70739,50.06577],[3.69164,50.08067],[3.69218,50.09189],[3.66599,50.11093],[3.62663,50.12772],[3.59996,50.13184],[3.55833,50.13167],[3.54921,50.15248],[3.56193,50.16039],[3.55232,50.18506],[3.55953,50.20976],[3.57634,50.23047],[3.57193,50.24689],[3.55902,50.26509],[3.53406,50.27611],[3.49265,50.27876],[3.47913,50.24683],[3.45841,50.25779],[3.43316,50.25837],[3.40793,50.24022],[3.39498,50.24351],[3.37108,50.22613],[3.33399,50.2553],[3.30949,50.24794]]]]}}