{"type":"Feature","properties":{"id":"ECU","name":"Ecuador","level":0,"country":"ECU"},"geometry":{"type":"MultiPolygon","coordinates":[[[[-80.1151,-2.99798],[-79.94579,-2.70664],[-80.05989,-2.66277],[-80.21068,-2.72487],[-80.2622,-2.84085],[-80.26594,-3.01849],[-80.1151,-2.99798]]],[[[-79.83324,-2.63602],[-79.8287,-2.59205],[-79.77257,-2.54199],[-79.80901,-2.51168],[-79.84694,-2.53444],[-79.8818,-2.62694],[-79.83324,-2.63602]]],[[[-89.66128,-1.3401],[-89.7364,-1.3401],[-89.6761,-1.39756],[-89.66128,-1.3401]]],[[[-90.47191,-1.21673],[-90.52404,-1.30592],[-90.39932,-1.32586],[-90.36901,-1.26491],[-90.47191,-1.21673]]],[[[-89.30809,-0.68564],[-89.41324,-0.71347],[-89.48892,-0.8082],[-89.63142,-0.91668],[-89.55431,-0.95371],[-89.43472,-0.92929],[-89.25479,-0.71917],[-89.30809,-0.68564]]],[[[-90.24063,-0.50701],[-90.4877,-0.52549],[-90.54455,-0.68157],[-90.42886,-0.76247],[-90.33707,-0.77695],[-90.1988,-0.68157],[-90.18053,-0.54852],[-90.24063,-0.50701]]],[[[-91.45568,-0.25758],[-91.66857,-0.28493],[-91.64367,-0.40358],[-91.50756,-0.49041],[-91.40111,-0.45289],[-91.39953,-0.30788],[-91.45568,-0.25758]]],[[[-90.77725,-0.14772],[-90.83507,-0.18157],[-90.8321,-0.32269],[-90.58678,-0.3637],[-90.55199,-0.27809],[-90.63248,-0.20127],[-90.77725,-0.14772]]],[[[-91.33967,0.15379],[-91.47256,0.09821],[-91.60436,0.00145],[-91.54552,-0.04795],[-91.42333,-0.02858],[-91.35196,-0.30722],[-91.23571,-0.38641],[-91.20889,-0.48463],[-91.09423,-0.56943],[-91.16808,-0.68271],[-91.23477,-0.66188],[-91.43586,-0.77842],[-91.50231,-0.89625],[-91.39973,-1.01849],[-91.15978,-1.03021],[-91.01305,-0.96868],[-90.9287,-0.97031],[-90.79654,-0.75994],[-90.89297,-0.62575],[-90.95604,-0.60711],[-90.96227,-0.44199],[-91.00503,-0.37314],[-91.12413,-0.29957],[-91.18456,-0.21103],[-91.2093,-0.01067],[-91.28352,0.03319],[-91.33967,0.15379]]],[[[-90.45458,0.2674],[-90.48306,0.36546],[-90.54455,0.31086],[-90.45458,0.2674]]],[[[-90.7445,0.58539],[-90.79776,0.65351],[-90.80525,0.5716],[-90.7445,0.58539]]],[[[-78.89928,1.27143],[-78.90168,1.37417],[-78.98078,1.30834],[-78.89928,1.27143]]],[[[-91.81273,1.37238],[-91.81456,1.38471],[-91.82535,1.38272],[-91.82262,1.37104],[-91.81273,1.37238]]],[[[-91.81753,1.39476],[-91.82201,1.39448],[-91.82046,1.39134],[-91.81753,1.39476]]],[[[-78.68429,1.28189],[-78.71948,1.34106],[-78.83235,1.38133],[-78.95775,1.1634],[-79.07185,1.20954],[-79.14733,1.10956],[-79.24816,1.08027],[-79.45653,1.07246],[-79.57177,0.98371],[-79.76561,0.95515],[-79.86217,0.87641],[-80.07584,0.81615],[-80.09032,0.65217],[-80.01696,0.55891],[-80.04849,0.3183],[-80.03698,0.17597],[-80.06646,0.05221],[-80.23185,-0.1397],[-80.37123,-0.22283],[-80.43272,-0.33919],[-80.49646,-0.38137],[-80.42199,-0.5996],[-80.51591,-0.74209],[-80.54721,-0.88849],[-80.61632,-0.94141],[-80.81637,-0.94634],[-80.91618,-1.06552],[-80.83359,-1.23123],[-80.74426,-1.34377],[-80.77086,-1.47783],[-80.84952,-1.61582],[-80.78213,-1.73699],[-80.73302,-1.90399],[-80.76252,-1.97389],[-80.74498,-2.10291],[-80.95116,-2.23756],[-80.91364,-2.31878],[-80.65665,-2.41579],[-80.46788,-2.61793],[-80.32055,-2.71063],[-80.17512,-2.58668],[-80.06892,-2.5608],[-79.92349,-2.57391],[-79.83947,-2.37705],[-79.72509,-2.56976],[-79.83458,-2.80682],[-79.9532,-3.19744],[-80.07046,-3.21819],[-80.13557,-3.32757],[-80.2591,-3.34808],[-80.27163,-3.48552],[-80.21639,-3.63156],[-80.22164,-3.76943],[-80.16526,-3.89005],[-80.30463,-4.00518],[-80.48108,-3.99877],[-80.51407,-4.08342],[-80.46961,-4.21323],[-80.3563,-4.22057],[-80.48854,-4.39596],[-80.4085,-4.4775],[-80.23967,-4.36981],[-80.20505,-4.29819],[-80.07966,-4.30904],[-79.98201,-4.38862],[-79.90408,-4.39865],[-79.79574,-4.48474],[-79.65798,-4.43875],[-79.50721,-4.53156],[-79.52785,-4.61806],[-79.45057,-4.8102],[-79.30322,-4.96125],[-79.10416,-4.98006],[-79.00928,-4.96011],[-78.98034,-4.87396],[-78.90022,-4.84368],[-78.92861,-4.74746],[-78.85306,-4.65227],[-78.67266,-4.55099],[-78.63721,-4.43513],[-78.68243,-4.32692],[-78.57662,-4.10006],[-78.56691,-3.99619],[-78.50177,-3.95371],[-78.47037,-3.8302],[-78.41358,-3.77181],[-78.42585,-3.68944],[-78.36294,-3.48873],[-78.36172,-3.40852],[-78.19641,-3.36367],[-77.94147,-3.05454],[-77.84902,-2.98064],[-76.68459,-2.57364],[-76.62527,-2.53767],[-76.09124,-2.12891],[-75.56003,-1.50259],[-75.41258,-0.92392],[-75.34873,-0.97498],[-75.22726,-0.96981],[-75.29703,-0.74698],[-75.25558,-0.6243],[-75.27204,-0.5257],[-75.43423,-0.40302],[-75.48477,-0.24768],[-75.42141,-0.06217],[-75.64667,0.08542],[-75.78971,0.08439],[-75.92712,0.18102],[-76.05347,0.36354],[-76.22374,0.40675],[-76.31159,0.45853],[-76.41587,0.39538],[-76.40802,0.25451],[-76.58434,0.22257],[-76.73689,0.2729],[-76.89683,0.24531],[-77.11743,0.35755],[-77.20694,0.33419],[-77.42439,0.4083],[-77.46806,0.65087],[-77.64557,0.71629],[-77.72789,0.84331],[-77.84798,0.80925],[-77.90855,0.86419],[-78.12001,0.92124],[-78.25015,1.01963],[-78.37281,1.07379],[-78.46691,1.17838],[-78.57006,1.19585],[-78.68429,1.28189]]],[[[-91.99983,1.65119],[-91.99983,1.65998],[-92.01159,1.65864],[-92.00666,1.6496],[-91.99983,1.65119]]]]}}