{"type":"Feature","properties":{"id":"GNQ","name":"Equatorial Guinea","level":0,"country":"GNQ"},"geometry":{"type":"MultiPolygon","coordinates":[[[[5.64275,-1.46282],[5.64625,-1.43841],[5.61866,-1.43304],[5.62892,-1.47568],[5.64275,-1.46282]]],[[[9.97074,2.16891],[9.78639,2.24811],[9.76547,2.08539],[9.79908,1.90111],[9.61752,1.67145],[9.56422,1.5034],[9.40756,1.28384],[9.3602,1.14696],[9.50652,1.1376],[9.58432,1.04295],[9.75514,1.10594],[9.80437,0.99835],[9.90862,0.93509],[10.02944,1.00351],[10.73741,1.00113],[11.33634,0.99916],[11.33169,1.78509],[11.32208,2.16576],[10.72377,2.16566],[9.97074,2.16891]]],[[[8.76824,3.7517],[8.7024,3.76093],[8.62794,3.64834],[8.56275,3.45653],[8.47389,3.46308],[8.42205,3.3393],[8.45021,3.27294],[8.69549,3.20856],[8.77467,3.31656],[8.86069,3.51179],[8.95753,3.64301],[8.9227,3.75072],[8.76824,3.7517]]]]}}