{"type":"Feature","properties":{"id":"IOA","name":"Indian Ocean Territories","level":0,"country":"IOA"},"geometry":{"type":"MultiPolygon","coordinates":[[[[96.91391,-12.19451],[96.90903,-12.18206],[96.89234,-12.1959],[96.90219,-12.19997],[96.91391,-12.19451]]],[[[96.83619,-12.18206],[96.83522,-12.16058],[96.82838,-12.12656],[96.82154,-12.12656],[96.82342,-12.15097],[96.83058,-12.17995],[96.83619,-12.18206]]],[[[105.71144,-10.4699],[105.68523,-10.44036],[105.65455,-10.4699],[105.59962,-10.48056],[105.62818,-10.50897],[105.66407,-10.51849],[105.69988,-10.5534],[105.71144,-10.4699]]]]}}