{"type":"Feature","properties":{"id":"SOM","name":"Somalia","level":0,"country":"SOM"},"geometry":{"type":"Polygon","coordinates":[[[50.79786,11.98912],[50.57594,11.92097],[50.51271,11.77123],[50.26832,11.5893],[50.07252,11.50873],[49.85125,11.46491],[49.57683,11.46003],[49.52174,11.39378],[49.23959,11.30028],[48.93911,11.24913],[48.93911,10.12543],[48.93911,9.45123],[48.33915,8.54209],[47.97917,7.99657],[47.39595,7.43417],[46.42392,6.49674],[45.93599,5.99669],[44.94153,4.91148],[44.91259,4.89939],[43.96897,4.95396],[43.52848,4.84157],[43.11926,4.6477],[42.96041,4.51737],[42.86894,4.32677],[42.78977,4.28561],[42.29729,4.20173],[42.13534,4.20008],[41.92347,4.07055],[41.89846,3.99691],[41.34273,3.20115],[40.96539,2.81414],[40.96849,2.10362],[40.96849,0.87225],[40.96849,-0.00274],[40.97975,-0.8708],[41.52287,-1.57277],[41.65211,-1.56512],[41.84197,-1.22487],[42.0809,-0.86289],[42.6478,-0.22894],[42.77027,-0.12933],[43.46762,0.62055],[43.78191,0.92162],[43.93263,1.00983],[44.14552,1.22956],[44.55006,1.55907],[45.00148,1.86636],[45.23219,1.96768],[46.02703,2.43814],[46.2365,2.66763],[46.62574,3.02391],[47.48927,3.93635],[47.57797,4.05988],[47.9485,4.4571],[48.2024,4.90892],[48.64674,5.48005],[49.03614,6.14423],[49.07472,6.41527],[49.24733,6.81061],[49.36704,7.0257],[49.5866,7.31476],[49.81935,7.73994],[49.84205,7.96271],[50.05828,8.13032],[50.29021,8.48676],[50.42205,8.85712],[50.64845,9.11042],[50.67677,9.25918],[50.84034,9.45612],[50.80616,9.62446],[50.9004,10.02407],[50.92739,10.32784],[51.24098,10.4256],[51.13819,10.67674],[51.11508,10.99335],[51.17444,11.15876],[51.08595,11.18797],[51.12086,11.50532],[51.2478,11.65239],[51.2927,11.83311],[51.02931,11.88508],[50.79786,11.98912]]]}}