{"type":"Feature","properties":{"id":"IRL.15.2","name":"KELLS LEA-7","level":2,"country":"IRL"},"geometry":{"type":"Polygon","coordinates":[[[-6.98561,53.59136],[-6.97164,53.58467],[-6.96558,53.57886],[-6.95876,53.58143],[-6.95195,53.58886],[-6.94291,53.58645],[-6.92308,53.58502],[-6.90831,53.58751],[-6.89677,53.58585],[-6.88267,53.59223],[-6.87252,53.59186],[-6.8727,53.59853],[-6.88411,53.60309],[-6.88055,53.60577],[-6.86448,53.60495],[-6.84197,53.61084],[-6.82012,53.61006],[-6.81596,53.62378],[-6.82166,53.63406],[-6.81821,53.64217],[-6.80896,53.64165],[-6.80321,53.65833],[-6.79388,53.66844],[-6.78744,53.67936],[-6.77407,53.68254],[-6.76553,53.69739],[-6.74876,53.68926],[-6.74207,53.6879],[-6.73909,53.6783],[-6.72788,53.67472],[-6.71106,53.67633],[-6.71293,53.67962],[-6.70466,53.68872],[-6.68633,53.6906],[-6.65443,53.70068],[-6.64767,53.70062],[-6.65213,53.70854],[-6.63621,53.71355],[-6.63575,53.72548],[-6.63924,53.73072],[-6.63071,53.73455],[-6.62748,53.74014],[-6.62094,53.74031],[-6.62027,53.74874],[-6.61554,53.75424],[-6.61275,53.76242],[-6.63075,53.76292],[-6.63739,53.77078],[-6.64256,53.77186],[-6.65843,53.76313],[-6.66507,53.76305],[-6.66695,53.77047],[-6.67813,53.77548],[-6.68333,53.78133],[-6.67498,53.78724],[-6.68391,53.79924],[-6.67471,53.80939],[-6.65927,53.81568],[-6.6603,53.8218],[-6.65468,53.82785],[-6.63969,53.82971],[-6.62027,53.83461],[-6.61352,53.82835],[-6.59619,53.82922],[-6.59318,53.83106],[-6.59876,53.83841],[-6.59164,53.84503],[-6.59754,53.85803],[-6.60205,53.86338],[-6.62078,53.87496],[-6.62647,53.87984],[-6.63689,53.87947],[-6.6521,53.88553],[-6.65704,53.88434],[-6.66489,53.89157],[-6.67884,53.89299],[-6.68428,53.89989],[-6.69523,53.90175],[-6.69985,53.90068],[-6.71471,53.90353],[-6.72778,53.91142],[-6.73059,53.91767],[-6.74475,53.91243],[-6.76201,53.91748],[-6.76921,53.91068],[-6.77928,53.91632],[-6.78982,53.90017],[-6.78395,53.89831],[-6.7883,53.8899],[-6.79371,53.88671],[-6.80058,53.89074],[-6.81528,53.89108],[-6.80919,53.8961],[-6.81564,53.89836],[-6.82554,53.89394],[-6.83545,53.89522],[-6.84633,53.88859],[-6.84008,53.88245],[-6.84508,53.87873],[-6.86213,53.87568],[-6.88422,53.88011],[-6.89671,53.88097],[-6.90945,53.88868],[-6.92114,53.89217],[-6.93568,53.89145],[-6.93258,53.88105],[-6.92424,53.87529],[-6.93092,53.87203],[-6.95656,53.86368],[-6.96619,53.86999],[-6.97355,53.86787],[-6.96716,53.86066],[-6.97242,53.85703],[-6.96448,53.84917],[-6.963,53.84371],[-6.95254,53.84229],[-6.9532,53.83576],[-6.93406,53.82799],[-6.93015,53.82278],[-6.91738,53.817],[-6.91281,53.80894],[-6.92132,53.8011],[-6.93114,53.80381],[-6.9401,53.79847],[-6.94193,53.78933],[-6.92966,53.78577],[-6.94072,53.78074],[-6.95142,53.78163],[-6.95464,53.78637],[-6.96317,53.79108],[-6.97291,53.78511],[-6.97118,53.77769],[-6.98147,53.77266],[-6.99072,53.77546],[-7.00097,53.77291],[-7.00219,53.76557],[-7.01253,53.76926],[-7.02092,53.76908],[-7.03824,53.77677],[-7.05023,53.77171],[-7.06667,53.77243],[-7.08087,53.77572],[-7.09113,53.77415],[-7.10501,53.77657],[-7.10546,53.78627],[-7.11515,53.79345],[-7.12336,53.79376],[-7.1278,53.79052],[-7.13581,53.79397],[-7.14133,53.7993],[-7.15209,53.80118],[-7.15672,53.79411],[-7.17618,53.79522],[-7.18495,53.7888],[-7.19389,53.79475],[-7.20608,53.78665],[-7.21035,53.78064],[-7.21955,53.77424],[-7.22902,53.77155],[-7.24072,53.77813],[-7.24771,53.77792],[-7.2539,53.77388],[-7.26253,53.77904],[-7.27839,53.78182],[-7.27982,53.79256],[-7.30796,53.81277],[-7.34367,53.79905],[-7.34187,53.7925],[-7.33611,53.78796],[-7.31665,53.78857],[-7.31643,53.78416],[-7.29208,53.77831],[-7.27522,53.76343],[-7.27309,53.75564],[-7.25776,53.74529],[-7.24388,53.74256],[-7.23813,53.73582],[-7.22991,53.7339],[-7.23937,53.71775],[-7.23037,53.71142],[-7.22578,53.70332],[-7.21628,53.7048],[-7.21024,53.69641],[-7.20267,53.69979],[-7.19767,53.69736],[-7.19188,53.68986],[-7.18624,53.69199],[-7.17423,53.68823],[-7.14773,53.68465],[-7.13508,53.67357],[-7.13001,53.67388],[-7.12047,53.68287],[-7.1154,53.67873],[-7.10908,53.66881],[-7.09689,53.6646],[-7.09609,53.66141],[-7.06801,53.64497],[-7.05998,53.64857],[-7.05003,53.65938],[-7.03661,53.65727],[-7.02888,53.66058],[-7.02334,53.67176],[-7.00836,53.66694],[-7.00395,53.6763],[-6.98997,53.67603],[-6.98062,53.67119],[-6.97277,53.65805],[-6.96409,53.65597],[-6.95622,53.64954],[-6.96231,53.64406],[-6.9652,53.6313],[-6.97821,53.62773],[-6.9886,53.61868],[-6.98797,53.61292],[-6.97987,53.60592],[-6.98561,53.59136]]]}}