{"type":"Feature","properties":{"id":"IRL.2.1","name":"CARRICKMACROSS-CASTLEBLAYNEY LEA-6","level":2,"country":"IRL"},"geometry":{"type":"Polygon","coordinates":[[[-6.86005,53.97693],[-6.85429,53.96349],[-6.83882,53.95273],[-6.83609,53.94202],[-6.82917,53.93649],[-6.83027,53.93205],[-6.8115,53.9317],[-6.80789,53.92821],[-6.79777,53.92891],[-6.77627,53.92523],[-6.76201,53.91748],[-6.74475,53.91243],[-6.73059,53.91767],[-6.72778,53.91142],[-6.71471,53.90353],[-6.69985,53.90068],[-6.69523,53.90175],[-6.6947,53.90792],[-6.68234,53.91245],[-6.674,53.90884],[-6.6654,53.91339],[-6.64751,53.916],[-6.64479,53.92381],[-6.63058,53.9266],[-6.63343,53.93292],[-6.64474,53.93446],[-6.66029,53.94164],[-6.64799,53.94587],[-6.66002,53.95355],[-6.6613,53.9625],[-6.63761,53.96462],[-6.63555,53.96862],[-6.64302,53.97151],[-6.63575,53.97682],[-6.62647,53.97553],[-6.62483,53.98106],[-6.6186,53.98395],[-6.59314,53.9746],[-6.59079,53.97048],[-6.56566,53.97089],[-6.56233,53.97873],[-6.56789,53.98177],[-6.55856,53.98775],[-6.55456,53.99436],[-6.56295,53.99902],[-6.55106,54.00274],[-6.54973,54.00585],[-6.55821,54.00971],[-6.55832,54.01545],[-6.56935,54.01734],[-6.57123,54.02679],[-6.57924,54.03019],[-6.5735,54.03405],[-6.59492,54.04459],[-6.6046,54.04498],[-6.60659,54.03967],[-6.61617,54.04259],[-6.62345,54.03891],[-6.64068,54.04819],[-6.64993,54.0615],[-6.66111,54.06288],[-6.66448,54.0698],[-6.65817,54.07615],[-6.65878,54.0876],[-6.66199,54.09257],[-6.65204,54.09298],[-6.64508,54.09597],[-6.64543,54.10063],[-6.66073,54.11736],[-6.66123,54.12265],[-6.64978,54.12944],[-6.63979,54.13164],[-6.64074,54.14199],[-6.63161,54.14706],[-6.62972,54.15341],[-6.63459,54.16145],[-6.63575,54.17093],[-6.65862,54.18476],[-6.66508,54.19319],[-6.68275,54.19316],[-6.69538,54.19894],[-6.70587,54.20008],[-6.71414,54.1946],[-6.71297,54.19142],[-6.7209,54.18715],[-6.72094,54.18201],[-6.73507,54.18579],[-6.73859,54.18152],[-6.73967,54.17208],[-6.74986,54.16941],[-6.75599,54.17265],[-6.76382,54.16857],[-6.77076,54.16923],[-6.76709,54.16097],[-6.78114,54.16213],[-6.78952,54.15453],[-6.79249,54.14957],[-6.78964,54.14031],[-6.78363,54.13859],[-6.78817,54.1308],[-6.78296,54.12454],[-6.79011,54.12047],[-6.76973,54.11595],[-6.7638,54.11269],[-6.76388,54.10707],[-6.76972,54.10415],[-6.76908,54.09763],[-6.77597,54.08826],[-6.75945,54.07834],[-6.76324,54.07206],[-6.75854,54.065],[-6.77292,54.05143],[-6.77012,54.04886],[-6.78046,54.04413],[-6.78658,54.0458],[-6.79509,54.04259],[-6.8125,54.04341],[-6.81599,54.03579],[-6.82874,54.04049],[-6.83525,54.03233],[-6.82473,54.02677],[-6.82483,54.01652],[-6.84474,54.01477],[-6.8414,54.00712],[-6.8425,54.00201],[-6.83535,53.99513],[-6.85098,53.97545],[-6.86005,53.97693]]]}}