{"type":"Feature","properties":{"id":"KHM.5.6","name":"Banteay Srei","level":2,"country":"KHM"},"geometry":{"type":"Polygon","coordinates":[[[103.91248,13.45676],[103.92119,13.44749],[103.92257,13.42769],[103.99025,13.42443],[104.01655,13.42398],[104.02955,13.43257],[104.03572,13.44842],[104.05364,13.44706],[104.0756,13.45344],[104.08965,13.4447],[104.09644,13.4463],[104.10482,13.45358],[104.10693,13.46307],[104.10507,13.47781],[104.11443,13.48721],[104.11942,13.50085],[104.11417,13.50761],[104.10929,13.52332],[104.10294,13.52712],[104.0999,13.53942],[104.09272,13.5434],[104.07553,13.56868],[104.07998,13.60111],[104.09384,13.60282],[104.10096,13.61093],[104.1032,13.63241],[104.0987,13.64133],[104.09069,13.6496],[104.09011,13.6757],[104.09256,13.68116],[104.10901,13.70332],[104.11318,13.72592],[104.1117,13.73231],[104.09999,13.75117],[104.08533,13.75227],[104.07808,13.77023],[104.07209,13.7669],[104.06051,13.75173],[104.05611,13.72497],[104.04891,13.72023],[104.05108,13.73724],[104.04677,13.74007],[104.03815,13.73405],[104.03117,13.71448],[104.02577,13.70823],[104.01295,13.71236],[103.99554,13.70304],[103.95905,13.69066],[103.92791,13.68127],[103.92074,13.6617],[103.92063,13.64593],[103.92424,13.63402],[103.9198,13.59794],[103.9252,13.58446],[103.93097,13.57979],[103.93255,13.56699],[103.92114,13.55994],[103.91278,13.54878],[103.91909,13.53428],[103.91379,13.50888],[103.9173,13.49768],[103.92253,13.49309],[103.91914,13.48225],[103.92555,13.47137],[103.92223,13.45679],[103.91248,13.45676]]]}}