{"type":"Feature","properties":{"id":"KHM.24.3","name":"Doun Kaev","level":2,"country":"KHM"},"geometry":{"type":"Polygon","coordinates":[[[104.83738,11.03921],[104.80313,11.04347],[104.78782,11.03859],[104.754,11.03958],[104.74936,10.97879],[104.74254,10.96086],[104.75839,10.95964],[104.75982,10.95511],[104.77659,10.95495],[104.7798,10.9288],[104.80153,10.92873],[104.8083,10.93582],[104.80988,10.95231],[104.81358,10.95938],[104.81223,10.97675],[104.8085,10.98261],[104.81006,10.99396],[104.82706,10.98966],[104.82999,10.99394],[104.86711,10.99418],[104.86353,10.99901],[104.86164,11.01357],[104.85585,11.02058],[104.84476,11.02458],[104.83738,11.03921]]]}}