{"type":"Feature","properties":{"id":"KHM.12.5","name":"Stoung","level":2,"country":"KHM"},"geometry":{"type":"Polygon","coordinates":[[[104.7384,12.98638],[104.7228,12.98825],[104.71399,12.98508],[104.70815,12.9724],[104.69471,12.96702],[104.69193,12.96194],[104.68336,12.96175],[104.67588,12.96582],[104.67065,12.95881],[104.66212,12.95575],[104.65203,12.97898],[104.6349,12.99818],[104.62958,13.0114],[104.6322,13.01742],[104.65033,13.02512],[104.65762,13.03457],[104.65729,13.04883],[104.66194,13.05932],[104.65692,13.06112],[104.62422,13.05937],[104.61868,13.06491],[104.62348,13.08133],[104.63023,13.0909],[104.63122,13.10663],[104.64871,13.12431],[104.66477,13.13562],[104.70068,13.16784],[104.70502,13.18524],[104.70274,13.19152],[104.67711,13.19735],[104.67004,13.20548],[104.66711,13.21978],[104.66942,13.24285],[104.67312,13.25189],[104.67216,13.27076],[104.6735,13.2831],[104.6542,13.27396],[104.61555,13.26084],[104.59484,13.25576],[104.56486,13.25135],[104.55763,13.22655],[104.54915,13.20702],[104.54407,13.20441],[104.51012,13.19427],[104.4961,13.18407],[104.48398,13.18196],[104.47889,13.1762],[104.47153,13.15466],[104.47475,13.14083],[104.47052,13.12789],[104.47192,13.11122],[104.47082,13.08761],[104.46626,13.06406],[104.46592,13.04801],[104.45409,13.04358],[104.4526,13.02062],[104.46081,13.01472],[104.45694,13.00647],[104.44969,13.00267],[104.44418,12.98917],[104.43681,12.98427],[104.42301,12.98605],[104.41642,12.9789],[104.40202,12.95785],[104.39148,12.95493],[104.37348,12.93605],[104.3678,12.92417],[104.36972,12.91848],[104.36259,12.90401],[104.35082,12.89625],[104.33552,12.89581],[104.32653,12.88867],[104.31468,12.88386],[104.30853,12.88598],[104.30373,12.87782],[104.28138,12.87587],[104.27695,12.8647],[104.26867,12.86643],[104.26873,12.85695],[104.24665,12.83544],[104.24357,12.82682],[104.23196,12.81491],[104.23269,12.80906],[104.22094,12.80011],[104.21027,12.78314],[104.21707,12.7581],[104.22235,12.74447],[104.2562,12.73265],[104.29129,12.73378],[104.31002,12.7326],[104.34839,12.74425],[104.38002,12.75509],[104.40514,12.75871],[104.41781,12.75356],[104.42714,12.75279],[104.4433,12.74578],[104.45069,12.74043],[104.45912,12.72888],[104.47231,12.74401],[104.4797,12.74531],[104.4917,12.74078],[104.49888,12.74606],[104.51378,12.72177],[104.51635,12.69725],[104.53757,12.68503],[104.56147,12.68054],[104.56866,12.67465],[104.58209,12.68076],[104.59479,12.69452],[104.60424,12.70145],[104.61112,12.71265],[104.62155,12.72155],[104.61951,12.7327],[104.62584,12.74902],[104.63614,12.76468],[104.64068,12.77767],[104.63595,12.79549],[104.63239,12.80133],[104.64873,12.83397],[104.66978,12.85825],[104.67611,12.8702],[104.68102,12.88658],[104.68759,12.89689],[104.68918,12.90733],[104.70176,12.92278],[104.70091,12.94681],[104.71845,12.965],[104.73334,12.97634],[104.7384,12.98638]]]}}