{"type":"Feature","properties":{"id":"KHM.17.5","name":"Chetr Borei","level":2,"country":"KHM"},"geometry":{"type":"Polygon","coordinates":[[[106.15837,12.36735],[106.16431,12.37762],[106.16692,12.39939],[106.17361,12.40487],[106.18367,12.40758],[106.21769,12.40262],[106.22259,12.39521],[106.23603,12.39147],[106.252,12.39501],[106.27182,12.39415],[106.28133,12.40194],[106.2894,12.39498],[106.29902,12.39683],[106.30729,12.40195],[106.3112,12.41143],[106.32201,12.42198],[106.32833,12.42407],[106.33514,12.44014],[106.34848,12.44106],[106.36774,12.46378],[106.3689,12.48362],[106.36126,12.4905],[106.3608,12.50293],[106.37384,12.51251],[106.36559,12.5187],[106.35926,12.52758],[106.35951,12.53775],[106.36492,12.5596],[106.39753,12.63677],[106.40129,12.65239],[106.40249,12.67323],[106.40846,12.68417],[106.37452,12.70896],[106.35926,12.70942],[106.35296,12.71809],[106.33888,12.72938],[106.33441,12.73907],[106.3347,12.74619],[106.32839,12.7533],[106.32142,12.76848],[106.31288,12.77216],[106.30006,12.77374],[106.29043,12.78199],[106.28629,12.78019],[106.27454,12.78675],[106.26103,12.79029],[106.24436,12.78684],[106.23249,12.79026],[106.20927,12.78194],[106.20502,12.78246],[106.19538,12.77353],[106.17531,12.7689],[106.15339,12.75439],[106.14335,12.73963],[106.14031,12.72655],[106.13112,12.71833],[106.12864,12.70875],[106.10384,12.70521],[106.09401,12.70641],[106.07836,12.69439],[106.0626,12.69545],[106.05357,12.68801],[106.04322,12.68427],[106.03822,12.6695],[106.02815,12.67206],[106.01999,12.6641],[106.0036,12.65404],[106.00409,12.63374],[106.0006,12.63049],[106.00031,12.62016],[106.01318,12.60695],[106.01567,12.58193],[106.01079,12.56379],[105.98914,12.53112],[106.00539,12.51486],[106.01414,12.52433],[106.01586,12.53865],[106.04581,12.53835],[106.05077,12.53584],[106.05011,12.52535],[106.04398,12.5164],[106.06392,12.51225],[106.07686,12.52165],[106.0801,12.52714],[106.09136,12.52904],[106.09124,12.48834],[106.08108,12.4734],[106.07142,12.4636],[106.07332,12.4486],[106.07167,12.42795],[106.0593,12.42647],[106.05778,12.43532],[106.04183,12.43488],[106.04595,12.44269],[106.03786,12.44882],[106.02956,12.44875],[106.0232,12.4416],[106.02638,12.42158],[106.02415,12.39492],[106.02907,12.37433],[106.04068,12.35386],[106.04388,12.33556],[106.05966,12.34148],[106.0723,12.3568],[106.08269,12.36494],[106.10545,12.36688],[106.13737,12.36273],[106.15837,12.36735]]]}}