{"type":"Feature","properties":{"id":"KHM.14.6","name":"Svay Antor","level":2,"country":"KHM"},"geometry":{"type":"Polygon","coordinates":[[[105.45677,11.35959],[105.4563,11.37266],[105.47345,11.37487],[105.47444,11.39277],[105.4832,11.40919],[105.50181,11.41562],[105.50648,11.43413],[105.51232,11.43536],[105.51087,11.44861],[105.53551,11.45492],[105.54276,11.45933],[105.54846,11.45359],[105.56691,11.47092],[105.58977,11.48477],[105.58685,11.49581],[105.56937,11.49543],[105.55394,11.49969],[105.54773,11.51031],[105.54695,11.51726],[105.55565,11.52447],[105.56243,11.54501],[105.56551,11.57425],[105.54089,11.56868],[105.52878,11.56817],[105.52314,11.58348],[105.49783,11.6058],[105.4841,11.62663],[105.47075,11.63837],[105.45526,11.64338],[105.45488,11.65097],[105.42248,11.64471],[105.41269,11.63879],[105.39592,11.63258],[105.38217,11.63364],[105.37567,11.62089],[105.37611,11.60826],[105.35826,11.59655],[105.35122,11.59759],[105.33978,11.58897],[105.34001,11.5651],[105.34437,11.54672],[105.3636,11.54672],[105.37497,11.54314],[105.38104,11.53585],[105.39626,11.50436],[105.39047,11.48245],[105.37731,11.47876],[105.38257,11.46891],[105.39233,11.4653],[105.39325,11.44342],[105.3913,11.42718],[105.39075,11.42154],[105.38184,11.40449],[105.38188,11.39896],[105.39971,11.40178],[105.419,11.39916],[105.41383,11.39191],[105.41707,11.37839],[105.42893,11.37831],[105.42913,11.35771],[105.45677,11.35959]]]}}