{"type":"Feature","properties":{"id":"LBN.6","name":"South Lebanon","level":1,"country":"LBN"},"geometry":{"type":"Polygon","coordinates":[[[35.28883,33.0992],[35.2924,33.1395],[35.35679,33.21906],[35.3833,33.23345],[35.42071,33.27678],[35.42056,33.30267],[35.35384,33.31771],[35.3402,33.35388],[35.31472,33.37393],[35.38764,33.42256],[35.39141,33.45341],[35.41994,33.47666],[35.47719,33.48367],[35.52887,33.49987],[35.52313,33.46395],[35.52438,33.38566],[35.58814,33.38453],[35.63486,33.43331],[35.61357,33.50974],[35.61951,33.53806],[35.59962,33.55599],[35.59636,33.60622],[35.53895,33.58477],[35.47673,33.5717],[35.37706,33.58949],[35.34913,33.51386],[35.27101,33.45751],[35.2505,33.40974],[35.24366,33.3557],[35.22478,33.312],[35.18832,33.28002],[35.20916,33.25462],[35.20476,33.2248],[35.17465,33.17015],[35.1255,33.13251],[35.10524,33.08902],[35.18527,33.08398],[35.28883,33.0992]]]}}