{"type":"Feature","properties":{"id":"MRT.13","name":"Tagant","level":1,"country":"MRT"},"geometry":{"type":"Polygon","coordinates":[[[-7.98772,19.72541],[-11.03477,19.71138],[-11.4225,19.40884],[-11.45061,19.20307],[-11.67791,19.3198],[-11.89079,19.17984],[-12.34213,18.89957],[-12.66907,18.55701],[-12.47872,18.27421],[-12.50608,17.99774],[-12.54478,17.49185],[-12.40957,17.35558],[-12.31022,17.27541],[-12.21364,17.18681],[-11.90989,17.08617],[-11.75253,17.13914],[-11.57042,17.12394],[-11.52712,17.17725],[-11.51852,17.38235],[-11.46883,17.50973],[-11.42498,17.67499],[-11.49164,17.75486],[-11.50653,17.81527],[-11.5743,17.93668],[-11.5811,17.98534],[-11.54789,18.05047],[-11.48637,18.07786],[-11.32341,18.06445],[-11.21249,18.09639],[-11.19417,18.18525],[-11.10394,18.26318],[-10.97069,18.31092],[-11.07947,17.72282],[-10.33254,17.51823],[-9.72271,17.55632],[-9.14975,17.28233],[-7.98772,19.72541]]]}}