{"type":"Feature","properties":{"id":"MRT.11","name":"Hodh ech Chargui","level":1,"country":"MRT"},"geometry":{"type":"Polygon","coordinates":[[[-6.37163,23.12398],[-6.37904,23.10761],[-7.97424,19.75378],[-7.98772,19.72541],[-9.14975,17.28233],[-8.59833,17.35062],[-8.28923,17.02304],[-8.75044,16.53168],[-8.89377,16.39171],[-8.86904,16.32164],[-9.06748,16.06217],[-8.96953,15.85697],[-8.95937,15.53908],[-9.00322,15.49553],[-8.60394,15.49539],[-8.01783,15.49513],[-7.17452,15.49482],[-6.67393,15.49466],[-6.08781,15.49446],[-5.51095,15.4959],[-5.35329,16.31198],[-5.36491,16.33492],[-5.60588,16.49589],[-5.62335,16.52783],[-5.6773,17.01932],[-5.75647,17.74104],[-5.80654,18.19708],[-5.85754,18.6608],[-5.90839,19.12457],[-5.96353,19.62061],[-6.03536,20.24548],[-6.1137,20.91955],[-6.21938,21.82286],[-6.30413,22.547],[-6.37163,23.12398]]]}}