{"type":"Feature","properties":{"id":"KOR.5.12","name":"Ansan-si","level":2,"country":"KOR"},"geometry":{"type":"MultiPolygon","coordinates":[[[[126.39554,37.10302],[126.39389,37.11198],[126.37902,37.11146],[126.38927,37.10118],[126.39554,37.10302]]],[[[126.5829,37.28572],[126.55248,37.27559],[126.56281,37.25628],[126.56539,37.23779],[126.54887,37.23409],[126.54577,37.21394],[126.56487,37.19379],[126.57623,37.21394],[126.59482,37.21518],[126.60979,37.23285],[126.6196,37.2308],[126.63044,37.21641],[126.64335,37.21435],[126.65626,37.22669],[126.63457,37.25669],[126.61599,37.27107],[126.5829,37.28572]]],[[[126.94617,37.28878],[126.93631,37.29276],[126.92371,37.29736],[126.90977,37.31297],[126.88343,37.31215],[126.88034,37.31708],[126.89879,37.34835],[126.89479,37.36346],[126.87976,37.36733],[126.87001,37.35649],[126.82819,37.35854],[126.81993,37.35525],[126.78998,37.33022],[126.75332,37.3257],[126.73061,37.30722],[126.73835,37.2949],[126.76262,37.29161],[126.77656,37.28545],[126.80031,37.28668],[126.81786,37.28217],[126.83284,37.26655],[126.85865,37.2571],[126.88343,37.26573],[126.90099,37.27806],[126.93462,37.27915],[126.94617,37.28878]]]]}}