{"type":"Feature","properties":{"id":"KOR.15.16","name":"Cheongdo-gun","level":2,"country":"KOR"},"geometry":{"type":"Polygon","coordinates":[[[129.01409,35.8391],[128.99556,35.83831],[128.9802,35.82586],[128.96955,35.82672],[128.94947,35.78656],[128.94947,35.77889],[128.92938,35.75396],[128.9152,35.74821],[128.86557,35.74917],[128.85021,35.74629],[128.84312,35.73574],[128.81003,35.73478],[128.79112,35.73766],[128.7793,35.73286],[128.76276,35.69832],[128.74031,35.69928],[128.72022,35.71176],[128.71431,35.72231],[128.69185,35.73286],[128.66822,35.71559],[128.64577,35.7108],[128.63986,35.69928],[128.62331,35.69544],[128.61268,35.70696],[128.60677,35.73478],[128.58668,35.7367],[128.56541,35.7319],[128.53232,35.70408],[128.52951,35.67594],[128.53705,35.65032],[128.52878,35.62247],[128.54532,35.61575],[128.58432,35.58596],[128.59141,35.57539],[128.63631,35.57539],[128.64577,35.58788],[128.68122,35.58596],[128.70249,35.57539],[128.72376,35.57443],[128.74976,35.55808],[128.77694,35.56001],[128.80057,35.56962],[128.8053,35.58596],[128.81594,35.59076],[128.85257,35.5898],[128.86321,35.59941],[128.86911,35.62535],[128.90693,35.62919],[128.92466,35.64264],[128.9412,35.62439],[128.97074,35.6023],[128.98256,35.60037],[129.00813,35.60979],[129.02477,35.62762],[129.04992,35.6388],[129.04165,35.66185],[129.02156,35.67529],[128.9991,35.7012],[128.97547,35.7367],[128.97547,35.74917],[128.99438,35.77506],[129.01409,35.8391]]]}}