{"type":"Feature","properties":{"id":"KOR.5.3","name":"Paju-si","level":2,"country":"KOR"},"geometry":{"type":"Polygon","coordinates":[[[126.83603,37.95039],[126.83417,37.91583],[126.82117,37.88599],[126.81054,37.87947],[126.79636,37.88693],[126.78926,37.90558],[126.77508,37.90838],[126.77036,37.92516],[126.77508,37.95778],[126.76799,37.96989],[126.75618,37.97268],[126.74554,37.9615],[126.74909,37.94659],[126.73491,37.93914],[126.73018,37.92795],[126.71836,37.92422],[126.69354,37.93355],[126.68173,37.94846],[126.67346,37.93727],[126.66991,37.91117],[126.68291,37.90092],[126.71363,37.89905],[126.73609,37.88226],[126.75972,37.84681],[126.75736,37.83841],[126.68645,37.82721],[126.66991,37.81041],[126.66873,37.76745],[126.67936,37.75717],[126.68055,37.73194],[126.68882,37.71138],[126.68052,37.69135],[126.70654,37.688],[126.73136,37.69736],[126.77508,37.69642],[126.78217,37.71138],[126.79517,37.72353],[126.80699,37.7254],[126.82117,37.71605],[126.83772,37.71699],[126.84599,37.72914],[126.86135,37.72821],[126.87435,37.71512],[126.88971,37.71325],[126.89562,37.72727],[126.90744,37.73662],[126.93698,37.73755],[126.9358,37.76371],[126.9098,37.7824],[126.91807,37.80948],[126.91807,37.82628],[126.94053,37.83655],[126.94644,37.84588],[126.95471,37.89998],[126.95353,37.90744],[126.96771,37.92236],[126.9848,37.93281],[126.98425,37.94771],[126.99408,37.95666],[127.0198,37.96918],[127.00921,37.98766],[126.98803,37.99183],[126.96156,37.96918],[126.92526,37.97276],[126.89803,37.98647],[126.89349,37.97693],[126.89425,37.95368],[126.86929,37.95845],[126.84963,37.97335],[126.84585,37.95368],[126.83603,37.95039]]]}}