{"type":"Feature","properties":{"id":"KOR.1.12","name":"Chungju-si","level":2,"country":"KOR"},"geometry":{"type":"Polygon","coordinates":[[[127.70156,37.12573],[127.71811,37.11819],[127.72402,37.10594],[127.69684,37.0918],[127.69093,37.04748],[127.68502,37.03617],[127.66966,37.02485],[127.6602,37.00409],[127.65902,36.97955],[127.67202,36.97199],[127.69329,36.97483],[127.72283,36.94839],[127.74647,36.94933],[127.76065,36.93705],[127.78362,36.92647],[127.79374,36.93705],[127.82092,36.938],[127.83392,36.93327],[127.84455,36.9106],[127.8611,36.88697],[127.90364,36.88225],[127.92373,36.87469],[127.945,36.8813],[127.95682,36.8605],[127.97572,36.83876],[127.98163,36.81038],[127.98991,36.80186],[128.00763,36.79997],[128.02654,36.80848],[128.03127,36.82078],[128.07085,36.81085],[128.08208,36.79334],[128.0939,36.79051],[128.10926,36.81038],[128.12432,36.82076],[128.09272,36.84538],[128.06908,36.83497],[128.04545,36.83686],[128.03954,36.84821],[128.04545,36.8624],[128.07263,36.8917],[128.07263,36.9106],[128.04899,36.9295],[128.05136,36.94555],[128.08326,36.9465],[128.09035,36.9635],[128.07854,37.00031],[128.0939,37.0173],[128.08444,37.07012],[128.07972,37.07672],[128.0549,37.08897],[128.04663,37.10405],[128.01709,37.10594],[128.00881,37.09274],[127.98872,37.10123],[127.98518,37.13609],[127.96982,37.15116],[127.93673,37.16812],[127.91664,37.16247],[127.91073,37.14551],[127.87291,37.15964],[127.84928,37.14645],[127.81737,37.13798],[127.78665,37.13798],[127.77601,37.14645],[127.75947,37.17377],[127.75309,37.20841],[127.7382,37.20107],[127.72638,37.17942],[127.7122,37.17094],[127.70274,37.15305],[127.70629,37.14457],[127.70156,37.12573]]]}}