{"type":"Feature","properties":{"id":"KOR.8.3","name":"Buyeo-gun","level":2,"country":"KOR"},"geometry":{"type":"Polygon","coordinates":[[[126.99378,36.32961],[126.95778,36.32474],[126.93282,36.31316],[126.91921,36.31438],[126.9003,36.32474],[126.86929,36.31742],[126.86097,36.32596],[126.85492,36.34911],[126.84055,36.35824],[126.85492,36.37225],[126.85038,36.38017],[126.82996,36.37651],[126.80954,36.36616],[126.79517,36.3485],[126.76643,36.34911],[126.75206,36.35398],[126.74677,36.36677],[126.73013,36.37213],[126.70773,36.35489],[126.703,36.33205],[126.68764,36.32634],[126.68527,36.31205],[126.69709,36.29586],[126.70182,36.25966],[126.73609,36.25013],[126.74081,36.24251],[126.72072,36.21963],[126.71836,36.20628],[126.703,36.19865],[126.70108,36.17325],[126.72191,36.16622],[126.73491,36.17099],[126.7739,36.17195],[126.79399,36.16909],[126.7999,36.1376],[126.83299,36.12424],[126.84008,36.11374],[126.84362,36.08127],[126.84953,36.07267],[126.86844,36.06885],[126.87671,36.07267],[126.87435,36.10132],[126.87789,36.11755],[126.90035,36.13664],[126.92753,36.13378],[126.94998,36.15096],[126.96534,36.14905],[126.98425,36.13951],[127.00656,36.14097],[127.0067,36.17099],[126.99134,36.18721],[126.99961,36.20724],[127.02797,36.2101],[127.03979,36.23679],[127.06225,36.24346],[127.07052,36.25966],[127.06579,36.27312],[127.05287,36.27014],[127.00486,36.28801],[126.98824,36.29991],[126.99378,36.32961]]]}}