{"type":"Feature","properties":{"id":"KOR.5.6","name":"Hanam-si","level":2,"country":"KOR"},"geometry":{"type":"Polygon","coordinates":[[[127.28585,37.49875],[127.28375,37.51345],[127.23837,37.53924],[127.23005,37.55363],[127.20358,37.57881],[127.18184,37.57825],[127.18341,37.53643],[127.15914,37.52456],[127.15518,37.50858],[127.14882,37.49835],[127.1643,37.48565],[127.15075,37.47042],[127.17907,37.46594],[127.19342,37.47261],[127.21233,37.47261],[127.23123,37.46698],[127.25487,37.47354],[127.2655,37.49511],[127.28585,37.49875]]]}}