{"type":"Feature","properties":{"id":"KGZ.7","name":"Talas","level":1,"country":"KGZ"},"geometry":{"type":"Polygon","coordinates":[[[73.50508,42.42156],[73.47689,42.39907],[73.3262,42.42868],[73.31659,42.49371],[73.11505,42.55084],[72.94235,42.53604],[72.84075,42.5557],[72.72582,42.65288],[72.58382,42.67828],[72.47674,42.68256],[72.29236,42.76106],[72.1641,42.76509],[72.10488,42.75034],[71.84774,42.83405],[71.69354,42.81181],[71.58357,42.75964],[71.50419,42.78961],[71.40461,42.79488],[71.32979,42.73703],[71.2625,42.75357],[71.14902,42.67794],[71.12701,42.59061],[71.00319,42.56353],[71.05786,42.4934],[70.97714,42.47875],[70.93984,42.38783],[70.85813,42.29106],[70.94779,42.24815],[71.01404,42.2877],[71.0776,42.28117],[71.24987,42.19839],[71.40844,42.18172],[71.50233,42.19978],[71.62724,42.20288],[71.82154,42.14094],[71.88794,42.13655],[72.1269,42.06984],[72.18632,42.10115],[72.21257,42.16425],[72.27634,42.19789],[72.38326,42.20647],[72.42393,42.17179],[72.57178,42.14156],[72.62811,42.15221],[72.75611,42.10312],[72.80329,42.06575],[72.88587,42.06878],[72.90354,42.10916],[73.04307,42.14608],[73.11226,42.13934],[73.07934,42.17903],[73.0812,42.23758],[73.27969,42.29292],[73.53089,42.289],[73.60603,42.31468],[73.68577,42.40377],[73.67662,42.45012],[73.56536,42.44718],[73.50508,42.42156]]]}}