{"type":"Feature","properties":{"id":"BDI.11.5","name":"Ngozi","level":2,"country":"BDI"},"geometry":{"type":"Polygon","coordinates":[[[29.76833,-2.97561],[29.77163,-2.97964],[29.78835,-2.98959],[29.79866,-2.99936],[29.8002,-3.00634],[29.79734,-3.0148],[29.80223,-3.01715],[29.81759,-3.01504],[29.83492,-3.00635],[29.8415,-3.00758],[29.84648,-3.01355],[29.86144,-3.00991],[29.86929,-3.00571],[29.87924,-3.00537],[29.89329,-2.99471],[29.90519,-2.99327],[29.90741,-2.98317],[29.92343,-2.98008],[29.92722,-2.97132],[29.91875,-2.95937],[29.90659,-2.95297],[29.89477,-2.9438],[29.88093,-2.93822],[29.86142,-2.93739],[29.85198,-2.93157],[29.84857,-2.92456],[29.85302,-2.9155],[29.8544,-2.90279],[29.85124,-2.89458],[29.8521,-2.88676],[29.84685,-2.88399],[29.83567,-2.88638],[29.80176,-2.88251],[29.76661,-2.8867],[29.75838,-2.89367],[29.7558,-2.89972],[29.75887,-2.9081],[29.75022,-2.91318],[29.74988,-2.92227],[29.75846,-2.92623],[29.75856,-2.94312],[29.75663,-2.95935],[29.76155,-2.96206],[29.76833,-2.97561]]]}}