{"type":"Feature","properties":{"id":"BDI.4.7","name":"Kinyinya","level":2,"country":"BDI"},"geometry":{"type":"Polygon","coordinates":[[[30.28653,-3.6832],[30.29387,-3.6825],[30.30529,-3.69038],[30.31648,-3.69126],[30.32037,-3.69705],[30.32597,-3.71656],[30.35022,-3.72257],[30.35651,-3.72775],[30.36277,-3.72558],[30.37306,-3.71513],[30.38049,-3.72162],[30.38991,-3.72476],[30.38913,-3.71331],[30.39758,-3.70504],[30.40935,-3.68475],[30.41597,-3.66627],[30.41603,-3.65428],[30.42032,-3.65394],[30.42223,-3.64125],[30.4306,-3.63744],[30.43703,-3.62015],[30.44368,-3.61971],[30.45708,-3.60635],[30.45445,-3.59126],[30.45653,-3.57557],[30.44908,-3.57604],[30.44606,-3.56808],[30.43154,-3.56265],[30.41394,-3.5656],[30.40579,-3.57791],[30.39798,-3.57787],[30.39225,-3.56117],[30.3926,-3.54774],[30.38076,-3.52836],[30.37508,-3.52362],[30.37528,-3.50791],[30.36649,-3.50292],[30.36084,-3.4964],[30.3563,-3.5149],[30.3524,-3.51704],[30.35217,-3.52857],[30.34273,-3.53307],[30.33694,-3.54008],[30.32696,-3.54563],[30.32868,-3.55298],[30.34424,-3.56834],[30.34569,-3.57817],[30.33463,-3.57161],[30.32129,-3.57044],[30.30871,-3.58015],[30.28924,-3.58913],[30.28931,-3.59851],[30.29415,-3.61756],[30.29521,-3.62937],[30.29344,-3.64088],[30.28887,-3.65371],[30.28653,-3.6832]]]}}