{"type":"Feature","properties":{"id":"CAN.11.1","name":"Cape Breton","level":2,"country":"CAN"},"geometry":{"type":"MultiPolygon","coordinates":[[[[-60.3888,47.02572],[-60.39045,47.03044],[-60.40558,47.03188],[-60.41414,47.03806],[-60.43877,47.0251],[-60.43936,47.01814],[-60.44558,47.01347],[-60.46945,47.00414],[-60.49146,47.00219],[-60.5122,47.0044],[-60.51537,47.01462],[-60.53336,47.02908],[-60.54221,47.02547],[-60.55702,47.02633],[-60.56379,47.03193],[-60.58009,47.03504],[-60.59279,47.04231],[-60.61699,47.03249],[-60.62278,47.0257],[-60.62305,47.01603],[-60.6334,47.0142],[-60.63567,47.00868],[-60.65416,46.9959],[-60.67108,46.97572],[-60.6733,46.96618],[-60.6824,46.95688],[-60.68404,46.93732],[-60.68914,46.9298],[-60.68944,46.9217],[-60.70465,46.90365],[-60.72908,46.8835],[-60.77007,46.86014],[-60.77456,46.85025],[-60.79875,46.83165],[-60.81436,46.82722],[-60.84748,46.82225],[-60.86705,46.80745],[-60.87607,46.80467],[-60.87905,46.79871],[-60.89119,46.79041],[-60.89649,46.77659],[-60.90683,46.76942],[-60.9289,46.72424],[-60.96317,46.68842],[-60.96027,46.67142],[-60.9722,46.66661],[-60.98366,46.65774],[-60.99707,46.65371],[-61.00355,46.64215],[-61.01899,46.62286],[-61.02477,46.61317],[-61.02195,46.5987],[-61.03234,46.60596],[-61.02913,46.61597],[-61.02029,46.62857],[-61.0189,46.63782],[-61.01342,46.6471],[-61.02878,46.65094],[-61.02927,46.64667],[-61.03907,46.63213],[-61.05083,46.62169],[-61.05278,46.61206],[-61.04924,46.60731],[-61.03748,46.6037],[-61.03323,46.59908],[-61.0295,46.58086],[-61.03176,46.57308],[-61.04307,46.55487],[-61.06183,46.53802],[-61.07015,46.53386],[-61.07277,46.52464],[-61.07797,46.51902],[-61.07407,46.50833],[-61.07834,46.4896],[-61.09712,46.45872],[-61.10257,46.44763],[-61.10151,46.43659],[-61.11159,46.44054],[-61.12861,46.43951],[-61.13079,46.43036],[-61.14474,46.42035],[-61.15785,46.3994],[-61.16464,46.39214],[-61.17135,46.39245],[-61.17899,46.37934],[-61.17991,46.36884],[-61.18529,46.35719],[-61.20215,46.34683],[-61.23099,46.32461],[-61.24635,46.30969],[-61.25823,46.30347],[-61.25583,46.29646],[-61.27015,46.28432],[-61.27348,46.2744],[-61.2704,46.26848],[-61.30592,46.2395],[-61.32211,46.2299],[-61.34764,46.21747],[-61.38988,46.20303],[-61.41986,46.19044],[-61.42731,46.18411],[-61.43166,46.17156],[-61.44793,46.16075],[-61.45082,46.14893],[-61.46477,46.13795],[-61.4611,46.12901],[-61.46944,46.12318],[-61.47081,46.11566],[-61.47721,46.10865],[-61.47477,46.10207],[-61.48378,46.09309],[-61.4657,46.08581],[-61.45057,46.08587],[-61.44616,46.08187],[-61.42661,46.08286],[-61.40675,46.07706],[-61.40556,46.06872],[-61.41933,46.07093],[-61.41792,46.0617],[-61.43194,46.05361],[-61.42948,46.05818],[-61.43545,46.06496],[-61.42875,46.06985],[-61.43483,46.0771],[-61.44877,46.07439],[-61.4763,46.08744],[-61.48015,46.08095],[-61.5,46.0689],[-61.51601,46.06424],[-61.52549,46.057],[-61.5363,46.0546],[-61.55299,46.04115],[-61.54916,46.02834],[-61.53896,46.02477],[-61.53859,46.01858],[-61.53074,46.00635],[-61.53795,46.0007],[-61.53173,45.99414],[-61.53175,45.96838],[-61.52751,45.96002],[-61.53352,45.95681],[-61.53288,45.94498],[-61.52138,45.93626],[-61.52394,45.92546],[-61.51202,45.91334],[-61.5124,45.90885],[-61.50036,45.9063],[-61.49397,45.89917],[-61.49422,45.8903],[-61.50483,45.86178],[-61.50242,45.84939],[-61.49591,45.83853],[-61.49297,45.81691],[-61.49631,45.80422],[-61.47741,45.78144],[-61.47617,45.7717],[-61.46928,45.75773],[-61.46871,45.75003],[-61.4638,45.7442],[-61.46207,45.72996],[-61.46682,45.72188],[-61.458,45.70315],[-61.44332,45.69156],[-61.44034,45.68035],[-61.42704,45.67213],[-61.42032,45.65444],[-61.41464,45.64693],[-61.40918,45.64729],[-61.38345,45.63681],[-61.37245,45.62592],[-61.35828,45.6068],[-61.37201,45.60857],[-61.36302,45.59648],[-61.35212,45.59209],[-61.35123,45.58509],[-61.34183,45.58033],[-61.34179,45.57463],[-61.33101,45.56467],[-61.29432,45.55111],[-61.27733,45.56211],[-61.2821,45.56815],[-61.29436,45.57179],[-61.27516,45.57992],[-61.26647,45.57773],[-61.25558,45.59269],[-61.24886,45.59333],[-61.23417,45.5872],[-61.22719,45.59035],[-61.23046,45.59796],[-61.22169,45.59982],[-61.20814,45.59844],[-61.19924,45.60347],[-61.17614,45.60182],[-61.1713,45.59562],[-61.16481,45.59539],[-61.15578,45.58721],[-61.16317,45.58025],[-61.17425,45.58165],[-61.18164,45.56471],[-61.16255,45.56546],[-61.14739,45.57126],[-61.12777,45.57335],[-61.10962,45.57835],[-61.10171,45.58258],[-61.08809,45.58508],[-61.08227,45.59241],[-61.07228,45.59368],[-61.06864,45.59829],[-61.08007,45.60524],[-61.0643,45.6063],[-61.06627,45.59578],[-61.05103,45.5972],[-61.03706,45.59626],[-61.0131,45.60791],[-61.02621,45.61142],[-61.02812,45.62335],[-61.04287,45.62129],[-61.03926,45.62745],[-61.03084,45.62897],[-61.0202,45.61876],[-61.00745,45.61854],[-61.0007,45.62323],[-61.01254,45.62959],[-60.99741,45.63187],[-60.99084,45.61486],[-60.97886,45.61383],[-60.94973,45.62493],[-60.96206,45.63742],[-60.93025,45.63034],[-60.93572,45.62276],[-60.92275,45.62186],[-60.89652,45.6378],[-60.89185,45.65194],[-60.87639,45.65374],[-60.87239,45.64787],[-60.86067,45.6458],[-60.8583,45.63566],[-60.86815,45.63147],[-60.87212,45.61977],[-60.86481,45.62067],[-60.8355,45.6163],[-60.8167,45.61096],[-60.79621,45.61247],[-60.79318,45.60761],[-60.76089,45.6071],[-60.7384,45.58809],[-60.74451,45.5792],[-60.73481,45.57158],[-60.72893,45.57455],[-60.70462,45.57741],[-60.68982,45.57422],[-60.68498,45.58817],[-60.67914,45.59188],[-60.66261,45.59262],[-60.64514,45.59868],[-60.63622,45.59898],[-60.62671,45.60285],[-60.62172,45.61361],[-60.61143,45.61525],[-60.59847,45.61303],[-60.59041,45.61952],[-60.57659,45.62437],[-60.55151,45.62726],[-60.54383,45.63049],[-60.52857,45.63123],[-60.51971,45.6269],[-60.49768,45.63178],[-60.49513,45.65176],[-60.48831,45.64434],[-60.47515,45.63987],[-60.43973,45.63941],[-60.43426,45.64483],[-60.42328,45.64241],[-60.41856,45.64468],[-60.41386,45.65597],[-60.40097,45.65284],[-60.38277,45.65973],[-60.37241,45.66754],[-60.35295,45.67407],[-60.3444,45.68461],[-60.34255,45.6919],[-60.33411,45.69467],[-60.33247,45.70027],[-60.32026,45.70995],[-60.32024,45.7149],[-60.30853,45.71965],[-60.30099,45.71458],[-60.29111,45.71687],[-60.30725,45.72311],[-60.28575,45.72331],[-60.28397,45.72044],[-60.2976,45.70563],[-60.28007,45.70206],[-60.25792,45.70684],[-60.25373,45.71195],[-60.24357,45.71311],[-60.2371,45.72312],[-60.22691,45.72519],[-60.22856,45.73286],[-60.21097,45.75323],[-60.20208,45.76781],[-60.18799,45.77509],[-60.16715,45.78213],[-60.15514,45.78112],[-60.13327,45.78576],[-60.11512,45.78137],[-60.10406,45.78858],[-60.09439,45.79773],[-60.08069,45.80264],[-60.08059,45.81355],[-60.09176,45.81556],[-60.10726,45.82227],[-60.1187,45.82193],[-60.13244,45.83254],[-60.13696,45.84043],[-60.14692,45.8409],[-60.15545,45.8369],[-60.16562,45.84013],[-60.16991,45.84572],[-60.17179,45.85565],[-60.16355,45.8609],[-60.1585,45.87126],[-60.14893,45.87727],[-60.14185,45.87702],[-60.13114,45.88357],[-60.11581,45.88418],[-60.1015,45.8757],[-60.09064,45.87751],[-60.06705,45.87154],[-60.05472,45.87794],[-60.02713,45.87515],[-60.01409,45.87546],[-59.99678,45.87875],[-59.98124,45.88432],[-59.97816,45.89392],[-59.98685,45.89318],[-59.99463,45.89649],[-59.97983,45.9093],[-59.97693,45.91666],[-59.96144,45.92304],[-59.96887,45.91021],[-59.9565,45.90595],[-59.94405,45.91196],[-59.94347,45.91711],[-59.93161,45.91522],[-59.91728,45.91983],[-59.91671,45.92762],[-59.90964,45.92879],[-59.90554,45.93616],[-59.88706,45.93631],[-59.88416,45.94235],[-59.86758,45.94077],[-59.86293,45.9472],[-59.84365,45.95252],[-59.82701,45.95056],[-59.83599,45.94463],[-59.81336,45.94247],[-59.80096,45.95156],[-59.79959,45.95595],[-59.80715,45.96223],[-59.81029,45.96978],[-59.8196,45.98067],[-59.84284,45.98959],[-59.84663,45.99331],[-59.84657,46.00264],[-59.82927,46.00599],[-59.82942,46.01253],[-59.8408,46.01602],[-59.88343,46.00814],[-59.89515,46.00394],[-59.91,46.00734],[-59.92865,46.00597],[-59.93878,46.01197],[-59.95111,46.01056],[-59.96302,46.01816],[-59.96673,46.02343],[-59.96816,46.03403],[-59.95885,46.04561],[-59.93043,46.05252],[-59.92175,46.0467],[-59.91351,46.05079],[-59.89872,46.05297],[-59.89043,46.05888],[-59.89195,46.07438],[-59.8889,46.0813],[-59.89306,46.08705],[-59.8966,46.0998],[-59.90239,46.1065],[-59.89668,46.11377],[-59.87868,46.12377],[-59.87024,46.13239],[-59.86157,46.14979],[-59.85215,46.15563],[-59.85245,46.16092],[-59.83959,46.16808],[-59.82323,46.16838],[-59.81251,46.1715],[-59.81651,46.18095],[-59.83373,46.18256],[-59.84421,46.17766],[-59.85842,46.18412],[-59.86783,46.19161],[-59.88011,46.19208],[-59.90247,46.18719],[-59.9055,46.18145],[-59.91592,46.17804],[-59.92784,46.17858],[-59.9266,46.17331],[-59.9387,46.16458],[-59.94685,46.16195],[-59.95123,46.16816],[-59.93482,46.18601],[-59.93982,46.19591],[-59.95037,46.19914],[-59.95099,46.21139],[-59.95436,46.21764],[-59.96301,46.21739],[-59.97863,46.2215],[-59.99532,46.21652],[-60.00343,46.2202],[-60.02552,46.21396],[-60.03502,46.21521],[-60.04924,46.21024],[-60.05273,46.21268],[-60.07141,46.20936],[-60.08062,46.21722],[-60.07275,46.22245],[-60.05685,46.22683],[-60.05508,46.22957],[-60.03518,46.23013],[-60.03691,46.23539],[-60.03251,46.24349],[-60.04727,46.2497],[-60.06275,46.25318],[-60.08013,46.2543],[-60.08908,46.25876],[-60.10478,46.26217],[-60.11492,46.26187],[-60.12702,46.26744],[-60.1351,46.26188],[-60.13827,46.25553],[-60.1546,46.25027],[-60.16857,46.24265],[-60.17901,46.23243],[-60.18598,46.22032],[-60.19817,46.2111],[-60.20273,46.20247],[-60.20422,46.18752],[-60.19473,46.17303],[-60.19841,46.16185],[-60.20638,46.15397],[-60.20226,46.14381],[-60.20773,46.14078],[-60.22045,46.15053],[-60.21579,46.16027],[-60.22749,46.17744],[-60.22853,46.18751],[-60.24388,46.18456],[-60.25852,46.1786],[-60.27109,46.166],[-60.28441,46.16186],[-60.29304,46.15414],[-60.30731,46.15045],[-60.30212,46.16134],[-60.30709,46.16643],[-60.29057,46.17895],[-60.27918,46.18321],[-60.26482,46.19175],[-60.2524,46.20591],[-60.23842,46.21321],[-60.2259,46.22893],[-60.21812,46.23202],[-60.20658,46.25594],[-60.22876,46.2637],[-60.2423,46.26384],[-60.25313,46.27514],[-60.2598,46.28539],[-60.26777,46.29249],[-60.26865,46.3053],[-60.27925,46.31441],[-60.28472,46.30965],[-60.28658,46.29782],[-60.28469,46.29062],[-60.29109,46.28901],[-60.30092,46.28147],[-60.29492,46.27249],[-60.29284,46.26247],[-60.2967,46.2595],[-60.29401,46.25583],[-60.29322,46.25026],[-60.30083,46.23453],[-60.31672,46.21235],[-60.33435,46.2127],[-60.36375,46.21065],[-60.38918,46.20185],[-60.41017,46.17385],[-60.41051,46.16856],[-60.425,46.14931],[-60.4488,46.14425],[-60.47023,46.12917],[-60.49552,46.10599],[-60.50133,46.10391],[-60.5119,46.09452],[-60.52029,46.09315],[-60.52634,46.08688],[-60.54563,46.07835],[-60.55075,46.07285],[-60.55814,46.07392],[-60.57038,46.06906],[-60.58084,46.05949],[-60.60256,46.04963],[-60.62196,46.03847],[-60.64159,46.02939],[-60.64712,46.0223],[-60.66094,46.01903],[-60.6695,46.02164],[-60.68031,46.01511],[-60.69321,46.01259],[-60.71053,46.00045],[-60.71712,45.9928],[-60.7434,45.97595],[-60.75449,45.97137],[-60.76944,45.96122],[-60.7849,45.96221],[-60.79343,45.9567],[-60.80169,45.93962],[-60.78737,45.93163],[-60.77757,45.93445],[-60.76342,45.93347],[-60.75573,45.93765],[-60.73884,45.93033],[-60.73218,45.91494],[-60.73372,45.90551],[-60.7186,45.89935],[-60.69613,45.90151],[-60.67273,45.90849],[-60.66537,45.90693],[-60.65283,45.91268],[-60.64759,45.92017],[-60.63041,45.92914],[-60.62176,45.93836],[-60.58848,45.9463],[-60.56119,45.94825],[-60.55791,45.93921],[-60.54862,45.94232],[-60.55793,45.94899],[-60.58021,45.94786],[-60.58919,45.95508],[-60.56109,45.96198],[-60.54269,45.96248],[-60.54235,45.95752],[-60.51292,45.96562],[-60.49619,45.97413],[-60.47441,45.97963],[-60.46861,45.98427],[-60.45551,45.98552],[-60.42995,46.00046],[-60.42551,46.00039],[-60.40985,46.01105],[-60.39785,46.01631],[-60.37946,46.01771],[-60.40828,46.00378],[-60.41375,45.99329],[-60.43553,45.97768],[-60.45572,45.9691],[-60.47103,45.95945],[-60.47932,45.95733],[-60.48338,45.95051],[-60.50243,45.94038],[-60.51102,45.93398],[-60.52188,45.93156],[-60.52972,45.9231],[-60.53555,45.91176],[-60.55208,45.90335],[-60.56409,45.89532],[-60.5832,45.8919],[-60.58479,45.88708],[-60.59592,45.88106],[-60.60664,45.87256],[-60.61093,45.87465],[-60.62471,45.86586],[-60.64005,45.85854],[-60.66095,45.83657],[-60.66519,45.82909],[-60.67455,45.82226],[-60.68656,45.81859],[-60.70188,45.81701],[-60.72109,45.80918],[-60.7313,45.80009],[-60.73907,45.79795],[-60.74824,45.78581],[-60.74524,45.77801],[-60.75111,45.77506],[-60.75115,45.76729],[-60.76593,45.75557],[-60.75774,45.75523],[-60.74426,45.74776],[-60.75124,45.7436],[-60.76342,45.7534],[-60.7801,45.74825],[-60.77661,45.74223],[-60.75966,45.74072],[-60.75853,45.73589],[-60.74308,45.73419],[-60.73824,45.73766],[-60.72361,45.73102],[-60.72948,45.72854],[-60.74666,45.73137],[-60.74305,45.72016],[-60.74927,45.71165],[-60.74872,45.70675],[-60.74061,45.69893],[-60.74937,45.69452],[-60.75613,45.70448],[-60.77516,45.70665],[-60.78243,45.70125],[-60.77724,45.6921],[-60.78891,45.68691],[-60.80307,45.68679],[-60.81289,45.68915],[-60.82503,45.68186],[-60.8184,45.67231],[-60.85186,45.67023],[-60.85065,45.66472],[-60.83917,45.66507],[-60.83986,45.65353],[-60.846,45.64988],[-60.86042,45.65349],[-60.86812,45.66371],[-60.86732,45.66845],[-60.84963,45.67249],[-60.8524,45.67938],[-60.83442,45.67942],[-60.84211,45.68872],[-60.83014,45.68803],[-60.82084,45.69216],[-60.81885,45.70681],[-60.81095,45.70656],[-60.80397,45.71586],[-60.81075,45.72547],[-60.80926,45.7333],[-60.83145,45.73849],[-60.84413,45.74712],[-60.85032,45.75374],[-60.86823,45.75745],[-60.88513,45.7583],[-60.90225,45.76608],[-60.9153,45.76444],[-60.93688,45.76885],[-60.94453,45.76524],[-60.95528,45.76558],[-60.96694,45.76224],[-60.98325,45.75128],[-60.99062,45.75204],[-60.99447,45.74574],[-61.00431,45.74272],[-61.0105,45.73557],[-61.02805,45.72626],[-61.06111,45.71307],[-61.07596,45.70997],[-61.08759,45.69843],[-61.09348,45.70047],[-61.10532,45.69768],[-61.11988,45.70647],[-61.13197,45.69963],[-61.14949,45.70356],[-61.15593,45.70887],[-61.14858,45.72093],[-61.13899,45.7256],[-61.12387,45.73712],[-61.12842,45.74315],[-61.12039,45.75378],[-61.12906,45.75806],[-61.1429,45.74467],[-61.14868,45.75076],[-61.14719,45.76004],[-61.13208,45.77116],[-61.11167,45.78171],[-61.10262,45.7922],[-61.08769,45.79897],[-61.06518,45.80509],[-61.03971,45.81644],[-61.03927,45.82167],[-61.02118,45.82827],[-61.0161,45.83296],[-61.00229,45.82704],[-60.99425,45.83296],[-60.9764,45.83928],[-60.97296,45.84228],[-60.97794,45.84953],[-60.97153,45.85486],[-60.96141,45.85451],[-60.97153,45.84159],[-60.95927,45.83593],[-60.94756,45.83422],[-60.94245,45.84653],[-60.94532,45.85422],[-60.96262,45.85723],[-60.97677,45.86538],[-60.96692,45.86673],[-60.96885,45.87339],[-60.9851,45.86682],[-60.99099,45.87735],[-60.98055,45.87987],[-60.96105,45.87717],[-60.95515,45.87424],[-60.95145,45.86025],[-60.93881,45.85751],[-60.92849,45.85784],[-60.92601,45.86749],[-60.93766,45.87145],[-60.9446,45.88457],[-60.96006,45.88431],[-60.96156,45.8895],[-60.97411,45.90393],[-60.99928,45.9014],[-61.01694,45.90297],[-61.02864,45.89475],[-61.05839,45.89925],[-61.06279,45.89473],[-61.07641,45.89662],[-61.07319,45.90256],[-61.05565,45.90938],[-61.0505,45.90625],[-61.0407,45.90712],[-61.03382,45.90279],[-60.99839,45.90545],[-60.99941,45.91006],[-60.99106,45.92313],[-60.99515,45.92757],[-60.98399,45.93643],[-60.98317,45.9227],[-60.97475,45.91777],[-60.96193,45.92156],[-60.95214,45.92043],[-60.94815,45.92534],[-60.93256,45.93055],[-60.91328,45.92773],[-60.92031,45.92376],[-60.90896,45.9198],[-60.90125,45.92545],[-60.89453,45.92345],[-60.87535,45.93031],[-60.86507,45.94176],[-60.85541,45.94119],[-60.83658,45.94613],[-60.81552,45.94428],[-60.81061,45.95288],[-60.80156,45.9603],[-60.81123,45.97257],[-60.80642,45.97735],[-60.8101,45.98471],[-60.8037,45.99485],[-60.80539,46.00118],[-60.78283,46.01577],[-60.77813,46.02786],[-60.77043,46.02873],[-60.75782,46.0473],[-60.73983,46.05824],[-60.73697,46.0689],[-60.75078,46.07638],[-60.75443,46.07236],[-60.77155,46.06908],[-60.79742,46.05616],[-60.80924,46.05235],[-60.82042,46.04433],[-60.83649,46.04388],[-60.84471,46.03303],[-60.85369,46.03011],[-60.85862,46.03726],[-60.85031,46.05073],[-60.85239,46.0541],[-60.88001,46.04822],[-60.89382,46.04686],[-60.89748,46.04045],[-60.91207,46.038],[-60.91877,46.04108],[-60.92396,46.03317],[-60.91201,46.03139],[-60.89764,46.02298],[-60.92918,46.01798],[-60.94647,46.00755],[-60.97116,45.9959],[-60.97807,45.99699],[-60.9868,45.98944],[-60.98882,45.97878],[-60.99257,45.97713],[-60.98935,45.9598],[-60.99818,45.95763],[-61.00839,45.96005],[-61.01818,45.95518],[-61.03924,45.95435],[-61.05232,45.94855],[-61.05412,45.93934],[-61.06451,45.93723],[-61.0749,45.94109],[-61.08169,45.93961],[-61.08434,45.9335],[-61.10012,45.94238],[-61.11296,45.93779],[-61.13968,45.93867],[-61.14329,45.9434],[-61.12601,45.95203],[-61.12488,45.9583],[-61.13094,45.96756],[-61.1219,45.97238],[-61.11254,45.97125],[-61.10938,45.96379],[-61.09718,45.96027],[-61.07794,45.96109],[-61.06901,45.96694],[-61.04859,45.97595],[-61.03584,45.97708],[-61.02106,45.98468],[-61.01642,45.98348],[-61.00393,45.98895],[-60.9856,45.99281],[-60.9667,46.00712],[-60.97577,46.01485],[-60.96432,46.02223],[-60.96055,46.03022],[-60.94168,46.04523],[-60.93501,46.05275],[-60.91448,46.05472],[-60.90677,46.06342],[-60.91026,46.07414],[-60.90812,46.07636],[-60.91035,46.08289],[-60.90635,46.08308],[-60.89815,46.08812],[-60.87287,46.09432],[-60.86145,46.08284],[-60.88605,46.07707],[-60.89047,46.06456],[-60.87995,46.06493],[-60.87364,46.07094],[-60.87415,46.07585],[-60.86146,46.07886],[-60.8499,46.07151],[-60.8404,46.07085],[-60.81712,46.0772],[-60.80252,46.07819],[-60.78253,46.08634],[-60.77179,46.08805],[-60.75263,46.09395],[-60.74836,46.09992],[-60.73606,46.10537],[-60.71918,46.12071],[-60.71722,46.11323],[-60.72016,46.09982],[-60.71443,46.09419],[-60.69664,46.10263],[-60.68075,46.10543],[-60.67508,46.11213],[-60.65509,46.11699],[-60.64965,46.11602],[-60.61452,46.1349],[-60.60636,46.14503],[-60.59562,46.14997],[-60.58386,46.1601],[-60.57538,46.17466],[-60.56842,46.17981],[-60.54469,46.21002],[-60.53418,46.21267],[-60.53309,46.21867],[-60.50398,46.22784],[-60.50368,46.23364],[-60.47688,46.26145],[-60.46071,46.26878],[-60.44085,46.28943],[-60.4323,46.28654],[-60.41669,46.29329],[-60.41965,46.30571],[-60.41643,46.31701],[-60.4196,46.32539],[-60.41469,46.33322],[-60.415,46.34221],[-60.42747,46.34569],[-60.43419,46.34395],[-60.4469,46.34592],[-60.46823,46.33679],[-60.47617,46.32772],[-60.49612,46.31284],[-60.5131,46.30867],[-60.51414,46.30204],[-60.52568,46.30109],[-60.5376,46.29213],[-60.55012,46.27309],[-60.5497,46.26646],[-60.56287,46.24482],[-60.57643,46.23292],[-60.59393,46.20897],[-60.59904,46.21141],[-60.5939,46.22055],[-60.60822,46.22558],[-60.60682,46.23434],[-60.5989,46.23772],[-60.59308,46.25734],[-60.61784,46.26319],[-60.60776,46.26764],[-60.59055,46.26948],[-60.57231,46.2776],[-60.5624,46.28946],[-60.55463,46.2956],[-60.54875,46.30573],[-60.54399,46.3193],[-60.53429,46.33162],[-60.51772,46.34829],[-60.52388,46.36531],[-60.52233,46.37408],[-60.50397,46.38883],[-60.48738,46.39802],[-60.45798,46.43118],[-60.46043,46.44304],[-60.4595,46.45359],[-60.44433,46.4803],[-60.43902,46.484],[-60.43385,46.50247],[-60.42921,46.50941],[-60.41718,46.52069],[-60.41606,46.53239],[-60.41177,46.5363],[-60.40705,46.55107],[-60.39959,46.5586],[-60.38945,46.57428],[-60.37869,46.58535],[-60.37615,46.59253],[-60.35927,46.61052],[-60.35484,46.61196],[-60.34989,46.62744],[-60.37256,46.62986],[-60.38786,46.633],[-60.39576,46.62821],[-60.40374,46.63029],[-60.42319,46.62895],[-60.43293,46.63334],[-60.39614,46.63721],[-60.39085,46.64201],[-60.38645,46.65413],[-60.36175,46.65655],[-60.36416,46.66028],[-60.38428,46.65749],[-60.39533,46.66139],[-60.40629,46.66045],[-60.40582,46.67203],[-60.40177,46.6819],[-60.39518,46.68636],[-60.36128,46.69137],[-60.35286,46.69776],[-60.34252,46.70084],[-60.35123,46.70911],[-60.34924,46.72316],[-60.33953,46.7277],[-60.33076,46.73517],[-60.32051,46.75365],[-60.3255,46.75999],[-60.32047,46.76783],[-60.33297,46.77456],[-60.31613,46.78501],[-60.3191,46.79436],[-60.32627,46.804],[-60.31519,46.81548],[-60.32092,46.82196],[-60.31127,46.8258],[-60.3019,46.85025],[-60.31102,46.85415],[-60.31387,46.8617],[-60.33343,46.86994],[-60.33354,46.87433],[-60.35045,46.88469],[-60.35289,46.87428],[-60.36485,46.875],[-60.36788,46.86997],[-60.40387,46.87595],[-60.42504,46.87575],[-60.44547,46.86789],[-60.46051,46.8717],[-60.46815,46.87715],[-60.45435,46.87987],[-60.45578,46.88404],[-60.43981,46.888],[-60.44202,46.89475],[-60.45549,46.90755],[-60.48621,46.90436],[-60.49385,46.89777],[-60.50548,46.89953],[-60.51406,46.9055],[-60.50352,46.91189],[-60.49052,46.91519],[-60.47895,46.92265],[-60.47541,46.93029],[-60.46734,46.93259],[-60.46053,46.92231],[-60.46047,46.94391],[-60.45607,46.95559],[-60.42554,46.97867],[-60.41289,46.99242],[-60.40213,46.9973],[-60.38565,47.02033],[-60.3888,47.02572]]],[[[-60.28655,46.30964],[-60.29164,46.31856],[-60.28676,46.32312],[-60.29278,46.33468],[-60.2999,46.33485],[-60.31859,46.32494],[-60.34564,46.32245],[-60.35424,46.32677],[-60.3635,46.31726],[-60.37907,46.30866],[-60.39238,46.30551],[-60.3958,46.30091],[-60.42279,46.28346],[-60.43243,46.27436],[-60.43757,46.26329],[-60.45451,46.25225],[-60.47654,46.24112],[-60.49007,46.22727],[-60.49447,46.22574],[-60.50834,46.20921],[-60.52924,46.19679],[-60.54443,46.19237],[-60.55922,46.17528],[-60.56646,46.17164],[-60.57368,46.15686],[-60.58202,46.14653],[-60.58918,46.14229],[-60.59385,46.13286],[-60.61045,46.12213],[-60.63017,46.11393],[-60.64358,46.10163],[-60.65399,46.09815],[-60.65973,46.09107],[-60.65878,46.08576],[-60.66623,46.07676],[-60.66283,46.07215],[-60.65426,46.07154],[-60.63627,46.07712],[-60.62707,46.08358],[-60.61503,46.08531],[-60.5994,46.09105],[-60.59493,46.09807],[-60.58401,46.10374],[-60.57689,46.11258],[-60.55509,46.12683],[-60.52984,46.14672],[-60.49827,46.16413],[-60.48463,46.1686],[-60.46344,46.18046],[-60.42428,46.21761],[-60.4135,46.22567],[-60.40635,46.22364],[-60.39637,46.22715],[-60.37825,46.24017],[-60.36285,46.24019],[-60.35437,46.23189],[-60.34773,46.23176],[-60.3401,46.22625],[-60.32651,46.23131],[-60.31161,46.24323],[-60.30113,46.24822],[-60.29527,46.25588],[-60.29792,46.25942],[-60.29444,46.26221],[-60.2957,46.27164],[-60.30226,46.28009],[-60.29529,46.28788],[-60.28561,46.29254],[-60.28937,46.29993],[-60.28687,46.3011],[-60.28655,46.30964]]],[[[-60.89061,45.57685],[-60.89894,45.58167],[-60.90879,45.57584],[-60.92691,45.58152],[-60.9438,45.59287],[-60.95992,45.58806],[-60.97334,45.59167],[-60.98227,45.58505],[-61.01279,45.58392],[-61.02183,45.59357],[-61.04007,45.58822],[-61.04667,45.58388],[-61.07493,45.57891],[-61.07833,45.57381],[-61.09614,45.57337],[-61.10198,45.56658],[-61.11024,45.56485],[-61.12934,45.56505],[-61.13204,45.55942],[-61.11851,45.55131],[-61.11197,45.55282],[-61.10267,45.53454],[-61.0908,45.53138],[-61.07902,45.51351],[-61.06619,45.50824],[-61.05402,45.50949],[-61.04758,45.50744],[-61.00337,45.51217],[-61.01633,45.50252],[-61.00484,45.49391],[-61.01354,45.48839],[-61.02417,45.48668],[-61.03397,45.48142],[-61.02351,45.4753],[-61.02264,45.46835],[-61.0078,45.46685],[-60.99488,45.47043],[-61,45.48124],[-60.98346,45.48751],[-60.95529,45.51386],[-60.97366,45.5181],[-60.98082,45.52666],[-60.97811,45.53606],[-60.96916,45.54741],[-60.94985,45.55209],[-60.94498,45.55717],[-60.92518,45.56041],[-60.916,45.55957],[-60.90707,45.56285],[-60.89061,45.57685]]],[[[-59.67417,46.03413],[-59.68314,46.03584],[-59.69388,46.03335],[-59.70485,46.03392],[-59.72047,46.03145],[-59.7329,46.02516],[-59.73363,46.01873],[-59.75393,46.01553],[-59.76774,46.01493],[-59.7874,46.01005],[-59.79628,46.00579],[-59.78743,46.00182],[-59.77446,46.002],[-59.76956,45.99827],[-59.75222,46.00078],[-59.74103,45.99916],[-59.73452,45.99509],[-59.73085,46.00514],[-59.70341,45.99258],[-59.70607,46.00945],[-59.7141,46.01385],[-59.71239,46.02213],[-59.69777,46.02422],[-59.68799,46.03304],[-59.67417,46.03413]]],[[[-59.80164,46.12427],[-59.81165,46.12657],[-59.82499,46.11593],[-59.8535,46.10959],[-59.85837,46.11073],[-59.87768,46.10328],[-59.88348,46.09689],[-59.88226,46.09046],[-59.88773,46.08064],[-59.88465,46.072],[-59.87009,46.07264],[-59.85722,46.08424],[-59.84331,46.09079],[-59.83044,46.10081],[-59.81756,46.11644],[-59.80164,46.12427]]],[[[-61.14569,45.54836],[-61.16032,45.55168],[-61.16547,45.54662],[-61.17697,45.54776],[-61.1967,45.54355],[-61.18667,45.53987],[-61.19129,45.52904],[-61.19675,45.52359],[-61.18043,45.51891],[-61.16175,45.52294],[-61.16416,45.52909],[-61.14713,45.52915],[-61.14158,45.5367],[-61.14569,45.54836]]],[[[-60.91576,45.5151],[-60.94541,45.51735],[-60.95981,45.50591],[-60.95617,45.4995],[-60.96124,45.4846],[-60.94607,45.47943],[-60.92673,45.48629],[-60.92371,45.49221],[-60.93301,45.50014],[-60.91576,45.5151]]],[[[-60.14119,47.21466],[-60.15093,47.2131],[-60.16367,47.19726],[-60.16501,47.19051],[-60.16155,47.18275],[-60.15214,47.18949],[-60.14538,47.19015],[-60.13575,47.21184],[-60.14119,47.21466]]],[[[-61.55535,46.01582],[-61.56138,46.0199],[-61.57637,46.01754],[-61.57277,46.01181],[-61.58141,46.00277],[-61.56446,45.99753],[-61.5663,46.01162],[-61.55535,46.01582]]],[[[-60.42267,46.16194],[-60.41494,46.16883],[-60.40255,46.1931],[-60.41024,46.19467],[-60.4194,46.17888],[-60.42267,46.16194]]],[[[-61.21432,45.57775],[-61.23171,45.58106],[-61.23625,45.57501],[-61.23096,45.57143],[-61.2176,45.56916],[-61.20569,45.56971],[-61.21432,45.57775]]],[[[-61.08218,45.51084],[-61.09555,45.51082],[-61.09044,45.50437],[-61.08218,45.51084]]],[[[-61.59039,45.97401],[-61.59128,45.98067],[-61.59715,45.98859],[-61.60152,45.97454],[-61.59039,45.97401]]],[[[-60.99973,45.60376],[-61.01266,45.60438],[-61.01606,45.59758],[-60.99973,45.60376]]],[[[-61.25427,46.36672],[-61.26547,46.36003],[-61.25753,46.35943],[-61.25427,46.36672]]],[[[-61.0913,45.5206],[-61.09581,45.52383],[-61.09918,45.52189],[-61.10356,45.52333],[-61.11068,45.52135],[-61.0913,45.5206]]],[[[-61.08362,45.75337],[-61.078,45.75968],[-61.08054,45.76523],[-61.0901,45.75649],[-61.08362,45.75337]]],[[[-61.19003,45.58522],[-61.20539,45.58837],[-61.21672,45.58172],[-61.19003,45.58522]]],[[[-61.10859,45.95755],[-61.11646,45.95898],[-61.12326,45.95501],[-61.11597,45.95239],[-61.10859,45.95755]]],[[[-60.80376,45.59627],[-60.80658,45.60342],[-60.81749,45.59634],[-60.80376,45.59627]]],[[[-61.0495,45.95279],[-61.05475,45.95376],[-61.07696,45.94578],[-61.05767,45.94882],[-61.0495,45.95279]]],[[[-60.76025,45.76967],[-60.77109,45.76689],[-60.76772,45.76077],[-60.76025,45.76967]]],[[[-60.78666,45.71883],[-60.77876,45.71287],[-60.77751,45.7173],[-60.78666,45.71883]]],[[[-61.05859,45.49879],[-61.05897,45.49397],[-61.05038,45.49489],[-61.05859,45.49879]]],[[[-61.42032,46.06668],[-61.43268,46.06352],[-61.42866,46.05867],[-61.42226,46.06023],[-61.41884,46.06404],[-61.42032,46.06668]]],[[[-61.094,45.74835],[-61.09156,45.75471],[-61.09518,45.75637],[-61.10038,45.74854],[-61.094,45.74835]]],[[[-61.19867,45.56272],[-61.20109,45.56383],[-61.21662,45.56366],[-61.2077,45.56065],[-61.19867,45.56272]]],[[[-61.05671,45.79073],[-61.06158,45.78792],[-61.05068,45.78625],[-61.05285,45.79021],[-61.05671,45.79073]]],[[[-60.55213,45.95408],[-60.55681,45.95909],[-60.56252,45.95738],[-60.55907,45.95407],[-60.55213,45.95408]]],[[[-61.18908,45.58046],[-61.18989,45.57462],[-61.18369,45.57473],[-61.18474,45.57852],[-61.18908,45.58046]]],[[[-61.10769,45.53248],[-61.10452,45.53491],[-61.11858,45.53464],[-61.11178,45.53191],[-61.10769,45.53248]]],[[[-61.00543,45.81215],[-61.0075,45.81548],[-61.01316,45.81298],[-61.01019,45.81087],[-61.00543,45.81215]]],[[[-60.33715,46.68685],[-60.34385,46.68747],[-60.34295,46.68139],[-60.33605,46.68347],[-60.33715,46.68685]]],[[[-60.94042,45.91118],[-60.94655,45.91103],[-60.9462,45.9054],[-60.94042,45.91118]]],[[[-60.98815,45.81816],[-60.98903,45.82188],[-60.99465,45.82239],[-60.9976,45.81995],[-60.98815,45.81816]]],[[[-60.90674,45.5815],[-60.91965,45.58483],[-60.91444,45.5799],[-60.90674,45.5815]]],[[[-60.83302,45.6768],[-60.84403,45.67657],[-60.84604,45.67468],[-60.83316,45.67529],[-60.83302,45.6768]]],[[[-60.96299,45.91066],[-60.95972,45.91254],[-60.9653,45.91508],[-60.96893,45.91186],[-60.96299,45.91066]]],[[[-60.86484,45.66031],[-60.85959,45.66142],[-60.86441,45.66508],[-60.86672,45.6623],[-60.86484,45.66031]]],[[[-61.13573,45.54507],[-61.14004,45.54646],[-61.13987,45.54187],[-61.13751,45.54101],[-61.13573,45.54507]]],[[[-61.0487,45.79821],[-61.05115,45.79455],[-61.0453,45.79502],[-61.0487,45.79821]]],[[[-60.91899,45.58998],[-60.91485,45.5879],[-60.91569,45.58561],[-60.91128,45.58427],[-60.91458,45.58896],[-60.91899,45.58998]]],[[[-60.31379,45.71131],[-60.30783,45.71211],[-60.30998,45.7145],[-60.31379,45.71131]]],[[[-60.99675,45.61854],[-61.00045,45.61941],[-61.00236,45.61565],[-60.99621,45.61646],[-60.99675,45.61854]]],[[[-60.74167,46.09774],[-60.74898,46.09509],[-60.74986,46.09231],[-60.744,46.09456],[-60.74167,46.09774]]],[[[-60.97177,45.61087],[-60.97689,45.61185],[-60.97683,45.60785],[-60.97177,45.61087]]],[[[-60.76343,45.71396],[-60.76985,45.71693],[-60.76943,45.71368],[-60.76343,45.71396]]],[[[-60.37052,46.3868],[-60.37325,46.38645],[-60.37952,46.38026],[-60.37765,46.38014],[-60.37052,46.3868]]],[[[-59.68397,46.02174],[-59.68432,46.02474],[-59.68905,46.02173],[-59.68397,46.02174]]],[[[-61.06591,45.76027],[-61.06645,45.76353],[-61.0715,45.76284],[-61.06762,45.75971],[-61.06591,45.76027]]],[[[-60.57454,45.94901],[-60.57128,45.94998],[-60.57395,45.95227],[-60.57787,45.95075],[-60.57454,45.94901]]],[[[-61.09597,45.94661],[-61.09353,45.94912],[-61.09922,45.94868],[-61.09597,45.94661]]],[[[-60.99657,45.59049],[-60.99603,45.59321],[-61.00146,45.59253],[-60.99657,45.59049]]],[[[-60.89658,45.47703],[-60.89603,45.47928],[-60.90052,45.47911],[-60.90089,45.47709],[-60.89658,45.47703]]],[[[-60.30985,45.71832],[-60.3122,45.71567],[-60.30835,45.71526],[-60.30985,45.71832]]],[[[-60.90392,46.08208],[-60.90935,46.0825],[-60.90752,46.08022],[-60.90392,46.08208]]],[[[-61.02257,45.8011],[-61.02523,45.80302],[-61.02809,45.80148],[-61.02557,45.79994],[-61.02257,45.8011]]],[[[-60.54296,45.95371],[-60.54132,45.9547],[-60.54463,45.95711],[-60.54695,45.95479],[-60.54296,45.95371]]],[[[-60.98596,45.90687],[-60.98307,45.90639],[-60.9817,45.90953],[-60.98543,45.90889],[-60.98596,45.90687]]],[[[-61.19308,45.57136],[-61.20049,45.57179],[-61.20046,45.57022],[-61.19308,45.57136]]]]}}