{"type":"Feature","properties":{"id":"CAN.10.4","name":"Campbellton--Miramichi","level":2,"country":"CAN"},"geometry":{"type":"MultiPolygon","coordinates":[[[[-64.8237,47.05803],[-64.81441,47.06489],[-64.79666,47.07038],[-64.80466,47.07684],[-64.81619,47.07664],[-64.82624,47.07961],[-64.86164,47.08166],[-64.89611,47.08055],[-64.94876,47.07609],[-64.94558,47.06844],[-64.94635,47.05955],[-64.95891,47.0523],[-64.98284,47.05084],[-64.99386,47.05521],[-65.00353,47.06376],[-65.00354,47.07501],[-65.01404,47.08054],[-65.01277,47.08473],[-65.03134,47.08526],[-65.04488,47.0793],[-65.05547,47.07921],[-65.06359,47.07349],[-65.07919,47.07027],[-65.09709,47.07221],[-65.11691,47.06618],[-65.12208,47.0614],[-65.13312,47.05827],[-65.14012,47.05306],[-65.14141,47.04296],[-65.16514,47.0386],[-65.18473,47.04135],[-65.19053,47.03879],[-65.20727,47.03948],[-65.21396,47.04709],[-65.20448,47.06203],[-65.20731,47.07448],[-65.2055,47.08215],[-65.21804,47.08131],[-65.24184,47.07233],[-65.25777,47.07002],[-65.27469,47.07964],[-65.28342,47.06509],[-65.3017,47.06083],[-65.30638,47.06706],[-65.31546,47.07238],[-65.32973,47.07272],[-65.34065,47.07742],[-65.34488,47.09083],[-65.32686,47.09828],[-65.31734,47.10417],[-65.29931,47.11061],[-65.28198,47.1118],[-65.26659,47.11636],[-65.25609,47.12736],[-65.23425,47.13616],[-65.17991,47.16533],[-65.15111,47.18284],[-65.14294,47.19009],[-65.11335,47.2067],[-65.11518,47.21138],[-65.10147,47.21683],[-65.10821,47.22014],[-65.10102,47.22867],[-65.08985,47.23107],[-65.06308,47.25521],[-65.04667,47.26295],[-65.03466,47.26551],[-65.0154,47.27759],[-64.98883,47.28132],[-64.97487,47.27686],[-64.96569,47.29615],[-64.95966,47.30472],[-64.9626,47.3131],[-64.96776,47.31543],[-64.95892,47.32586],[-64.95594,47.33504],[-64.96668,47.34105],[-64.96549,47.34692],[-64.95158,47.34814],[-64.95123,47.35907],[-64.9426,47.36496],[-64.94476,47.37006],[-64.92852,47.38478],[-64.92692,47.39432],[-64.90977,47.39489],[-64.9058,47.39176],[-64.89945,47.41116],[-64.89116,47.4295],[-64.88506,47.43412],[-64.8831,47.44557],[-64.87138,47.46844],[-64.89492,47.46192],[-64.89464,47.47581],[-64.88111,47.47862],[-64.88142,47.48575],[-64.88911,47.49372],[-64.88224,47.50508],[-64.89545,47.50499],[-64.90221,47.50122],[-64.90715,47.51739],[-64.89092,47.5176],[-64.89497,47.52954],[-64.89989,47.53542],[-64.89874,47.54124],[-64.90666,47.55005],[-64.90348,47.55732],[-64.89194,47.56314],[-64.88958,47.56902],[-64.87957,47.5751],[-64.87681,47.58222],[-64.86437,47.58553],[-64.8432,47.58559],[-64.8115,47.61186],[-64.79894,47.63318],[-64.81352,47.6386],[-64.81182,47.64777],[-64.80313,47.65218],[-64.80256,47.65735],[-64.82043,47.66376],[-64.81624,47.66904],[-64.84702,47.67472],[-64.85885,47.68801],[-64.84661,47.68606],[-64.82269,47.68753],[-64.82407,47.68157],[-64.80641,47.67029],[-64.79865,47.67441],[-64.79153,47.66684],[-64.78406,47.66626],[-64.77408,47.66018],[-64.73871,47.68565],[-64.74377,47.68681],[-64.7562,47.6784],[-64.7629,47.67922],[-64.7564,47.69193],[-64.74342,47.69705],[-64.73191,47.69756],[-64.73011,47.69014],[-64.71079,47.69869],[-64.67999,47.71022],[-64.67912,47.72168],[-64.67488,47.72762],[-64.68756,47.73294],[-64.69704,47.73379],[-64.7055,47.74796],[-64.71592,47.74553],[-64.72628,47.74862],[-64.72139,47.75785],[-64.741,47.76494],[-64.74473,47.75036],[-64.759,47.74975],[-64.76082,47.75882],[-64.7698,47.75611],[-64.77618,47.74573],[-64.76857,47.74304],[-64.77709,47.73351],[-64.7725,47.7258],[-64.7553,47.72548],[-64.75761,47.7137],[-64.74914,47.71119],[-64.75715,47.70267],[-64.77455,47.70623],[-64.78545,47.71076],[-64.78404,47.72279],[-64.78861,47.73356],[-64.79653,47.74044],[-64.80816,47.74191],[-64.81573,47.738],[-64.83129,47.7433],[-64.84185,47.73946],[-64.85604,47.74669],[-64.83217,47.75361],[-64.82004,47.75099],[-64.80409,47.75219],[-64.79472,47.75638],[-64.78287,47.76662],[-64.79303,47.77312],[-64.7867,47.781],[-64.80187,47.80399],[-64.81263,47.80639],[-64.82157,47.80502],[-64.84456,47.80928],[-64.85529,47.80856],[-64.87728,47.79986],[-64.88548,47.80417],[-64.91199,47.7965],[-64.92503,47.79471],[-64.93738,47.79662],[-64.94775,47.79368],[-64.9648,47.79298],[-64.98745,47.78469],[-65.00096,47.7731],[-65.01528,47.77657],[-65.02123,47.77532],[-65.03468,47.7783],[-65.0614,47.77098],[-65.07058,47.7771],[-65.05749,47.78119],[-65.07598,47.78452],[-65.07109,47.79254],[-65.06319,47.78959],[-65.02354,47.80812],[-65.01611,47.81419],[-65.00699,47.81395],[-64.98584,47.8219],[-64.97943,47.83221],[-65.00261,47.83759],[-65.01385,47.83712],[-65.07293,47.8295],[-65.08963,47.83089],[-65.10551,47.83002],[-65.14174,47.8233],[-65.14927,47.82468],[-65.16624,47.81697],[-65.18146,47.81943],[-65.19951,47.81267],[-65.23651,47.80184],[-65.24513,47.79722],[-65.25298,47.78836],[-65.26363,47.7879],[-65.27385,47.78364],[-65.29102,47.77207],[-65.31373,47.76134],[-65.32429,47.7581],[-65.33996,47.75812],[-65.35182,47.75467],[-65.35911,47.75535],[-65.37248,47.74269],[-65.40481,47.72047],[-65.42073,47.71246],[-65.42897,47.70405],[-65.45375,47.69088],[-65.49005,47.67445],[-65.50367,47.67021],[-65.53357,47.66656],[-65.5687,47.66922],[-65.59631,47.66034],[-65.61018,47.6539],[-65.60384,47.65067],[-65.60516,47.6444],[-65.62644,47.63676],[-65.62086,47.62672],[-65.63519,47.61933],[-65.659,47.62157],[-65.6562,47.61],[-65.67135,47.60274],[-65.66555,47.61658],[-65.66626,47.62441],[-65.66087,47.62971],[-65.67302,47.63967],[-65.65746,47.64749],[-65.64997,47.65685],[-65.63859,47.65873],[-65.62856,47.66386],[-65.65561,47.67735],[-65.67346,47.68931],[-65.69883,47.7117],[-65.7058,47.72594],[-65.7056,47.74176],[-65.7115,47.75795],[-65.70889,47.76722],[-65.71391,47.78066],[-65.71059,47.78394],[-65.72548,47.8014],[-65.72409,47.81198],[-65.7296,47.81779],[-65.73298,47.83039],[-65.7515,47.84568],[-65.76478,47.86414],[-65.78504,47.87309],[-65.79405,47.88055],[-65.80456,47.88412],[-65.82669,47.90053],[-65.83085,47.90805],[-65.84065,47.90498],[-65.85867,47.90916],[-65.87517,47.91042],[-65.88967,47.91509],[-65.89939,47.92124],[-65.93817,47.9174],[-65.94437,47.92064],[-65.95343,47.91857],[-65.98926,47.92017],[-66.01557,47.92793],[-66.03465,47.9245],[-66.05766,47.92859],[-66.07782,47.92491],[-66.08543,47.92561],[-66.09851,47.9347],[-66.10649,47.9436],[-66.10988,47.95593],[-66.11905,47.9525],[-66.13167,47.95248],[-66.13359,47.95982],[-66.15902,47.9682],[-66.17404,47.96747],[-66.19581,47.97438],[-66.21325,47.97279],[-66.23429,47.97852],[-66.23534,47.98242],[-66.24931,47.98066],[-66.26192,47.99133],[-66.27847,47.98826],[-66.28262,47.99702],[-66.29755,47.99629],[-66.33601,48.00428],[-66.36763,48.01815],[-66.38499,48.01995],[-66.39066,48.02515],[-66.38712,48.03117],[-66.37449,48.03011],[-66.3705,48.0343],[-66.3714,48.04637],[-66.36678,48.05418],[-66.35698,48.05713],[-66.32593,48.06076],[-66.3489,48.07715],[-66.38213,48.08816],[-66.39838,48.08934],[-66.42921,48.08865],[-66.48224,48.08347],[-66.50243,48.07703],[-66.52228,48.05247],[-66.53152,48.04726],[-66.67655,48.0122],[-66.69361,48.00681],[-66.72674,48.00937],[-66.74343,48.00337],[-66.76481,48.00163],[-66.78695,47.99187],[-66.80095,47.99209],[-66.83456,48.00075],[-66.85631,48.0007],[-66.87547,47.99381],[-66.89057,47.99266],[-66.92127,47.98461],[-66.92895,47.97668],[-66.94191,47.97101],[-66.94542,47.95701],[-66.96462,47.94068],[-66.96878,47.91382],[-66.95055,47.90943],[-66.94473,47.90485],[-66.94761,47.89698],[-66.9574,47.89211],[-66.9792,47.89421],[-66.99785,47.90316],[-67.00658,47.91094],[-67.01816,47.91438],[-67.04311,47.92565],[-67.04901,47.93346],[-67.05928,47.93583],[-67.06915,47.92361],[-67.09511,47.91913],[-67.1066,47.91343],[-67.13297,47.91531],[-67.13263,47.9038],[-67.13752,47.89464],[-67.15004,47.89036],[-67.1651,47.89714],[-67.17172,47.89205],[-67.17507,47.88268],[-67.19196,47.88129],[-67.20343,47.87666],[-67.21705,47.87736],[-67.22822,47.88727],[-67.24309,47.88182],[-67.25842,47.89096],[-67.26895,47.89037],[-67.27886,47.89296],[-67.28612,47.89858],[-67.29848,47.89632],[-67.2947,47.88856],[-67.30485,47.88572],[-67.31557,47.88883],[-67.33612,47.89079],[-67.33827,47.88816],[-67.33666,47.87275],[-67.34708,47.87399],[-67.35192,47.86671],[-67.36472,47.85622],[-67.35749,47.84912],[-67.36499,47.84526],[-67.38497,47.8477],[-67.3817,47.85852],[-67.39366,47.85993],[-67.39246,47.86762],[-67.43832,47.88068],[-67.44153,47.88536],[-67.47221,47.89435],[-67.48225,47.90256],[-67.50538,47.90684],[-67.51353,47.91269],[-67.52872,47.91288],[-67.5475,47.92017],[-67.55956,47.91904],[-67.58207,47.9265],[-67.59466,47.92497],[-67.59678,47.93167],[-67.60733,47.93573],[-67.60869,47.94728],[-67.60232,47.95316],[-67.60658,47.96118],[-67.59851,47.96815],[-67.60521,47.97716],[-67.61381,47.97934],[-67.61115,47.9891],[-67.59805,47.99571],[-67.59801,47.99982],[-68.1224,47.99989],[-68.12279,47.91644],[-68.38233,47.91612],[-68.38255,47.79078],[-67.97685,47.66039],[-67.7641,47.59374],[-67.46491,47.49482],[-67.04824,47.36273],[-67.02118,47.3213],[-66.79594,47.00355],[-66.74465,46.92736],[-66.68408,46.83641],[-66.49827,46.52087],[-66.5154,46.51935],[-66.53094,46.53359],[-66.54388,46.54943],[-66.54967,46.55964],[-66.56264,46.56047],[-66.57232,46.56427],[-66.57224,46.57355],[-66.58743,46.58609],[-66.58673,46.59227],[-66.5987,46.59562],[-66.62604,46.59566],[-66.63352,46.59917],[-66.64724,46.59988],[-66.66474,46.59415],[-66.68021,46.59993],[-66.69092,46.59793],[-66.69065,46.58753],[-66.70437,46.58317],[-66.7233,46.58232],[-66.73139,46.57857],[-66.74647,46.58232],[-66.75766,46.57964],[-66.76941,46.58146],[-66.77929,46.57321],[-66.79071,46.57441],[-66.80118,46.56965],[-66.82067,46.57502],[-66.81986,46.56776],[-66.82966,46.56345],[-66.83064,46.55687],[-66.85277,46.55302],[-66.85539,46.54145],[-66.87056,46.54298],[-66.88706,46.52825],[-66.90657,46.52901],[-66.85572,46.41694],[-66.83732,46.41603],[-66.83338,46.42058],[-66.80672,46.4351],[-66.79328,46.43907],[-66.78514,46.43787],[-66.7677,46.45078],[-66.74707,46.45709],[-66.72716,46.45249],[-66.72011,46.44364],[-66.7106,46.43895],[-66.6988,46.43915],[-66.68556,46.43338],[-66.67748,46.42528],[-66.6703,46.42547],[-66.6421,46.41881],[-66.63854,46.41402],[-66.62896,46.41231],[-66.60968,46.42596],[-66.59006,46.42809],[-66.58167,46.43166],[-66.56461,46.42682],[-66.55214,46.41721],[-66.5459,46.4159],[-66.5467,46.40611],[-66.52656,46.4052],[-66.51785,46.38866],[-66.53679,46.3835],[-66.53775,46.37596],[-66.5476,46.37027],[-66.57895,46.3831],[-66.59817,46.34879],[-66.56931,46.34037],[-66.58422,46.31539],[-66.50984,46.29402],[-66.20097,46.35465],[-66.16452,46.39649],[-65.9994,46.36499],[-65.99937,46.36358],[-65.85166,46.3365],[-65.69116,46.51798],[-65.58545,46.63117],[-65.42084,46.7244],[-65.4149,46.71733],[-65.40324,46.72081],[-65.41038,46.73062],[-65.10623,46.89944],[-64.8237,47.05803]]],[[[-64.5037,47.87867],[-64.51726,47.87402],[-64.53302,47.86274],[-64.54316,47.86212],[-64.5604,47.86584],[-64.57145,47.86505],[-64.5685,47.8782],[-64.57514,47.88202],[-64.59282,47.88166],[-64.60759,47.88488],[-64.62798,47.88699],[-64.64906,47.87997],[-64.64665,47.87227],[-64.66447,47.86957],[-64.67825,47.85709],[-64.68734,47.85727],[-64.69455,47.84422],[-64.70652,47.83386],[-64.70767,47.8262],[-64.70338,47.8232],[-64.7062,47.8128],[-64.69305,47.81125],[-64.67907,47.81922],[-64.6674,47.81558],[-64.68827,47.80177],[-64.69728,47.78934],[-64.69435,47.78342],[-64.68138,47.78629],[-64.67093,47.7926],[-64.67566,47.80103],[-64.65855,47.80085],[-64.65681,47.7921],[-64.63971,47.78939],[-64.6394,47.79502],[-64.62239,47.79853],[-64.62526,47.79235],[-64.63761,47.78876],[-64.63683,47.78365],[-64.64477,47.77973],[-64.65935,47.77734],[-64.6592,47.77011],[-64.67057,47.77126],[-64.69534,47.7629],[-64.69744,47.75697],[-64.68337,47.74711],[-64.65856,47.74783],[-64.65827,47.73971],[-64.6506,47.72945],[-64.66159,47.7234],[-64.66313,47.71933],[-64.63111,47.73204],[-64.61411,47.74215],[-64.59865,47.75637],[-64.57888,47.7676],[-64.56445,47.78154],[-64.56061,47.79049],[-64.55018,47.80143],[-64.53526,47.81271],[-64.52922,47.82618],[-64.52063,47.83699],[-64.50834,47.8482],[-64.50298,47.86668],[-64.5037,47.87867]]],[[[-64.51412,48.01856],[-64.52922,48.01524],[-64.53103,48.022],[-64.54596,48.01297],[-64.5505,48.00491],[-64.54845,47.98657],[-64.54964,47.97618],[-64.5653,47.95724],[-64.59083,47.93844],[-64.59647,47.93182],[-64.59924,47.92245],[-64.59831,47.91075],[-64.59159,47.89841],[-64.57812,47.89743],[-64.56535,47.90144],[-64.55224,47.91539],[-64.54069,47.91436],[-64.52695,47.91817],[-64.52091,47.92697],[-64.5093,47.93076],[-64.50104,47.93649],[-64.49249,47.93492],[-64.49649,47.92795],[-64.49007,47.9251],[-64.46957,47.9408],[-64.48443,47.94697],[-64.4834,47.95602],[-64.4895,47.96352],[-64.48891,47.97127],[-64.49636,47.9742],[-64.50269,47.9812],[-64.49466,47.98774],[-64.49348,47.99894],[-64.48192,47.99398],[-64.47627,47.97368],[-64.47333,47.97441],[-64.48259,48.00002],[-64.48962,48.00866],[-64.50254,48.01571],[-64.51412,48.01856]]],[[[-64.76013,47.82439],[-64.78002,47.82424],[-64.79191,47.82077],[-64.7917,47.81298],[-64.80087,47.80347],[-64.79632,47.80195],[-64.7887,47.78897],[-64.77036,47.78799],[-64.76429,47.78153],[-64.75466,47.78052],[-64.74747,47.78503],[-64.75988,47.79347],[-64.75726,47.80066],[-64.76302,47.80951],[-64.7513,47.81917],[-64.76013,47.82439]]],[[[-65.02421,47.12722],[-65.0024,47.1014],[-64.99199,47.09876],[-64.987,47.09198],[-64.97662,47.09032],[-64.99552,47.10921],[-65.02421,47.12722]]],[[[-66.14539,48.0003],[-66.16931,48.00284],[-66.15435,47.99536],[-66.1441,47.98686],[-66.14566,47.97906],[-66.12216,47.98609],[-66.13596,47.9966],[-66.14539,48.0003]]],[[[-65.03323,47.16719],[-65.0361,47.18136],[-65.04424,47.17402],[-65.05233,47.17082],[-65.04148,47.15246],[-65.03238,47.15504],[-65.03323,47.16719]]],[[[-65.1144,47.08264],[-65.11029,47.08883],[-65.08872,47.09054],[-65.07823,47.10169],[-65.09094,47.09994],[-65.12179,47.08766],[-65.1144,47.08264]]],[[[-64.99808,47.24966],[-65.01603,47.2318],[-65.01364,47.22975],[-64.99808,47.24966]]],[[[-64.87119,47.49979],[-64.87725,47.49887],[-64.88046,47.48012],[-64.87083,47.48154],[-64.87119,47.49979]]],[[[-64.91002,47.36856],[-64.91345,47.34683],[-64.92257,47.33558],[-64.92775,47.31699],[-64.91314,47.34487],[-64.91002,47.36856]]],[[[-64.86266,47.82237],[-64.88066,47.82695],[-64.89769,47.82806],[-64.90554,47.82095],[-64.88371,47.82371],[-64.86266,47.82237]]],[[[-64.77301,47.78471],[-64.78116,47.78303],[-64.77735,47.77532],[-64.7633,47.77769],[-64.77301,47.78471]]],[[[-64.49857,47.88693],[-64.49663,47.89997],[-64.49955,47.89936],[-64.50124,47.88817],[-64.49857,47.88693]]],[[[-65.06873,47.23183],[-65.0926,47.22738],[-65.09094,47.22521],[-65.07818,47.22669],[-65.06873,47.23183]]],[[[-64.86417,47.53645],[-64.86914,47.52662],[-64.86751,47.52348],[-64.86417,47.53645]]],[[[-64.78982,47.73961],[-64.78314,47.74447],[-64.78822,47.74733],[-64.78982,47.73961]]],[[[-65.04876,47.10377],[-65.0428,47.10644],[-65.05048,47.10627],[-65.04876,47.10377]]],[[[-65.3229,47.08694],[-65.31799,47.08847],[-65.31914,47.08995],[-65.32519,47.08927],[-65.3229,47.08694]]],[[[-64.99732,47.25284],[-64.99069,47.25792],[-64.9927,47.25835],[-64.99732,47.25284]]]]}}