{"type":"Feature","properties":{"id":"CAN.3.6","name":"Wood Buffalo--Cold Lake","level":2,"country":"CAN"},"geometry":{"type":"Polygon","coordinates":[[[-110.00569,54.64981],[-110.00329,54.99781],[-110.00006,55.33123],[-109.99995,55.66845],[-110,55.98595],[-110.00022,56.36144],[-110,56.68224],[-110,57],[-110,57.35633],[-110,58],[-109.99971,58.39189],[-110.00035,58.70195],[-109.99973,59.30722],[-110.00033,59.71938],[-110,60],[-110.75,60],[-111.375,60.00006],[-112,60],[-112.75,60],[-113.5,60],[-114.25,60],[-115,60],[-115.56716,60.00005],[-115.56921,59.6489],[-115.55295,59.64802],[-115.55566,59.47596],[-115.33716,59.47402],[-115.19438,59.47496],[-115.04396,59.47369],[-114.00009,59.47469],[-114.00003,58.95],[-114.00208,58.69839],[-114,58.6664],[-113.99999,58.38949],[-114,57.89589],[-114,57.38113],[-113.6066,57.3803],[-113.25367,57.383],[-113.0946,57.38235],[-113.09376,57.29488],[-112.76512,57.29437],[-112.7633,57.2079],[-112.73917,57.2064],[-112.74317,57.05133],[-112.7434,56.85628],[-112.72024,56.85596],[-112.71568,56.50709],[-112.69168,56.50697],[-112.69227,56.45198],[-112.71462,56.43946],[-112.71947,56.43053],[-112.71226,56.42129],[-112.67571,56.41644],[-112.66653,56.41072],[-112.6666,56.40155],[-112.67315,56.39201],[-112.65567,56.37269],[-112.65323,56.35942],[-112.6422,56.35147],[-112.62848,56.33574],[-112.60103,56.31773],[-112.57332,56.27974],[-112.53842,56.23867],[-112.5338,56.21066],[-112.51636,56.19793],[-112.52212,56.18284],[-112.5348,56.16988],[-112.55469,56.1587],[-112.56263,56.15106],[-112.5647,56.14009],[-112.57966,56.12841],[-112.57658,56.10383],[-112.58933,56.08684],[-112.60292,56.08141],[-112.62421,56.08025],[-112.63245,56.07697],[-112.61792,56.06013],[-112.61797,56.04754],[-112.62642,56.03279],[-112.62254,56.02638],[-112.60368,56.02051],[-112.6131,56.01244],[-112.63538,56.00793],[-112.6468,56.00233],[-112.64608,55.99043],[-112.63501,55.98451],[-112.62765,55.97602],[-112.63019,55.97214],[-112.65359,55.96167],[-112.65025,55.95225],[-112.63488,55.95266],[-112.62391,55.94928],[-112.61883,55.94319],[-112.62526,55.93828],[-112.63835,55.94245],[-112.62847,55.92516],[-112.63141,55.92225],[-112.65727,55.92063],[-112.66422,55.91271],[-112.67737,55.90672],[-112.67456,55.89624],[-112.65093,55.89208],[-112.64947,55.88604],[-112.66182,55.87569],[-112.63293,55.86358],[-112.6315,55.8551],[-112.64684,55.8486],[-112.64823,55.84174],[-112.62965,55.82505],[-112.63033,55.79225],[-112.61712,55.78056],[-112.61684,55.77703],[-112.63191,55.77209],[-112.63645,55.76519],[-112.62985,55.75893],[-112.60586,55.74703],[-112.5998,55.73831],[-112.59721,55.72704],[-112.60483,55.72361],[-112.61742,55.72346],[-112.62752,55.71862],[-112.64299,55.71773],[-112.66009,55.709],[-112.66271,55.70031],[-112.67359,55.69511],[-112.71333,55.69517],[-112.72245,55.69335],[-112.74489,55.68118],[-112.75384,55.66583],[-112.75966,55.6602],[-112.78577,55.64946],[-112.791,55.64143],[-112.77279,55.62958],[-112.77256,55.62511],[-112.78974,55.60879],[-112.79129,55.60321],[-112.78439,55.59217],[-112.75627,55.57522],[-112.75696,55.56884],[-112.766,55.55736],[-112.76499,55.54701],[-112.75724,55.53859],[-112.76666,55.52805],[-112.7882,55.52617],[-112.79569,55.52298],[-112.80051,55.51311],[-112.79127,55.50509],[-112.75913,55.49921],[-112.75202,55.49056],[-112.76469,55.48353],[-112.77702,55.47308],[-112.77569,55.46767],[-112.75505,55.46491],[-112.7511,55.46088],[-112.31353,55.46057],[-112.31176,55.11172],[-112.34493,55.11151],[-112.34448,55.02395],[-112.44588,55.02396],[-112.44614,54.76218],[-112.42529,54.76219],[-112.42548,54.65495],[-112.42514,54.58747],[-112.50084,54.58747],[-112.50084,54.58033],[-112.51341,54.58027],[-112.5134,54.56563],[-112.5765,54.56554],[-112.57689,54.41362],[-112.60086,54.41304],[-112.60109,54.32623],[-112.68861,54.32652],[-112.68801,54.26786],[-112.76338,54.26791],[-112.7633,54.20959],[-112.85075,54.20964],[-112.8508,54.06459],[-112.83954,54.06459],[-112.84011,54.04941],[-112.81379,54.05071],[-112.80647,54.05894],[-112.78757,54.06161],[-112.77736,54.05682],[-112.75947,54.05271],[-112.71763,54.04769],[-112.7075,54.04466],[-112.68935,54.03512],[-112.66948,54.0304],[-112.65421,54.02085],[-112.61585,54.00478],[-112.57541,54.0014],[-112.54493,53.99655],[-112.52789,53.99909],[-112.51783,53.99685],[-112.50558,53.98807],[-112.43793,53.99043],[-112.42192,53.9916],[-112.40298,53.99726],[-112.38137,54.01304],[-112.37233,54.02651],[-112.36641,54.02976],[-112.34385,54.03556],[-112.32879,54.0327],[-112.31826,54.03818],[-112.29877,54.04196],[-112.27693,54.05438],[-112.2603,54.05747],[-112.24809,54.05642],[-112.2324,54.06199],[-112.22479,54.05263],[-112.21734,54.05092],[-112.21051,54.04178],[-112.19465,54.03609],[-112.18075,54.02254],[-112.181,54.01027],[-112.19445,53.99793],[-112.18663,53.98732],[-112.16529,53.97776],[-112.13379,53.97082],[-112.1033,53.96163],[-112.06081,53.95391],[-112.04573,53.94639],[-112.02377,53.94116],[-111.99421,53.92383],[-111.98507,53.91524],[-111.97195,53.90736],[-111.95116,53.90504],[-111.91917,53.91314],[-111.90493,53.92348],[-111.86516,53.91484],[-111.85126,53.91459],[-111.83609,53.9175],[-111.83163,53.92281],[-111.81803,53.92851],[-111.79508,53.92358],[-111.77129,53.92427],[-111.75017,53.91515],[-111.73245,53.9032],[-111.72356,53.88903],[-111.63863,53.88962],[-111.63858,53.90419],[-111.60036,53.90355],[-111.59959,53.8457],[-111.51597,53.84567],[-111.51483,53.81682],[-111.49021,53.81679],[-111.4895,53.79764],[-111.47368,53.79622],[-111.46224,53.78986],[-111.44495,53.78666],[-111.42999,53.7874],[-111.41114,53.78028],[-111.412,53.77049],[-111.4081,53.75781],[-111.39915,53.7521],[-111.38341,53.74946],[-111.36467,53.75132],[-111.34671,53.75654],[-111.31677,53.75933],[-111.25003,53.75545],[-111.22899,53.7529],[-111.21606,53.7538],[-111.17118,53.75019],[-111.15051,53.75033],[-111.13329,53.75496],[-111.10676,53.76747],[-111.08534,53.77345],[-111.07529,53.77998],[-111.06277,53.79359],[-111.0439,53.80298],[-111.01986,53.8025],[-111.01986,53.77343],[-110.78806,53.7727],[-110.54031,53.7735],[-110.51502,53.75931],[-110.46034,53.75197],[-110.44826,53.74788],[-110.43513,53.73893],[-110.42082,53.73201],[-110.41258,53.71496],[-110.37566,53.71531],[-110.37697,53.80217],[-110.36427,53.80229],[-110.36456,53.82207],[-110.26805,53.82194],[-110.26794,53.83136],[-110.25904,53.83133],[-110.25925,53.87482],[-110.15424,53.87504],[-110.15418,53.88953],[-110.00575,53.88941],[-110.00459,54.27203],[-110.00569,54.64981]]]}}