{"type":"Feature","properties":{"id":"CAN.9.5","name":"Lanaudière","level":2,"country":"CAN"},"geometry":{"type":"MultiPolygon","coordinates":[[[[-73.03963,46.15692],[-73.10876,46.20796],[-73.2163,46.27847],[-73.19592,46.29425],[-73.22658,46.3162],[-73.21509,46.3243],[-73.20627,46.31808],[-73.1855,46.3233],[-73.17647,46.32331],[-73.20312,46.34248],[-73.19227,46.34977],[-73.2044,46.35793],[-73.18808,46.36977],[-73.18205,46.36562],[-73.16941,46.37372],[-73.17573,46.37835],[-73.16914,46.3821],[-73.33336,46.49844],[-73.2832,46.53343],[-73.30303,46.55062],[-73.31023,46.56706],[-73.33766,46.60347],[-73.36141,46.61815],[-73.39909,46.60075],[-73.43569,46.59863],[-73.43757,46.66981],[-73.46274,46.7071],[-73.45086,46.74604],[-73.44396,46.75064],[-73.44459,46.75927],[-73.44143,46.76646],[-73.44478,46.77735],[-73.45389,46.78373],[-73.43101,46.83056],[-73.44207,46.84339],[-73.42906,46.87062],[-73.41971,46.88533],[-73.4229,46.89096],[-73.44605,46.89802],[-73.46016,46.90804],[-73.48125,46.90635],[-73.49622,46.9118],[-73.50185,46.89941],[-73.51479,46.89632],[-73.52831,46.88164],[-73.53137,46.86226],[-73.54532,46.86596],[-73.55694,46.87542],[-73.55792,46.88055],[-73.56964,46.88005],[-73.57293,46.8707],[-73.57805,46.86988],[-73.5984,46.87349],[-73.60381,46.87149],[-73.60592,46.86017],[-73.62149,46.85982],[-73.62745,46.86517],[-73.64048,46.86401],[-73.65206,46.86541],[-73.66186,46.86132],[-73.67465,46.87225],[-73.67479,46.8791],[-73.6687,46.88881],[-73.66029,46.8923],[-73.66482,46.90137],[-73.66492,46.92763],[-73.64893,46.93973],[-73.67656,46.97349],[-73.7194,47.02094],[-73.75808,47.05762],[-73.75434,47.06124],[-73.77793,47.08643],[-73.82408,47.1225],[-73.85796,47.14188],[-73.91576,47.09962],[-74.02848,47.17613],[-73.99984,47.34238],[-73.99434,47.35318],[-73.98531,47.36027],[-73.97502,47.36481],[-73.96422,47.38386],[-73.95653,47.38866],[-74.19283,47.54538],[-74.51234,47.76148],[-74.60652,47.76306],[-74.65907,47.76177],[-74.88863,47.76085],[-74.69855,47.63343],[-74.69226,47.63586],[-74.68732,47.62736],[-74.65596,47.61803],[-74.65388,47.61231],[-74.63875,47.60045],[-74.63004,47.58609],[-74.61717,47.57735],[-74.59911,47.55642],[-74.5897,47.55248],[-74.58189,47.54196],[-74.56432,47.53751],[-74.55553,47.52947],[-74.5556,47.52041],[-74.54788,47.51753],[-74.54007,47.5092],[-74.52572,47.50657],[-74.51888,47.50244],[-74.50374,47.5],[-74.49297,47.50625],[-74.48348,47.50838],[-74.45653,47.50149],[-74.44618,47.50859],[-74.42805,47.50698],[-74.42996,47.49946],[-74.44562,47.48124],[-74.44263,47.4719],[-74.4537,47.46233],[-74.4627,47.44885],[-74.49202,47.4267],[-74.49793,47.42531],[-74.50958,47.41231],[-74.52369,47.39],[-74.52391,47.38209],[-74.53001,47.37431],[-74.53028,47.36003],[-74.53505,47.35738],[-74.54537,47.33901],[-74.55322,47.32802],[-74.5608,47.325],[-74.57044,47.31677],[-74.5777,47.30558],[-74.59083,47.31277],[-74.588,47.29754],[-74.59489,47.28877],[-74.60598,47.28669],[-74.61652,47.26698],[-74.61949,47.25175],[-74.63157,47.24779],[-74.65191,47.25099],[-74.6599,47.24484],[-74.65721,47.23304],[-74.48598,47.22202],[-74.43046,47.15697],[-74.45928,47.13603],[-74.4117,47.104],[-74.57593,46.99786],[-74.43066,46.89698],[-74.44128,46.89347],[-74.45277,46.86646],[-74.46675,46.87364],[-74.47133,46.86916],[-74.4747,46.85008],[-74.46871,46.79289],[-74.48147,46.78179],[-74.47605,46.75784],[-74.48537,46.75877],[-74.4932,46.74267],[-74.49427,46.73229],[-74.47861,46.72159],[-74.49397,46.69992],[-74.50039,46.68724],[-74.51156,46.67998],[-74.5083,46.6642],[-74.4998,46.64052],[-74.49064,46.62484],[-74.49204,46.6065],[-74.48686,46.60302],[-74.47136,46.61004],[-74.43845,46.61459],[-74.34484,46.54785],[-74.47774,46.45416],[-74.33401,46.35246],[-74.41182,46.2977],[-74.26657,46.19766],[-74.25822,46.19801],[-74.1841,46.25005],[-74.03338,46.15063],[-74.07616,46.11786],[-74.0272,46.07946],[-74.00267,46.09578],[-73.9605,46.06501],[-74.00431,46.03275],[-73.97966,46.0148],[-74.00213,45.99777],[-73.97578,45.9791],[-73.97722,45.97793],[-73.94761,45.95851],[-73.95377,45.95424],[-73.93576,45.94533],[-73.95085,45.93402],[-73.88339,45.88953],[-73.9016,45.8854],[-73.80678,45.82084],[-73.82337,45.81649],[-73.7307,45.75432],[-73.75046,45.7501],[-73.74535,45.73247],[-73.75898,45.72844],[-73.75569,45.71711],[-73.76476,45.71278],[-73.79753,45.7164],[-73.80168,45.71954],[-73.81743,45.71952],[-73.83923,45.72269],[-73.84646,45.72176],[-73.78338,45.68033],[-73.77234,45.68182],[-73.76707,45.6858],[-73.75533,45.67963],[-73.74639,45.66997],[-73.74099,45.67561],[-73.72579,45.68292],[-73.70962,45.68119],[-73.69829,45.68552],[-73.69567,45.69051],[-73.68701,45.69453],[-73.65845,45.69196],[-73.64876,45.69789],[-73.64153,45.69711],[-73.64124,45.69365],[-73.63195,45.6904],[-73.61365,45.69442],[-73.59889,45.69099],[-73.55551,45.70206],[-73.54443,45.69984],[-73.52764,45.70111],[-73.50469,45.70594],[-73.4899,45.71371],[-73.4726,45.71244],[-73.44982,45.73194],[-73.44372,45.73455],[-73.43511,45.74634],[-73.41897,45.76213],[-73.41481,45.77017],[-73.40617,45.77531],[-73.39488,45.78951],[-73.37934,45.80002],[-73.36557,45.81997],[-73.35423,45.82691],[-73.32478,45.83586],[-73.30963,45.85013],[-73.28546,45.86919],[-73.27746,45.88037],[-73.27004,45.88659],[-73.26557,45.89588],[-73.25372,45.91045],[-73.23943,45.93281],[-73.23333,45.93802],[-73.21975,45.95658],[-73.20393,45.96958],[-73.19529,45.98069],[-73.18765,46.00188],[-73.1799,46.03373],[-73.17912,46.04427],[-73.18184,46.05972],[-73.17614,46.07763],[-73.16759,46.08753],[-73.16068,46.09198],[-73.15356,46.10607],[-73.14521,46.11156],[-73.12097,46.12149],[-73.11114,46.13328],[-73.1035,46.13802],[-73.08192,46.14645],[-73.04866,46.15358],[-73.03963,46.15692]]],[[[-73.0389,46.14441],[-73.0503,46.15091],[-73.09968,46.13524],[-73.11068,46.12974],[-73.12306,46.10674],[-73.13626,46.0947],[-73.1432,46.09078],[-73.15296,46.08036],[-73.15508,46.06014],[-73.14738,46.06253],[-73.14155,46.06753],[-73.13131,46.07155],[-73.12583,46.08925],[-73.11447,46.09867],[-73.09756,46.10847],[-73.09225,46.11804],[-73.08423,46.12495],[-73.0389,46.14441]]],[[[-73.07869,46.09181],[-73.07461,46.11388],[-73.07659,46.12129],[-73.09837,46.10336],[-73.10544,46.10211],[-73.12475,46.08859],[-73.12966,46.07126],[-73.13581,46.06946],[-73.15349,46.05835],[-73.15259,46.05518],[-73.12281,46.06067],[-73.09901,46.07164],[-73.08175,46.0838],[-73.07869,46.09181]]],[[[-73.15683,46.08108],[-73.15411,46.08518],[-73.13209,46.10039],[-73.12239,46.1135],[-73.12105,46.11984],[-73.14017,46.11246],[-73.15042,46.10651],[-73.16068,46.08982],[-73.16879,46.08462],[-73.17489,46.07603],[-73.18025,46.05662],[-73.17706,46.0466],[-73.16435,46.05897],[-73.15715,46.07011],[-73.15683,46.08108]]],[[[-72.9934,46.1581],[-73.01149,46.14718],[-73.04029,46.13685],[-73.04549,46.1267],[-73.03729,46.11635],[-73.01355,46.12228],[-72.99568,46.13407],[-72.99684,46.14172],[-73.00239,46.14805],[-72.9934,46.1581]]],[[[-73.29246,45.83852],[-73.30139,45.83861],[-73.31231,45.82915],[-73.32254,45.82321],[-73.34256,45.8167],[-73.3469,45.8116],[-73.3623,45.80363],[-73.37093,45.79304],[-73.37076,45.78595],[-73.35555,45.79141],[-73.30531,45.82572],[-73.29246,45.83852]]],[[[-73.04752,46.1299],[-73.06517,46.12531],[-73.06925,46.12441],[-73.07371,46.12486],[-73.07257,46.09196],[-73.0641,46.09303],[-73.04246,46.11666],[-73.04752,46.1299]]],[[[-72.99639,46.16321],[-73.0099,46.16396],[-73.01935,46.15949],[-73.03702,46.15594],[-73.04601,46.15209],[-73.03579,46.14733],[-73.02173,46.14789],[-72.99639,46.16321]]],[[[-73.09094,46.1114],[-73.07784,46.12162],[-73.07749,46.12725],[-73.09064,46.11844],[-73.09094,46.1114]]],[[[-73.34786,45.81205],[-73.34802,45.81652],[-73.35903,45.80983],[-73.36044,45.80472],[-73.34786,45.81205]]],[[[-72.9993,46.12456],[-73.00531,46.12506],[-73.0147,46.1203],[-73.01861,46.1158],[-73.00323,46.12101],[-72.9993,46.12456]]],[[[-73.6501,45.68884],[-73.63964,45.69126],[-73.6458,45.69667],[-73.65651,45.69152],[-73.6501,45.68884]]],[[[-73.08238,46.07716],[-73.07757,46.07807],[-73.06598,46.08963],[-73.07499,46.08782],[-73.08238,46.07716]]],[[[-73.48233,45.71211],[-73.49,45.71032],[-73.48573,45.70496],[-73.47855,45.71055],[-73.48233,45.71211]]],[[[-73.06917,46.12478],[-73.05775,46.12978],[-73.06132,46.13234],[-73.07129,46.12912],[-73.07235,46.12677],[-73.06917,46.12478]]],[[[-73.03009,46.11465],[-73.03397,46.11554],[-73.0376,46.11071],[-73.02649,46.11148],[-73.03009,46.11465]]],[[[-73.04882,46.13524],[-73.06088,46.13284],[-73.05649,46.13061],[-73.04882,46.13524]]],[[[-73.45978,45.70874],[-73.47123,45.70618],[-73.47279,45.70168],[-73.46116,45.70473],[-73.45978,45.70874]]],[[[-73.17616,46.03329],[-73.16769,46.04854],[-73.17336,46.04472],[-73.1762,46.03968],[-73.17616,46.03329]]],[[[-72.98365,46.11698],[-72.9848,46.11846],[-72.99238,46.11857],[-72.99582,46.11654],[-72.98365,46.11698]]],[[[-73.10227,46.104],[-73.09505,46.10638],[-73.09729,46.10841],[-73.10227,46.104]]],[[[-73.15588,46.06005],[-73.15947,46.06047],[-73.16244,46.05377],[-73.15824,46.05564],[-73.15588,46.06005]]],[[[-73.45812,45.71099],[-73.4557,45.71251],[-73.45804,45.71577],[-73.46281,45.711],[-73.45812,45.71099]]],[[[-73.44481,45.72395],[-73.44736,45.72564],[-73.45118,45.72132],[-73.45024,45.71903],[-73.44481,45.72395]]],[[[-73.29414,45.85814],[-73.28768,45.86281],[-73.28883,45.86468],[-73.29414,45.85814]]],[[[-73.26823,45.87879],[-73.26448,45.88208],[-73.26265,45.88714],[-73.26834,45.88198],[-73.26823,45.87879]]],[[[-72.98613,46.12934],[-72.99672,46.12785],[-72.99615,46.12559],[-72.98613,46.12934]]]]}}