{"type":"Feature","properties":{"id":"NAM.8.7","name":"Ohangwena","level":2,"country":"NAM"},"geometry":{"type":"Polygon","coordinates":[[[15.58764,-17.73732],[15.38631,-17.93222],[15.40715,-17.94895],[15.43495,-17.9594],[15.47073,-17.99419],[15.50068,-18.01019],[15.50441,-17.99714],[15.53204,-17.95701],[15.53589,-17.93471],[15.54936,-17.85142],[15.56193,-17.8241],[15.59069,-17.80465],[15.62154,-17.7916],[15.6581,-17.78386],[15.65731,-17.7618],[15.66931,-17.7488],[15.73531,-17.7488],[15.73531,-17.7508],[15.76721,-17.75196],[15.76515,-17.71781],[15.78939,-17.70928],[15.78882,-17.69625],[15.80174,-17.68031],[15.65433,-17.67216],[15.58764,-17.73732]]]}}