{"type":"Feature","properties":{"id":"UZB.11.11","name":"Sharof Rashidov","level":2,"country":"UZB"},"geometry":{"type":"Polygon","coordinates":[[[67.51014,40.13938],[67.51787,40.11551],[67.55881,40.10676],[67.5959,40.10995],[67.60717,40.09357],[67.6473,40.06622],[67.65028,40.03402],[67.68668,39.99663],[67.69176,39.96352],[67.72586,39.92449],[67.75165,39.9195],[67.77817,39.88153],[67.77164,39.85638],[67.81351,39.84836],[67.84034,39.81882],[67.87705,39.81686],[67.91974,39.80371],[67.96387,39.79895],[67.98389,39.78734],[67.9975,39.84691],[68.05011,39.92804],[68.05794,39.95567],[68.08353,39.99118],[68.08393,40.02158],[68.06045,40.02995],[68.06389,40.05603],[68.00759,40.05953],[68.01539,40.08633],[67.97581,40.09941],[67.98324,40.14143],[67.96345,40.1598],[67.96566,40.18339],[67.93117,40.19038],[67.96056,40.25961],[67.93559,40.26123],[67.86011,40.25427],[67.82636,40.2308],[67.78573,40.24724],[67.73979,40.21818],[67.70863,40.22755],[67.69885,40.17797],[67.65325,40.18014],[67.64517,40.14403],[67.61354,40.14156],[67.57439,40.16802],[67.51014,40.13938]],[[67.83336,40.1136],[67.83333,40.10045],[67.86226,40.07639],[67.86986,40.05393],[67.79803,40.06004],[67.80048,40.1077],[67.83336,40.1136]]]}}