{"type":"Feature","properties":{"id":"UZB.13.19","name":"Tashkent","level":2,"country":"UZB"},"geometry":{"type":"Polygon","coordinates":[[[69.15874,41.33867],[69.19689,41.36262],[69.23055,41.3651],[69.25358,41.35113],[69.28899,41.35018],[69.29182,41.36481],[69.25682,41.37357],[69.30688,41.39312],[69.32696,41.40854],[69.38076,41.41341],[69.36963,41.45969],[69.30744,41.45087],[69.27373,41.4626],[69.23146,41.46171],[69.18483,41.44589],[69.17105,41.41488],[69.11323,41.38627],[69.08904,41.34389],[69.07433,41.33253],[69.03324,41.34217],[68.98895,41.28365],[69.02679,41.27011],[69.04285,41.29752],[69.06294,41.29668],[69.08792,41.31556],[69.11239,41.3091],[69.13832,41.34151],[69.15874,41.33867]]]}}