{"type":"Feature","properties":{"id":"UZB.5.12","name":"Samarkand","level":2,"country":"UZB"},"geometry":{"type":"Polygon","coordinates":[[[66.76994,39.40668],[66.78536,39.38287],[66.81777,39.38271],[66.84267,39.36995],[66.85986,39.38129],[66.86237,39.40009],[66.89941,39.40284],[66.91608,39.41725],[66.95028,39.4119],[66.97975,39.42092],[66.98412,39.4361],[67.02105,39.45461],[67.00386,39.48556],[67.05007,39.48908],[67.04298,39.51014],[67.03374,39.52614],[67.07125,39.54055],[67.05031,39.55581],[67.06918,39.61546],[67.10522,39.62328],[67.08637,39.64307],[67.0794,39.6682],[67.04496,39.67368],[67.02408,39.66848],[66.96424,39.69023],[66.90223,39.70639],[66.88916,39.72604],[66.86244,39.72611],[66.85402,39.74871],[66.79741,39.74874],[66.79858,39.73442],[66.8297,39.71202],[66.83446,39.68581],[66.8558,39.68224],[66.87179,39.65953],[66.89692,39.67638],[66.91833,39.67528],[66.9175,39.64279],[67.00488,39.64234],[67.01175,39.60188],[66.98232,39.59079],[66.94406,39.61415],[66.93732,39.63748],[66.91011,39.63564],[66.88303,39.61144],[66.83932,39.60928],[66.84341,39.58683],[66.81834,39.57059],[66.80701,39.54758],[66.85123,39.5229],[66.84566,39.48994],[66.81977,39.48258],[66.81903,39.45742],[66.79121,39.44579],[66.79809,39.43053],[66.76994,39.40668]]]}}