{"type":"Feature","properties":{"id":"UZB.2.1","name":"Yangibazar","level":2,"country":"UZB"},"geometry":{"type":"Polygon","coordinates":[[[60.41828,41.59379],[60.46131,41.58483],[60.48986,41.58786],[60.48811,41.61486],[60.50863,41.63634],[60.5299,41.60375],[60.55696,41.60879],[60.53737,41.65808],[60.54383,41.70468],[60.49968,41.70903],[60.4659,41.75855],[60.43781,41.75467],[60.41574,41.77682],[60.39048,41.76453],[60.30547,41.74288],[60.28,41.7139],[60.37997,41.65493],[60.40733,41.65585],[60.40637,41.62877],[60.41828,41.59379]]]}}