{"type":"Feature","properties":{"id":"UZB.6.9","name":"Dehkanabad","level":2,"country":"UZB"},"geometry":{"type":"Polygon","coordinates":[[[66.54423,38.61818],[66.53777,38.58595],[66.56014,38.572],[66.54442,38.54747],[66.49335,38.54766],[66.47391,38.52544],[66.48958,38.50861],[66.49265,38.47771],[66.47245,38.46228],[66.40726,38.46193],[66.40755,38.43259],[66.39101,38.41031],[66.38949,38.38401],[66.36291,38.37694],[66.30544,38.38166],[66.26123,38.34176],[66.23162,38.32342],[66.18424,38.31138],[66.14463,38.31123],[66.16582,38.28382],[66.13618,38.26095],[66.13779,38.24663],[66.10252,38.22232],[66.08098,38.22942],[66.05054,38.21106],[66.09412,38.20198],[66.11863,38.17864],[66.19433,38.16093],[66.24552,38.15404],[66.27353,38.11416],[66.31305,38.0788],[66.37345,38.05077],[66.40001,38.03249],[66.43958,38.02782],[66.49654,38.04185],[66.55124,38.03823],[66.62018,38.01403],[66.65701,37.97939],[66.69353,38.02261],[66.71316,38.05607],[66.78325,38.11258],[66.82398,38.12376],[66.84895,38.1428],[66.8816,38.20001],[66.86022,38.2095],[66.8734,38.24306],[66.87327,38.27164],[66.94925,38.29256],[66.97181,38.29056],[67.0088,38.3296],[67.03352,38.33656],[67.04356,38.35588],[67.06801,38.35382],[67.12701,38.3705],[67.16175,38.39449],[67.17581,38.42047],[67.17942,38.47303],[67.19817,38.49738],[67.22591,38.50724],[67.18091,38.51811],[67.18246,38.53687],[67.22936,38.55378],[67.22904,38.57259],[67.20505,38.59046],[67.21409,38.60603],[67.27605,38.6188],[67.29308,38.64619],[67.29977,38.67535],[67.28805,38.69219],[67.26047,38.68911],[67.23723,38.70247],[67.21534,38.67142],[67.19706,38.69142],[67.16531,38.70573],[67.13283,38.69747],[67.13092,38.66819],[67.14483,38.65884],[67.13441,38.62976],[67.14032,38.60781],[67.10262,38.58313],[67.08839,38.55188],[67.04753,38.57614],[67.04752,38.60622],[66.9784,38.57394],[66.98751,38.56245],[66.93211,38.54412],[66.82545,38.58553],[66.75933,38.5899],[66.74787,38.62098],[66.69741,38.64606],[66.68269,38.6268],[66.62343,38.64225],[66.57603,38.6409],[66.56319,38.61858],[66.54423,38.61818]]]}}