{"type":"Feature","properties":{"id":"PRK.4.14","name":"Yonsa","level":2,"country":"PRK"},"geometry":{"type":"Polygon","coordinates":[[[129.321,41.89498],[129.29683,41.91243],[129.30026,41.92878],[129.29388,41.94238],[129.27774,41.95599],[129.25829,41.96415],[129.23871,41.96141],[129.21254,41.9505],[129.18988,41.9641],[129.18687,41.98861],[129.13835,42.01852],[129.119,42.03757],[129.07692,42.06205],[129.03812,42.08925],[129.01407,42.08929],[129.01913,42.07471],[129.01666,42.05416],[129.00137,42.04388],[128.9819,42.01833],[128.98718,42.01305],[128.96606,41.9886],[128.95303,41.99361],[128.92413,41.9736],[128.90137,41.97443],[128.89136,41.95638],[128.90082,41.93971],[128.87247,41.91499],[128.85773,41.92916],[128.80931,41.9237],[128.80664,41.91527],[128.83829,41.89639],[128.83942,41.88583],[128.86636,41.85166],[128.87411,41.82555],[128.9147,41.82972],[128.92609,41.82194],[128.92303,41.78111],[128.92914,41.74888],[128.92996,41.72249],[128.95053,41.69527],[128.95331,41.67777],[128.92969,41.65027],[128.92719,41.64027],[128.94693,41.63277],[128.99191,41.62721],[129.02386,41.60694],[129.05132,41.56853],[129.06189,41.57189],[129.09473,41.59642],[129.11748,41.59099],[129.13062,41.60189],[129.13414,41.6264],[129.1604,41.64548],[129.18652,41.65094],[129.20299,41.66729],[129.2247,41.7186],[129.24454,41.73485],[129.24808,41.7538],[129.24203,41.78899],[129.25208,41.80524],[129.27187,41.81878],[129.29834,41.84316],[129.321,41.89498]]]}}