{"type":"Feature","properties":{"id":"PRK.7.19","name":"Jongphyong","level":2,"country":"PRK"},"geometry":{"type":"Polygon","coordinates":[[[127.10528,39.86671],[127.08549,39.84793],[127.12194,39.81299],[127.14146,39.8101],[127.14735,39.78782],[127.16352,39.78216],[127.17284,39.76542],[127.17506,39.72925],[127.18104,39.70975],[127.19363,39.69299],[127.15977,39.65147],[127.16233,39.62642],[127.17429,39.59929],[127.21688,39.59274],[127.2399,39.59817],[127.25607,39.59251],[127.272,39.57851],[127.29157,39.5784],[127.30113,39.57],[127.31348,39.5449],[127.33921,39.53085],[127.38149,39.52505],[127.40435,39.52492],[127.4409,39.54696],[127.54038,39.54639],[127.57544,39.58566],[127.55747,39.60276],[127.56344,39.61928],[127.54998,39.62202],[127.53358,39.63689],[127.51228,39.63118],[127.49389,39.64567],[127.48803,39.66281],[127.49035,39.69914],[127.49944,39.7159],[127.46559,39.72481],[127.42737,39.7584],[127.40554,39.79469],[127.38643,39.81148],[127.34135,39.83399],[127.29604,39.84815],[127.24715,39.85121],[127.20119,39.84313],[127.16264,39.8656],[127.10528,39.86671]]]}}