{"type":"Feature","properties":{"id":"FIN.5.6","name":"Nivala–Haapajärven seutukunta","level":2,"country":"FIN"},"geometry":{"type":"Polygon","coordinates":[[[25.03632,63.45807],[25.0819,63.46716],[25.10372,63.49104],[25.11401,63.50431],[25.14014,63.57431],[25.25113,63.61229],[25.34803,63.58148],[25.48117,63.53283],[25.54151,63.52375],[25.69824,63.51996],[25.73822,63.51488],[25.77437,63.50571],[25.80908,63.49449],[25.89285,63.43964],[25.9946,63.42911],[26.13864,63.4576],[26.18954,63.50219],[26.1951,63.56931],[26.22223,63.57665],[26.29177,63.59001],[26.29197,63.60077],[26.24365,63.80838],[26.2175,63.83185],[26.24333,63.84131],[26.25066,63.92634],[25.8815,63.84957],[25.885,63.84309],[25.86191,63.83715],[25.85586,63.84423],[25.85098,63.84324],[25.73876,63.80759],[25.74142,63.81686],[25.73211,63.8163],[25.73094,63.80509],[25.67387,63.78685],[25.67638,63.7977],[25.66238,63.79955],[25.66781,63.80949],[25.60939,63.91783],[25.36656,63.9301],[25.20073,64.01244],[25.19056,64.01501],[25.20158,64.02906],[25.183,64.04016],[25.20045,64.04597],[25.19141,64.05175],[25.16238,64.04875],[25.1467,64.04201],[25.15447,64.03122],[25.1431,64.02618],[25.08037,64.04622],[25.02154,64.0681],[24.91329,63.98356],[24.87656,63.98951],[24.82825,63.97674],[24.81667,63.98243],[24.80478,63.98643],[24.79589,63.97907],[24.77751,63.98668],[24.78288,63.98951],[24.77604,63.99255],[24.76486,63.98507],[24.74914,63.98319],[24.72823,63.96856],[24.72428,63.95616],[24.65534,63.96075],[24.63754,63.9662],[24.63867,63.94635],[24.6723,63.94165],[24.66107,63.93122],[24.69802,63.92331],[24.73369,63.92253],[24.7702,63.90079],[24.82311,63.88189],[24.82388,63.872],[24.81287,63.86836],[24.82297,63.86201],[24.86881,63.86649],[24.91599,63.85068],[24.93386,63.83577],[24.9256,63.82988],[24.95018,63.82141],[24.96854,63.80588],[24.93578,63.68436],[24.92405,63.67036],[24.75771,63.70671],[24.73801,63.70928],[24.6637,63.67199],[24.6259,63.64866],[24.61875,63.65087],[24.61912,63.64946],[24.75378,63.61121],[24.82025,63.58659],[24.91699,63.52324],[25.03632,63.45807]]]}}