{"type":"Feature","properties":{"id":"BOL.8.4","name":"Ñuflo De Chávez","level":2,"country":"BOL"},"geometry":{"type":"Polygon","coordinates":[[[-61.56857,-17.25745],[-61.58023,-17.25125],[-61.58402,-17.23734],[-61.57981,-17.2298],[-61.60973,-17.22302],[-61.60967,-17.20802],[-61.60472,-17.20371],[-61.60178,-17.18932],[-61.59543,-17.18895],[-61.58989,-17.17508],[-61.59714,-17.16983],[-61.6141,-17.18347],[-61.61553,-17.19117],[-61.62934,-17.18416],[-61.63033,-17.17676],[-61.64353,-17.17089],[-61.65518,-17.18017],[-61.66194,-17.18089],[-61.66502,-17.17151],[-61.67791,-17.16529],[-61.67521,-17.15639],[-61.67908,-17.14924],[-61.70544,-17.13683],[-61.71668,-17.13643],[-61.72275,-17.12817],[-61.73032,-17.12995],[-61.74382,-17.11963],[-61.75545,-17.12416],[-61.76876,-17.11647],[-61.7723,-17.10199],[-61.77764,-17.10231],[-61.78562,-17.09375],[-61.80111,-17.08621],[-61.80673,-17.09318],[-61.82398,-17.08953],[-61.82763,-17.09658],[-61.8377,-17.09755],[-61.8304,-17.07783],[-61.83973,-17.0755],[-61.83861,-17.06901],[-61.84966,-17.06279],[-61.84945,-17.05031],[-61.8456,-17.04487],[-61.85088,-17.03387],[-61.8321,-17.02726],[-61.82743,-17.03418],[-61.81317,-17.02753],[-61.78624,-17.03902],[-61.76918,-17.03419],[-61.76337,-17.04141],[-61.74225,-17.04477],[-61.7261,-17.03164],[-61.719,-17.03135],[-61.7126,-17.02517],[-61.70401,-17.02639],[-61.68407,-17.01571],[-61.67443,-17.0281],[-61.66622,-17.0222],[-61.66128,-17.01349],[-61.66222,-17.00149],[-61.65551,-16.99017],[-61.66097,-16.9827],[-61.6404,-16.53623],[-61.63887,-16.48951],[-61.64085,-16.4804],[-61.6496,-16.47336],[-61.65199,-16.45715],[-61.64992,-16.44549],[-61.65931,-16.43311],[-61.65798,-16.41905],[-61.65133,-16.40446],[-61.65757,-16.39962],[-61.65754,-16.38021],[-61.66531,-16.37226],[-61.66585,-16.36251],[-61.67523,-16.34688],[-61.66949,-16.31916],[-61.6709,-16.30255],[-61.68672,-16.28854],[-61.68837,-16.27387],[-61.69736,-16.26534],[-61.6928,-16.25548],[-61.69289,-16.24304],[-61.68463,-16.23419],[-61.68654,-16.22557],[-61.68507,-16.20931],[-61.67689,-16.19857],[-61.67517,-16.19215],[-61.67604,-16.17308],[-61.6865,-16.15604],[-61.68361,-16.14837],[-61.68757,-16.1437],[-61.68028,-16.13306],[-61.68385,-16.11245],[-61.68304,-16.09662],[-61.68,-16.0844],[-61.67957,-16.05953],[-61.67506,-16.02026],[-61.66326,-15.99941],[-61.65626,-15.97629],[-61.6496,-15.9632],[-61.64401,-15.94397],[-61.63551,-15.93319],[-61.6185,-15.92357],[-61.60912,-15.92123],[-61.59694,-15.91376],[-61.58116,-15.89468],[-61.57865,-15.88774],[-61.58136,-15.87879],[-61.57711,-15.87341],[-61.57217,-15.85855],[-61.57509,-15.84746],[-61.58197,-15.835],[-61.58348,-15.82556],[-61.59426,-15.81007],[-61.59282,-15.80084],[-61.59842,-15.78395],[-61.61256,-15.77357],[-61.59956,-15.7659],[-61.58312,-15.76451],[-61.57374,-15.76898],[-61.56566,-15.78207],[-61.55149,-15.77867],[-61.54366,-15.77239],[-61.54503,-15.76671],[-61.54003,-15.7506],[-61.53139,-15.74029],[-61.53126,-15.72367],[-61.53862,-15.71319],[-61.52978,-15.69008],[-61.53033,-15.68207],[-61.52601,-15.67627],[-61.5284,-15.66321],[-61.52287,-15.65247],[-61.52027,-15.6381],[-61.51948,-15.61945],[-61.5107,-15.54241],[-61.48768,-15.31872],[-61.49735,-15.30233],[-61.49603,-15.29414],[-61.49894,-15.27321],[-61.50806,-15.2656],[-61.50185,-15.25207],[-61.50935,-15.23318],[-61.50128,-15.22566],[-61.49454,-15.2151],[-61.49263,-15.18856],[-61.49401,-15.18323],[-61.49036,-15.16956],[-61.48911,-15.1532],[-61.48214,-15.1416],[-61.48341,-15.12272],[-61.47943,-15.11324],[-61.48756,-15.0932],[-61.49339,-15.08516],[-61.49231,-15.02989],[-61.4948,-15.01562],[-61.49269,-15.00516],[-61.49162,-14.97717],[-61.49657,-14.96699],[-61.4955,-14.93717],[-61.50293,-14.92119],[-61.508,-14.90094],[-61.51908,-14.88758],[-61.51706,-14.88165],[-61.51831,-14.8619],[-61.53234,-14.83265],[-61.53497,-14.80322],[-61.54509,-14.80344],[-61.5505,-14.7911],[-61.54844,-14.7784],[-61.5505,-14.76947],[-61.55788,-14.76277],[-61.56015,-14.74293],[-61.56478,-14.73301],[-61.5841,-14.71666],[-61.58489,-14.70559],[-61.5914,-14.70026],[-61.60714,-14.70364],[-61.62024,-14.69985],[-61.62744,-14.69295],[-61.64418,-14.6841],[-61.64429,-14.66576],[-61.65268,-14.64945],[-61.66103,-14.64399],[-61.66284,-14.63741],[-61.67521,-14.63042],[-61.67854,-14.61425],[-61.6889,-14.6059],[-61.6891,-14.59865],[-61.70487,-14.58708],[-61.73095,-14.52626],[-61.74419,-14.50401],[-61.77249,-14.4792],[-61.89044,-14.39501],[-61.93419,-14.37394],[-61.9635,-14.35243],[-61.98141,-14.3423],[-62.03734,-14.30347],[-62.0665,-14.28631],[-62.09171,-14.26789],[-62.1222,-14.24275],[-62.12889,-14.23322],[-62.13679,-14.21575],[-62.14085,-14.19845],[-62.14239,-14.14185],[-62.14467,-14.007],[-62.13924,-13.76236],[-62.70489,-13.9758],[-62.70126,-13.99143],[-62.69351,-13.99635],[-62.69321,-14.00572],[-62.68772,-14.00672],[-62.68481,-14.01832],[-62.6795,-14.02401],[-62.67502,-14.04291],[-62.67966,-14.06586],[-62.69196,-14.07234],[-62.69104,-14.07972],[-62.69457,-14.09489],[-62.69959,-14.1013],[-62.70429,-14.11445],[-62.71099,-14.11918],[-62.71823,-14.11641],[-62.72251,-14.12449],[-62.73354,-14.12732],[-62.73837,-14.13857],[-62.73125,-14.14579],[-62.73584,-14.15245],[-62.7478,-14.14854],[-62.75053,-14.16404],[-62.75659,-14.17295],[-62.75509,-14.1967],[-62.76293,-14.20378],[-62.76336,-14.23496],[-62.76188,-14.24663],[-62.76943,-14.25075],[-62.7705,-14.25649],[-62.78168,-14.26464],[-62.78423,-14.27023],[-62.79727,-14.28153],[-62.79225,-14.29205],[-62.79784,-14.29436],[-62.79639,-14.30375],[-62.78534,-14.31845],[-62.78392,-14.32705],[-62.77788,-14.33272],[-62.77738,-14.34229],[-62.76889,-14.3558],[-62.76046,-14.35898],[-62.74961,-14.3812],[-62.75067,-14.38816],[-62.74473,-14.3979],[-62.74778,-14.40664],[-62.74787,-14.42119],[-62.74347,-14.43528],[-62.73899,-14.43114],[-62.72841,-14.43648],[-62.73925,-14.456],[-62.729,-14.46711],[-62.73207,-14.48],[-62.71975,-14.49916],[-62.72364,-14.50951],[-62.71006,-14.51287],[-62.70252,-14.52288],[-62.70424,-14.52936],[-62.70036,-14.54087],[-62.68756,-14.54656],[-62.6815,-14.54376],[-62.67241,-14.54653],[-62.66964,-14.56355],[-62.67056,-14.57703],[-62.65588,-14.58874],[-62.66418,-14.59932],[-62.676,-14.60712],[-62.67391,-14.61137],[-62.65916,-14.61471],[-62.66155,-14.62147],[-62.65096,-14.62348],[-62.64748,-14.62891],[-62.65871,-14.63496],[-62.65938,-14.64274],[-62.64873,-14.63979],[-62.6374,-14.64726],[-62.62646,-14.64183],[-62.62095,-14.65013],[-62.62195,-14.65835],[-62.6306,-14.66663],[-62.6226,-14.67545],[-62.62691,-14.68371],[-62.62795,-14.69423],[-62.61552,-14.70031],[-62.61817,-14.71653],[-62.62206,-14.72277],[-62.61807,-14.72797],[-62.62838,-14.73627],[-62.63546,-14.73752],[-62.63856,-14.75975],[-62.64994,-14.7664],[-62.64757,-14.7729],[-62.65039,-14.78359],[-62.64408,-14.78867],[-62.64396,-14.79694],[-62.63557,-14.80729],[-62.63626,-14.81371],[-62.64809,-14.81949],[-62.6445,-14.82594],[-62.64769,-14.83603],[-62.64443,-14.84308],[-62.63106,-14.85224],[-62.63813,-14.8625],[-62.6359,-14.86942],[-62.62668,-14.87122],[-62.62452,-14.88047],[-62.62746,-14.88725],[-62.64571,-14.89227],[-62.64724,-14.90336],[-62.64306,-14.90694],[-62.6497,-14.91525],[-62.64455,-14.92522],[-62.64296,-14.9477],[-62.63466,-14.95801],[-62.63231,-14.97113],[-62.6437,-14.98033],[-62.63615,-14.99543],[-62.63062,-14.99047],[-62.60696,-14.99065],[-62.60119,-14.99416],[-62.60112,-15.00124],[-62.59006,-15.00232],[-62.58213,-15.01179],[-62.58443,-15.01722],[-62.57582,-15.04033],[-62.55312,-15.05111],[-62.54853,-15.06035],[-62.55454,-15.06989],[-62.5417,-15.07733],[-62.53633,-15.0894],[-62.52811,-15.09191],[-62.51931,-15.10514],[-62.50788,-15.10942],[-62.49957,-15.10257],[-62.49787,-15.09348],[-62.48906,-15.09197],[-62.48501,-15.09694],[-62.49164,-15.10442],[-62.49458,-15.12966],[-62.48664,-15.13539],[-62.48681,-15.14328],[-62.49297,-15.15166],[-62.49423,-15.16477],[-62.49867,-15.17689],[-62.51451,-15.18216],[-62.52126,-15.19129],[-62.52724,-15.21181],[-62.52353,-15.21941],[-62.52365,-15.23074],[-62.53118,-15.23564],[-62.52359,-15.25158],[-62.52761,-15.27265],[-62.52503,-15.28068],[-62.52549,-15.30175],[-62.53429,-15.3068],[-62.53651,-15.31561],[-62.53169,-15.32242],[-62.52821,-15.33677],[-62.51709,-15.34839],[-62.51324,-15.35927],[-62.52344,-15.374],[-62.53674,-15.37905],[-62.535,-15.3867],[-62.54029,-15.3903],[-62.54273,-15.40107],[-62.55092,-15.40716],[-62.54996,-15.41792],[-62.55895,-15.43163],[-62.54351,-15.44162],[-62.53687,-15.45013],[-62.51587,-15.46443],[-62.50922,-15.47488],[-62.50934,-15.48768],[-62.51472,-15.49577],[-62.51454,-15.50399],[-62.50958,-15.51743],[-62.531,-15.52155],[-62.54102,-15.57702],[-62.5447,-15.58684],[-62.5871,-15.84767],[-62.67142,-16.39638],[-62.67965,-16.40695],[-62.66665,-16.418],[-62.67412,-16.42557],[-62.67296,-16.43635],[-62.66734,-16.44913],[-62.67311,-16.45937],[-62.67657,-16.47802],[-62.68522,-16.48715],[-62.69587,-16.49277],[-62.70017,-16.50391],[-62.71682,-16.51067],[-62.71925,-16.50212],[-62.74787,-16.50558],[-62.75302,-16.50116],[-62.75952,-16.50613],[-62.7695,-16.50656],[-62.77633,-16.50271],[-63.45103,-16.50424],[-63.43943,-16.51525],[-63.41371,-16.52009],[-63.41985,-16.52687],[-63.40984,-16.53797],[-63.39522,-16.53993],[-63.39848,-16.54989],[-63.38856,-16.5533],[-63.38905,-16.56326],[-63.38504,-16.579],[-63.37703,-16.58145],[-63.36268,-16.59721],[-63.35771,-16.59565],[-63.34976,-16.60209],[-63.34377,-16.59955],[-63.32534,-16.62479],[-63.32295,-16.6339],[-63.33055,-16.63898],[-63.29818,-16.64404],[-63.29157,-16.65175],[-63.27317,-16.64704],[-63.27005,-16.65429],[-63.26224,-16.65581],[-63.24945,-16.67334],[-63.23975,-16.66811],[-63.23693,-16.67605],[-63.22835,-16.68201],[-63.22081,-16.69557],[-63.20712,-16.69141],[-63.20605,-16.70038],[-63.18809,-16.6948],[-63.18035,-16.69631],[-63.17919,-16.70314],[-63.16612,-16.70671],[-63.15757,-16.71532],[-63.16159,-16.72285],[-63.15486,-16.72579],[-63.1482,-16.73516],[-63.15792,-16.73719],[-63.14531,-16.74957],[-63.15299,-16.75384],[-63.14875,-16.76011],[-63.13843,-16.75847],[-63.14049,-16.76974],[-63.13632,-16.77763],[-63.12623,-16.77687],[-63.11715,-16.7836],[-63.1047,-16.79854],[-63.09348,-16.80614],[-63.07951,-16.80941],[-63.0723,-16.82629],[-63.07813,-16.83433],[-63.08612,-16.83748],[-63.0843,-16.845],[-63.08848,-16.86531],[-63.08774,-16.87915],[-63.09733,-16.89239],[-63.09603,-16.89962],[-63.08945,-16.90476],[-63.07864,-16.89927],[-63.07597,-16.90793],[-63.06424,-16.92693],[-63.06986,-16.92959],[-63.08695,-16.92187],[-63.08363,-16.93248],[-63.06807,-16.94159],[-63.06681,-16.94846],[-63.05858,-16.95588],[-63.055,-16.95143],[-63.04612,-16.95885],[-63.04878,-16.96469],[-63.04067,-16.97317],[-63.04222,-16.98318],[-63.05057,-16.99189],[-63.04052,-16.99858],[-63.04136,-17.0208],[-63.02507,-17.02329],[-63.01781,-17.03194],[-63.03413,-17.03242],[-63.03447,-17.03576],[-63.02909,-17.04606],[-63.01774,-17.03995],[-63.01702,-17.04713],[-63.00811,-17.05472],[-62.99244,-17.05128],[-62.98547,-17.05274],[-62.98712,-17.06782],[-62.992,-17.07392],[-62.9914,-17.0808],[-62.98331,-17.08235],[-62.9742,-17.09243],[-62.96662,-17.09328],[-62.93529,-17.08996],[-62.92437,-17.10177],[-62.92105,-17.11818],[-62.90722,-17.12015],[-62.89964,-17.12765],[-62.88844,-17.11598],[-62.87888,-17.12379],[-62.86226,-17.13267],[-62.81751,-17.14168],[-62.80438,-17.15232],[-62.79692,-17.16641],[-62.78557,-17.16825],[-62.76979,-17.18233],[-62.76276,-17.19437],[-62.75171,-17.19651],[-62.73454,-17.19592],[-62.73348,-17.20697],[-62.74317,-17.21731],[-62.73628,-17.23205],[-62.72666,-17.24017],[-62.72625,-17.24534],[-62.74135,-17.27109],[-62.74273,-17.28007],[-62.74013,-17.28973],[-62.7406,-17.30568],[-62.74776,-17.31373],[-62.74516,-17.32166],[-62.73798,-17.32766],[-62.74096,-17.33666],[-62.73166,-17.35854],[-62.73503,-17.37538],[-62.75276,-17.37894],[-62.75762,-17.38909],[-62.75739,-17.4188],[-62.7518,-17.42338],[-62.74959,-17.43582],[-62.76224,-17.4405],[-62.75814,-17.44882],[-62.74836,-17.45855],[-62.75224,-17.46716],[-62.76828,-17.469],[-62.78165,-17.46783],[-62.78862,-17.47797],[-62.78422,-17.4914],[-62.7862,-17.50194],[-62.71515,-17.49031],[-62.62073,-17.46602],[-62.54031,-17.46142],[-62.04707,-17.38068],[-61.77954,-17.34154],[-61.56857,-17.25745]]]}}