{"type":"Feature","properties":{"id":"BOL.3.7","name":"General José Ballivián","level":2,"country":"BOL"},"geometry":{"type":"Polygon","coordinates":[[[-67.53763,-14.59309],[-67.53675,-14.60221],[-67.52605,-14.61504],[-67.52565,-14.6274],[-67.5294,-14.63717],[-67.52779,-14.6535],[-67.52292,-14.65376],[-67.51664,-14.64382],[-67.50934,-14.64817],[-67.51309,-14.6593],[-67.50318,-14.67104],[-67.4896,-14.67858],[-67.49748,-14.686],[-67.48657,-14.68876],[-67.46986,-14.70019],[-67.46055,-14.71385],[-67.442,-14.72625],[-67.442,-14.73139],[-67.42488,-14.7396],[-67.42293,-14.74848],[-67.42435,-14.75979],[-67.41158,-14.77112],[-67.41636,-14.77725],[-67.40651,-14.78046],[-67.40413,-14.79491],[-67.39258,-14.79501],[-67.3995,-14.81642],[-67.39305,-14.82017],[-67.39987,-14.83088],[-67.40744,-14.83418],[-67.41053,-14.84501],[-67.40346,-14.85053],[-67.4059,-14.85722],[-67.40195,-14.86721],[-67.41194,-14.86656],[-67.42249,-14.88089],[-67.42929,-14.88355],[-67.4315,-14.89402],[-67.42457,-14.89793],[-67.4225,-14.90519],[-67.42851,-14.9222],[-67.41756,-14.93104],[-67.42243,-14.93381],[-67.42294,-14.94466],[-67.41266,-14.95049],[-67.41816,-14.95544],[-67.41921,-14.97079],[-67.41042,-14.96825],[-67.41098,-14.98117],[-67.41579,-14.98611],[-67.41362,-14.99288],[-67.40329,-14.99404],[-67.39611,-15.00933],[-67.38636,-15.01277],[-67.38685,-15.01762],[-67.37668,-15.02183],[-67.37345,-15.02714],[-67.36039,-15.03151],[-67.35454,-15.02871],[-67.33661,-15.03905],[-67.32941,-15.03766],[-67.31999,-15.04646],[-67.31651,-15.03719],[-67.3038,-15.04408],[-67.30116,-15.03227],[-67.26396,-15.04663],[-67.25651,-15.05663],[-67.25069,-15.04702],[-67.24301,-15.05231],[-67.23792,-15.06258],[-67.2433,-15.07627],[-67.23774,-15.08582],[-67.24502,-15.0918],[-67.24315,-15.09938],[-67.22913,-15.11689],[-67.21315,-15.11261],[-67.19924,-15.1299],[-67.19426,-15.1395],[-67.19251,-15.15223],[-67.18624,-15.1512],[-67.16754,-15.1767],[-67.16708,-15.18444],[-67.15787,-15.18864],[-67.15137,-15.19682],[-67.1449,-15.21229],[-67.13688,-15.22131],[-67.13682,-15.22731],[-67.12678,-15.25065],[-67.1322,-15.26294],[-67.1256,-15.2772],[-67.1143,-15.27937],[-67.10213,-15.30052],[-67.09004,-15.30092],[-67.08139,-15.31455],[-67.08615,-15.32227],[-67.08327,-15.33737],[-67.08832,-15.34545],[-67.08856,-15.35294],[-67.0995,-15.36023],[-67.11651,-15.38708],[-67.11082,-15.40039],[-67.10646,-15.39937],[-67.10041,-15.41119],[-67.09306,-15.41075],[-67.08099,-15.42748],[-67.07269,-15.42699],[-67.06191,-15.44405],[-67.05176,-15.44504],[-67.03226,-15.459],[-67.02538,-15.46759],[-67.00249,-15.47664],[-67.00278,-15.48512],[-66.99331,-15.48628],[-66.97463,-15.49946],[-66.96277,-15.51106],[-66.95908,-15.51954],[-66.94967,-15.52577],[-66.9496,-15.5324],[-66.93176,-15.55153],[-66.93659,-15.55906],[-66.93245,-15.56567],[-66.92349,-15.56881],[-66.90672,-15.59838],[-66.89961,-15.60406],[-66.89921,-15.61518],[-66.90667,-15.62121],[-66.90437,-15.62708],[-66.90691,-15.64022],[-66.88968,-15.66254],[-66.87349,-15.69398],[-66.79542,-15.7851],[-66.79605,-15.78006],[-66.78117,-15.77847],[-66.76497,-15.79315],[-66.75299,-15.80066],[-66.7439,-15.79712],[-66.73599,-15.80402],[-66.71903,-15.80602],[-66.71568,-15.7979],[-66.72634,-15.79302],[-66.72954,-15.7832],[-66.72294,-15.7659],[-66.71496,-15.76242],[-66.71002,-15.75369],[-66.69678,-15.74909],[-66.6953,-15.7393],[-66.70197,-15.73006],[-66.71994,-15.71329],[-66.72183,-15.70556],[-66.7069,-15.6953],[-66.69531,-15.69578],[-66.69726,-15.68252],[-66.6905,-15.67834],[-66.67903,-15.66487],[-66.66693,-15.66198],[-66.65525,-15.63411],[-66.65035,-15.63442],[-66.53147,-15.56553],[-66.52107,-14.31073],[-66.52024,-14.20044],[-66.51578,-13.57114],[-66.5137,-12.72565],[-66.50614,-12.725],[-66.49699,-12.71961],[-66.48863,-12.70734],[-66.48323,-12.68368],[-66.47356,-12.65851],[-66.46701,-12.65336],[-66.45859,-12.62939],[-66.44669,-12.60745],[-66.44025,-12.5889],[-66.44223,-12.57188],[-66.43259,-12.55507],[-66.43855,-12.54226],[-66.40197,-12.49551],[-66.39143,-12.46979],[-66.39106,-12.45821],[-66.38342,-12.45687],[-66.36593,-12.4458],[-66.34605,-12.42044],[-66.34641,-12.40942],[-66.34202,-12.4076],[-66.33378,-12.39518],[-66.32348,-12.39277],[-66.30657,-12.37596],[-66.3091,-12.37178],[-66.30584,-12.35477],[-66.28925,-12.34559],[-66.28009,-12.32522],[-66.27147,-12.31726],[-66.26795,-12.30728],[-66.27184,-12.29349],[-66.26631,-12.27164],[-66.26991,-12.25378],[-66.29673,-12.24022],[-66.29785,-12.23092],[-66.30654,-12.22254],[-66.30524,-12.21029],[-66.29946,-12.19971],[-66.30382,-12.18872],[-66.29203,-12.17176],[-66.29855,-12.16606],[-66.29875,-12.15253],[-66.3042,-12.14722],[-66.2979,-12.12951],[-66.3044,-12.12035],[-66.29988,-12.09641],[-66.28829,-12.09101],[-66.28567,-12.06459],[-66.28273,-12.05659],[-66.28801,-12.03602],[-66.28372,-12.01703],[-66.27976,-12.00934],[-66.26151,-12.00466],[-66.26787,-12.00001],[-66.89394,-12.00593],[-66.89519,-12.01434],[-66.91001,-12.0473],[-66.90861,-12.05686],[-66.89533,-12.05477],[-66.88855,-12.0581],[-66.88432,-12.07655],[-66.87656,-12.09533],[-66.87314,-12.10787],[-66.87612,-12.11346],[-66.92195,-12.15344],[-66.92525,-12.16492],[-66.92295,-12.17898],[-66.91809,-12.18612],[-66.89712,-12.19026],[-66.8892,-12.20001],[-66.88581,-12.21466],[-66.88612,-12.24697],[-66.88853,-12.25407],[-66.89669,-12.26269],[-66.91321,-12.28712],[-66.9456,-12.29741],[-66.94885,-12.30935],[-66.94605,-12.32757],[-66.93714,-12.33172],[-66.92019,-12.3339],[-66.90661,-12.342],[-66.9,-12.35169],[-66.89719,-12.36845],[-66.89948,-12.3732],[-66.9193,-12.37843],[-66.93854,-12.39866],[-66.96977,-12.41863],[-66.96925,-12.42332],[-66.95319,-12.44552],[-66.93523,-12.46546],[-66.93664,-12.47559],[-66.95265,-12.47512],[-66.96624,-12.4823],[-66.96731,-12.49034],[-66.96067,-12.50386],[-66.95546,-12.50845],[-66.92048,-12.52842],[-66.91903,-12.53855],[-66.93565,-12.54317],[-66.94369,-12.55735],[-66.96951,-12.56783],[-66.97456,-12.57648],[-66.97691,-12.59271],[-66.97309,-12.59584],[-66.94677,-12.59937],[-66.93952,-12.6105],[-66.92896,-12.61929],[-66.92652,-12.62556],[-66.93,-12.63228],[-66.94059,-12.6326],[-66.94369,-12.62605],[-66.95113,-12.6236],[-66.95461,-12.62984],[-66.95663,-12.64528],[-66.97083,-12.65184],[-66.97529,-12.6569],[-66.96877,-12.66522],[-66.95146,-12.66796],[-66.94705,-12.67091],[-66.93939,-12.68496],[-66.9452,-12.68979],[-66.95825,-12.68738],[-66.96932,-12.6887],[-66.97071,-12.69697],[-66.96076,-12.70849],[-66.95384,-12.72063],[-66.95329,-12.72808],[-66.95884,-12.7353],[-66.97083,-12.7281],[-66.98044,-12.72961],[-66.9806,-12.74061],[-66.96868,-12.75379],[-66.96817,-12.77158],[-66.95237,-12.78162],[-66.9478,-12.79031],[-66.95404,-12.80219],[-66.97031,-12.79276],[-66.98074,-12.78363],[-66.98689,-12.79181],[-66.98309,-12.80971],[-66.97385,-12.8186],[-66.95757,-12.82008],[-66.94394,-12.82342],[-66.94645,-12.83879],[-66.95138,-12.84414],[-66.96087,-12.83618],[-66.9694,-12.83684],[-66.97339,-12.84716],[-66.97909,-12.85168],[-66.99018,-12.85119],[-66.99408,-12.86289],[-66.99316,-12.88077],[-66.99515,-12.88853],[-67.00098,-12.88982],[-67.01887,-12.88403],[-67.0348,-12.89237],[-67.03629,-12.9009],[-67.0336,-12.90891],[-67.02402,-12.91152],[-67.01116,-12.90989],[-67.00041,-12.91272],[-67.00025,-12.92084],[-67.01208,-12.92945],[-67.0312,-12.92902],[-67.03659,-12.93193],[-67.04237,-12.94221],[-67.04693,-12.95669],[-67.03944,-12.96686],[-67.04345,-12.97789],[-67.0599,-12.9828],[-67.06804,-12.98965],[-67.06942,-12.99971],[-67.06529,-13.00379],[-67.04339,-13.01313],[-67.04294,-13.0415],[-67.04669,-13.05126],[-67.05309,-13.05327],[-67.06056,-13.0466],[-67.05887,-13.03294],[-67.06543,-13.02874],[-67.0896,-13.04558],[-67.09802,-13.04161],[-67.09203,-13.03091],[-67.09601,-13.02546],[-67.11126,-13.03115],[-67.11086,-13.04036],[-67.10086,-13.05311],[-67.10189,-13.06492],[-67.10636,-13.06847],[-67.11674,-13.06575],[-67.11145,-13.05092],[-67.11485,-13.04794],[-67.14051,-13.04678],[-67.14811,-13.05294],[-67.14649,-13.07476],[-67.14407,-13.08198],[-67.13502,-13.08881],[-67.13889,-13.09825],[-67.15908,-13.10294],[-67.16591,-13.12379],[-67.17039,-13.12558],[-67.18342,-13.1209],[-67.18708,-13.12775],[-67.16936,-13.13476],[-67.16104,-13.1543],[-67.16027,-13.1664],[-67.16623,-13.16737],[-67.19419,-13.16219],[-67.22067,-13.1662],[-67.22807,-13.17112],[-67.22565,-13.17834],[-67.2015,-13.18635],[-67.19795,-13.19528],[-67.21221,-13.19983],[-67.23793,-13.1938],[-67.24578,-13.19727],[-67.25393,-13.20695],[-67.26675,-13.20963],[-67.26847,-13.21624],[-67.26466,-13.22883],[-67.2582,-13.23479],[-67.24953,-13.25186],[-67.25117,-13.25829],[-67.26537,-13.25725],[-67.27573,-13.24169],[-67.28474,-13.24196],[-67.29404,-13.24772],[-67.29536,-13.25321],[-67.28675,-13.25998],[-67.26703,-13.26171],[-67.26279,-13.27202],[-67.26636,-13.29279],[-67.27823,-13.30311],[-67.2877,-13.30131],[-67.28813,-13.27286],[-67.29406,-13.2725],[-67.30077,-13.27844],[-67.30296,-13.2887],[-67.29626,-13.29579],[-67.30014,-13.30513],[-67.31607,-13.31393],[-67.32607,-13.32686],[-67.34851,-13.34046],[-67.35702,-13.34786],[-67.35608,-13.35386],[-67.33027,-13.35565],[-67.32661,-13.36277],[-67.33377,-13.36985],[-67.3779,-13.3859],[-67.38631,-13.39144],[-67.39098,-13.4013],[-67.3889,-13.40863],[-67.37917,-13.41374],[-67.3799,-13.42213],[-67.39622,-13.42658],[-67.39589,-13.4377],[-67.3762,-13.44346],[-67.35923,-13.44298],[-67.35674,-13.45284],[-67.36477,-13.4571],[-67.38888,-13.45615],[-67.3915,-13.46616],[-67.38748,-13.47811],[-67.38252,-13.48427],[-67.37079,-13.48389],[-67.36011,-13.4692],[-67.35121,-13.4674],[-67.34777,-13.47147],[-67.35143,-13.4822],[-67.35876,-13.49064],[-67.36923,-13.49353],[-67.37549,-13.49947],[-67.37541,-13.51586],[-67.38043,-13.51938],[-67.3965,-13.51858],[-67.40443,-13.52946],[-67.40059,-13.53503],[-67.38597,-13.53452],[-67.37813,-13.54909],[-67.3798,-13.56614],[-67.37262,-13.57006],[-67.3579,-13.56533],[-67.35389,-13.5762],[-67.36457,-13.58764],[-67.36152,-13.60022],[-67.36329,-13.60896],[-67.37411,-13.60933],[-67.38473,-13.60128],[-67.38683,-13.61068],[-67.37857,-13.61763],[-67.36949,-13.63189],[-67.36765,-13.64144],[-67.39344,-13.64071],[-67.41343,-13.64791],[-67.4189,-13.65336],[-67.43482,-13.65762],[-67.43908,-13.66691],[-67.43557,-13.68332],[-67.41899,-13.69946],[-67.42036,-13.70744],[-67.4315,-13.71022],[-67.4313,-13.72045],[-67.42661,-13.7345],[-67.43494,-13.73546],[-67.4487,-13.72929],[-67.45201,-13.71505],[-67.46229,-13.71822],[-67.46099,-13.72633],[-67.45116,-13.73469],[-67.45647,-13.74393],[-67.47351,-13.74948],[-67.47816,-13.76133],[-67.49021,-13.76901],[-67.50901,-13.77225],[-67.52208,-13.77931],[-67.52545,-13.78942],[-67.51517,-13.79438],[-67.50448,-13.79398],[-67.48945,-13.78993],[-67.48176,-13.79455],[-67.48404,-13.80226],[-67.50689,-13.81633],[-67.51283,-13.82338],[-67.51591,-13.83271],[-67.50146,-13.8354],[-67.49168,-13.84244],[-67.49014,-13.84992],[-67.4815,-13.85277],[-67.46706,-13.84006],[-67.46053,-13.84957],[-67.47394,-13.86442],[-67.47966,-13.884],[-67.50432,-13.89622],[-67.51184,-13.90622],[-67.51123,-13.91413],[-67.49433,-13.90863],[-67.48614,-13.91117],[-67.48615,-13.91981],[-67.49526,-13.92927],[-67.52741,-13.95334],[-67.53949,-13.98257],[-67.52741,-14.00736],[-67.527,-14.01721],[-67.53246,-14.02248],[-67.54483,-14.02344],[-67.54835,-14.03157],[-67.54588,-14.03758],[-67.52557,-14.04586],[-67.50792,-14.05663],[-67.49836,-14.06009],[-67.49627,-14.07057],[-67.51326,-14.08255],[-67.5197,-14.0893],[-67.53841,-14.08659],[-67.54972,-14.09067],[-67.55043,-14.0966],[-67.53969,-14.11008],[-67.52359,-14.10409],[-67.51521,-14.10324],[-67.50483,-14.11239],[-67.5069,-14.12423],[-67.51852,-14.13682],[-67.53464,-14.16591],[-67.53606,-14.17576],[-67.53431,-14.19214],[-67.53067,-14.19948],[-67.5126,-14.2196],[-67.50909,-14.2273],[-67.51046,-14.23515],[-67.52032,-14.25083],[-67.51258,-14.26195],[-67.48998,-14.26989],[-67.47514,-14.27996],[-67.47261,-14.28823],[-67.47519,-14.29511],[-67.48688,-14.29834],[-67.5052,-14.29072],[-67.51701,-14.29407],[-67.52561,-14.30263],[-67.53667,-14.32069],[-67.5477,-14.33008],[-67.56059,-14.33795],[-67.56197,-14.34512],[-67.55249,-14.34572],[-67.54201,-14.34073],[-67.53635,-14.34881],[-67.53797,-14.36021],[-67.54199,-14.36399],[-67.55465,-14.36684],[-67.55746,-14.37287],[-67.54356,-14.38113],[-67.54264,-14.39045],[-67.55799,-14.39934],[-67.55859,-14.40885],[-67.54966,-14.41469],[-67.53288,-14.41709],[-67.53124,-14.43062],[-67.53395,-14.45008],[-67.52762,-14.46714],[-67.51684,-14.4732],[-67.50917,-14.49302],[-67.50079,-14.49538],[-67.48512,-14.49419],[-67.48157,-14.50355],[-67.49198,-14.51289],[-67.49672,-14.5223],[-67.50006,-14.55113],[-67.4994,-14.56093],[-67.52012,-14.57086],[-67.52053,-14.58243],[-67.52756,-14.5897],[-67.53763,-14.59309]]]}}