{"type":"Feature","properties":{"id":"BOL.8.8","name":"Angel Sandoval","level":2,"country":"BOL"},"geometry":{"type":"Polygon","coordinates":[[[-57.63652,-17.9816],[-57.72288,-17.83021],[-57.68446,-17.83074],[-57.68514,-17.81064],[-57.7132,-17.77555],[-57.71098,-17.73079],[-57.72066,-17.72136],[-57.73207,-17.71856],[-57.74139,-17.69475],[-57.75181,-17.69097],[-57.75859,-17.6681],[-57.76221,-17.66156],[-57.77533,-17.65765],[-57.78341,-17.63989],[-57.77408,-17.626],[-57.77204,-17.61532],[-57.78111,-17.6159],[-57.78426,-17.60819],[-57.7595,-17.59142],[-57.75869,-17.58513],[-57.73846,-17.56864],[-57.73816,-17.56144],[-57.75126,-17.55068],[-57.81846,-17.50372],[-57.8878,-17.45279],[-57.96954,-17.51451],[-57.96998,-17.50637],[-57.99708,-17.5154],[-58.00074,-17.50547],[-58.00693,-17.50631],[-58.0116,-17.49922],[-58.02293,-17.49505],[-58.02993,-17.49653],[-58.04418,-17.49232],[-58.04382,-17.4859],[-58.05101,-17.46261],[-58.06728,-17.45379],[-58.09255,-17.46278],[-58.10609,-17.45419],[-58.1203,-17.45023],[-58.12165,-17.44593],[-58.11991,-17.42455],[-58.12281,-17.41427],[-58.128,-17.41212],[-58.14077,-17.4164],[-58.15134,-17.40968],[-58.15553,-17.40199],[-58.15262,-17.38899],[-58.16011,-17.38492],[-58.16948,-17.38952],[-58.19288,-17.39263],[-58.19975,-17.39026],[-58.20063,-17.38334],[-58.19401,-17.37399],[-58.19652,-17.36048],[-58.20291,-17.35435],[-58.21906,-17.36085],[-58.22863,-17.35721],[-58.2265,-17.3509],[-58.24077,-17.34958],[-58.24644,-17.35521],[-58.25522,-17.35404],[-58.25752,-17.34669],[-58.26509,-17.34516],[-58.26256,-17.33433],[-58.26739,-17.32793],[-58.27686,-17.32537],[-58.28014,-17.3194],[-58.27656,-17.30497],[-58.2855,-17.2994],[-58.2915,-17.30266],[-58.29999,-17.29874],[-58.29264,-17.28789],[-58.30429,-17.27926],[-58.30424,-17.26988],[-58.31628,-17.26849],[-58.3221,-17.2617],[-58.32054,-17.25361],[-58.33472,-17.23894],[-58.34717,-17.23155],[-58.35428,-17.21381],[-58.36657,-17.20145],[-58.39739,-17.18638],[-58.40005,-17.15069],[-58.3995,-17.08376],[-58.43133,-17.06555],[-58.43122,-17.05763],[-58.42203,-17.05084],[-58.43078,-17.04757],[-58.43092,-17.0359],[-58.41735,-17.03751],[-58.42089,-17.02925],[-58.43097,-17.02971],[-58.43506,-17.008],[-58.42684,-17.00238],[-58.42316,-16.98881],[-58.43124,-16.99174],[-58.44493,-16.98548],[-58.44851,-16.97599],[-58.46295,-16.96247],[-58.46239,-16.95113],[-58.45802,-16.94636],[-58.45982,-16.93893],[-58.46879,-16.9428],[-58.4765,-16.93814],[-58.47195,-16.92199],[-58.4771,-16.91372],[-58.46603,-16.91182],[-58.46054,-16.90198],[-58.47054,-16.89755],[-58.46392,-16.89141],[-58.46919,-16.88495],[-58.46419,-16.87772],[-58.46871,-16.85915],[-58.46885,-16.8505],[-58.46203,-16.84102],[-58.4767,-16.83061],[-58.47867,-16.82276],[-58.47272,-16.79526],[-58.46099,-16.79592],[-58.46053,-16.78522],[-58.4655,-16.78318],[-58.46557,-16.75921],[-58.47136,-16.75029],[-58.47028,-16.73166],[-58.46702,-16.71423],[-58.46715,-16.69489],[-58.46079,-16.66826],[-58.45929,-16.65281],[-58.43515,-16.59451],[-58.42787,-16.58668],[-58.42191,-16.57525],[-58.40177,-16.56883],[-58.39501,-16.56485],[-58.33813,-16.51628],[-58.33389,-16.48444],[-58.34286,-16.46231],[-58.34791,-16.45727],[-58.35485,-16.44039],[-58.35616,-16.42667],[-58.35223,-16.41209],[-58.34508,-16.39978],[-58.34613,-16.38987],[-58.33479,-16.3909],[-58.3279,-16.38037],[-58.31607,-16.37343],[-58.30764,-16.37184],[-58.30958,-16.36144],[-58.3071,-16.33903],[-58.30397,-16.33042],[-58.3037,-16.30974],[-58.3174,-16.29258],[-58.32199,-16.266],[-58.32887,-16.27124],[-58.34708,-16.27444],[-58.3531,-16.27063],[-58.3655,-16.27421],[-58.38896,-16.26285],[-58.39195,-16.27092],[-58.39154,-16.28656],[-58.39582,-16.29879],[-58.40115,-16.30547],[-58.43115,-16.32243],[-58.96458,-16.30093],[-59.15316,-16.29468],[-59.18409,-16.2922],[-59.49555,-16.27925],[-59.50913,-16.67426],[-59.51955,-16.96903],[-59.5202,-17.00905],[-59.52099,-17.08395],[-59.52229,-17.2526],[-59.5239,-17.43266],[-59.52575,-17.61469],[-59.52636,-17.74341],[-59.52788,-18.01781],[-59.52611,-18.02133],[-59.25034,-18.1152],[-58.80484,-17.97081],[-58.03375,-17.99679],[-58.02242,-17.97913],[-57.63652,-17.9816]]]}}