{"type":"Feature","properties":{"id":"UGA.26","name":"Nakasongola","level":1,"country":"UGA"},"geometry":{"type":"Polygon","coordinates":[[[32.30287,1.64858],[32.1776,1.67752],[32.10422,1.64781],[32.04045,1.55099],[31.95953,1.47593],[32.08159,1.41296],[32.24737,1.24656],[32.34782,1.20019],[32.40601,1.09043],[32.46875,1.01684],[32.62394,0.96805],[32.6399,1.1358],[32.7262,1.07518],[32.78025,1.08123],[32.79338,1.18272],[32.77622,1.33093],[32.69075,1.38793],[32.68796,1.47053],[32.601,1.46272],[32.55555,1.52054],[32.31775,1.62378],[32.30287,1.64858]]]}}