{"type":"Feature","properties":{"id":"BGD.7.11","name":"Birampur","level":2,"country":"BGD"},"geometry":{"type":"Polygon","coordinates":[[[89.02056,25.40111],[89.02926,25.40473],[89.02525,25.42322],[89.03057,25.43898],[89.01741,25.46356],[89.01907,25.48088],[88.98768,25.48583],[88.97295,25.48013],[88.98825,25.45085],[88.9808,25.43511],[88.94208,25.39703],[88.92168,25.39902],[88.92216,25.40446],[88.88989,25.4032],[88.87588,25.39251],[88.84351,25.39316],[88.83819,25.36929],[88.86681,25.35218],[88.88216,25.32778],[88.90311,25.33751],[88.91544,25.31206],[88.94117,25.30108],[88.97328,25.3012],[88.9765,25.31417],[88.97498,25.33111],[88.99051,25.33803],[88.98985,25.34732],[89.01278,25.34749],[89.0183,25.33038],[89.03446,25.32992],[89.04513,25.35545],[89.05733,25.35887],[89.07919,25.39714],[89.05574,25.40444],[89.03274,25.39424],[89.02056,25.40111]]]}}