{"type":"Feature","properties":{"id":"BGD.7.41","name":"Sadullapur","level":2,"country":"BGD"},"geometry":{"type":"Polygon","coordinates":[[[89.34902,25.32943],[89.33565,25.31861],[89.34691,25.31967],[89.36454,25.30725],[89.39184,25.31224],[89.41842,25.30293],[89.42831,25.30885],[89.43561,25.3329],[89.43233,25.35078],[89.474,25.34634],[89.47642,25.35695],[89.46949,25.37657],[89.49078,25.37106],[89.50206,25.37961],[89.49625,25.40196],[89.51002,25.43787],[89.47949,25.46528],[89.50407,25.48309],[89.49326,25.49095],[89.4974,25.49911],[89.49215,25.50699],[89.47854,25.49413],[89.44066,25.48757],[89.42229,25.46541],[89.40461,25.46685],[89.38453,25.44088],[89.3808,25.41046],[89.34599,25.36681],[89.34282,25.34292],[89.34902,25.32943]]]}}