{"type":"Feature","properties":{"id":"BGD.6.6","name":"Dhunat","level":2,"country":"BGD"},"geometry":{"type":"Polygon","coordinates":[[[89.53624,24.78657],[89.49551,24.76806],[89.46632,24.75881],[89.49515,24.73371],[89.47858,24.72825],[89.47843,24.72237],[89.49255,24.70903],[89.49512,24.67356],[89.49866,24.66832],[89.49043,24.64685],[89.51129,24.63359],[89.49924,24.59327],[89.52997,24.58172],[89.52988,24.5644],[89.54985,24.54987],[89.57041,24.54791],[89.59396,24.55755],[89.60249,24.56908],[89.60468,24.5868],[89.59939,24.61261],[89.55087,24.62433],[89.5523,24.64583],[89.55077,24.656],[89.55244,24.68086],[89.56245,24.69535],[89.59634,24.70544],[89.60862,24.68696],[89.61687,24.69205],[89.62932,24.68864],[89.63311,24.69967],[89.64607,24.70561],[89.64598,24.71212],[89.63554,24.71602],[89.65944,24.72981],[89.66,24.73756],[89.65341,24.74455],[89.63201,24.74659],[89.63246,24.75966],[89.62701,24.76287],[89.59502,24.74723],[89.58692,24.76154],[89.57706,24.789],[89.56521,24.79856],[89.55046,24.79371],[89.55585,24.78247],[89.53624,24.78657]]]}}