{"type":"Feature","properties":{"id":"BGD.6.42","name":"Saghata","level":2,"country":"BGD"},"geometry":{"type":"Polygon","coordinates":[[[89.61324,25.17197],[89.58819,25.18472],[89.58881,25.19477],[89.56913,25.22132],[89.56747,25.23533],[89.52557,25.21847],[89.52693,25.19276],[89.51788,25.18891],[89.51197,25.19564],[89.49786,25.17941],[89.48763,25.14311],[89.48881,25.13798],[89.49889,25.13085],[89.5146,25.10357],[89.507,25.08839],[89.49992,25.08644],[89.50126,25.07636],[89.51086,25.06242],[89.52661,25.04013],[89.57373,25.03815],[89.6091,25.0494],[89.63926,25.03653],[89.66045,25.05031],[89.65752,25.0764],[89.64358,25.08724],[89.65596,25.10694],[89.62676,25.10976],[89.61377,25.09437],[89.60934,25.1149],[89.61935,25.12783],[89.61324,25.17197]]]}}