{"type":"Feature","properties":{"id":"BGD.4.89","name":"Subarnachar","level":2,"country":"BGD"},"geometry":{"type":"MultiPolygon","coordinates":[[[[91.262,22.42907],[91.24679,22.42906],[91.25532,22.41742],[91.262,22.42907]]],[[[91.27613,22.44317],[91.27464,22.44649],[91.27199,22.44489],[91.27613,22.44317]]],[[[91.31369,22.51581],[91.33892,22.55455],[91.33759,22.58358],[91.3148,22.58636],[91.30113,22.56431],[91.2778,22.54793],[91.26655,22.52164],[91.2887,22.50443],[91.31369,22.51581]]],[[[91.06868,22.72144],[91.01035,22.74986],[90.9816,22.74769],[90.98237,22.71461],[91.00953,22.70566],[91.01678,22.68537],[90.98939,22.64162],[91.01142,22.60762],[91.01653,22.57952],[91.16003,22.58345],[91.16536,22.47947],[91.20003,22.50715],[91.19607,22.52331],[91.23233,22.5302],[91.28802,22.61862],[91.28281,22.63952],[91.21763,22.66312],[91.17275,22.70586],[91.15906,22.67898],[91.15516,22.68055],[91.13094,22.72341],[91.08624,22.73136],[91.06868,22.72144]]]]}}