{"type":"Feature","properties":{"id":"BGD.6.17","name":"Natore Sadar","level":2,"country":"BGD"},"geometry":{"type":"Polygon","coordinates":[[[88.8511,24.3457],[88.86199,24.34869],[88.88244,24.33958],[88.90152,24.3461],[88.909,24.35639],[88.93269,24.34792],[88.95122,24.35506],[88.97219,24.35671],[88.99937,24.34199],[89.0435,24.32624],[89.04478,24.33752],[89.07027,24.3504],[89.07069,24.36123],[89.08413,24.36888],[89.08009,24.37609],[89.08967,24.38215],[89.08664,24.39133],[89.09206,24.39869],[89.10957,24.40832],[89.08723,24.42039],[89.07354,24.44028],[89.05499,24.43991],[89.0632,24.44644],[89.0403,24.4673],[89.06537,24.52492],[89.06022,24.52698],[89.06757,24.5346],[89.04767,24.53817],[89.02718,24.55854],[89.0159,24.55114],[89.00825,24.55323],[89.01169,24.56182],[89.00689,24.56812],[88.96778,24.58522],[88.96089,24.57361],[88.96071,24.55119],[88.9365,24.53941],[88.92615,24.54545],[88.89825,24.53019],[88.88635,24.5203],[88.89784,24.51844],[88.90208,24.51095],[88.92622,24.51689],[88.9229,24.50569],[88.91171,24.50038],[88.90906,24.48804],[88.89365,24.47609],[88.89362,24.45542],[88.90028,24.44773],[88.90189,24.42426],[88.88993,24.38348],[88.8945,24.37105],[88.88941,24.36442],[88.86277,24.3614],[88.8511,24.3457]]]}}