{"type":"Feature","properties":{"id":"BGD.4.18","name":"Begumganj","level":2,"country":"BGD"},"geometry":{"type":"Polygon","coordinates":[[[90.98509,22.88177],[91.01361,22.8718],[91.02267,22.87669],[91.0689,22.87277],[91.07434,22.88615],[91.10642,22.88571],[91.12293,22.87608],[91.17549,22.87954],[91.19815,22.88721],[91.20374,22.90268],[91.21181,22.90725],[91.21552,22.9311],[91.19848,22.93963],[91.18806,22.9538],[91.19038,22.97232],[91.2041,22.98575],[91.17574,23.02058],[91.14749,23.03816],[91.12716,23.05794],[91.14206,23.07417],[91.08371,23.06733],[91.0358,23.09732],[91.00856,23.07388],[91.01006,23.06925],[90.99552,23.04034],[91.00442,23.02091],[90.99757,22.98987],[90.99839,22.95229],[90.97964,22.91736],[90.98824,22.90519],[90.98056,22.89228],[90.98509,22.88177]]]}}