{"type":"Feature","properties":{"id":"BGD.7.32","name":"Pirgacha","level":2,"country":"BGD"},"geometry":{"type":"Polygon","coordinates":[[[89.32225,25.656],[89.34198,25.65938],[89.35541,25.65833],[89.35074,25.65162],[89.35919,25.64983],[89.36258,25.63588],[89.37846,25.6301],[89.39174,25.61852],[89.3892,25.60474],[89.38535,25.59582],[89.39265,25.58663],[89.38178,25.57672],[89.37899,25.57988],[89.39451,25.55692],[89.40168,25.55536],[89.41958,25.58846],[89.43705,25.59021],[89.44569,25.5837],[89.473,25.59704],[89.49188,25.5937],[89.49619,25.61075],[89.52254,25.62301],[89.53788,25.64704],[89.51869,25.65601],[89.52382,25.68027],[89.51889,25.70694],[89.51071,25.71796],[89.47978,25.72095],[89.45695,25.71489],[89.44852,25.70511],[89.43781,25.7247],[89.40468,25.74344],[89.3926,25.73116],[89.37186,25.73361],[89.34898,25.72014],[89.33575,25.75751],[89.31793,25.75451],[89.30704,25.72953],[89.31984,25.70683],[89.30446,25.69534],[89.32225,25.656]]]}}