{"type":"Feature","properties":{"id":"BGD.1.19","name":"Rupganj","level":2,"country":"BGD"},"geometry":{"type":"Polygon","coordinates":[[[90.58105,23.76275],[90.59503,23.78203],[90.58806,23.78915],[90.5871,23.80726],[90.59439,23.8146],[90.59001,23.82411],[90.60736,23.83768],[90.59501,23.85581],[90.6135,23.87867],[90.5924,23.88278],[90.58637,23.89269],[90.56262,23.89455],[90.54951,23.88525],[90.53565,23.88684],[90.52563,23.89649],[90.51885,23.8908],[90.50308,23.85903],[90.48321,23.84698],[90.48816,23.82622],[90.47133,23.7816],[90.48327,23.77039],[90.49928,23.71937],[90.51257,23.70918],[90.53157,23.73583],[90.56335,23.74386],[90.56661,23.76086],[90.58105,23.76275]]]}}