{"type":"Feature","properties":{"id":"BGD.1.8","name":"Sadarpur","level":2,"country":"BGD"},"geometry":{"type":"Polygon","coordinates":[[[90.05753,23.39109],[90.09823,23.38143],[90.10487,23.38799],[90.09898,23.42142],[90.11376,23.43744],[90.10947,23.44812],[90.11619,23.46612],[90.18772,23.50696],[90.18119,23.52704],[90.16303,23.51868],[90.12099,23.55468],[90.11526,23.56454],[90.09279,23.55882],[90.08424,23.55277],[90.0054,23.55721],[89.98546,23.56801],[89.95843,23.54615],[89.93113,23.53474],[89.92211,23.49332],[89.95285,23.45053],[89.96751,23.46278],[89.99146,23.46744],[90.03308,23.44442],[90.04832,23.46057],[90.05461,23.45234],[90.05034,23.4455],[90.06744,23.44473],[90.062,23.42222],[90.06539,23.40794],[90.05753,23.39109]]]}}