{"type":"Feature","properties":{"id":"BGD.6.49","name":"Hakimpur","level":2,"country":"BGD"},"geometry":{"type":"Polygon","coordinates":[[[89.01278,25.34749],[88.99136,25.34718],[88.99282,25.33967],[88.97661,25.33379],[88.97471,25.32638],[88.98584,25.29987],[89.00927,25.3001],[89.00833,25.26787],[89.03128,25.27598],[89.04155,25.26499],[89.06119,25.25928],[89.07791,25.26647],[89.10354,25.24004],[89.12759,25.25416],[89.14401,25.24748],[89.14124,25.27416],[89.14828,25.27792],[89.14709,25.30045],[89.08124,25.30209],[89.05672,25.32087],[89.0432,25.32218],[89.03747,25.33159],[89.0183,25.33038],[89.01278,25.34749]]]}}