{"type":"Feature","properties":{"id":"JAM.11.31","name":"Above Rocks","level":2,"country":"JAM"},"geometry":{"type":"Polygon","coordinates":[[[-76.86956,18.13646],[-76.87264,18.13681],[-76.87469,18.14093],[-76.88223,18.14216],[-76.88597,18.14125],[-76.88261,18.13272],[-76.88606,18.1262],[-76.88836,18.12129],[-76.8938,18.11832],[-76.89302,18.11535],[-76.88813,18.11556],[-76.88657,18.11333],[-76.88126,18.11257],[-76.87922,18.10748],[-76.88224,18.10073],[-76.87748,18.09929],[-76.87984,18.09466],[-76.87829,18.08722],[-76.87183,18.08334],[-76.86871,18.08875],[-76.86588,18.09503],[-76.86311,18.11105],[-76.86597,18.11527],[-76.87643,18.12026],[-76.8702,18.12671],[-76.87115,18.12936],[-76.86956,18.13646]]]}}