{"type":"Feature","properties":{"id":"JAM.10.27","name":"Steer Town","level":2,"country":"JAM"},"geometry":{"type":"Polygon","coordinates":[[[-77.19096,18.43124],[-77.17536,18.42459],[-77.17255,18.42664],[-77.17004,18.42254],[-77.17009,18.4144],[-77.1652,18.41622],[-77.15739,18.41056],[-77.15109,18.41663],[-77.15035,18.42332],[-77.15443,18.42642],[-77.15862,18.42589],[-77.16251,18.43101],[-77.16865,18.43499],[-77.17034,18.44009],[-77.18106,18.44381],[-77.18622,18.44479],[-77.19015,18.43995],[-77.19096,18.43124]]]}}