{"type":"Feature","properties":{"id":"JAM.3.34","name":"May Day","level":2,"country":"JAM"},"geometry":{"type":"Polygon","coordinates":[[[-77.46051,18.01235],[-77.46747,18.01263],[-77.46947,18.01778],[-77.47561,18.021],[-77.47588,18.02386],[-77.48237,18.02549],[-77.48686,18.01676],[-77.48695,18.01378],[-77.49264,18.00468],[-77.49332,18.00058],[-77.48671,18.00339],[-77.47927,18.00274],[-77.47344,17.99851],[-77.47069,17.9941],[-77.46678,17.99534],[-77.46419,18.00216],[-77.46168,18.00311],[-77.46051,18.01235]]]}}