{"type":"Feature","properties":{"id":"JAM.3.15","name":"Maidstone","level":2,"country":"JAM"},"geometry":{"type":"Polygon","coordinates":[[[-77.58838,18.09469],[-77.58983,18.08489],[-77.58761,18.08328],[-77.58386,18.07349],[-77.57901,18.08031],[-77.57915,18.0865],[-77.57176,18.08842],[-77.56155,18.09285],[-77.55851,18.08947],[-77.55409,18.08905],[-77.55481,18.09264],[-77.55873,18.09585],[-77.55623,18.10218],[-77.55669,18.10782],[-77.55247,18.11095],[-77.55592,18.11143],[-77.55882,18.12073],[-77.5656,18.11722],[-77.57525,18.11888],[-77.58098,18.12239],[-77.58458,18.12155],[-77.58302,18.11839],[-77.58434,18.11079],[-77.58838,18.09469]]]}}