{"type":"Feature","properties":{"id":"JAM.4.2","name":"Brompton","level":2,"country":"JAM"},"geometry":{"type":"Polygon","coordinates":[[[-77.89519,18.07884],[-77.90971,18.0903],[-77.90878,18.08691],[-77.91218,18.08112],[-77.90762,18.07427],[-77.90816,18.06718],[-77.9043,18.06399],[-77.90645,18.05753],[-77.90547,18.05127],[-77.89938,18.05346],[-77.88243,18.05119],[-77.87793,18.04703],[-77.8723,18.04451],[-77.87252,18.05073],[-77.88118,18.06632],[-77.85972,18.07001],[-77.86951,18.08574],[-77.87508,18.08469],[-77.87992,18.07563],[-77.88586,18.0737],[-77.89519,18.07884]]]}}