{"type":"Feature","properties":{"id":"JAM.1.82","name":"Coxswain","level":2,"country":"JAM"},"geometry":{"type":"Polygon","coordinates":[[[-77.22846,18.13005],[-77.23796,18.13104],[-77.23712,18.1282],[-77.2434,18.12159],[-77.24933,18.1175],[-77.24988,18.11156],[-77.25544,18.11116],[-77.25611,18.10565],[-77.25256,18.09763],[-77.2494,18.09678],[-77.25261,18.09139],[-77.24492,18.08989],[-77.24742,18.08162],[-77.24588,18.0769],[-77.24254,18.07793],[-77.24026,18.08423],[-77.23522,18.08428],[-77.23037,18.08375],[-77.22607,18.08587],[-77.2194,18.08446],[-77.21852,18.0894],[-77.21274,18.09292],[-77.21443,18.09618],[-77.21226,18.10163],[-77.20795,18.10698],[-77.21027,18.10842],[-77.22216,18.11016],[-77.22719,18.10842],[-77.23636,18.11249],[-77.23389,18.11652],[-77.22915,18.11514],[-77.23009,18.12383],[-77.22699,18.12482],[-77.22846,18.13005]]]}}