{"type":"Feature","properties":{"id":"JAM.7.22","name":"Grange Hill","level":2,"country":"JAM"},"geometry":{"type":"Polygon","coordinates":[[[-78.1527,18.35775],[-78.17007,18.35786],[-78.21282,18.35813],[-78.21308,18.35786],[-78.2237,18.34655],[-78.22468,18.34355],[-78.22056,18.33582],[-78.21652,18.33354],[-78.20934,18.33258],[-78.20496,18.32664],[-78.20489,18.32029],[-78.20771,18.3187],[-78.20432,18.30997],[-78.20161,18.30766],[-78.19361,18.30771],[-78.19389,18.29619],[-78.18998,18.29228],[-78.18501,18.2904],[-78.18237,18.29393],[-78.17594,18.2936],[-78.16598,18.29843],[-78.15469,18.30395],[-78.15897,18.30696],[-78.16342,18.30791],[-78.16593,18.31154],[-78.15642,18.32231],[-78.15778,18.32827],[-78.15245,18.33299],[-78.1527,18.35775]]]}}