{"type":"Feature","properties":{"id":"JAM.2.1","name":"Kingsvale","level":2,"country":"JAM"},"geometry":{"type":"Polygon","coordinates":[[[-78.17007,18.35786],[-78.17017,18.3717],[-78.17553,18.37457],[-78.18515,18.37998],[-78.19113,18.3889],[-78.19524,18.38535],[-78.20034,18.38356],[-78.20243,18.38492],[-78.19484,18.39469],[-78.20867,18.4011],[-78.21932,18.40421],[-78.22385,18.40288],[-78.2315,18.41178],[-78.24409,18.40986],[-78.24171,18.40452],[-78.24351,18.40317],[-78.23879,18.39371],[-78.23493,18.39213],[-78.23471,18.38765],[-78.22597,18.38901],[-78.22538,18.39349],[-78.22039,18.38936],[-78.21512,18.38725],[-78.21307,18.38466],[-78.20961,18.38269],[-78.21393,18.37895],[-78.21295,18.36354],[-78.21846,18.36538],[-78.21867,18.35803],[-78.21308,18.35786],[-78.21282,18.35813],[-78.17007,18.35786]]]}}