{"type":"Feature","properties":{"id":"NLD.12.11","name":"Roerdalen","level":2,"country":"NLD"},"geometry":{"type":"Polygon","coordinates":[[[5.95548,51.15904],[5.91389,51.1332],[5.9194,51.12024],[5.92675,51.11377],[5.95423,51.1132],[5.96533,51.11844],[5.97212,51.11469],[5.9848,51.12065],[6.01282,51.1168],[6.03646,51.09653],[6.05683,51.10955],[6.06029,51.11593],[6.07588,51.11919],[6.09199,51.13505],[6.11639,51.13915],[6.12583,51.14512],[6.16285,51.15267],[6.17542,51.15846],[6.1388,51.17334],[6.18072,51.18636],[6.16517,51.19441],[6.1224,51.1813],[6.09968,51.16983],[6.08219,51.17163],[6.07314,51.18282],[6.05511,51.18451],[6.06356,51.16552],[6.05562,51.16211],[6.02952,51.16097],[6.01369,51.16665],[5.98632,51.16936],[5.98356,51.17623],[5.95548,51.15904]]]}}