{"type":"Feature","properties":{"id":"NLD.10.29","name":"Apeldoorn","level":2,"country":"NLD"},"geometry":{"type":"Polygon","coordinates":[[[6.00885,52.07401],[6.03159,52.09561],[6.03582,52.10947],[6.05111,52.12421],[6.06962,52.13131],[6.07848,52.13888],[6.07607,52.14394],[6.06437,52.15699],[6.06569,52.16522],[6.06067,52.17515],[6.04954,52.18429],[6.05387,52.195],[6.04691,52.22137],[6.03342,52.22408],[6.03605,52.232],[6.02651,52.2429],[6.0364,52.26853],[6.02886,52.27681],[5.95792,52.27237],[5.93621,52.27442],[5.87959,52.26499],[5.86089,52.25581],[5.85081,52.2687],[5.84272,52.26715],[5.82143,52.27267],[5.80981,52.27028],[5.77935,52.27058],[5.74923,52.26827],[5.76145,52.2483],[5.72639,52.2425],[5.73092,52.23157],[5.7384,52.23147],[5.74167,52.21988],[5.72744,52.2193],[5.73077,52.2086],[5.75059,52.19373],[5.79203,52.19699],[5.81193,52.18488],[5.80196,52.17736],[5.80965,52.16669],[5.80984,52.15141],[5.84576,52.15161],[5.85955,52.14875],[5.86475,52.12556],[5.88345,52.10634],[5.91172,52.10023],[5.95147,52.0999],[5.9461,52.07789],[5.95593,52.07334],[5.99048,52.07916],[6.00885,52.07401]]]}}