{"type":"Feature","properties":{"id":"NLD.1.23","name":"Laarbeek","level":2,"country":"NLD"},"geometry":{"type":"Polygon","coordinates":[[[5.68414,51.5077],[5.68224,51.52768],[5.66691,51.54056],[5.65248,51.56968],[5.62731,51.55533],[5.61422,51.5546],[5.60828,51.55958],[5.58434,51.56273],[5.55345,51.5583],[5.53308,51.5578],[5.54744,51.53773],[5.55765,51.50937],[5.56655,51.50167],[5.57673,51.49945],[5.60965,51.50922],[5.61873,51.49864],[5.63482,51.49488],[5.65613,51.50725],[5.66358,51.50226],[5.68414,51.5077]]]}}