{"type":"Feature","properties":{"id":"NLD.15.8","name":"Hulst","level":2,"country":"NLD"},"geometry":{"type":"Polygon","coordinates":[[[3.92447,51.37805],[3.94256,51.36485],[3.95705,51.36481],[3.96174,51.33266],[3.95328,51.30829],[3.97188,51.30037],[3.97888,51.30081],[3.98224,51.24911],[4.00569,51.24188],[4.03654,51.24568],[4.04055,51.24132],[4.06185,51.24457],[4.07063,51.25074],[4.16613,51.29289],[4.23681,51.34976],[4.22094,51.36146],[4.20674,51.38736],[4.19442,51.38629],[4.14102,51.37044],[4.10255,51.36686],[4.11495,51.39101],[4.04808,51.3899],[4.01978,51.42017],[3.96321,51.42201],[3.92447,51.37805]]]}}