{"type":"Feature","properties":{"id":"NLD.10.6","name":"Elburg","level":2,"country":"NLD"},"geometry":{"type":"Polygon","coordinates":[[[5.87601,52.35787],[5.91169,52.38679],[5.92434,52.39139],[5.90599,52.4086],[5.91629,52.41295],[5.89996,52.41982],[5.86875,52.44478],[5.87762,52.45312],[5.87136,52.45779],[5.84026,52.47106],[5.83139,52.4734],[5.81561,52.45522],[5.82241,52.44971],[5.81001,52.43573],[5.75629,52.40743],[5.77075,52.39552],[5.79078,52.39686],[5.81167,52.4028],[5.82127,52.39109],[5.86479,52.35966],[5.87601,52.35787]]]}}