{"type":"Feature","properties":{"id":"NLD.1.1","name":"Nuenen, Gerwen en Nederwetten","level":2,"country":"NLD"},"geometry":{"type":"Polygon","coordinates":[[[5.54868,51.43468],[5.56616,51.44148],[5.58471,51.46051],[5.58297,51.46555],[5.60523,51.47096],[5.58591,51.47917],[5.57015,51.49694],[5.57673,51.49945],[5.56655,51.50167],[5.55765,51.50937],[5.54744,51.53773],[5.53086,51.52505],[5.54019,51.52601],[5.54627,51.5127],[5.52612,51.50145],[5.51142,51.49692],[5.51561,51.49341],[5.50541,51.48338],[5.50904,51.46931],[5.54017,51.44794],[5.54868,51.43468]]]}}