{"type":"Feature","properties":{"id":"NLD.12.8","name":"Sittard-Geleen","level":2,"country":"NLD"},"geometry":{"type":"Polygon","coordinates":[[[5.83989,50.95019],[5.84326,50.96352],[5.85218,50.96803],[5.8735,50.9628],[5.89708,50.97487],[5.89261,50.98031],[5.90372,50.9872],[5.90552,51.00217],[5.89574,51.01102],[5.87891,51.01784],[5.877,51.03204],[5.85279,51.02925],[5.84852,51.04633],[5.82725,51.04752],[5.82396,51.07251],[5.81962,51.07261],[5.80693,51.05757],[5.79934,51.06007],[5.77256,51.06161],[5.77076,51.04919],[5.758,51.03367],[5.77491,51.02599],[5.7734,51.019],[5.78724,51.01917],[5.77483,51.00415],[5.78919,51.0012],[5.78214,50.98542],[5.78811,50.94861],[5.80229,50.9474],[5.81188,50.95514],[5.8339,50.94703],[5.83989,50.95019]]]}}