{"type":"Feature","properties":{"id":"NLD.11.9","name":"Westerkwartier","level":2,"country":"NLD"},"geometry":{"type":"Polygon","coordinates":[[[6.50824,53.25757],[6.50181,53.28042],[6.5043,53.29558],[6.482,53.31682],[6.46101,53.32259],[6.43969,53.31665],[6.4311,53.32821],[6.41556,53.32831],[6.40171,53.31921],[6.36759,53.32162],[6.35713,53.31388],[6.34474,53.31906],[6.33231,53.31544],[6.31772,53.31817],[6.3123,53.32944],[6.28698,53.34138],[6.27843,53.30283],[6.26872,53.28977],[6.25323,53.28793],[6.24522,53.26763],[6.23217,53.25675],[6.23129,53.24533],[6.21554,53.23699],[6.22472,53.22998],[6.22995,53.21771],[6.21906,53.20599],[6.1996,53.19834],[6.18138,53.17056],[6.17675,53.1595],[6.17532,53.13548],[6.18572,53.12921],[6.20505,53.11548],[6.23626,53.11339],[6.26265,53.11412],[6.28305,53.10686],[6.29057,53.09983],[6.31516,53.09405],[6.34443,53.08714],[6.35662,53.10709],[6.36356,53.10755],[6.36586,53.12223],[6.38261,53.14957],[6.38142,53.15351],[6.40292,53.16721],[6.40581,53.17676],[6.43802,53.18565],[6.44771,53.19644],[6.46346,53.20006],[6.46447,53.20761],[6.48092,53.25019],[6.49199,53.24556],[6.50264,53.2475],[6.50824,53.25757]]]}}