{"type":"Feature","properties":{"id":"BRN.4.3","name":"Pekan Tutong","level":2,"country":"BRN"},"geometry":{"type":"Polygon","coordinates":[[[114.61581,4.75849],[114.64676,4.79058],[114.66664,4.78826],[114.68652,4.77035],[114.68757,4.75581],[114.70644,4.75467],[114.71923,4.76989],[114.7181,4.79523],[114.70436,4.8071],[114.67561,4.80874],[114.67594,4.82784],[114.70139,4.82949],[114.72484,4.84496],[114.73377,4.85945],[114.72154,4.87196],[114.67561,4.84331],[114.64323,4.81237],[114.59499,4.76956],[114.61581,4.75849]]]}}