{"type":"Feature","properties":{"id":"CYP.4.16","name":"Sotira Ammochostou","level":2,"country":"CYP"},"geometry":{"type":"Polygon","coordinates":[[[33.96596,35.04185],[33.95661,35.04493],[33.94218,35.04229],[33.93604,35.03218],[33.93123,35.02757],[33.92294,35.02493],[33.91145,35.02471],[33.91412,35.01636],[33.91893,35.01108],[33.9184,35.0069],[33.91386,35.0025],[33.90343,34.99767],[33.9021,34.99525],[33.90584,34.98623],[33.89889,34.97523],[33.89996,34.97149],[33.92615,34.97589],[33.93491,34.98068],[33.93594,34.98955],[33.93987,34.99278],[33.94894,34.99377],[33.95116,35.00081],[33.958,35.00587],[33.96125,35.01122],[33.96784,35.0135],[33.97077,35.02251],[33.95501,35.03372],[33.96409,35.03856],[33.96596,35.04185]]]}}