{"type":"Feature","properties":{"id":"CYP.1.16","name":"Lageia","level":2,"country":"CYP"},"geometry":{"type":"Polygon","coordinates":[[[33.23894,34.8667],[33.23778,34.85976],[33.23266,34.85215],[33.23263,34.84774],[33.22744,34.83704],[33.22399,34.83552],[33.22618,34.83066],[33.23469,34.82683],[33.23477,34.82237],[33.23877,34.81304],[33.24574,34.81324],[33.25371,34.82218],[33.25618,34.83208],[33.25871,34.83534],[33.25628,34.84092],[33.25588,34.84672],[33.25244,34.8538],[33.25304,34.86075],[33.25102,34.86153],[33.25102,34.86174],[33.23894,34.8667]]]}}