{"type":"Feature","properties":{"id":"CYP.2.189","name":"Potamia","level":2,"country":"CYP"},"geometry":{"type":"MultiPolygon","coordinates":[[[[33.48241,35.06016],[33.48075,35.06144],[33.48176,35.06003],[33.48241,35.06016]]],[[[33.4306,35.04579],[33.43789,35.03465],[33.44657,35.02779],[33.4556,35.02836],[33.46116,35.03207],[33.46498,35.04065],[33.47228,35.0455],[33.47193,35.04979],[33.47922,35.05664],[33.48005,35.062],[33.47631,35.0703],[33.46652,35.07195],[33.46012,35.06521],[33.45178,35.06435],[33.44935,35.06207],[33.44692,35.05179],[33.43754,35.04522],[33.4306,35.04579]]]]}}