{"type":"Feature","properties":{"id":"CYP.2.156","name":"Neo Chorio Lefkosias","level":2,"country":"CYP"},"geometry":{"type":"Polygon","coordinates":[[[33.44132,35.19542],[33.44488,35.1925],[33.45399,35.19472],[33.45897,35.19379],[33.46565,35.189],[33.46935,35.18982],[33.4685,35.1946],[33.47376,35.19764],[33.48016,35.19787],[33.48031,35.20348],[33.4739,35.20266],[33.46964,35.21037],[33.47718,35.21481],[33.47575,35.22111],[33.47903,35.22858],[33.48315,35.22987],[33.48472,35.22228],[33.49046,35.22169],[33.48984,35.23197],[33.48422,35.23396],[33.48088,35.23652],[33.47191,35.2378],[33.45954,35.23208],[33.45569,35.235],[33.44687,35.2364],[33.44403,35.24166],[33.43876,35.24551],[33.43805,35.25053],[33.42824,35.24866],[33.4298,35.24376],[33.43634,35.23956],[33.43378,35.23115],[33.44104,35.22111],[33.43578,35.21341],[33.44104,35.20523],[33.44602,35.2029],[33.4473,35.19612],[33.44132,35.19542]]]}}