{"type":"Feature","properties":{"id":"CYP.3.63","name":"Kato Arodes","level":2,"country":"CYP"},"geometry":{"type":"Polygon","coordinates":[[[32.40387,34.95115],[32.3973,34.94655],[32.3829,34.9441],[32.37211,34.9355],[32.36569,34.93285],[32.34065,34.94416],[32.32248,34.94652],[32.32671,34.9535],[32.32134,34.95845],[32.31694,34.9507],[32.31302,34.94776],[32.31405,34.94357],[32.31891,34.94291],[32.33454,34.93477],[32.33411,34.93191],[32.35656,34.92686],[32.36451,34.92644],[32.37436,34.92878],[32.38292,34.93536],[32.40102,34.93686],[32.40758,34.9399],[32.41641,34.94046],[32.42348,34.93835],[32.42484,34.94366],[32.41851,34.94388],[32.41256,34.94664],[32.41198,34.95129],[32.40767,34.95375],[32.40387,34.95115]]]}}