{"type":"Feature","properties":{"id":"CYP.1.25","name":"Sia","level":2,"country":"CYP"},"geometry":{"type":"Polygon","coordinates":[[[33.41019,34.97485],[33.39968,34.97577],[33.39482,34.97291],[33.39412,34.96834],[33.37828,34.96943],[33.36759,34.9635],[33.3627,34.95746],[33.36481,34.94432],[33.36724,34.93945],[33.36949,34.93683],[33.36697,34.92912],[33.36998,34.92056],[33.3683,34.91507],[33.36026,34.909],[33.34869,34.89771],[33.34849,34.8923],[33.35266,34.8904],[33.36051,34.88911],[33.36714,34.88512],[33.38108,34.8837],[33.3799,34.87414],[33.38325,34.87003],[33.39433,34.86379],[33.40241,34.86401],[33.4035,34.86938],[33.40907,34.88023],[33.4051,34.88727],[33.41058,34.89127],[33.40998,34.9027],[33.4073,34.90807],[33.40916,34.91328],[33.41411,34.91669],[33.41361,34.9218],[33.42023,34.92679],[33.42034,34.93056],[33.41245,34.93673],[33.41257,34.94182],[33.41795,34.95375],[33.41205,34.96208],[33.41019,34.97485]]]}}