{"type":"Feature","properties":{"id":"CYP.2.92","name":"Mitsero","level":2,"country":"CYP"},"geometry":{"type":"Polygon","coordinates":[[[33.15168,35.02522],[33.1423,35.0335],[33.13987,35.05293],[33.13709,35.05893],[33.14647,35.06778],[33.13917,35.07149],[33.13848,35.0752],[33.1423,35.08034],[33.13327,35.08206],[33.13431,35.07749],[33.12563,35.07578],[33.12354,35.07321],[33.12563,35.06521],[33.11972,35.05436],[33.10513,35.04607],[33.09853,35.04065],[33.09506,35.03236],[33.08707,35.02465],[33.08811,35.01636],[33.09436,35.01407],[33.09923,35.01522],[33.10826,35.00779],[33.12354,35.00864],[33.14265,35.01379],[33.14508,35.01722],[33.15341,35.02265],[33.15168,35.02522]]]}}