{"type":"Feature","properties":{"id":"MMR.13.3","name":"Puta-O","level":2,"country":"MMR"},"geometry":{"type":"Polygon","coordinates":[[[98.73352,26.85028],[98.73471,26.85779],[98.74603,26.86933],[98.75413,26.87325],[98.75841,26.88462],[98.7552,26.90335],[98.75431,26.92324],[98.7471,26.93586],[98.74722,26.94842],[98.73894,26.96209],[98.73885,26.97089],[98.74565,26.99226],[98.73551,27.00274],[98.7446,27.01441],[98.76387,27.02137],[98.76589,27.05319],[98.73997,27.07466],[98.72588,27.06974],[98.71442,27.07702],[98.71478,27.09306],[98.70995,27.10809],[98.71236,27.12131],[98.70899,27.13728],[98.71315,27.14112],[98.70378,27.18197],[98.69346,27.20025],[98.69634,27.21169],[98.70664,27.2193],[98.72356,27.22394],[98.71824,27.23522],[98.72943,27.24881],[98.71602,27.25692],[98.71685,27.27221],[98.73356,27.28833],[98.73162,27.29947],[98.73868,27.31499],[98.74026,27.33358],[98.73372,27.33813],[98.735,27.35139],[98.71907,27.35484],[98.70649,27.36291],[98.69903,27.38182],[98.70468,27.39213],[98.70282,27.41532],[98.68717,27.42429],[98.68923,27.44682],[98.70337,27.45175],[98.7011,27.46728],[98.68686,27.48673],[98.69362,27.51735],[98.70487,27.52114],[98.69877,27.53924],[98.70467,27.55406],[98.70264,27.5637],[98.68663,27.56639],[98.67404,27.58553],[98.66054,27.58825],[98.65551,27.58444],[98.64978,27.56734],[98.61888,27.57795],[98.60047,27.57822],[98.59864,27.5705],[98.58311,27.57165],[98.58542,27.5884],[98.57866,27.60526],[98.57277,27.61179],[98.56827,27.62856],[98.55815,27.64631],[98.55202,27.64832],[98.53807,27.63659],[98.53707,27.62306],[98.52959,27.62111],[98.51911,27.62682],[98.51145,27.62462],[98.50403,27.63473],[98.492,27.63799],[98.47885,27.63601],[98.47077,27.63886],[98.45837,27.6567],[98.44417,27.66732],[98.4315,27.66357],[98.43532,27.64968],[98.43676,27.62824],[98.43099,27.61541],[98.43294,27.60929],[98.42887,27.59639],[98.43407,27.5708],[98.42945,27.55265],[98.41654,27.54966],[98.39931,27.53956],[98.39088,27.5188],[98.37309,27.50896],[98.34882,27.51621],[98.33702,27.51035],[98.31781,27.52268],[98.31856,27.53195],[98.30848,27.54541],[98.30648,27.56207],[98.3095,27.58808],[98.30339,27.59611],[98.30032,27.60829],[98.30175,27.63109],[98.28923,27.63586],[98.28487,27.65613],[98.27772,27.66407],[98.26658,27.66803],[98.25832,27.67865],[98.23799,27.69201],[98.23245,27.70604],[98.22421,27.71139],[98.22712,27.72434],[98.23372,27.73136],[98.24582,27.73491],[98.24698,27.74115],[98.23478,27.75268],[98.21922,27.75932],[98.21814,27.77771],[98.22477,27.79097],[98.22494,27.81131],[98.20552,27.81483],[98.18044,27.83037],[98.16988,27.85239],[98.18202,27.87377],[98.20143,27.87553],[98.20394,27.89176],[98.2017,27.90391],[98.1889,27.93914],[98.15233,27.94156],[98.14632,27.94656],[98.13718,27.96299],[98.13407,27.99225],[98.14083,28.00254],[98.14407,28.02201],[98.13904,28.02974],[98.13804,28.04409],[98.14995,28.06047],[98.15954,28.08758],[98.16038,28.09885],[98.15263,28.1205],[98.14161,28.13976],[98.12087,28.16391],[98.09964,28.16698],[98.0944,28.17045],[98.09067,28.19345],[98.07762,28.20417],[98.05041,28.20194],[98.04899,28.19018],[98.03156,28.18934],[98.01139,28.20868],[98.00745,28.21561],[98.01483,28.2387],[98.02402,28.24589],[98.01055,28.27402],[97.99507,28.28439],[97.99197,28.29104],[97.97378,28.29247],[97.95648,28.30065],[97.95473,28.30574],[97.96455,28.31417],[97.95797,28.32598],[97.94158,28.33066],[97.9217,28.35098],[97.90852,28.36805],[97.86844,28.36598],[97.8592,28.35777],[97.84666,28.35194],[97.84699,28.3346],[97.84366,28.33045],[97.82352,28.33318],[97.80201,28.33069],[97.79444,28.33372],[97.79014,28.35799],[97.77092,28.37641],[97.76019,28.37905],[97.73634,28.40074],[97.74256,28.41183],[97.73682,28.42383],[97.74021,28.4604],[97.72437,28.48909],[97.72218,28.49745],[97.69171,28.50605],[97.68792,28.52351],[97.67578,28.52695],[97.66015,28.53705],[97.65223,28.5328],[97.63008,28.53633],[97.62201,28.52228],[97.61465,28.51751],[97.5925,28.52078],[97.5965,28.53371],[97.58431,28.54241],[97.57358,28.54554],[97.56316,28.54263],[97.54782,28.52532],[97.5391,28.52184],[97.53281,28.50875],[97.52108,28.50186],[97.50378,28.49842],[97.50042,28.49351],[97.50397,28.47004],[97.51183,28.4537],[97.52288,28.44504],[97.50535,28.4318],[97.50155,28.42313],[97.50727,28.41665],[97.50197,28.39974],[97.48345,28.38754],[97.48446,28.37118],[97.49317,28.36134],[97.49284,28.35382],[97.50136,28.33972],[97.51625,28.3342],[97.51972,28.32881],[97.50372,28.31503],[97.48345,28.31471],[97.47076,28.30483],[97.46843,28.29413],[97.47771,28.28428],[97.46313,28.27069],[97.43465,28.28519],[97.42461,28.29733],[97.41798,28.29554],[97.40214,28.27873],[97.41187,28.25932],[97.41202,28.24952],[97.38696,28.23678],[97.36408,28.2418],[97.35001,28.23924],[97.34664,28.21324],[97.36256,28.19866],[97.35492,28.17961],[97.35822,28.16317],[97.35171,28.15057],[97.33116,28.14269],[97.32606,28.13658],[97.32912,28.12794],[97.3249,28.11552],[97.33411,28.10417],[97.32714,28.10088],[97.33087,28.08795],[97.31992,28.07776],[97.31276,28.06293],[97.32023,28.05791],[97.33618,28.05815],[97.35129,28.0657],[97.36786,28.0395],[97.38081,28.02247],[97.39313,28.01076],[97.38479,28.00174],[97.3838,27.98494],[97.36487,27.97451],[97.36428,27.96021],[97.37753,27.95074],[97.36933,27.9382],[97.37394,27.92624],[97.38803,27.92327],[97.38491,27.91659],[97.37312,27.91346],[97.37849,27.89244],[97.36516,27.87303],[97.35111,27.87675],[97.34341,27.88367],[97.32005,27.88945],[97.32151,27.89719],[97.29781,27.91529],[97.27574,27.90393],[97.24685,27.89933],[97.23475,27.88138],[97.21435,27.86847],[97.20916,27.85959],[97.18989,27.84664],[97.18212,27.83709],[97.17437,27.83507],[97.16348,27.82562],[97.16434,27.81881],[97.15634,27.81123],[97.13947,27.80848],[97.13199,27.79891],[97.11331,27.78617],[97.1049,27.77462],[97.0956,27.76913],[97.09515,27.75031],[97.08815,27.73822],[97.08126,27.74345],[97.0619,27.74907],[97.04736,27.73997],[97.0407,27.74394],[97.01884,27.73632],[97.01032,27.7288],[97.00768,27.7118],[96.98909,27.68765],[96.9869,27.67489],[96.97509,27.66997],[96.96444,27.65848],[96.94614,27.66204],[96.93016,27.65951],[96.93134,27.6454],[96.92576,27.63276],[96.91604,27.63054],[96.9154,27.62126],[96.90158,27.61564],[96.89222,27.61542],[96.88879,27.60723],[96.90079,27.59432],[96.90469,27.58491],[96.89417,27.56915],[96.91054,27.55963],[96.90673,27.54894],[96.91472,27.5354],[96.91342,27.51609],[96.92644,27.50842],[96.91063,27.48767],[96.90269,27.45674],[96.90999,27.44748],[96.92032,27.4434],[96.93154,27.43327],[96.93464,27.41786],[96.96233,27.40222],[96.96651,27.38552],[96.96335,27.37683],[96.97602,27.36063],[96.98093,27.34868],[96.99123,27.34435],[96.9991,27.31833],[97.02862,27.30585],[97.0419,27.28333],[97.05433,27.27591],[97.05397,27.26663],[97.06114,27.26214],[97.0766,27.24559],[97.08785,27.23721],[97.09142,27.2273],[97.0917,27.21273],[97.12069,27.1893],[97.12547,27.17407],[97.13556,27.16496],[97.14641,27.1606],[97.1516,27.14914],[97.16206,27.14228],[97.16512,27.13414],[97.15829,27.11854],[97.15145,27.11674],[97.13835,27.09221],[97.14697,27.07931],[97.15161,27.06325],[97.17124,27.04255],[97.17231,27.02613],[97.19301,27.01649],[97.19801,27.00721],[97.20943,27.00007],[97.21086,26.98615],[97.21621,26.9808],[97.21621,26.97081],[97.22621,26.95439],[97.22942,26.93619],[97.25048,26.91548],[97.24905,26.89621],[97.2544,26.88265],[97.25048,26.87765],[97.26154,26.86837],[97.27475,26.86302],[97.27974,26.85302],[97.27939,26.83339],[97.28688,26.82126],[97.27403,26.80413],[97.26151,26.80477],[97.2362,26.80056],[97.22549,26.78878],[97.22978,26.77736],[97.23763,26.76808],[97.2362,26.72882],[97.23906,26.72418],[97.26011,26.71525],[97.25904,26.69634],[97.23808,26.68169],[97.21336,26.68634],[97.20098,26.69362],[97.19388,26.68282],[97.18016,26.67671],[97.17517,26.66029],[97.17945,26.64744],[97.17624,26.63209],[97.18409,26.62602],[97.18587,26.61424],[97.19444,26.60568],[97.20301,26.58569],[97.2105,26.57605],[97.20836,26.5657],[97.20979,26.53144],[97.21514,26.51573],[97.22514,26.49753],[97.21728,26.49039],[97.21336,26.47326],[97.21835,26.44935],[97.21693,26.44185],[97.22157,26.4265],[97.21514,26.41651],[97.20765,26.38796],[97.23085,26.3669],[97.23227,26.35619],[97.21693,26.34013],[97.21229,26.31657],[97.20443,26.30658],[97.19817,26.29007],[97.1835,26.28707],[97.17445,26.27945],[97.17874,26.26553],[97.17981,26.2509],[97.17124,26.24126],[97.19694,26.21592],[97.19451,26.20262],[97.20845,26.18585],[97.23318,26.18661],[97.24751,26.18161],[97.26721,26.17043],[97.28338,26.17718],[97.29274,26.16585],[97.2891,26.15669],[97.2939,26.13984],[97.30843,26.12393],[97.31714,26.11887],[97.32487,26.10727],[97.33379,26.07664],[97.33945,26.07128],[97.33974,26.06206],[97.35135,26.05165],[97.35759,26.05701],[97.36889,26.05433],[97.37956,26.04434],[97.38436,26.03381],[97.39625,26.04095],[97.39596,26.05284],[97.39957,26.0684],[97.42376,26.08042],[97.45727,26.071],[97.47072,26.06301],[97.47609,26.06988],[97.49428,26.07267],[97.50432,26.06997],[97.50413,26.06301],[97.5127,26.05256],[97.52051,26.0503],[97.51938,26.03524],[97.52509,26.0315],[97.52376,26.01912],[97.52426,25.98867],[97.52723,25.97543],[97.54422,25.98214],[97.55216,25.97209],[97.56742,25.96929],[97.57492,25.9725],[97.57884,25.98535],[97.57116,25.99699],[97.55778,25.99927],[97.55921,26.01147],[97.57256,26.01479],[97.58428,26.00621],[97.59312,26.01391],[97.59844,26.02561],[97.59695,26.03725],[97.60616,26.07688],[97.6229,26.08665],[97.63183,26.09641],[97.64886,26.126],[97.65165,26.13688],[97.66002,26.14526],[97.69213,26.14626],[97.71055,26.16988],[97.72255,26.17254],[97.73478,26.17101],[97.74945,26.1813],[97.75123,26.18701],[97.74053,26.21164],[97.74302,26.22369],[97.73382,26.23281],[97.72482,26.2352],[97.71304,26.25411],[97.71376,26.26089],[97.72554,26.27339],[97.72482,26.27767],[97.70111,26.31214],[97.69127,26.32086],[97.69556,26.3255],[97.72482,26.33014],[97.73008,26.32856],[97.73962,26.31549],[97.74838,26.31836],[97.75695,26.3362],[97.75837,26.35905],[97.74552,26.37154],[97.74552,26.38796],[97.75266,26.39117],[97.77265,26.39367],[97.7855,26.40009],[97.78657,26.40687],[97.78264,26.43293],[97.75944,26.46505],[97.76587,26.47326],[97.78443,26.47612],[97.79111,26.47269],[97.80451,26.45343],[97.81691,26.45542],[97.82583,26.46505],[97.82547,26.47612],[97.83368,26.4829],[97.84225,26.49575],[97.86259,26.50467],[97.8783,26.50771],[97.90079,26.49385],[97.91837,26.48616],[97.92648,26.49218],[97.93755,26.51752],[97.94741,26.52619],[97.95683,26.54142],[97.99027,26.5455],[98.00036,26.5398],[98.0201,26.54629],[98.03043,26.56284],[98.06672,26.5747],[98.07285,26.58616],[98.08588,26.58349],[98.08917,26.59495],[98.09943,26.60149],[98.09781,26.6072],[98.11024,26.61284],[98.119,26.63357],[98.12708,26.63425],[98.1414,26.65318],[98.15602,26.66516],[98.18593,26.68475],[98.18682,26.69684],[98.20703,26.7019],[98.2379,26.7358],[98.24965,26.75178],[98.25339,26.76716],[98.27216,26.79582],[98.27756,26.79419],[98.2892,26.76079],[98.31161,26.76167],[98.31909,26.74519],[98.33337,26.74035],[98.34589,26.74475],[98.36677,26.74519],[98.37512,26.73882],[98.38548,26.75166],[98.40148,26.75727],[98.42113,26.73838],[98.42308,26.73056],[98.44964,26.72041],[98.46175,26.72275],[98.49574,26.71846],[98.50394,26.72041],[98.52269,26.7333],[98.52542,26.74111],[98.54144,26.74815],[98.54847,26.75674],[98.55746,26.76065],[98.5848,26.76416],[98.59574,26.75987],[98.60472,26.75205],[98.62621,26.75284],[98.64105,26.76456],[98.64964,26.78565],[98.6598,26.80011],[98.6723,26.80597],[98.68207,26.80362],[98.69105,26.80714],[98.70316,26.81729],[98.718,26.82589],[98.73352,26.85028]]]}}