{"type":"Feature","properties":{"id":"PHL.75.8","name":"Matanao","level":2,"country":"PHL"},"geometry":{"type":"Polygon","coordinates":[[[125.29345,6.74182],[125.26468,6.80128],[125.21919,6.74099],[125.19682,6.72945],[125.19501,6.71828],[125.18527,6.72456],[125.17436,6.70314],[125.15847,6.71477],[125.14295,6.69442],[125.15369,6.68847],[125.1526,6.67697],[125.14604,6.67294],[125.11449,6.67401],[125.09267,6.68561],[125.07916,6.68545],[125.08314,6.53576],[125.1742,6.61489],[125.23741,6.65597],[125.23007,6.65597],[125.23505,6.71695],[125.26966,6.73921],[125.29345,6.74182]]]}}