{"type":"Feature","properties":{"id":"PHL.68.1","name":"San Fernando","level":2,"country":"PHL"},"geometry":{"type":"Polygon","coordinates":[[[125.43341,7.83895],[125.41797,7.91755],[125.40157,7.967],[125.35621,8.00082],[125.32541,7.98801],[125.28979,7.97813],[125.27056,7.98112],[125.25503,7.96395],[125.26783,7.95649],[125.2569,7.94381],[125.25403,7.9272],[125.24029,7.92347],[125.24732,7.90821],[125.26007,7.90385],[125.27271,7.86941],[125.25302,7.80324],[125.22969,7.7669],[125.25018,7.74803],[125.26744,7.74727],[125.27815,7.71184],[125.29477,7.68621],[125.32944,7.69577],[125.37278,7.65345],[125.37493,7.63391],[125.38869,7.61998],[125.38251,7.58976],[125.38706,7.58633],[125.42856,7.60579],[125.43716,7.65801],[125.43479,7.70184],[125.42978,7.72725],[125.44932,7.76273],[125.43341,7.83895]]]}}