{"type":"Feature","properties":{"id":"PHL.16.6","name":"Concepcion","level":2,"country":"PHL"},"geometry":{"type":"Polygon","coordinates":[[[123.17069,11.35644],[123.15348,11.33662],[123.15387,11.30655],[123.11972,11.27446],[123.10831,11.23966],[123.05517,11.26202],[123.05143,11.21784],[123.06541,11.17606],[123.10457,11.13914],[123.13954,11.13221],[123.20157,11.09858],[123.22193,11.12549],[123.26283,11.13784],[123.33784,11.08209],[123.42188,11.08889],[123.47178,11.15604],[123.4789,11.20787],[123.46655,11.25648],[123.43384,11.30077],[123.39231,11.32725],[123.21919,11.39571],[123.20779,11.39493],[123.17069,11.35644]]]}}