{"type":"Feature","properties":{"id":"PHL.18.1","name":"Araceli","level":2,"country":"PHL"},"geometry":{"type":"Polygon","coordinates":[[[120.1073,10.68655],[120.02975,10.72679],[119.96287,10.73919],[119.93665,10.78308],[119.8947,10.81574],[119.8593,10.82791],[119.7943,10.82543],[119.75036,10.65791],[119.78669,10.62061],[119.77669,10.58297],[119.79188,10.54686],[119.8888,10.5489],[119.92025,10.50166],[119.95956,10.48518],[119.97831,10.35493],[120.05492,10.36651],[120.1094,10.41121],[120.17252,10.43604],[120.22175,10.49589],[120.2862,10.50065],[120.33658,10.52233],[120.36973,10.55459],[120.43659,10.59912],[120.45996,10.63874],[120.4686,10.684],[120.45903,10.73542],[120.41895,10.80716],[120.37545,10.84035],[120.31806,10.85428],[120.23534,10.84932],[120.16853,10.81928],[120.12944,10.7682],[120.1073,10.68655]]]}}