{"type":"Feature","properties":{"id":"PHL.16.14","name":"Dumangas","level":2,"country":"PHL"},"geometry":{"type":"Polygon","coordinates":[[[122.86262,10.77653],[122.8671,10.8704],[122.78223,10.87531],[122.75279,10.87788],[122.74357,10.88773],[122.7073,10.87861],[122.69028,10.87765],[122.65294,10.85768],[122.65326,10.83793],[122.65074,10.8342],[122.6395,10.82728],[122.64154,10.80653],[122.6569,10.8038],[122.66443,10.78196],[122.70867,10.74919],[122.78938,10.73588],[122.83021,10.71583],[122.86262,10.77653]]]}}