{"type":"Feature","properties":{"id":"PHL.104.1","name":"Caloocan","level":2,"country":"PHL"},"geometry":{"type":"MultiPolygon","coordinates":[[[[121.04049,14.74212],[121.07588,14.74231],[121.08571,14.75809],[121.09626,14.76777],[121.03109,14.78373],[121.02419,14.765],[121.00091,14.75341],[121.00575,14.74157],[121.00046,14.71446],[121.01613,14.70876],[121.01364,14.71591],[121.04049,14.74212]]],[[[121.0192,14.68518],[121.02234,14.68848],[121.01514,14.69201],[121.01308,14.68403],[121.00137,14.68516],[120.99308,14.66604],[120.96187,14.6595],[120.96092,14.64358],[120.97238,14.63567],[120.99219,14.63627],[121.00222,14.66733],[121.0192,14.68518]]]]}}