{"type":"Feature","properties":{"id":"PHL.40.31","name":"San Antonio","level":2,"country":"PHL"},"geometry":{"type":"Polygon","coordinates":[[[120.86377,15.29356],[120.87098,15.3059],[120.88008,15.30248],[120.89124,15.31298],[120.87421,15.33661],[120.86515,15.33886],[120.85286,15.37339],[120.82801,15.37946],[120.79329,15.4028],[120.7801,15.39605],[120.74979,15.39684],[120.73698,15.34845],[120.74477,15.32629],[120.75579,15.31896],[120.74943,15.27433],[120.73686,15.27892],[120.73521,15.25706],[120.771,15.26734],[120.77407,15.27447],[120.84234,15.2681],[120.84377,15.24439],[120.87265,15.27307],[120.86377,15.29356]]]}}