{"type":"Feature","properties":{"id":"FSM.3.8","name":"Woleai","level":2,"country":"FSM"},"geometry":{"type":"MultiPolygon","coordinates":[[[[143.90553,7.3784],[143.89944,7.37039],[143.90443,7.37007],[143.91054,7.36432],[143.91211,7.36825],[143.91145,7.38093],[143.9083,7.38212],[143.90553,7.3784]]],[[[143.83315,7.37424],[143.82936,7.37055],[143.82968,7.36702],[143.84278,7.37262],[143.84083,7.37501],[143.83315,7.37424]]],[[[143.83692,7.32859],[143.83897,7.32379],[143.84262,7.32789],[143.83692,7.32859]]],[[[143.84646,7.37315],[143.85421,7.37126],[143.85546,7.3738],[143.84742,7.37575],[143.84646,7.37315]]],[[[143.8737,7.35804],[143.8792,7.35638],[143.88343,7.35975],[143.8737,7.35804]]]]}}