{"type":"Feature","properties":{"id":"BGR.14.2","name":"Zlataritsa","level":2,"country":"BGR"},"geometry":{"type":"Polygon","coordinates":[[[26.0398,43.09648],[25.98042,43.09807],[25.93905,43.13096],[25.88315,43.11938],[25.8306,43.09691],[25.806,43.05854],[25.82726,43.02986],[25.83947,42.98529],[25.85586,43.00166],[25.88965,42.99152],[25.92085,42.98804],[25.94143,42.99422],[25.95963,43.01196],[25.98909,43.0156],[26.00815,42.98788],[26.02591,42.98106],[26.07549,42.98097],[26.07789,42.99433],[26.11571,43.01943],[26.06313,43.05773],[26.04449,43.07916],[26.0398,43.09648]]]}}