{"type":"Feature","properties":{"id":"BGR.4.8","name":"Panagyurishte","level":2,"country":"BGR"},"geometry":{"type":"Polygon","coordinates":[[[24.15282,42.62009],[24.13216,42.61238],[24.13021,42.60189],[24.12316,42.57115],[24.10534,42.56732],[24.07694,42.57162],[24.0497,42.55004],[24.0241,42.55035],[23.98719,42.56848],[23.96713,42.57127],[23.91352,42.56639],[23.89712,42.55535],[23.89862,42.53562],[23.92352,42.49565],[23.94644,42.47256],[23.9876,42.45256],[24.02186,42.4522],[24.03838,42.46038],[24.07409,42.45422],[24.13795,42.42291],[24.16679,42.40271],[24.19637,42.36375],[24.23402,42.33999],[24.23975,42.35373],[24.29028,42.36703],[24.30506,42.37959],[24.27524,42.40581],[24.27499,42.41854],[24.30753,42.42764],[24.31936,42.43674],[24.30112,42.4542],[24.27351,42.45547],[24.25503,42.47602],[24.25158,42.52272],[24.27204,42.55886],[24.31633,42.56542],[24.28584,42.60786],[24.26797,42.62143],[24.22649,42.62619],[24.18957,42.62654],[24.15282,42.62009]]]}}