{"type":"Feature","properties":{"id":"BGR.13.6","name":"Pleven","level":2,"country":"BGR"},"geometry":{"type":"Polygon","coordinates":[[[24.39511,43.27367],[24.42473,43.26082],[24.44022,43.24321],[24.46458,43.24241],[24.56772,43.2252],[24.61347,43.22991],[24.63377,43.23636],[24.64108,43.26947],[24.67462,43.26517],[24.69457,43.28383],[24.75066,43.3121],[24.81443,43.32439],[24.8364,43.36182],[24.8104,43.3667],[24.77683,43.36056],[24.75213,43.3741],[24.75343,43.38985],[24.76881,43.41692],[24.79437,43.42557],[24.82947,43.4251],[24.85806,43.42951],[24.89316,43.45168],[24.93192,43.4633],[24.92859,43.47658],[24.90748,43.49791],[24.87386,43.50615],[24.85044,43.52578],[24.82746,43.5223],[24.82755,43.54437],[24.80492,43.56786],[24.71532,43.55089],[24.68597,43.53382],[24.67916,43.51664],[24.68562,43.48975],[24.67713,43.47904],[24.63894,43.46712],[24.61347,43.46819],[24.57159,43.47877],[24.53986,43.47047],[24.53063,43.45024],[24.47805,43.44221],[24.47518,43.43227],[24.47447,43.41014],[24.45428,43.39015],[24.45416,43.37711],[24.49785,43.36295],[24.53646,43.34328],[24.54166,43.32301],[24.53327,43.30918],[24.48391,43.28727],[24.47931,43.27248],[24.4296,43.28813],[24.39511,43.27367]]]}}