{"type":"Feature","properties":{"id":"BGR.9.16","name":"Dragoman","level":2,"country":"BGR"},"geometry":{"type":"Polygon","coordinates":[[[22.84589,42.85462],[22.85575,42.85717],[22.91598,42.89892],[22.94522,42.91018],[23.01389,42.90828],[23.0658,42.91273],[23.10509,42.91812],[23.11484,42.95047],[23.09287,42.97652],[23.01454,42.9668],[22.95562,42.96918],[22.9437,42.97314],[22.92767,42.99913],[22.91922,43.02495],[22.90536,43.03793],[22.88615,43.04214],[22.87906,43.03467],[22.78974,42.98617],[22.76943,42.9675],[22.76637,42.93646],[22.75074,42.90368],[22.73957,42.89346],[22.76152,42.87828],[22.766,42.84987],[22.84589,42.85462]]]}}