{"type":"Feature","properties":{"id":"BGR.14.6","name":"Pavlikeni","level":2,"country":"BGR"},"geometry":{"type":"Polygon","coordinates":[[[25.22918,43.37438],[25.23046,43.35064],[25.22179,43.33092],[25.20942,43.32246],[25.14486,43.29391],[25.16546,43.25463],[25.1503,43.23916],[25.15766,43.22685],[25.18647,43.20775],[25.22135,43.20538],[25.22872,43.18611],[25.24258,43.11626],[25.28981,43.12053],[25.30324,43.13824],[25.32967,43.1542],[25.35328,43.14993],[25.37104,43.13507],[25.42585,43.14883],[25.42152,43.18343],[25.43885,43.2469],[25.48412,43.24437],[25.50105,43.26751],[25.4155,43.31913],[25.38736,43.34979],[25.38625,43.35805],[25.40677,43.377],[25.40635,43.39927],[25.3943,43.4193],[25.32954,43.40991],[25.28526,43.40871],[25.27142,43.40402],[25.22918,43.37438]]]}}