{"type":"Feature","properties":{"id":"CIV.18.1","name":"District Autonome De Yamoussoukro","level":2,"country":"CIV"},"geometry":{"type":"Polygon","coordinates":[[[-4.97561,6.75128],[-4.95802,6.79144],[-4.96193,6.7971],[-4.95442,6.82056],[-4.96384,6.81918],[-4.97473,6.82491],[-4.9716,6.83352],[-4.98336,6.84267],[-4.9804,6.84949],[-4.98855,6.85944],[-4.99093,6.88992],[-5.00466,6.89094],[-5.02609,6.91127],[-5.03441,6.93017],[-5.03356,6.93923],[-5.04145,6.94726],[-5.0412,6.95593],[-5.05688,6.97717],[-5.08087,6.97719],[-5.09151,6.98038],[-5.09757,6.9912],[-5.10818,6.99138],[-5.1185,6.99772],[-5.12823,7.01974],[-5.14052,7.03175],[-5.15419,7.02853],[-5.18086,7.02975],[-5.19181,7.0372],[-5.21159,7.03662],[-5.23095,7.05634],[-5.24718,7.05968],[-5.26459,7.05749],[-5.27886,7.06153],[-5.28606,7.07029],[-5.31449,7.07945],[-5.33591,7.07234],[-5.36026,7.07222],[-5.37545,7.06909],[-5.40155,7.05269],[-5.4264,7.04695],[-5.4402,7.04028],[-5.4518,7.03949],[-5.46009,7.03065],[-5.4727,7.03413],[-5.48291,7.02933],[-5.4874,7.01119],[-5.49527,7.00299],[-5.50134,6.98746],[-5.5044,6.96006],[-5.50295,6.94856],[-5.50579,6.92919],[-5.51716,6.9249],[-5.52819,6.91504],[-5.53136,6.90324],[-5.52525,6.89418],[-5.52508,6.8834],[-5.51402,6.8637],[-5.4916,6.85427],[-5.48723,6.82922],[-5.48879,6.81045],[-5.46932,6.80125],[-5.45138,6.7864],[-5.43623,6.75796],[-5.42287,6.73896],[-5.41445,6.71765],[-5.40575,6.70416],[-5.40659,6.68585],[-5.39977,6.66596],[-5.41229,6.64834],[-5.41694,6.61784],[-5.40712,6.60194],[-5.39454,6.59734],[-5.35753,6.60189],[-5.3376,6.59977],[-5.30599,6.58777],[-5.29945,6.57431],[-5.30648,6.5682],[-5.3043,6.55119],[-5.29381,6.55779],[-5.28208,6.57374],[-5.28573,6.60418],[-5.28321,6.61531],[-5.27201,6.63123],[-5.27226,6.63774],[-5.22386,6.65644],[-5.19691,6.68012],[-5.13582,6.74587],[-5.11072,6.76474],[-5.0799,6.76782],[-5.06546,6.77362],[-5.04706,6.78543],[-5.039,6.7695],[-5.02849,6.76346],[-4.97561,6.75128]]]}}