{"type":"Feature","properties":{"id":"COD.3.12","name":"Popokabaka","level":2,"country":"COD"},"geometry":{"type":"Polygon","coordinates":[[[17.14018,-5.89323],[17.13268,-5.87138],[17.1364,-5.84924],[17.13223,-5.83046],[17.13997,-5.82841],[17.13617,-5.80531],[17.12482,-5.79557],[17.12015,-5.78017],[17.1076,-5.77768],[17.09696,-5.78346],[17.07146,-5.82014],[17.04962,-5.83099],[17.0467,-5.84186],[17.04525,-5.89273],[17.03946,-5.90203],[16.99613,-5.9047],[16.99063,-5.89052],[16.99712,-5.8268],[17.00314,-5.78745],[17.00479,-5.73888],[16.99611,-5.71049],[16.99156,-5.68438],[16.99132,-5.64293],[16.98255,-5.63353],[16.97227,-5.64485],[16.96989,-5.67476],[16.96559,-5.68881],[16.96836,-5.73871],[16.96281,-5.77],[16.96323,-5.81108],[16.95461,-5.82307],[16.93638,-5.82234],[16.94316,-5.79862],[16.93363,-5.77612],[16.9298,-5.74371],[16.9217,-5.73225],[16.88785,-5.71538],[16.87538,-5.70256],[16.86883,-5.66779],[16.82868,-5.68699],[16.80546,-5.7023],[16.78502,-5.6934],[16.76362,-5.67651],[16.74314,-5.66749],[16.74213,-5.64863],[16.72256,-5.63974],[16.71011,-5.62829],[16.69737,-5.60512],[16.68425,-5.59942],[16.67128,-5.5751],[16.63631,-5.56328],[16.63051,-5.55019],[16.6071,-5.55236],[16.59816,-5.55723],[16.56691,-5.55299],[16.55724,-5.54797],[16.56051,-5.50862],[16.56711,-5.49502],[16.55877,-5.47918],[16.55639,-5.45826],[16.56166,-5.43873],[16.5571,-5.41294],[16.54064,-5.37666],[16.5438,-5.36491],[16.52511,-5.34383],[16.51669,-5.31119],[16.521,-5.29484],[16.50879,-5.28546],[16.5077,-5.24773],[16.50195,-5.24339],[16.49712,-5.19049],[16.4998,-5.17323],[16.5071,-5.16192],[16.5081,-5.12787],[16.50346,-5.11593],[16.51236,-5.10531],[16.51084,-5.07195],[16.51743,-5.05443],[16.52724,-5.04267],[16.52371,-5.0229],[16.52617,-5.0054],[16.54034,-4.99453],[16.5535,-4.95996],[16.54335,-4.9462],[16.54487,-4.92871],[16.53324,-4.89309],[16.5059,-4.88669],[16.48771,-4.89813],[16.4445,-4.89726],[16.43987,-4.90716],[16.43566,-4.93738],[16.41727,-4.98076],[16.4031,-4.99247],[16.39502,-5.00732],[16.38953,-5.03426],[16.33446,-5.10062],[16.29949,-5.1395],[16.29624,-5.13054],[16.29921,-5.0714],[16.28607,-5.05741],[16.27979,-5.0388],[16.25769,-5.02117],[16.25065,-5.03937],[16.24299,-5.0769],[16.23547,-5.09004],[16.23075,-5.11398],[16.25196,-5.13829],[16.25442,-5.17855],[16.2487,-5.18317],[16.24584,-5.21401],[16.23288,-5.24396],[16.22474,-5.27689],[16.22118,-5.30359],[16.21303,-5.33353],[16.21697,-5.34271],[16.21229,-5.37746],[16.21553,-5.38389],[16.2029,-5.44122],[16.20687,-5.46006],[16.20164,-5.47159],[16.20127,-5.49436],[16.20619,-5.51873],[16.20231,-5.52472],[16.21213,-5.56747],[16.21249,-5.60082],[16.21779,-5.60678],[16.21442,-5.62382],[16.21589,-5.64635],[16.21132,-5.65235],[16.21353,-5.68845],[16.20712,-5.69492],[16.20513,-5.71424],[16.20909,-5.72826],[16.20115,-5.75198],[16.20944,-5.75678],[16.21088,-5.77402],[16.20301,-5.80318],[16.19348,-5.80978],[16.1641,-5.8102],[16.15041,-5.81883],[16.14163,-5.84227],[16.13943,-5.85864],[16.19488,-5.85986],[16.22222,-5.86862],[16.36594,-5.86469],[16.38433,-5.86756],[16.39639,-5.88243],[16.4146,-5.8922],[16.43095,-5.87852],[16.4355,-5.86793],[16.44745,-5.86719],[16.46024,-5.84966],[16.4894,-5.84518],[16.5,-5.85249],[16.51769,-5.85265],[16.5343,-5.86776],[16.55178,-5.87321],[16.5874,-5.87537],[16.58566,-5.89538],[16.59678,-5.9181],[16.59919,-5.94293],[16.58922,-5.97448],[16.60327,-5.98178],[16.59971,-6.00778],[16.6062,-6.0204],[16.60767,-6.04063],[16.59902,-6.05883],[16.61008,-6.06592],[16.62201,-6.06081],[16.62529,-6.07528],[16.60806,-6.07535],[16.61158,-6.09167],[16.64793,-6.09979],[16.64782,-6.12785],[16.65953,-6.12435],[16.67062,-6.13787],[16.68856,-6.1394],[16.7032,-6.12577],[16.72224,-6.11764],[16.73919,-6.10492],[16.7549,-6.08693],[16.78173,-6.08321],[16.8222,-6.09153],[16.8511,-6.11005],[16.91923,-6.12627],[16.93803,-6.10081],[16.96665,-6.09173],[16.97775,-6.09183],[16.99889,-6.07258],[17.02168,-6.07685],[17.06342,-6.09849],[17.09194,-6.10723],[17.11128,-6.10729],[17.12373,-6.10062],[17.14429,-6.08052],[17.16986,-6.06798],[17.17559,-6.05418],[17.18705,-6.04654],[17.18722,-6.03596],[17.17341,-6.0312],[17.16242,-5.99469],[17.15455,-5.98392],[17.15793,-5.97033],[17.13748,-5.97303],[17.12537,-5.94036],[17.11106,-5.92686],[17.12686,-5.91669],[17.12624,-5.89993],[17.14018,-5.89323]]]}}