{"type":"Feature","properties":{"id":"COD.2.7","name":"Yahuma","level":2,"country":"COD"},"geometry":{"type":"Polygon","coordinates":[[[22.68087,2.04996],[22.64473,2.08607],[22.62293,2.09696],[22.60532,2.09707],[22.57734,2.10746],[22.51919,2.11972],[22.49098,2.13286],[22.43897,2.14654],[22.38653,2.15721],[22.35448,2.16204],[22.36413,2.15544],[22.36204,2.09884],[22.36798,2.06436],[22.38253,2.04375],[22.41299,2.03684],[22.44526,2.00002],[22.46221,1.99531],[22.47533,1.98206],[22.48229,1.96784],[22.49009,1.93201],[22.49113,1.91315],[22.48033,1.88892],[22.46774,1.8909],[22.43541,1.87181],[22.42936,1.85544],[22.43134,1.83406],[22.421,1.80914],[22.40826,1.80008],[22.39479,1.79837],[22.38137,1.78839],[22.35763,1.78431],[22.3621,1.75425],[22.37416,1.7426],[22.37738,1.72337],[22.37244,1.71068],[22.33381,1.69592],[22.30914,1.6815],[22.28484,1.67199],[22.26838,1.64082],[22.26193,1.58488],[22.25357,1.57102],[22.25717,1.54828],[22.24727,1.52636],[22.2597,1.51426],[22.31126,1.49278],[22.33313,1.50237],[22.3373,1.49459],[22.35373,1.49815],[22.38479,1.49906],[22.39263,1.48946],[22.40658,1.48772],[22.42312,1.47495],[22.46312,1.4734],[22.46911,1.46585],[22.49793,1.46122],[22.52292,1.44829],[22.56033,1.42509],[22.56272,1.40947],[22.5779,1.39508],[22.59436,1.39267],[22.60664,1.36745],[22.62446,1.36712],[22.62731,1.35127],[22.63992,1.34422],[22.65519,1.31604],[22.64909,1.30703],[22.65443,1.29349],[22.66954,1.28878],[22.67286,1.27109],[22.68069,1.26126],[22.67482,1.25133],[22.68179,1.23321],[22.71071,1.21224],[22.71196,1.1964],[22.72355,1.17164],[22.73496,1.1731],[22.74029,1.16256],[22.73649,1.14736],[22.74025,1.13336],[22.7592,1.09877],[22.77429,1.09657],[22.77483,1.08508],[22.78891,1.0608],[22.78355,1.04421],[22.79761,1.02453],[22.80503,1.00619],[22.82555,0.97644],[22.82039,0.9279],[22.83033,0.90912],[22.82193,0.90171],[22.82229,0.88217],[22.83293,0.86155],[22.83093,0.85189],[22.84869,0.82534],[22.85745,0.77713],[22.85,0.76421],[22.85356,0.74378],[22.8453,0.71476],[22.84609,0.69891],[22.87098,0.66253],[22.87522,0.64211],[22.89633,0.6257],[22.91015,0.60556],[22.93698,0.58575],[22.93706,0.5738],[22.94668,0.56834],[22.9372,0.55151],[22.93616,0.53633],[22.92748,0.5025],[22.94233,0.46422],[22.95197,0.45487],[22.95606,0.4225],[22.95222,0.41489],[22.96976,0.38444],[22.97123,0.36883],[22.95878,0.35336],[22.93014,0.34421],[22.94127,0.30799],[22.95628,0.28052],[22.97151,0.26545],[22.98681,0.2157],[23.01806,0.17938],[23.02925,0.17876],[23.04904,0.15086],[23.05263,0.11376],[23.06816,0.08694],[23.09351,0.05312],[23.14115,0.0118],[23.15838,0],[23.22413,-0.06921],[23.2426,-0.07407],[23.26995,-0.0957],[23.29341,-0.12076],[23.30824,-0.12378],[23.32144,-0.14286],[23.34582,-0.16379],[23.35651,-0.18769],[23.3275,-0.21863],[23.31972,-0.23584],[23.29251,-0.27414],[23.27698,-0.28537],[23.27559,-0.29524],[23.19224,-0.28723],[23.13839,-0.28949],[23.08463,-0.27719],[23.04191,-0.30948],[23.01016,-0.32893],[22.9786,-0.3656],[22.96649,-0.37614],[22.94362,-0.40365],[23.04791,-0.40423],[23.1107,-0.40719],[23.13508,-0.41209],[23.12659,-0.43803],[23.12885,-0.44882],[23.11856,-0.46626],[23.10751,-0.52274],[23.09904,-0.54064],[23.107,-0.55719],[23.1262,-0.53656],[23.15909,-0.52376],[23.17692,-0.50634],[23.19543,-0.49719],[23.21577,-0.47518],[23.24478,-0.45755],[23.28952,-0.45051],[23.31008,-0.43906],[23.32811,-0.43863],[23.35597,-0.42306],[23.37172,-0.42355],[23.39867,-0.41096],[23.41122,-0.40915],[23.48198,-0.39961],[23.50505,-0.38736],[23.53518,-0.38866],[23.55416,-0.39421],[23.64984,-0.39251],[23.68817,-0.38959],[23.70817,-0.3273],[23.72016,-0.27712],[23.71893,-0.25992],[23.6754,-0.26101],[23.66196,-0.25863],[23.67777,-0.24236],[23.74211,-0.21398],[23.75431,-0.20143],[23.74141,-0.19147],[23.7081,-0.19005],[23.67876,-0.15935],[23.67303,-0.14317],[23.67634,-0.11769],[23.68739,-0.10702],[23.71643,-0.09219],[23.72573,-0.04253],[23.7228,-0.02262],[23.68096,-0.02824],[23.66071,-0.03645],[23.62389,-0.04101],[23.57889,-0.04087],[23.58758,-0.02321],[23.62352,0.01441],[23.65501,0.05225],[23.65779,0.08194],[23.71991,0.20028],[23.7385,0.22977],[23.74946,0.25788],[23.76737,0.27935],[23.77585,0.31551],[23.78905,0.34487],[23.78514,0.36381],[23.80369,0.38786],[23.80377,0.40011],[23.77479,0.42795],[23.77132,0.4469],[23.78187,0.48118],[23.7856,0.50349],[23.78579,0.53297],[23.79657,0.60308],[23.79269,0.62792],[23.78163,0.63946],[23.77942,0.66818],[23.75433,0.66232],[23.73596,0.66549],[23.70948,0.66482],[23.6799,0.66952],[23.6755,0.68256],[23.63552,0.72289],[23.63014,0.73938],[23.62807,0.78208],[23.63457,0.81708],[23.64502,0.8387],[23.66224,0.85657],[23.68359,0.88641],[23.68925,0.91347],[23.69046,0.97921],[23.73608,0.95479],[23.73809,0.96446],[23.75847,0.99492],[23.75586,1.01375],[23.74344,1.03024],[23.73627,1.04721],[23.70589,1.0905],[23.70435,1.07807],[23.67372,1.04296],[23.6209,1.04541],[23.59447,1.06725],[23.58245,1.0832],[23.56767,1.08512],[23.53682,1.07945],[23.53289,1.09138],[23.53609,1.13267],[23.52248,1.15868],[23.48215,1.2158],[23.44736,1.26204],[23.40351,1.3062],[23.35394,1.33398],[23.32613,1.34365],[23.28696,1.34384],[23.25687,1.32705],[23.22505,1.30497],[23.20797,1.31988],[23.224,1.34574],[23.21549,1.36432],[23.12772,1.51034],[23.15157,1.5314],[23.16741,1.59009],[23.18409,1.60417],[23.16927,1.61938],[23.14924,1.661],[23.13387,1.67171],[23.12945,1.68296],[23.11477,1.69207],[23.10757,1.71065],[23.10837,1.7286],[23.09598,1.7368],[23.08718,1.75376],[23.06576,1.78147],[23.05644,1.80856],[23.0231,1.84054],[23.00383,1.84917],[22.99021,1.87278],[22.96247,1.88526],[22.89447,1.90046],[22.8835,1.90131],[22.84706,1.91487],[22.82674,1.91083],[22.80863,1.91876],[22.75902,1.95386],[22.75079,1.95334],[22.72396,1.96582],[22.71069,2.0007],[22.69157,2.02197],[22.68087,2.04996]]]}}