{"type":"Feature","properties":{"id":"COD.5.14","name":"Kasangulu","level":2,"country":"COD"},"geometry":{"type":"Polygon","coordinates":[[[15.83317,-5.02493],[15.81586,-5.02062],[15.80486,-5.02479],[15.79267,-5.01931],[15.77938,-5.02349],[15.75435,-5.01819],[15.74464,-4.98829],[15.74362,-4.96963],[15.68545,-4.93725],[15.6849,-4.92725],[15.66886,-4.91593],[15.6389,-4.90369],[15.62439,-4.89236],[15.61625,-4.8781],[15.61378,-4.86167],[15.62451,-4.81852],[15.64792,-4.80757],[15.66804,-4.81032],[15.68376,-4.80719],[15.69879,-4.79392],[15.70969,-4.77613],[15.71561,-4.7277],[15.7261,-4.69648],[15.73769,-4.67944],[15.751,-4.64749],[15.74363,-4.63026],[15.73262,-4.61896],[15.69842,-4.60816],[15.67833,-4.59453],[15.67029,-4.57167],[15.6521,-4.58269],[15.64717,-4.60422],[15.59596,-4.60264],[15.58248,-4.60648],[15.55057,-4.6043],[15.52493,-4.58774],[15.50934,-4.60395],[15.48592,-4.60814],[15.46868,-4.603],[15.46196,-4.58687],[15.45105,-4.58073],[15.45003,-4.5695],[15.43843,-4.54622],[15.41234,-4.54826],[15.4029,-4.5602],[15.40771,-4.58829],[15.38694,-4.62568],[15.35779,-4.64656],[15.33056,-4.64522],[15.3267,-4.63321],[15.31435,-4.62463],[15.27912,-4.62216],[15.26811,-4.61507],[15.24558,-4.6156],[15.23413,-4.5927],[15.21357,-4.58293],[15.20679,-4.56652],[15.17475,-4.55907],[15.17244,-4.52685],[15.1777,-4.51123],[15.1723,-4.47277],[15.16303,-4.45737],[15.13111,-4.4446],[15.12479,-4.46247],[15.08723,-4.51051],[15.07566,-4.51728],[15.05245,-4.54001],[15.04102,-4.54519],[15.02398,-4.56391],[14.99554,-4.60344],[14.97414,-4.62505],[14.92513,-4.66856],[14.91306,-4.68109],[14.89649,-4.72092],[14.88215,-4.74262],[14.87278,-4.76822],[14.8903,-4.77017],[14.90776,-4.78026],[14.9179,-4.79957],[14.93443,-4.80275],[14.96,-4.8462],[14.97585,-4.84845],[14.98529,-4.8627],[14.97934,-4.86846],[14.99314,-4.88224],[14.99732,-4.90018],[15.00719,-4.90038],[15.01319,-4.91464],[15.04808,-4.91778],[15.04834,-4.92905],[15.06488,-4.93477],[15.08665,-4.92575],[15.12453,-4.92842],[15.15303,-4.94331],[15.18887,-4.95818],[15.2164,-4.95443],[15.24923,-4.95918],[15.26283,-4.97801],[15.28164,-4.97704],[15.29394,-4.96759],[15.31873,-4.96138],[15.3478,-4.99689],[15.3466,-4.98125],[15.36348,-4.94531],[15.38871,-4.94041],[15.41299,-4.92401],[15.42007,-4.91249],[15.43956,-4.9083],[15.45628,-4.89606],[15.48428,-4.89644],[15.51248,-4.88808],[15.52763,-4.89057],[15.53883,-4.87604],[15.54988,-4.8882],[15.53802,-4.91102],[15.52723,-4.92331],[15.53311,-4.94615],[15.56306,-4.95826],[15.56372,-4.96502],[15.5335,-5.00436],[15.53,-5.01951],[15.53312,-5.04604],[15.55641,-5.0493],[15.59075,-5.04122],[15.60918,-5.05668],[15.60996,-5.08521],[15.60222,-5.10524],[15.58896,-5.12093],[15.59118,-5.13569],[15.60593,-5.1527],[15.63201,-5.15972],[15.68523,-5.1611],[15.69929,-5.16362],[15.70933,-5.14565],[15.7201,-5.14032],[15.72942,-5.11476],[15.73707,-5.06964],[15.74804,-5.04535],[15.78609,-5.04995],[15.80361,-5.04844],[15.8245,-5.03769],[15.83317,-5.02493]]]}}