{"type":"Feature","properties":{"id":"COD.2.20","name":"Dungu","level":2,"country":"COD"},"geometry":{"type":"Polygon","coordinates":[[[27.25449,3.85671],[27.27626,3.85167],[27.28796,3.84409],[27.32261,3.79463],[27.33934,3.79534],[27.34736,3.78982],[27.36225,3.79675],[27.37624,3.7864],[27.38401,3.80068],[27.43097,3.81177],[27.45254,3.78003],[27.46101,3.78395],[27.45871,3.79914],[27.45114,3.80535],[27.45938,3.81755],[27.48572,3.82287],[27.49121,3.83692],[27.51297,3.84039],[27.52719,3.83511],[27.53795,3.84087],[27.5345,3.85698],[27.55351,3.86896],[27.56037,3.88002],[27.57846,3.89292],[27.58581,3.8805],[27.59909,3.88626],[27.60251,3.91458],[27.61854,3.92265],[27.64031,3.92727],[27.65589,3.92636],[27.66734,3.93649],[27.68591,3.93006],[27.69003,3.93789],[27.71203,3.93767],[27.71614,3.95586],[27.7331,3.95863],[27.74067,3.95196],[27.75647,3.97245],[27.76587,3.969],[27.77915,3.98443],[27.78693,4.00193],[27.78875,4.02426],[27.79814,4.03808],[27.80638,4.06156],[27.81577,4.06709],[27.83618,4.05697],[27.84329,4.04846],[27.88317,4.04318],[27.89234,4.03766],[27.90632,4.04526],[27.95857,4.05494],[27.95879,4.01806],[27.96725,3.98682],[27.99825,3.96126],[28.00787,3.95643],[28.02896,3.92766],[28.03653,3.92214],[28.04135,3.87818],[28.05281,3.86183],[28.05075,3.84388],[28.06916,3.82395],[28.08649,3.81139],[28.10319,3.80665],[28.13953,3.808],[28.15151,3.79181],[28.13761,3.76286],[28.12065,3.76309],[28.0982,3.7456],[28.07323,3.74605],[28.06979,3.73593],[28.10279,3.72534],[28.11905,3.7281],[28.13303,3.72442],[28.14677,3.72765],[28.17747,3.72304],[28.1958,3.70141],[28.22444,3.68874],[28.22742,3.66964],[28.24368,3.63833],[28.25468,3.62682],[28.25537,3.60634],[28.26888,3.59575],[28.28423,3.59137],[28.30049,3.60656],[28.32982,3.60472],[28.34104,3.6206],[28.35067,3.65075],[28.36716,3.66617],[28.41137,3.65833],[28.41916,3.66247],[28.43703,3.64382],[28.5211,3.62699],[28.54194,3.61294],[28.52521,3.56766],[28.52885,3.55083],[28.52066,3.50988],[28.50888,3.47403],[28.49176,3.43365],[28.48294,3.40292],[28.47228,3.38543],[28.49671,3.38433],[28.50568,3.37594],[28.49381,3.36265],[28.5082,3.34104],[28.52832,3.32315],[28.5187,3.3098],[28.47954,3.3089],[28.46236,3.29785],[28.44496,3.29533],[28.43283,3.30431],[28.40649,3.31191],[28.39276,3.32204],[28.37558,3.32458],[28.36986,3.30893],[28.38016,3.29972],[28.3742,3.28107],[28.37351,3.24954],[28.36228,3.21341],[28.33183,3.19086],[28.32175,3.17475],[28.32358,3.14781],[28.30756,3.1179],[28.29519,3.08867],[28.28885,3.05064],[28.30289,3.03926],[28.32642,3.03996],[28.33187,3.01921],[28.33146,2.96985],[28.32643,2.95959],[28.33089,2.94573],[28.33844,2.94803],[28.34782,2.91144],[28.36842,2.88865],[28.42174,2.8815],[28.45492,2.86216],[28.47048,2.83638],[28.47139,2.82717],[28.50297,2.82509],[28.51235,2.81956],[28.53753,2.83727],[28.53136,2.86098],[28.51924,2.87525],[28.54922,2.88721],[28.55333,2.85545],[28.5666,2.84255],[28.56133,2.8345],[28.55904,2.81264],[28.57895,2.81378],[28.58834,2.83725],[28.60688,2.84299],[28.60025,2.85865],[28.62359,2.85426],[28.63481,2.85679],[28.64557,2.87266],[28.67234,2.85147],[28.70369,2.85099],[28.71148,2.87193],[28.69547,2.88069],[28.69777,2.90301],[28.71037,2.92279],[28.71175,2.93246],[28.7351,2.94349],[28.74761,2.96771],[28.74864,3.01046],[28.74408,3.02611],[28.75599,3.04613],[28.77271,3.04911],[28.80456,3.04485],[28.84568,3.0423],[28.85608,3.04987],[28.88032,3.08033],[28.87896,3.10518],[28.88516,3.116],[28.91355,3.12173],[28.9415,3.15231],[28.94518,3.16796],[28.95319,3.16887],[28.95984,3.18483],[28.96211,3.21282],[28.97485,3.23364],[28.9891,3.24574],[29.02241,3.25934],[29.04587,3.2796],[29.06781,3.3079],[29.11112,3.35682],[29.12534,3.37674],[29.13408,3.39725],[29.12882,3.40646],[29.12154,3.4502],[29.1392,3.46929],[29.15799,3.484],[29.17996,3.46878],[29.19094,3.44935],[29.22505,3.44133],[29.2459,3.4443],[29.25255,3.45235],[29.28184,3.43251],[29.30608,3.40739],[29.31499,3.39287],[29.3427,3.38823],[29.34812,3.38355],[29.36537,3.40209],[29.37743,3.44155],[29.39366,3.48284],[29.40704,3.48921],[29.42285,3.48348],[29.44305,3.49921],[29.44508,3.51336],[29.46089,3.55586],[29.468,3.56413],[29.46757,3.58071],[29.4733,3.58829],[29.47149,3.60395],[29.45434,3.62009],[29.43694,3.62863],[29.42986,3.64315],[29.43789,3.65211],[29.47251,3.66297],[29.51534,3.6824],[29.55045,3.69518],[29.56363,3.67538],[29.60649,3.68518],[29.63311,3.73522],[29.67888,3.76548],[29.69789,3.77298],[29.69036,3.79118],[29.66676,3.79468],[29.66426,3.80274],[29.64551,3.8251],[29.64919,3.83775],[29.63751,3.84099],[29.62265,3.85898],[29.64616,3.90714],[29.64157,3.939],[29.6299,3.95248],[29.6096,3.96232],[29.56128,3.97746],[29.5555,3.99375],[29.57888,4.00085],[29.59494,4.00957],[29.61809,4.00769],[29.63506,4.01801],[29.64081,4.02698],[29.65571,4.02949],[29.66123,4.03869],[29.66309,4.05871],[29.66907,4.06629],[29.67231,4.08677],[29.66733,4.12269],[29.6786,4.14707],[29.67381,4.15997],[29.68276,4.16548],[29.69105,4.18641],[29.68422,4.21243],[29.69701,4.2434],[29.72079,4.25672],[29.74322,4.26158],[29.76435,4.28134],[29.77218,4.29974],[29.78252,4.31123],[29.80553,4.3563],[29.81026,4.38749],[29.80999,4.45363],[29.81518,4.49813],[29.81511,4.51495],[29.82696,4.53363],[29.84077,4.56891],[29.82267,4.57815],[29.78969,4.60239],[29.77187,4.60551],[29.73314,4.60535],[29.69309,4.63884],[29.65009,4.6657],[29.59347,4.66908],[29.58153,4.67624],[29.53743,4.67846],[29.52012,4.6862],[29.49453,4.68489],[29.47553,4.66739],[29.46849,4.63853],[29.47516,4.60791],[29.46392,4.58683],[29.41298,4.5073],[29.36847,4.46205],[29.34415,4.4325],[29.32697,4.40659],[29.31034,4.3921],[29.27338,4.39735],[29.25677,4.37745],[29.25384,4.36482],[29.21457,4.35264],[29.19904,4.35618],[29.18051,4.37113],[29.15061,4.40166],[29.13919,4.42746],[29.12488,4.4304],[29.0945,4.42608],[29.08853,4.43086],[29.09382,4.44951],[29.05444,4.46498],[29.03468,4.48894],[29.02813,4.49071],[29.00017,4.48098],[28.99181,4.48275],[28.95549,4.479],[28.91972,4.48005],[28.88392,4.49433],[28.86369,4.49064],[28.83031,4.4893],[28.81836,4.49767],[28.82638,4.51509],[28.82295,4.53489],[28.80486,4.5662],[28.78698,4.57128],[28.7589,4.54685],[28.72764,4.54342],[28.7134,4.52804],[28.70427,4.49976],[28.70259,4.47181],[28.67919,4.43685],[28.65957,4.42505],[28.6036,4.41581],[28.5932,4.40826],[28.59089,4.38931],[28.58229,4.37816],[28.54,4.37528],[28.52392,4.37161],[28.51175,4.36134],[28.49492,4.3219],[28.48039,4.30321],[28.46492,4.29864],[28.45364,4.28777],[28.41447,4.28282],[28.38536,4.29952],[28.35189,4.33808],[28.32141,4.33648],[28.31659,4.33234],[28.28931,4.3328],[28.27257,4.32751],[28.23863,4.32958],[28.20011,4.34616],[28.18343,4.36739],[28.15649,4.39506],[28.13996,4.43406],[28.12235,4.4436],[28.08573,4.43504],[28.0389,4.46699],[28.03386,4.47688],[28.02627,4.53811],[28.00838,4.54777],[27.98086,4.54454],[27.94417,4.55696],[27.9054,4.54067],[27.87629,4.53922],[27.83844,4.56268],[27.81826,4.57096],[27.79716,4.57026],[27.78683,4.58636],[27.77809,4.63308],[27.76363,4.6462],[27.79103,4.68501],[27.78898,4.75409],[27.7752,4.77566],[27.73291,4.77189],[27.71085,4.7736],[27.70665,4.78199],[27.70044,4.8227],[27.69951,4.84548],[27.68435,4.87125],[27.65384,4.87353],[27.63779,4.86869],[27.61026,4.86752],[27.58984,4.8606],[27.56688,4.87332],[27.56207,4.88412],[27.53695,4.90864],[27.52732,4.93443],[27.49111,4.94361],[27.47824,4.96546],[27.46446,4.97949],[27.46238,4.99467],[27.44033,5.02043],[27.4465,5.04759],[27.44258,5.06347],[27.43155,5.07773],[27.39413,5.0961],[27.34064,5.11078],[27.31814,5.12641],[27.25753,5.14314],[27.23182,5.15231],[27.19599,5.17206],[27.18174,5.18493],[27.1574,5.19963],[27.14293,5.20422],[27.11218,5.20671],[27.07867,5.20413],[27.02912,5.18703],[27.00115,5.16697],[26.97019,5.1522],[26.98831,5.12187],[26.98748,5.09548],[26.94437,5.08761],[26.93645,5.08152],[26.93652,5.05785],[26.94087,5.04371],[26.93137,5.034],[26.92934,5.01083],[26.94703,4.99728],[26.96533,4.98869],[26.95038,4.97583],[26.98228,4.93759],[26.98687,4.92072],[26.98879,4.88475],[26.99884,4.8642],[27.01363,4.85271],[27.03908,4.84524],[27.04684,4.83839],[27.04641,4.8179],[27.03543,4.79717],[27.01067,4.78701],[26.98383,4.78835],[26.97741,4.78489],[26.98893,4.75222],[27.00616,4.73522],[27.02755,4.69727],[27.02504,4.6876],[27.00259,4.66823],[26.99413,4.65165],[26.97672,4.63597],[26.9814,4.62448],[26.98113,4.60422],[26.96832,4.58486],[26.98051,4.56209],[26.96998,4.54758],[26.96976,4.53768],[26.95995,4.51004],[26.98885,4.50663],[27.01682,4.51105],[27.03082,4.50186],[27.04021,4.5074],[27.07189,4.48788],[27.11204,4.47412],[27.1453,4.46703],[27.15517,4.4553],[27.1944,4.44407],[27.21731,4.45837],[27.2556,4.46164],[27.27279,4.47063],[27.29219,4.46472],[27.29178,4.4513],[27.26691,4.4178],[27.26467,4.40576],[27.26547,4.36638],[27.24651,4.33102],[27.24089,4.31172],[27.23945,4.2619],[27.24052,4.22476],[27.22609,4.21485],[27.22909,4.20242],[27.21448,4.15176],[27.21359,4.13473],[27.20077,4.12159],[27.19119,4.079],[27.20085,4.05438],[27.21805,4.05071],[27.22013,4.02977],[27.22932,4.01091],[27.22363,3.98719],[27.2326,3.95705],[27.256,3.93705],[27.25832,3.91426],[27.27071,3.89862],[27.27738,3.87929],[27.25968,3.8733],[27.25449,3.85671]]]}}