{"type":"Feature","properties":{"id":"KGZ.7.1","name":"Kara-Buura","level":2,"country":"KGZ"},"geometry":{"type":"Polygon","coordinates":[[[71.65295,42.64472],[71.57501,42.66886],[71.45886,42.71663],[71.36873,42.78629],[71.33649,42.78962],[71.26795,42.77775],[71.26272,42.77259],[71.27408,42.74318],[71.26396,42.73768],[71.26392,42.72736],[71.24124,42.70923],[71.21937,42.68779],[71.20171,42.67755],[71.17818,42.6741],[71.1826,42.63744],[71.1777,42.62473],[71.17974,42.6104],[71.16032,42.59333],[71.15668,42.60519],[71.10133,42.59973],[71.05221,42.59955],[71.00256,42.58765],[71.00037,42.55833],[71.04398,42.53404],[71.08897,42.48438],[71.07548,42.47263],[71.01169,42.4905],[70.98012,42.49756],[70.97894,42.48755],[70.96632,42.47152],[70.95346,42.43288],[70.9329,42.41798],[70.95531,42.40206],[70.93287,42.39156],[70.93047,42.38065],[70.90703,42.36486],[70.89794,42.36643],[70.88131,42.34303],[70.88132,42.32755],[70.86558,42.32012],[70.87016,42.31025],[70.8652,42.29982],[70.87218,42.29158],[70.89169,42.28147],[70.89086,42.26325],[70.91227,42.26123],[70.93357,42.26974],[70.96286,42.25634],[70.98848,42.25271],[71.00789,42.26542],[71.00859,42.27771],[71.02605,42.29296],[71.0492,42.29055],[71.05839,42.29508],[71.07637,42.28345],[71.09203,42.28252],[71.10658,42.27394],[71.13347,42.28218],[71.15176,42.26356],[71.17839,42.25158],[71.19118,42.24121],[71.20896,42.2371],[71.21421,42.22258],[71.23328,42.22938],[71.24522,42.22227],[71.26501,42.23301],[71.34456,42.23792],[71.43785,42.19274],[71.60186,42.1623],[71.67453,42.17899],[71.67484,42.22488],[71.65717,42.2667],[71.6978,42.31176],[71.6708,42.36076],[71.60983,42.37961],[71.57024,42.42047],[71.57904,42.45881],[71.62617,42.46635],[71.6048,42.50972],[71.67119,42.55436],[71.66803,42.60047],[71.65295,42.64472]]]}}