{"type":"Feature","properties":{"id":"KGZ.7.3","name":"Bakay-Ata","level":2,"country":"KGZ"},"geometry":{"type":"Polygon","coordinates":[[[72.1673,42.54682],[72.13365,42.54868],[72.05169,42.56679],[71.93352,42.61858],[71.78821,42.63919],[71.65295,42.64472],[71.66803,42.60047],[71.67119,42.55436],[71.6048,42.50972],[71.62617,42.46635],[71.57904,42.45881],[71.57024,42.42047],[71.60983,42.37961],[71.6708,42.36076],[71.6978,42.31176],[71.65717,42.2667],[71.67484,42.22488],[71.67453,42.17899],[71.96852,42.1235],[72.02866,42.07716],[72.10454,42.05554],[72.17186,42.04787],[72.21209,42.05089],[72.2332,42.07955],[72.23823,42.14291],[72.25935,42.19068],[72.30266,42.18541],[72.36796,42.18866],[72.37593,42.21859],[72.28743,42.27426],[72.22715,42.29036],[72.19952,42.33348],[72.18996,42.51902],[72.1673,42.54682]]]}}