{"type":"Feature","properties":{"id":"TUR.51.28","name":"Şereflikoçhisar","level":2,"country":"TUR"},"geometry":{"type":"Polygon","coordinates":[[[33.73781,38.92964],[33.73125,38.93735],[33.71824,38.93685],[33.69524,38.9299],[33.6882,38.94175],[33.6773,38.94062],[33.66082,38.9488],[33.67812,38.97576],[33.69854,38.97716],[33.70236,38.99677],[33.69515,39.00541],[33.68533,39.00765],[33.66898,39.03645],[33.6446,39.05179],[33.64297,39.06558],[33.63833,39.06991],[33.64288,39.10502],[33.63413,39.11335],[33.64031,39.12919],[33.64623,39.13133],[33.64734,39.14592],[33.65614,39.15861],[33.55846,39.20832],[33.54517,39.22438],[33.50083,39.21759],[33.48607,39.20792],[33.4653,39.20186],[33.44848,39.20326],[33.43311,39.19814],[33.41852,39.20918],[33.40522,39.2147],[33.40522,39.22394],[33.37672,39.24768],[33.33612,39.26888],[33.32102,39.27273],[33.31501,39.27858],[33.3054,39.27406],[33.28368,39.27413],[33.2624,39.26403],[33.26257,39.25492],[33.24703,39.24562],[33.22008,39.25226],[33.20148,39.26063],[33.19141,39.25432],[33.19502,39.23704],[33.17305,39.24043],[33.15854,39.23451],[33.16172,39.21816],[33.13949,39.18271],[33.12309,39.1839],[33.12275,39.17505],[33.13665,39.16966],[33.14644,39.14737],[33.18558,39.12087],[33.21218,39.11701],[33.22008,39.09823],[33.23364,39.08251],[33.25544,39.08144],[33.27124,39.07264],[33.30557,39.07424],[33.32205,39.08117],[33.32291,39.0953],[33.34098,39.09413],[33.37222,39.05966],[33.38967,39.03122],[33.39255,39.01193],[33.39378,38.96909],[33.3878,38.94068],[33.37416,38.90527],[33.34433,38.86501],[33.32671,38.74661],[33.32841,38.74527],[33.32397,38.70676],[33.32369,38.66188],[33.44216,38.66586],[33.55517,38.67574],[33.61694,38.69082],[33.62388,38.69471],[33.6436,38.68876],[33.65324,38.69237],[33.65413,38.70326],[33.6967,38.72228],[33.70168,38.72248],[33.72108,38.74009],[33.73747,38.7496],[33.73979,38.75917],[33.77661,38.79945],[33.76682,38.80968],[33.76708,38.82152],[33.78107,38.82781],[33.78536,38.83516],[33.77789,38.84098],[33.78553,38.84967],[33.79867,38.85762],[33.80293,38.88204],[33.78862,38.89391],[33.78639,38.91007],[33.77034,38.91434],[33.75974,38.92326],[33.74687,38.91972],[33.73781,38.92964]]]}}