{"type":"Feature","properties":{"id":"TUR.9.13","name":"Harmancık","level":2,"country":"TUR"},"geometry":{"type":"Polygon","coordinates":[[[29.1496,39.80648],[29.14909,39.79504],[29.12773,39.77478],[29.09669,39.77641],[29.10491,39.75978],[29.09067,39.7524],[29.08399,39.75423],[29.07446,39.74098],[29.08205,39.72724],[29.06424,39.71954],[29.05595,39.71291],[29.04831,39.72012],[29.03273,39.71048],[29.02132,39.6921],[29.01326,39.69292],[28.99169,39.68332],[28.98478,39.66277],[28.9656,39.65646],[28.959,39.6417],[28.95077,39.63554],[28.94543,39.61849],[28.95529,39.6196],[28.97715,39.61389],[28.98676,39.60176],[28.99755,39.59873],[29.02223,39.60754],[29.04231,39.61207],[29.06817,39.60265],[29.08404,39.60308],[29.09991,39.59877],[29.13847,39.59754],[29.16797,39.5938],[29.19645,39.59927],[29.19887,39.60574],[29.21997,39.62883],[29.22567,39.64414],[29.23622,39.65392],[29.24864,39.69071],[29.26554,39.69265],[29.27571,39.69804],[29.2858,39.71485],[29.28581,39.72424],[29.26073,39.73762],[29.25019,39.74294],[29.23256,39.75791],[29.20801,39.76761],[29.19804,39.76395],[29.1762,39.76791],[29.16094,39.80203],[29.1496,39.80648]]]}}