{"type":"Feature","properties":{"id":"TUR.13.5","name":"Bolu Merkez","level":2,"country":"TUR"},"geometry":{"type":"Polygon","coordinates":[[[31.78072,40.96078],[31.77637,40.97299],[31.74906,40.98787],[31.71207,40.976],[31.70507,40.97023],[31.68873,40.96904],[31.663,40.9551],[31.65006,40.95551],[31.64397,40.95052],[31.643,40.92076],[31.6369,40.91356],[31.62051,40.90846],[31.61003,40.89495],[31.59452,40.88493],[31.56724,40.87409],[31.53825,40.86754],[31.53304,40.86124],[31.54565,40.80271],[31.51901,40.80182],[31.4728,40.78206],[31.44285,40.77882],[31.43762,40.77312],[31.41515,40.76283],[31.4144,40.74813],[31.40179,40.71514],[31.38489,40.6874],[31.38584,40.67092],[31.36406,40.65169],[31.33928,40.64433],[31.31124,40.64085],[31.30279,40.62905],[31.31331,40.62092],[31.32256,40.62113],[31.3426,40.62877],[31.37905,40.62897],[31.38118,40.61736],[31.36282,40.60458],[31.36141,40.5922],[31.37689,40.58495],[31.39608,40.58173],[31.41571,40.56844],[31.44395,40.55787],[31.45753,40.53921],[31.48422,40.54061],[31.48875,40.53029],[31.50447,40.52385],[31.52611,40.53464],[31.52402,40.54189],[31.53451,40.55234],[31.55435,40.55749],[31.5703,40.55676],[31.58242,40.55081],[31.5943,40.55514],[31.61014,40.57462],[31.60454,40.58126],[31.60706,40.6029],[31.62292,40.60451],[31.62923,40.59388],[31.64413,40.59748],[31.65273,40.59251],[31.67252,40.58796],[31.69503,40.58851],[31.71402,40.59223],[31.72604,40.60198],[31.72509,40.61308],[31.71064,40.61597],[31.72557,40.63222],[31.74495,40.62797],[31.76695,40.6118],[31.7874,40.61709],[31.81493,40.584],[31.8126,40.56962],[31.8162,40.56174],[31.82755,40.55636],[31.84897,40.58856],[31.86406,40.59455],[31.87517,40.60695],[31.8808,40.62719],[31.88688,40.63348],[31.92559,40.64455],[31.94839,40.64859],[31.9655,40.65743],[31.98324,40.68104],[32.00566,40.68637],[32.0139,40.69819],[32.00548,40.71189],[31.98087,40.71871],[31.97534,40.72368],[31.99151,40.7367],[31.97514,40.75169],[31.96076,40.77833],[31.93918,40.79678],[31.93718,40.80949],[31.92479,40.82673],[31.9148,40.81463],[31.88563,40.81433],[31.88802,40.83399],[31.88003,40.84185],[31.88363,40.86089],[31.85048,40.85996],[31.84137,40.88284],[31.83287,40.8905],[31.81409,40.89383],[31.8033,40.89926],[31.8045,40.90712],[31.77892,40.93339],[31.76745,40.94876],[31.78072,40.96078]]]}}