{"type":"Feature","properties":{"id":"TUR.21.4","name":"Domaniç","level":2,"country":"TUR"},"geometry":{"type":"Polygon","coordinates":[[[29.37615,39.79031],[29.39831,39.77481],[29.41123,39.75344],[29.40874,39.74722],[29.38933,39.74321],[29.38983,39.7301],[29.40676,39.72142],[29.42598,39.71933],[29.43468,39.70925],[29.46318,39.70749],[29.47802,39.71239],[29.4984,39.69938],[29.51298,39.68442],[29.55835,39.6697],[29.59171,39.67189],[29.62282,39.67844],[29.64066,39.69094],[29.66816,39.70069],[29.69231,39.6977],[29.76549,39.72593],[29.72994,39.7495],[29.73034,39.77281],[29.73481,39.78999],[29.74422,39.80128],[29.7776,39.82701],[29.78097,39.84087],[29.77204,39.85764],[29.7605,39.86782],[29.64676,39.8654],[29.60413,39.86771],[29.57808,39.87147],[29.56058,39.87886],[29.52624,39.87701],[29.50888,39.87164],[29.4717,39.83843],[29.45535,39.8308],[29.42384,39.82691],[29.42539,39.81714],[29.41113,39.79968],[29.40199,39.79383],[29.37615,39.79031]]]}}