{"type":"Feature","properties":{"id":"TUR.14.1","name":"Sivrihisar","level":2,"country":"TUR"},"geometry":{"type":"Polygon","coordinates":[[[31.15625,39.48807],[31.16979,39.47949],[31.17743,39.46931],[31.17986,39.45885],[31.1809,39.424],[31.19687,39.40898],[31.2915,39.36836],[31.30495,39.35564],[31.31354,39.33949],[31.30003,39.30897],[31.29718,39.29851],[31.30021,39.27265],[31.30394,39.26109],[31.32199,39.26702],[31.33047,39.2614],[31.32959,39.2517],[31.31853,39.23522],[31.31758,39.22072],[31.32869,39.20125],[31.33632,39.19297],[31.36571,39.18462],[31.38672,39.18387],[31.40446,39.16821],[31.4119,39.16574],[31.45218,39.16543],[31.45927,39.14765],[31.44274,39.12108],[31.4475,39.1132],[31.47085,39.09876],[31.49047,39.08905],[31.5297,39.08309],[31.54105,39.07639],[31.54566,39.06719],[31.54455,39.04414],[31.55537,39.04026],[31.59248,39.04331],[31.62047,39.04787],[31.62535,39.05213],[31.65967,39.0575],[31.66246,39.0634],[31.67813,39.05142],[31.68521,39.06042],[31.71089,39.05262],[31.72771,39.05509],[31.74338,39.06549],[31.75416,39.09105],[31.76433,39.10028],[31.77182,39.11371],[31.786,39.12042],[31.79323,39.11986],[31.80173,39.13139],[31.7954,39.13672],[31.76745,39.13586],[31.75565,39.14545],[31.75739,39.17026],[31.74663,39.19205],[31.74663,39.21841],[31.73101,39.24825],[31.72719,39.25927],[31.72337,39.3071],[31.72789,39.31864],[31.72684,39.33046],[31.71433,39.35073],[31.71559,39.36488],[31.70311,39.36799],[31.69066,39.38403],[31.70847,39.40906],[31.71435,39.43134],[31.73917,39.46761],[31.75681,39.47471],[31.89733,39.49775],[31.93115,39.50114],[31.969,39.50982],[31.96513,39.52223],[31.97189,39.53569],[31.95485,39.54985],[31.94786,39.56292],[31.93829,39.56289],[31.94687,39.53966],[31.89837,39.5437],[31.89185,39.57487],[31.9061,39.58036],[31.90189,39.58829],[31.88765,39.59445],[31.89649,39.60642],[31.89546,39.61356],[31.93279,39.62374],[31.94361,39.63451],[31.92584,39.65976],[31.91854,39.666],[31.89988,39.6702],[31.88737,39.66939],[31.87891,39.67344],[31.86924,39.66473],[31.84733,39.67235],[31.83909,39.67197],[31.82836,39.6809],[31.81123,39.6846],[31.80422,39.69048],[31.77518,39.70481],[31.76473,39.72256],[31.76465,39.73102],[31.75118,39.72858],[31.73221,39.71526],[31.7271,39.70593],[31.71574,39.69613],[31.7062,39.69587],[31.68327,39.7022],[31.67226,39.70145],[31.66425,39.6936],[31.64841,39.68714],[31.61736,39.66843],[31.57427,39.64805],[31.53999,39.63757],[31.53315,39.63068],[31.49893,39.62432],[31.47221,39.62599],[31.4648,39.63495],[31.44737,39.64806],[31.43118,39.64902],[31.42197,39.64252],[31.41825,39.63212],[31.39984,39.62035],[31.3713,39.61996],[31.36635,39.59613],[31.32883,39.55625],[31.29278,39.53091],[31.27856,39.52769],[31.25134,39.52618],[31.2251,39.53318],[31.19685,39.55891],[31.1713,39.58888],[31.16043,39.5805],[31.15305,39.5698],[31.13463,39.53137],[31.13963,39.50587],[31.15625,39.48807]]]}}