{"type":"Feature","properties":{"id":"TUR.11.12","name":"Derince","level":2,"country":"TUR"},"geometry":{"type":"Polygon","coordinates":[[[29.79485,40.74354],[29.80308,40.74863],[29.83713,40.75207],[29.84715,40.75039],[29.86212,40.75427],[29.85393,40.7668],[29.8591,40.77536],[29.85904,40.80527],[29.86748,40.8121],[29.86307,40.82208],[29.87961,40.82876],[29.89904,40.84102],[29.92893,40.83654],[29.9372,40.85652],[29.93203,40.85979],[29.94092,40.8711],[29.92821,40.8877],[29.93817,40.89884],[29.92803,40.9078],[29.93675,40.93009],[29.92427,40.93191],[29.91366,40.94135],[29.91765,40.95342],[29.92603,40.9595],[29.91977,40.96445],[29.908,40.96196],[29.89233,40.96623],[29.88268,40.95713],[29.87106,40.96133],[29.87507,40.97318],[29.86954,40.9799],[29.85552,40.98039],[29.84596,40.98907],[29.84921,40.99809],[29.83479,41.01584],[29.82275,41.01323],[29.80862,41.02019],[29.79426,41.01908],[29.79554,40.98228],[29.78998,40.96895],[29.80962,40.92959],[29.81375,40.9114],[29.8351,40.90656],[29.85108,40.89354],[29.85073,40.88124],[29.84314,40.86785],[29.85,40.85949],[29.83348,40.85206],[29.83397,40.83742],[29.82504,40.82447],[29.80724,40.81419],[29.80899,40.80667],[29.80211,40.79887],[29.80554,40.76847],[29.80026,40.76173],[29.79485,40.74354]]]}}