{"type":"Feature","properties":{"id":"TUR.46.4","name":"Tutak","level":2,"country":"TUR"},"geometry":{"type":"Polygon","coordinates":[[[42.88271,39.66856],[42.85625,39.67524],[42.7788,39.68532],[42.71865,39.68739],[42.63474,39.68806],[42.59155,39.69026],[42.51373,39.69051],[42.48847,39.68755],[42.48554,39.68063],[42.49795,39.66107],[42.5203,39.63593],[42.50784,39.63306],[42.50046,39.62433],[42.5115,39.6082],[42.51198,39.60005],[42.50498,39.58808],[42.48612,39.58839],[42.47635,39.57478],[42.48216,39.56074],[42.47731,39.55463],[42.46033,39.55044],[42.44727,39.54155],[42.41959,39.53466],[42.43083,39.52163],[42.44211,39.50319],[42.45827,39.48978],[42.46612,39.47808],[42.4804,39.47731],[42.49014,39.48201],[42.51127,39.48585],[42.51857,39.47612],[42.51066,39.45034],[42.5126,39.43522],[42.50059,39.42189],[42.50745,39.40316],[42.51567,39.39658],[42.52186,39.37683],[42.51956,39.36832],[42.52452,39.36017],[42.54113,39.35818],[42.54754,39.36909],[42.55634,39.37182],[42.58778,39.35278],[42.58094,39.33682],[42.606,39.32562],[42.62492,39.31133],[42.62557,39.30305],[42.68164,39.3118],[42.74713,39.30998],[42.79185,39.30996],[42.80887,39.31165],[42.81784,39.31684],[42.81999,39.34001],[42.81186,39.35772],[42.82661,39.36791],[42.84221,39.38386],[42.86263,39.4179],[42.87765,39.42045],[42.88981,39.4167],[42.90858,39.4005],[42.91246,39.42328],[42.92345,39.44422],[42.91942,39.47165],[42.92015,39.48579],[42.93457,39.49789],[42.92321,39.52014],[42.95289,39.52884],[42.96248,39.53645],[42.96854,39.55071],[42.96796,39.56306],[42.96082,39.57367],[42.93847,39.58158],[42.92565,39.59429],[42.91466,39.61179],[42.91209,39.62392],[42.89707,39.64029],[42.88315,39.66088],[42.88271,39.66856]]]}}