{"type":"Feature","properties":{"id":"TUR.4.7","name":"Bayramiç","level":2,"country":"TUR"},"geometry":{"type":"Polygon","coordinates":[[[26.50571,39.93157],[26.48814,39.89961],[26.46453,39.84284],[26.44047,39.75829],[26.46185,39.69557],[26.47304,39.6785],[26.50853,39.67301],[26.53351,39.67283],[26.55455,39.67671],[26.5788,39.68498],[26.61631,39.6848],[26.64947,39.66949],[26.65293,39.66258],[26.6725,39.67999],[26.67777,39.70389],[26.69222,39.71083],[26.7271,39.7355],[26.75197,39.74656],[26.78302,39.75735],[26.84111,39.77091],[26.9233,39.77896],[26.94838,39.78665],[26.96163,39.79136],[26.99192,39.8099],[26.96473,39.83789],[26.93421,39.85629],[26.89586,39.88359],[26.8666,39.91088],[26.82927,39.93235],[26.82472,39.93932],[26.81892,39.96136],[26.79874,39.99075],[26.79521,40.00176],[26.79697,40.01336],[26.77918,40.01464],[26.73413,40.01324],[26.6949,40.00279],[26.67329,39.99222],[26.62441,39.97719],[26.60995,39.9763],[26.56639,39.96292],[26.5609,39.95439],[26.57071,39.94916],[26.56822,39.94291],[26.51818,39.93578],[26.50571,39.93157]]]}}