{"type":"Feature","properties":{"id":"TUR.41.5","name":"Şavşat","level":2,"country":"TUR"},"geometry":{"type":"Polygon","coordinates":[[[42.07279,41.35874],[42.10489,41.35925],[42.13071,41.33852],[42.13363,41.33127],[42.15939,41.29603],[42.16208,41.26964],[42.19396,41.24795],[42.19789,41.2347],[42.20856,41.23208],[42.22787,41.20937],[42.23797,41.20236],[42.23718,41.19256],[42.24594,41.18225],[42.24145,41.16259],[42.24572,41.14822],[42.25941,41.13334],[42.27558,41.12269],[42.36963,41.08962],[42.3844,41.10144],[42.50162,41.17224],[42.5129,41.18257],[42.57016,41.26005],[42.58795,41.3168],[42.59164,41.3363],[42.59109,41.34921],[42.58226,41.36153],[42.5692,41.37198],[42.53303,41.39459],[42.52004,41.40753],[42.52023,41.43671],[42.49214,41.44511],[42.48965,41.44033],[42.47287,41.43562],[42.4483,41.43845],[42.43324,41.44433],[42.42493,41.45316],[42.39961,41.46675],[42.38498,41.46317],[42.35884,41.46689],[42.34478,41.47169],[42.32956,41.46791],[42.31345,41.48159],[42.29366,41.48964],[42.27431,41.49423],[42.26277,41.49162],[42.22591,41.49879],[42.20199,41.49331],[42.1964,41.50659],[42.17823,41.5146],[42.15916,41.50677],[42.13721,41.50805],[42.12729,41.50534],[42.11206,41.51122],[42.10307,41.50692],[42.11567,41.4803],[42.12038,41.43891],[42.1141,41.41736],[42.11544,41.40541],[42.10601,41.398],[42.0885,41.4044],[42.07683,41.38991],[42.07279,41.35874]]]}}