{"type":"Feature","properties":{"id":"TUR.36.13","name":"Gülyalı","level":2,"country":"TUR"},"geometry":{"type":"Polygon","coordinates":[[[38.026,40.89069],[38.03819,40.89918],[38.05073,40.89503],[38.07801,40.8997],[38.08033,40.91449],[38.09926,40.92739],[38.10172,40.93899],[38.11604,40.95798],[38.10648,40.96656],[38.06645,40.97285],[38.06514,40.96801],[38.02423,40.97422],[37.99983,40.9807],[37.99765,40.97525],[37.97682,40.97179],[37.99099,40.95511],[38.0077,40.95147],[38.02994,40.91669],[38.03149,40.90835],[38.026,40.89069]]]}}