{"type":"Feature","properties":{"id":"TUR.16.2","name":"Manavgat","level":2,"country":"TUR"},"geometry":{"type":"Polygon","coordinates":[[[31.41245,37.3471],[31.3736,37.36805],[31.31549,37.41575],[31.27611,37.4261],[31.24888,37.4261],[31.23694,37.42165],[31.20555,37.39611],[31.19055,37.38999],[31.15694,37.3811],[31.11527,37.38055],[31.0961,37.37832],[31.02318,37.3519],[31.03169,37.32295],[31.05028,37.28657],[31.05599,37.24391],[31.07744,37.19097],[31.07672,37.16136],[31.07815,37.14712],[31.09673,37.11806],[31.12246,37.09412],[31.17251,37.05354],[31.18371,37.03157],[31.19631,37.02378],[31.19958,37.0171],[31.19416,37.00936],[31.2031,36.99046],[31.19933,36.97857],[31.18308,36.97044],[31.17514,36.95198],[31.18275,36.94603],[31.1818,36.9364],[31.17177,36.93234],[31.16071,36.91115],[31.14601,36.89979],[31.15343,36.88753],[31.17421,36.87658],[31.16988,36.86517],[31.17812,36.85374],[31.17879,36.83452],[31.17276,36.82898],[31.20217,36.82722],[31.22228,36.82067],[31.22743,36.82271],[31.25995,36.82034],[31.2654,36.81693],[31.29328,36.8165],[31.32697,36.80974],[31.36277,36.79709],[31.38848,36.77861],[31.38702,36.76734],[31.40591,36.76176],[31.4125,36.75687],[31.43197,36.75488],[31.48281,36.74109],[31.49405,36.73528],[31.51541,36.72952],[31.58199,36.70131],[31.60172,36.68677],[31.63515,36.67238],[31.64616,36.6649],[31.66001,36.67026],[31.6702,36.66265],[31.68389,36.66458],[31.68316,36.67277],[31.6931,36.67409],[31.70846,36.68263],[31.71148,36.68867],[31.72757,36.69495],[31.73231,36.71381],[31.74142,36.72429],[31.75326,36.73201],[31.75115,36.74676],[31.75675,36.76921],[31.7655,36.78861],[31.73837,36.81246],[31.71533,36.84068],[31.69567,36.85749],[31.67427,36.86798],[31.63551,36.88201],[31.59906,36.88144],[31.58048,36.88601],[31.5576,36.89859],[31.53545,36.91802],[31.49757,36.96429],[31.46469,36.99626],[31.43181,37.02023],[31.39036,37.04363],[31.36606,37.0653],[31.34461,37.10407],[31.3439,37.13029],[31.34033,37.14397],[31.32675,37.16618],[31.32246,37.18554],[31.32389,37.20775],[31.33032,37.23791],[31.35319,37.28683],[31.37821,37.3164],[31.41245,37.3471]]]}}