{"type":"Feature","properties":{"id":"TUR.51.21","name":"Çubuk","level":2,"country":"TUR"},"geometry":{"type":"Polygon","coordinates":[[[32.84016,40.19713],[32.86775,40.19704],[32.8793,40.18458],[32.87803,40.1726],[32.89081,40.16706],[32.90792,40.15369],[32.91272,40.12652],[32.92002,40.126],[32.93693,40.10775],[32.96925,40.09291],[32.97691,40.10573],[32.98885,40.11097],[32.99417,40.11806],[33.01091,40.12071],[33.01649,40.1319],[33.01685,40.14316],[33.04074,40.15572],[33.04936,40.14352],[33.05597,40.14942],[33.07589,40.15533],[33.08095,40.17815],[33.07142,40.19651],[33.07584,40.20398],[33.10307,40.19842],[33.11219,40.18681],[33.12756,40.19127],[33.13485,40.18425],[33.14507,40.18274],[33.16412,40.18589],[33.17742,40.18333],[33.18472,40.16595],[33.20317,40.16995],[33.21433,40.18563],[33.22884,40.17684],[33.23956,40.17664],[33.24772,40.18261],[33.25661,40.20342],[33.24214,40.20956],[33.24051,40.21618],[33.2254,40.22607],[33.21725,40.24173],[33.20695,40.24848],[33.20935,40.26217],[33.22214,40.25372],[33.2515,40.23957],[33.25381,40.25097],[33.27338,40.24822],[33.27321,40.25739],[33.26368,40.27114],[33.26591,40.28234],[33.2478,40.30323],[33.246,40.30977],[33.26497,40.31869],[33.25913,40.32783],[33.24025,40.33954],[33.2369,40.35773],[33.21879,40.36159],[33.20635,40.37578],[33.21193,40.39023],[33.21304,40.40735],[33.19965,40.41252],[33.16961,40.43734],[33.16429,40.44865],[33.15597,40.45374],[33.15193,40.46484],[33.12841,40.47895],[33.12179,40.49075],[33.11339,40.48913],[33.10739,40.47836],[33.0946,40.4841],[33.07477,40.47229],[33.04344,40.46778],[33.03675,40.48045],[33.00894,40.49899],[33.01495,40.50362],[32.99898,40.52196],[32.97933,40.53722],[32.9686,40.53468],[32.95787,40.54166],[32.94225,40.53318],[32.94396,40.52672],[32.91959,40.51706],[32.89223,40.51412],[32.88062,40.47999],[32.88294,40.47353],[32.87307,40.45936],[32.85925,40.45687],[32.85625,40.43604],[32.8571,40.41023],[32.86242,40.39735],[32.88849,40.37077],[32.8886,40.36326],[32.87458,40.3479],[32.89779,40.33486],[32.90049,40.32344],[32.86725,40.32274],[32.86438,40.31272],[32.8524,40.30575],[32.855,40.29417],[32.83833,40.29618],[32.8238,40.29397],[32.81832,40.2872],[32.8266,40.26682],[32.83563,40.26346],[32.83994,40.24505],[32.81093,40.23982],[32.80547,40.2327],[32.81835,40.2153],[32.84016,40.19713]]]}}