{"type":"Feature","properties":{"id":"TUR.74.6","name":"Ardahan","level":2,"country":"TUR"},"geometry":{"type":"Polygon","coordinates":[[[43.03662,40.95717],[43.05281,40.96282],[43.04516,40.98013],[43.02335,41.00024],[43.0137,41.01782],[43.00667,41.03871],[43.00419,41.06396],[42.9951,41.07891],[42.98477,41.08639],[42.95502,41.08763],[42.93642,41.09386],[42.92443,41.10819],[42.9173,41.13795],[42.91855,41.14961],[42.9027,41.16364],[42.88911,41.16633],[42.82447,41.17025],[42.78913,41.17547],[42.72452,41.18051],[42.64028,41.20464],[42.57016,41.26005],[42.5129,41.18257],[42.50162,41.17224],[42.3844,41.10144],[42.36963,41.08962],[42.35794,41.07874],[42.35939,41.06314],[42.37243,41.01496],[42.42605,41.01383],[42.47922,40.99696],[42.55081,40.99177],[42.60805,41.01412],[42.62977,41.01008],[42.66249,41.01488],[42.67162,40.98868],[42.68865,40.96619],[42.75834,40.975],[42.81425,40.95592],[42.83148,40.93625],[42.88655,40.88755],[42.90642,40.88328],[42.95037,40.87727],[42.97258,40.9133],[43.00212,40.9337],[43.01441,40.94763],[43.03662,40.95717]]]}}