{"type":"Feature","properties":{"id":"TUR.48.4","name":"Bismil","level":2,"country":"TUR"},"geometry":{"type":"Polygon","coordinates":[[[40.6752,37.73503],[40.67282,37.72472],[40.68267,37.70547],[40.711,37.68089],[40.73203,37.67745],[40.76493,37.65685],[40.80094,37.65138],[40.8473,37.64887],[40.85796,37.64098],[40.86949,37.63745],[40.89664,37.65798],[40.91493,37.65566],[40.95746,37.67481],[40.99064,37.7042],[41.01357,37.71941],[41.04319,37.73637],[41.04517,37.74503],[41.05904,37.75897],[41.06331,37.76858],[41.05183,37.77315],[41.0504,37.78143],[41.03823,37.78183],[41.02796,37.77354],[41.0181,37.77927],[41.03092,37.79198],[41.02031,37.79713],[41.01275,37.78781],[40.98644,37.80584],[40.99865,37.82191],[41.00238,37.83178],[40.99826,37.84378],[41.01128,37.8636],[41.03004,37.87677],[41.01705,37.8852],[41.02939,37.90466],[41.04065,37.91675],[41.03156,37.94333],[41.01384,37.95389],[41.01033,37.979],[40.97847,37.97804],[40.96499,37.98765],[40.95234,37.98674],[40.91577,37.99298],[40.90547,37.99733],[40.89502,38.01145],[40.87994,38.02603],[40.85994,38.03179],[40.83275,38.02731],[40.81859,38.01462],[40.80112,38.01168],[40.7844,38.00533],[40.78127,37.98863],[40.78604,37.97545],[40.79043,37.95211],[40.78455,37.93954],[40.76844,37.9431],[40.75565,37.95143],[40.74639,37.96742],[40.71542,37.98982],[40.69895,37.99664],[40.67585,38.01758],[40.67568,38.02635],[40.6661,38.04392],[40.64676,38.04508],[40.64064,38.05401],[40.6364,38.07238],[40.61635,38.06574],[40.59841,38.0707],[40.57557,38.06841],[40.57529,38.05175],[40.54786,38.0388],[40.53195,38.04756],[40.52299,38.04891],[40.47899,38.02158],[40.46296,38.01924],[40.45966,38.01487],[40.46109,37.99881],[40.47098,37.98172],[40.47825,37.97552],[40.50005,37.93998],[40.50959,37.93185],[40.51682,37.91967],[40.51671,37.91235],[40.50074,37.90633],[40.48415,37.89452],[40.48527,37.88203],[40.47839,37.8781],[40.46262,37.8473],[40.46758,37.83284],[40.51013,37.80348],[40.53958,37.76765],[40.55795,37.75623],[40.5764,37.74179],[40.58414,37.72987],[40.59863,37.72626],[40.57204,37.7148],[40.57224,37.70538],[40.5901,37.70758],[40.6028,37.71433],[40.60696,37.725],[40.62244,37.74399],[40.64427,37.75184],[40.67228,37.74875],[40.6752,37.73503]]]}}