{"type":"Feature","properties":{"id":"TUR.43.2","name":"Erzincan merkez","level":2,"country":"TUR"},"geometry":{"type":"Polygon","coordinates":[[[39.40235,39.48641],[39.42854,39.50157],[39.4497,39.50663],[39.46901,39.49769],[39.49336,39.50002],[39.52645,39.51003],[39.53702,39.51651],[39.56003,39.51897],[39.55499,39.51146],[39.53904,39.49928],[39.53635,39.49021],[39.5424,39.47349],[39.55516,39.45897],[39.57145,39.44471],[39.58203,39.44121],[39.60117,39.44756],[39.6141,39.44678],[39.64314,39.45803],[39.65775,39.46956],[39.6868,39.48421],[39.72089,39.4925],[39.74036,39.50222],[39.78201,39.51712],[39.80538,39.52714],[39.80803,39.53112],[39.7972,39.55497],[39.78879,39.57915],[39.79592,39.58935],[39.79403,39.60271],[39.80191,39.615],[39.78099,39.62067],[39.77343,39.63403],[39.75225,39.64572],[39.73968,39.64361],[39.72665,39.64768],[39.70837,39.64795],[39.69794,39.64213],[39.67364,39.64195],[39.66953,39.64868],[39.64251,39.66033],[39.6307,39.6632],[39.63007,39.67153],[39.64344,39.68177],[39.63517,39.69807],[39.63581,39.72207],[39.65738,39.73618],[39.67824,39.77821],[39.66352,39.77613],[39.64908,39.77824],[39.62089,39.80492],[39.61229,39.81866],[39.59735,39.83619],[39.55388,39.83619],[39.54342,39.84092],[39.54076,39.86658],[39.52436,39.87923],[39.51308,39.88106],[39.50881,39.87412],[39.48498,39.86154],[39.46939,39.85899],[39.44714,39.86231],[39.37261,39.88493],[39.31525,39.89301],[39.29413,39.89301],[39.28572,39.90811],[39.27157,39.9218],[39.24922,39.92903],[39.21538,39.93029],[39.16125,39.94161],[39.13774,39.95238],[39.13546,39.9441],[39.1431,39.91385],[39.13948,39.90119],[39.13022,39.89286],[39.13425,39.86846],[39.13022,39.86042],[39.15397,39.85066],[39.14583,39.83546],[39.14561,39.82042],[39.15683,39.80689],[39.16537,39.77252],[39.18578,39.76585],[39.20659,39.74218],[39.22439,39.74669],[39.24238,39.73549],[39.27739,39.72091],[39.28386,39.70775],[39.30428,39.6837],[39.33717,39.68087],[39.34982,39.66509],[39.36696,39.65749],[39.40329,39.65984],[39.41119,39.65577],[39.41506,39.64498],[39.41013,39.61408],[39.41497,39.58475],[39.43762,39.56202],[39.43256,39.54336],[39.4253,39.52876],[39.41363,39.5145],[39.40235,39.48641]]]}}