{"type":"Feature","properties":{"id":"TUR.68.6","name":"Gercüş","level":2,"country":"TUR"},"geometry":{"type":"Polygon","coordinates":[[[41.04319,37.73637],[41.05487,37.72263],[41.05547,37.71293],[41.07911,37.65251],[41.0776,37.64257],[41.09446,37.62606],[41.09831,37.61271],[41.10546,37.60861],[41.11432,37.59549],[41.10823,37.58366],[41.11737,37.55961],[41.12837,37.54137],[41.18675,37.49588],[41.22123,37.49364],[41.24717,37.50987],[41.31707,37.51377],[41.35969,37.50024],[41.39997,37.49825],[41.43447,37.50497],[41.49146,37.50424],[41.51997,37.51277],[41.53449,37.52855],[41.54915,37.5295],[41.56604,37.52571],[41.56773,37.53351],[41.57632,37.53839],[41.58391,37.55647],[41.59806,37.55649],[41.59883,37.56937],[41.61775,37.5757],[41.63126,37.60053],[41.6484,37.60326],[41.65101,37.6197],[41.66071,37.63353],[41.67026,37.6303],[41.66368,37.62084],[41.69011,37.62255],[41.70398,37.63495],[41.71331,37.65714],[41.72861,37.68278],[41.6815,37.66943],[41.6492,37.67289],[41.62626,37.66512],[41.62533,37.64613],[41.59896,37.62835],[41.56997,37.6372],[41.5596,37.64459],[41.53701,37.64392],[41.51807,37.65334],[41.50427,37.67168],[41.49331,37.67782],[41.48736,37.67459],[41.45946,37.6708],[41.43907,37.66371],[41.40543,37.65698],[41.36603,37.65545],[41.35417,37.66194],[41.34145,37.67539],[41.26895,37.68897],[41.2463,37.69768],[41.22382,37.71219],[41.21144,37.72844],[41.20862,37.73625],[41.19936,37.74173],[41.18783,37.73743],[41.17097,37.73769],[41.16856,37.75094],[41.15935,37.75782],[41.15195,37.74853],[41.13965,37.75886],[41.13122,37.75507],[41.11798,37.75981],[41.10495,37.75186],[41.0994,37.75964],[41.11242,37.76745],[41.09046,37.77814],[41.08054,37.77757],[41.07306,37.76725],[41.06331,37.76858],[41.05904,37.75897],[41.04517,37.74503],[41.04319,37.73637]]]}}