{"type":"Feature","properties":{"id":"TUR.10.3","name":"Büyükçekmece","level":2,"country":"TUR"},"geometry":{"type":"Polygon","coordinates":[[[28.39099,41.04809],[28.42924,41.03861],[28.46577,41.02463],[28.48257,41.01299],[28.50709,41.00317],[28.51812,40.99648],[28.54417,40.98609],[28.55199,41.00718],[28.5675,41.01816],[28.5859,41.01725],[28.59986,41.00844],[28.597,40.99703],[28.61262,40.99167],[28.6332,41.01853],[28.62346,41.03366],[28.62809,41.05258],[28.62048,41.06821],[28.63402,41.08863],[28.61274,41.11939],[28.6034,41.11898],[28.59395,41.12734],[28.58019,41.12767],[28.56245,41.11556],[28.55351,41.09338],[28.52299,41.10822],[28.50812,41.10268],[28.51603,41.08476],[28.52574,41.07191],[28.51066,41.06706],[28.50254,41.05947],[28.48169,41.05631],[28.4718,41.06823],[28.4572,41.06853],[28.444,41.07638],[28.43233,41.07896],[28.42223,41.07565],[28.40202,41.08573],[28.39338,41.07772],[28.39371,41.05651],[28.39099,41.04809]]]}}