{"type":"Feature","properties":{"id":"GEO.6.8","name":"Qvareli","level":2,"country":"GEO"},"geometry":{"type":"Polygon","coordinates":[[[45.56546,42.03306],[45.559,42.0282],[45.55564,42.02668],[45.55299,42.02404],[45.55107,42.02094],[45.5499,42.01514],[45.5541,42.01087],[45.55755,42.00846],[45.55963,42.00498],[45.56261,41.99477],[45.57235,41.99067],[45.57786,41.9895],[45.58368,41.98243],[45.58893,41.97951],[45.5956,41.97802],[45.60345,41.97746],[45.61593,41.97502],[45.62303,41.97199],[45.63124,41.97012],[45.63409,41.9671],[45.64584,41.96135],[45.64627,41.95695],[45.6456,41.95465],[45.64627,41.95131],[45.6503,41.9471],[45.6607,41.94481],[45.67668,41.93683],[45.68167,41.93208],[45.68692,41.92956],[45.6946,41.92734],[45.69695,41.92385],[45.70083,41.91964],[45.7031,41.91803],[45.71648,41.91497],[45.72227,41.90994],[45.72221,41.90893],[45.72793,41.90777],[45.73029,41.90777],[45.74078,41.90482],[45.74441,41.90216],[45.74761,41.89766],[45.74876,41.89697],[45.75129,41.89283],[45.75417,41.88955],[45.76905,41.88505],[45.77551,41.88454],[45.77765,41.88286],[45.78241,41.882],[45.78986,41.87948],[45.80073,41.87433],[45.80295,41.87206],[45.80841,41.86983],[45.81483,41.86473],[45.81595,41.86177],[45.82139,41.85453],[45.82902,41.85063],[45.83126,41.84795],[45.83882,41.84573],[45.84427,41.84312],[45.84588,41.84307],[45.85335,41.83819],[45.86639,41.83454],[45.87209,41.83214],[45.8737,41.83207],[45.88313,41.8278],[45.8916,41.82485],[45.89624,41.82394],[45.90593,41.81924],[45.91196,41.81802],[45.9218,41.81802],[45.92529,41.81862],[45.92939,41.81947],[45.9338,41.82108],[45.93944,41.83383],[45.95501,41.8455],[45.96844,41.85162],[45.97302,41.85223],[45.98207,41.85434],[45.98784,41.85772],[46.00258,41.85774],[46.00389,41.85833],[46.01161,41.85957],[46.01374,41.86077],[46.01702,41.86077],[46.02434,41.86308],[46.03084,41.86329],[46.03403,41.86383],[46.03842,41.86139],[46.04838,41.8584],[46.05292,41.85772],[46.06437,41.85782],[46.07015,41.85982],[46.07283,41.86221],[46.08326,41.86714],[46.08701,41.87066],[46.08715,41.87182],[46.09111,41.8749],[46.09029,41.88075],[46.08789,41.88754],[46.08783,41.89241],[46.08947,41.89557],[46.08947,41.90411],[46.10166,41.91146],[46.10719,41.91811],[46.10859,41.92325],[46.1115,41.92804],[46.11258,41.93106],[46.11793,41.93836],[46.11793,41.94616],[46.11688,41.9491],[46.11688,41.96237],[46.11478,41.96959],[46.11373,41.97083],[46.11368,41.97783],[46.11006,41.98328],[46.10781,41.98805],[46.10588,41.99064],[46.09484,41.9998],[46.09062,42.00554],[46.08697,42.01495],[46.08592,42.02866],[46.08278,42.03585],[46.07963,42.03846],[46.07324,42.0394],[46.06981,42.03823],[46.05815,42.02812],[46.04959,42.02293],[46.03716,42.02264],[46.02515,42.02608],[46.02489,42.03303],[46.02072,42.04145],[46.00424,42.03979],[45.99568,42.04358],[45.98545,42.04407],[45.96663,42.03171],[45.96152,42.02455],[45.95,42.02539],[45.94227,42.03371],[45.93919,42.03394],[45.93797,42.03014],[45.93429,42.0369],[45.93324,42.05615],[45.92865,42.06112],[45.91873,42.06692],[45.9191,42.07138],[45.92218,42.07478],[45.92149,42.07773],[45.9117,42.09276],[45.89792,42.10333],[45.87623,42.10561],[45.85612,42.11377],[45.84571,42.10995],[45.8342,42.10989],[45.82562,42.10677],[45.81958,42.10904],[45.81491,42.11321],[45.80251,42.11378],[45.79788,42.11257],[45.78802,42.10288],[45.78299,42.10327],[45.77933,42.10457],[45.77547,42.10861],[45.76902,42.12049],[45.7685,42.12662],[45.74818,42.14392],[45.74264,42.13904],[45.73861,42.12718],[45.73223,42.11818],[45.72719,42.11347],[45.72334,42.1107],[45.71657,42.1048],[45.70576,42.09777],[45.70161,42.09546],[45.69752,42.09405],[45.69462,42.09215],[45.69244,42.08801],[45.68903,42.0846],[45.68488,42.07654],[45.67776,42.07191],[45.67021,42.06901],[45.65819,42.0662],[45.6513,42.06237],[45.64448,42.06176],[45.63601,42.05735],[45.62347,42.05685],[45.61806,42.05243],[45.61105,42.05063],[45.60423,42.04561],[45.5886,42.03965],[45.5818,42.03593],[45.57519,42.03394],[45.56546,42.03306]]]}}