{"type":"Feature","properties":{"id":"BEN.2.6","name":"Karimama","level":2,"country":"BEN"},"geometry":{"type":"Polygon","coordinates":[[[2.84185,11.43059],[2.85838,11.45897],[2.87634,11.47331],[2.8599,11.49066],[2.83956,11.4958],[2.86722,11.52633],[2.85583,11.56116],[2.86855,11.60305],[2.85587,11.61649],[2.86609,11.62851],[2.89895,11.63968],[2.91508,11.65263],[2.9398,11.66607],[2.96028,11.725],[2.9761,11.74894],[2.99269,11.76354],[3.0205,11.85619],[3.01354,11.89725],[3.02284,11.91414],[3.02577,11.95916],[3.0741,11.97894],[3.11608,11.96707],[3.12444,11.94101],[3.14618,11.93362],[3.15668,11.94243],[3.1741,11.92296],[3.21029,11.91058],[3.23413,11.91566],[3.24214,11.89878],[3.26002,11.89946],[3.30361,11.91666],[3.29889,11.93194],[3.28309,11.93416],[3.27833,11.96556],[3.25694,11.99778],[3.27028,12.01167],[3.25167,12.03167],[3.23944,12.0325],[3.22028,12.06083],[3.18889,12.08361],[3.16861,12.11361],[3.12722,12.14028],[3.12778,12.15444],[3.10083,12.1725],[3.08222,12.17667],[3.05972,12.19611],[3.05917,12.20861],[3.02528,12.24083],[3.00972,12.26945],[2.96306,12.2875],[2.92722,12.335],[2.8925,12.36056],[2.86861,12.39028],[2.8122,12.39715],[2.77691,12.37633],[2.76286,12.35193],[2.7497,12.34987],[2.73254,12.36123],[2.71808,12.34247],[2.71535,12.32291],[2.69517,12.28245],[2.67275,12.3046],[2.62944,12.29512],[2.59318,12.29934],[2.57573,12.28147],[2.55401,12.27972],[2.5222,12.2876],[2.50476,12.26629],[2.46988,12.27237],[2.46404,12.25326],[2.44006,12.26406],[2.43107,12.25261],[2.40064,12.25768],[2.374,12.24112],[2.38755,12.21598],[2.39174,12.19302],[2.38188,12.16841],[2.39697,12.14743],[2.39148,12.11177],[2.40281,12.10419],[2.42253,12.0557],[2.44209,12.01693],[2.45686,12.01091],[2.46532,11.97988],[2.44919,11.98277],[2.43477,11.97101],[2.43727,11.95305],[2.40819,11.95434],[2.39177,11.93077],[2.41144,11.90632],[2.39446,11.88923],[2.40027,11.86714],[2.37923,11.85407],[2.37007,11.81821],[2.37237,11.79314],[2.34038,11.78537],[2.33826,11.7702],[2.3191,11.7562],[2.29922,11.72081],[2.30959,11.68081],[2.31782,11.66464],[2.34126,11.65744],[2.36198,11.66594],[2.38375,11.68376],[2.40452,11.67795],[2.42524,11.66394],[2.46102,11.67305],[2.49732,11.6759],[2.52677,11.66391],[2.55166,11.64403],[2.57434,11.61054],[2.59934,11.6065],[2.62875,11.62896],[2.63645,11.58667],[2.63341,11.51802],[2.67699,11.49953],[2.69663,11.47717],[2.72452,11.46781],[2.72488,11.44084],[2.7726,11.41564],[2.78584,11.42084],[2.8173,11.41923],[2.84185,11.43059]]]}}