{"type":"Feature","properties":{"id":"BEN.1.3","name":"Bembereke","level":2,"country":"BEN"},"geometry":{"type":"Polygon","coordinates":[[[3.10386,10.53781],[3.07612,10.53643],[2.85643,10.53566],[2.81323,10.58159],[2.77749,10.57873],[2.70173,10.56373],[2.68823,10.52998],[2.54501,10.52997],[2.54303,10.49834],[2.52919,10.426],[2.53431,10.38918],[2.5239,10.3397],[2.49748,10.29732],[2.48446,10.24954],[2.46753,10.23483],[2.46869,10.19318],[2.47909,10.18379],[2.48536,10.15042],[2.46041,10.12939],[2.46276,10.11077],[2.48219,10.0959],[2.51537,10.08619],[2.56162,10.00944],[2.53025,9.98806],[2.52456,9.97783],[2.60015,9.94651],[2.63194,9.92471],[2.67213,9.91853],[2.68344,9.90413],[2.72799,9.90165],[2.76405,9.91618],[2.78246,9.92655],[2.81117,9.93323],[2.82016,9.92385],[2.84265,9.93627],[2.85365,9.9592],[2.84034,9.9957],[2.852,10.0289],[2.81087,10.03915],[2.8102,10.12355],[2.90136,10.13643],[2.92548,10.14244],[2.94909,10.16665],[2.9957,10.22199],[3.01855,10.23884],[3.03411,10.2552],[3.05491,10.30205],[3.03974,10.30928],[3.0374,10.32555],[2.98415,10.36952],[3.01272,10.42255],[3.05417,10.4381],[3.08092,10.43866],[3.08306,10.45516],[3.09932,10.46956],[3.10386,10.53781]]]}}