{"type":"Feature","properties":{"id":"BEN.2.1","name":"Malanville","level":2,"country":"BEN"},"geometry":{"type":"Polygon","coordinates":[[[3.25846,11.29882],[3.27942,11.33173],[3.32088,11.34833],[3.34804,11.33851],[3.36383,11.35853],[3.36058,11.37093],[3.38707,11.39322],[3.50234,11.40327],[3.47113,11.44857],[3.55795,11.63188],[3.59159,11.67462],[3.60507,11.69697],[3.58278,11.71444],[3.55639,11.72417],[3.54972,11.73472],[3.56528,11.76472],[3.55861,11.77917],[3.535,11.77944],[3.52278,11.78778],[3.52111,11.81472],[3.5027,11.83237],[3.48667,11.85694],[3.44111,11.87694],[3.40305,11.8775],[3.38361,11.88639],[3.32139,11.88167],[3.30417,11.90333],[3.30361,11.91666],[3.26002,11.89946],[3.24214,11.89878],[3.23413,11.91566],[3.21029,11.91058],[3.1741,11.92296],[3.15668,11.94243],[3.14618,11.93362],[3.12444,11.94101],[3.11608,11.96707],[3.0741,11.97894],[3.02577,11.95916],[3.02284,11.91414],[3.01354,11.89725],[3.0205,11.85619],[2.99269,11.76354],[2.9761,11.74894],[2.96028,11.725],[2.9398,11.66607],[2.91508,11.65263],[2.96093,11.61977],[3.06555,11.5264],[3.11432,11.47889],[3.14499,11.43751],[3.15576,11.41755],[3.18485,11.38714],[3.19655,11.36203],[3.2242,11.32927],[3.25846,11.29882]]]}}