{"type":"Feature","properties":{"id":"LBR.5","name":"Sinoe","level":1,"country":"LBR"},"geometry":{"type":"Polygon","coordinates":[[[-8.70357,4.82189],[-8.66846,4.85655],[-8.65417,4.91234],[-8.60105,4.93453],[-8.55231,5.01902],[-8.45645,5.08674],[-8.38426,5.09545],[-8.33579,5.15519],[-8.3091,5.17007],[-8.30768,5.21741],[-8.34713,5.28818],[-8.41739,5.36016],[-8.4395,5.42052],[-8.43077,5.47003],[-8.43945,5.49897],[-8.48258,5.53194],[-8.4347,5.61123],[-8.36525,5.61976],[-8.35173,5.63715],[-8.36152,5.68487],[-8.39599,5.74058],[-8.45224,5.782],[-8.52082,5.78262],[-8.58497,5.70503],[-8.64213,5.72986],[-8.90284,5.8752],[-8.94394,5.83551],[-9.05986,5.83822],[-9.08639,5.83189],[-9.13615,5.77179],[-9.15347,5.71288],[-9.19718,5.70084],[-9.2646,5.66105],[-9.35743,5.58297],[-9.33532,5.52806],[-9.3148,5.43667],[-9.3247,5.39755],[-9.38852,5.32805],[-9.42921,5.30523],[-9.41823,5.27123],[-9.35407,5.21117],[-9.29214,5.18163],[-9.27872,5.14574],[-9.16226,5.08088],[-9.10497,5.03156],[-9.02579,4.99893],[-9.0148,4.97846],[-8.93611,4.95539],[-8.8483,4.91356],[-8.77815,4.85432],[-8.70357,4.82189]]]}}