{"type":"Feature","properties":{"id":"LBR.14","name":"River Cess","level":1,"country":"LBR"},"geometry":{"type":"Polygon","coordinates":[[[-9.41823,5.27123],[-9.42921,5.30523],[-9.38852,5.32805],[-9.3247,5.39755],[-9.3148,5.43667],[-9.33532,5.52806],[-9.35743,5.58297],[-9.2646,5.66105],[-9.19718,5.70084],[-9.15347,5.71288],[-9.13615,5.77179],[-9.08639,5.83189],[-9.07254,5.88644],[-9.10112,5.96573],[-9.06908,6.00095],[-9.09192,6.02129],[-9.07053,6.05178],[-9.09316,6.08203],[-9.08921,6.11469],[-9.11765,6.1396],[-9.06135,6.21432],[-9.06908,6.28274],[-9.11489,6.29882],[-9.14406,6.35507],[-9.35495,6.35406],[-9.44358,6.32385],[-9.46443,6.22239],[-9.45448,6.1704],[-9.5291,6.08048],[-9.55055,6.09746],[-9.60481,6.09095],[-9.61703,6.05077],[-9.65191,6.03229],[-9.66638,5.91282],[-9.65858,5.88442],[-9.69113,5.83275],[-9.68501,5.77254],[-9.69408,5.7374],[-9.67398,5.67237],[-9.68002,5.64645],[-9.73315,5.58119],[-9.69677,5.54637],[-9.59699,5.48835],[-9.58072,5.4645],[-9.58764,5.43073],[-9.54182,5.41983],[-9.49747,5.38939],[-9.47081,5.32046],[-9.41823,5.27123]]]}}