{"type":"Feature","properties":{"id":"CAF.10.1","name":"Mbrès","level":2,"country":"CAF"},"geometry":{"type":"Polygon","coordinates":[[[19.71017,7.53667],[19.67374,7.48628],[19.65188,7.47737],[19.63772,7.45066],[19.63246,7.41666],[19.63812,7.37214],[19.65755,7.30495],[19.69195,7.2499],[19.69479,7.19081],[19.77007,7.13617],[19.78545,7.11593],[19.77898,7.07586],[19.75752,7.03255],[19.73729,7.0026],[19.73607,6.98803],[19.75105,6.98196],[19.75995,6.93136],[19.75874,6.91113],[19.74943,6.89413],[19.76117,6.85689],[19.76238,6.82937],[19.75226,6.80063],[19.71057,6.78039],[19.71341,6.74194],[19.69519,6.72939],[19.66726,6.72373],[19.63893,6.72939],[19.61019,6.72373],[19.57903,6.71118],[19.56567,6.69742],[19.5592,6.67354],[19.57579,6.6363],[19.61198,6.62937],[19.62726,6.61357],[19.63218,6.58171],[19.64021,6.57083],[19.66793,6.57575],[19.6871,6.55658],[19.71404,6.55632],[19.72233,6.52498],[19.69605,6.47966],[19.74538,6.47157],[19.80124,6.4748],[19.83483,6.46873],[19.8749,6.43878],[19.88583,6.43959],[19.88502,6.46995],[19.86681,6.53147],[19.8581,6.58922],[19.87075,6.6259],[19.9106,6.67523],[19.93653,6.70053],[19.98459,6.73595],[20.00546,6.76567],[20.03835,6.77832],[20.04973,6.82385],[20.10538,6.86433],[20.11866,6.89911],[20.12688,6.94591],[20.1427,6.95666],[20.15471,7.00725],[20.14712,7.05342],[20.15346,7.08734],[20.13658,7.08673],[20.12331,7.11387],[20.09858,7.11327],[20.07265,7.14101],[20.05696,7.14463],[20.025,7.18504],[20.00148,7.20072],[19.95865,7.22183],[19.94539,7.21822],[19.90558,7.26104],[19.88688,7.30627],[19.89352,7.33341],[19.86819,7.36719],[19.83743,7.35814],[19.80787,7.40579],[19.80365,7.4269],[19.77108,7.42388],[19.76143,7.43836],[19.75781,7.50108],[19.7361,7.50651],[19.73007,7.53606],[19.71017,7.53667]]]}}