{"type":"Feature","properties":{"id":"CAF.9.2","name":"Ndélé","level":2,"country":"CAF"},"geometry":{"type":"Polygon","coordinates":[[[20.82222,9.41583],[20.80083,9.42056],[20.77472,9.40556],[20.771,9.38658],[20.73778,9.37056],[20.71778,9.37389],[20.70167,9.3625],[20.67778,9.35972],[20.65694,9.33833],[20.66778,9.29833],[20.64556,9.30111],[20.60333,9.29806],[20.58333,9.31167],[20.56222,9.30722],[20.53778,9.31833],[20.53639,9.295],[20.52861,9.28167],[20.49806,9.27722],[20.49889,9.24417],[20.51389,9.22472],[20.515,9.20889],[20.48778,9.20972],[20.48083,9.19556],[20.46167,9.18028],[20.45556,9.15778],[20.43389,9.13694],[20.41083,9.13778],[20.37167,9.10833],[20.34611,9.11472],[20.32889,9.10444],[20.30361,9.115],[20.25333,9.115],[20.23139,9.135],[20.20722,9.13972],[20.18694,9.12583],[20.14167,9.11194],[20.12722,9.11889],[20.11361,9.14583],[20.08667,9.12611],[20.06194,9.13444],[20.05111,9.11694],[20.03861,9.11639],[20.01639,9.09278],[20.00389,9.10667],[19.99211,9.08304],[19.94889,9.07389],[19.9375,9.05722],[19.91472,9.06333],[19.89972,9.04361],[19.87861,9.0525],[19.84806,9.04361],[19.83694,9.05333],[19.81056,9.04583],[19.78639,9.04778],[19.76528,9.03444],[19.74806,9.0375],[19.72194,9.03],[19.70583,9.01861],[19.67833,9.01389],[19.65306,9.02222],[19.64083,9.01389],[19.62333,9.02444],[19.5713,9.02928],[19.56076,9.03865],[19.51023,9.01867],[19.49825,9.02663],[19.48232,9.01179],[19.47773,9.0324],[19.45036,9.02003],[19.42326,9.01902],[19.39913,9.02755],[19.39037,9.01469],[19.3622,9.02955],[19.3512,9.01647],[19.26367,9.016],[19.26008,9.02903],[19.20764,9.03214],[19.15858,9.02096],[19.14716,9.00933],[19.12611,9.02352],[19.11109,9.00663],[19.07237,9.0152],[19.05228,9.00212],[19.04162,8.98594],[19.01445,8.96908],[18.99399,8.97547],[18.98338,8.97021],[18.97819,8.94059],[18.9117,8.92334],[18.89979,8.89902],[18.86165,8.87788],[18.86344,8.8532],[18.89623,8.85678],[18.90714,8.85028],[18.90533,8.81918],[18.91856,8.80601],[18.94887,8.81055],[18.96167,8.78793],[18.97519,8.7765],[19.01281,8.76243],[19.03371,8.73144],[19.06227,8.71351],[19.0944,8.70379],[19.13133,8.71554],[19.15524,8.7117],[19.15993,8.72451],[19.18597,8.72707],[19.20219,8.74115],[19.2261,8.72835],[19.23421,8.74542],[19.25939,8.75311],[19.28671,8.75054],[19.33581,8.77744],[19.38532,8.77744],[19.40581,8.73859],[19.45704,8.71554],[19.48265,8.69292],[19.55479,8.66987],[19.57699,8.66816],[19.60132,8.65535],[19.63163,8.63059],[19.65383,8.62547],[19.69566,8.63187],[19.71615,8.64681],[19.73792,8.63358],[19.77549,8.63572],[19.80025,8.62803],[19.82586,8.60669],[19.84251,8.60028],[19.91709,8.51252],[19.92855,8.46667],[19.98275,8.40413],[19.98066,8.37808],[20.01297,8.35411],[20.04736,8.35098],[20.08175,8.35203],[20.10364,8.32701],[20.13282,8.302],[20.16291,8.28695],[20.22642,8.27718],[20.28342,8.29835],[20.35018,8.36186],[20.41695,8.38629],[20.52279,8.3928],[20.64329,8.3586],[20.92826,7.32457],[21.03574,7.46624],[21.07156,7.49555],[21.07971,7.51509],[21.06179,7.56069],[21.05854,7.59],[21.1025,7.62094],[21.11227,7.67467],[21.1354,7.70171],[21.1281,7.80384],[21.10205,7.83198],[21.10413,7.85803],[21.13019,7.90806],[21.11872,7.99352],[21.44909,7.99768],[21.3751,8.15193],[21.3949,8.17069],[21.46368,8.21133],[21.47827,8.22488],[21.48036,8.25198],[21.52309,8.2551],[21.55644,8.24885],[21.59813,8.23322],[21.61584,8.27699],[21.66795,8.28845],[21.74403,8.33327],[21.76904,8.33327],[21.77946,8.3093],[21.80239,8.28428],[21.83991,8.26031],[21.85346,8.20612],[21.88056,8.1884],[21.98998,8.21654],[21.99415,8.23217],[21.96393,8.27907],[21.9608,8.30513],[21.99936,8.38016],[21.99728,8.42185],[21.97018,8.47813],[21.95142,8.52815],[21.97539,8.57297],[21.99832,8.59902],[22.08274,8.62091],[22.12547,8.59485],[22.16611,8.5813],[22.37246,8.56255],[22.39102,8.58956],[22.39435,8.63291],[22.38635,8.65426],[22.36967,8.6716],[22.33165,8.68227],[22.27763,8.67827],[22.21026,8.70362],[22.18825,8.72429],[22.12288,8.75831],[22.10754,8.85369],[22.08486,8.90438],[22.08153,8.9384],[22.08553,8.97442],[22.01416,9.01377],[22.00216,9.06513],[21.96881,9.09514],[21.93479,9.10981],[21.90344,9.15851],[21.85075,9.18585],[21.83674,9.24255],[21.80606,9.29324],[21.78939,9.30858],[21.77605,9.4133],[21.71468,9.46199],[21.70001,9.51268],[21.66826,9.54368],[21.63752,9.56673],[21.61789,9.60174],[21.59313,9.60729],[21.53507,9.59875],[21.51928,9.62692],[21.51843,9.65979],[21.50562,9.70376],[21.5069,9.74517],[21.49879,9.7806],[21.45269,9.78487],[21.42494,9.74261],[21.35536,9.70589],[21.34127,9.68925],[21.3084,9.67004],[21.29517,9.62735],[21.26443,9.60216],[21.2004,9.57228],[21.16284,9.57612],[21.14448,9.56631],[21.10862,9.56246],[21.08045,9.55435],[21.03947,9.53045],[21.01044,9.47752],[20.9827,9.45446],[20.94983,9.45276],[20.92507,9.43696],[20.91183,9.4105],[20.88494,9.38488],[20.83841,9.39342],[20.82222,9.41583]]]}}