{"type":"Feature","properties":{"id":"FIN.6","name":"Central Ostrobothnia","level":1,"country":"FIN"},"geometry":{"type":"Polygon","coordinates":[[[22.99073,63.78762],[23.03615,63.78696],[23.19789,63.72381],[23.24585,63.71983],[23.3215,63.75332],[23.44945,63.74345],[23.50309,63.76701],[23.71538,63.68867],[23.71869,63.6633],[23.46,63.62723],[23.49193,63.59943],[23.56676,63.59245],[23.57802,63.55674],[23.63993,63.53214],[23.69936,63.38063],[23.79941,63.30156],[23.87051,63.28162],[24.04322,63.26306],[24.11153,63.2381],[24.22491,63.17454],[24.18977,63.16007],[24.36278,63.1192],[24.52825,63.15914],[24.7364,63.13708],[24.7641,63.23157],[24.79986,63.27575],[24.78343,63.35221],[24.89567,63.41812],[25.02869,63.45804],[25.00068,63.48401],[24.76865,63.60459],[24.63036,63.65898],[24.56442,63.70211],[24.44846,63.81006],[24.40826,63.83414],[24.27173,63.86812],[24.22388,63.92538],[24.14522,63.95899],[24.09396,64.04772],[24.03639,64.07785],[23.88219,64.11071],[23.70647,64.16808],[23.61443,64.10342],[23.56609,64.09658],[23.6045,64.02766],[23.3816,64.04816],[23.37086,63.94652],[23.27524,63.8889],[23.19793,63.89061],[23.07496,63.85737],[22.99073,63.81538],[22.99073,63.78762]]]}}