{"type":"Feature","properties":{"id":"TJK.2.24","name":"Vakhsh District","level":2,"country":"TJK"},"geometry":{"type":"Polygon","coordinates":[[[68.87996,37.80134],[68.8553,37.78197],[68.85011,37.74664],[68.85531,37.7246],[68.81392,37.72377],[68.81109,37.68604],[68.78012,37.67171],[68.77115,37.65952],[68.74899,37.66962],[68.74544,37.70888],[68.75356,37.72074],[68.77524,37.71736],[68.78451,37.72982],[68.78964,37.75287],[68.789,37.77579],[68.78089,37.78932],[68.76812,37.78332],[68.73521,37.74767],[68.72029,37.72492],[68.71337,37.70033],[68.71494,37.64444],[68.73843,37.63298],[68.80859,37.60606],[68.85357,37.58448],[68.85838,37.55593],[68.86829,37.54711],[68.883,37.56704],[68.89468,37.56278],[68.89725,37.54317],[68.90713,37.53426],[68.93951,37.54961],[68.9772,37.5607],[69.01418,37.56604],[69.06927,37.57],[69.10553,37.57761],[69.10896,37.59613],[69.10461,37.61907],[69.10574,37.65428],[69.11237,37.70481],[69.15688,37.7058],[69.16344,37.77458],[69.16276,37.81732],[69.16578,37.87706],[69.14964,37.91818],[69.1265,37.90241],[69.10354,37.87588],[69.10378,37.86055],[69.0942,37.85115],[69.08884,37.81023],[69.078,37.79245],[69.05737,37.7788],[69.0263,37.77161],[68.95029,37.77416],[68.91679,37.7993],[68.87996,37.80134]]]}}