{"type":"Feature","properties":{"id":"NPL.12","name":"Bhojpur","level":1,"country":"NPL"},"geometry":{"type":"Polygon","coordinates":[[[87.67853,27.81335],[87.58998,27.80461],[87.53159,27.8368],[87.38679,27.8044],[87.38534,27.84941],[87.29052,27.81608],[87.1558,27.8258],[87.062,27.90843],[86.98209,27.95067],[86.99937,27.80608],[86.99844,27.69826],[86.94274,27.47471],[86.90615,27.42396],[86.95751,27.3267],[86.91933,27.25149],[86.91623,27.12811],[86.95829,27.0583],[86.96682,26.90639],[87.11937,26.92577],[87.17125,26.92089],[87.1542,26.83668],[87.00413,26.72299],[86.9617,26.60491],[86.96837,26.55678],[86.93515,26.52029],[87.04133,26.58019],[87.08329,26.43208],[87.13502,26.3942],[87.2191,26.40811],[87.2453,26.37023],[87.32623,26.35333],[87.38421,26.41865],[87.48032,26.4234],[87.58698,26.37803],[87.64875,26.40999],[87.64502,26.6568],[87.66646,26.74051],[87.60037,26.85084],[87.54156,26.87479],[87.48058,26.98122],[87.60316,27.10222],[87.70186,27.14922],[87.73773,27.20198],[87.71845,27.23681],[87.51624,27.3042],[87.44617,27.38326],[87.4795,27.54132],[87.52838,27.61428],[87.54787,27.6772],[87.60595,27.68038],[87.67853,27.81335]]]}}