{"type":"Feature","properties":{"id":"GBR.21.1","name":"Fife","level":2,"country":"GBR"},"geometry":{"type":"Polygon","coordinates":[[[-3.7393,56.07707],[-3.68635,56.04806],[-3.57553,56.05887],[-3.54687,56.03976],[-3.52169,56.04174],[-3.43846,56.02379],[-3.38806,56.02251],[-3.32226,56.03358],[-3.29496,56.05296],[-3.2361,56.05369],[-3.21675,56.06386],[-3.17438,56.06261],[-3.14946,56.1179],[-3.12385,56.12139],[-3.0462,56.16761],[-2.94335,56.2135],[-2.88995,56.20592],[-2.86919,56.187],[-2.81307,56.18326],[-2.7816,56.20089],[-2.69561,56.21936],[-2.58544,56.27913],[-2.63039,56.29288],[-2.66038,56.31833],[-2.77745,56.33271],[-2.80616,56.34451],[-2.81977,56.36786],[-2.81092,56.39126],[-2.80825,56.44155],[-2.8655,56.44014],[-2.88327,56.45243],[-2.92186,56.45143],[-2.98998,56.42073],[-3.03964,56.41568],[-3.22632,56.35508],[-3.27711,56.35042],[-3.25603,56.34011],[-3.30062,56.31399],[-3.2937,56.28871],[-3.33553,56.28946],[-3.38367,56.26879],[-3.35331,56.25528],[-3.36749,56.23977],[-3.29023,56.22499],[-3.26095,56.19614],[-3.37172,56.16441],[-3.36991,56.14585],[-3.41664,56.13843],[-3.45371,56.15038],[-3.54001,56.14647],[-3.62835,56.13278],[-3.66395,56.12305],[-3.67448,56.10024],[-3.71463,56.10449],[-3.7393,56.07707]]]}}