{"type":"Feature","properties":{"id":"GBR.23.1","name":"City of Edinburgh","level":2,"country":"GBR"},"geometry":{"type":"Polygon","coordinates":[[[-3.07768,55.9468],[-3.11626,55.95685],[-3.18234,55.9914],[-3.30378,55.97527],[-3.35197,56.00159],[-3.38969,55.98979],[-3.42535,55.99383],[-3.44827,55.97758],[-3.44953,55.95094],[-3.43112,55.93183],[-3.4442,55.90775],[-3.38771,55.90286],[-3.41382,55.87836],[-3.42014,55.84601],[-3.39477,55.81974],[-3.36904,55.82411],[-3.35068,55.82714],[-3.29554,55.86622],[-3.20155,55.89483],[-3.16244,55.88909],[-3.09267,55.89981],[-3.11767,55.91345],[-3.08857,55.93139],[-3.07768,55.9468]]]}}