{"type":"Feature","properties":{"id":"GBR.10.1","name":"South Lanarkshire","level":2,"country":"GBR"},"geometry":{"type":"Polygon","coordinates":[[[-3.50738,55.41226],[-3.53957,55.44317],[-3.51848,55.47378],[-3.52218,55.49026],[-3.48661,55.51705],[-3.50342,55.54744],[-3.48848,55.56267],[-3.52689,55.59702],[-3.53002,55.6114],[-3.48171,55.61643],[-3.48574,55.64902],[-3.39699,55.71046],[-3.43952,55.72405],[-3.45606,55.76362],[-3.47164,55.77097],[-3.54707,55.79074],[-3.59151,55.81022],[-3.69868,55.79463],[-3.74402,55.78201],[-3.76642,55.77006],[-3.88824,55.75912],[-3.93013,55.74851],[-4.04843,55.79726],[-4.04584,55.81172],[-4.10704,55.83466],[-4.17252,55.82297],[-4.1805,55.83561],[-4.21994,55.83405],[-4.2043,55.80045],[-4.25075,55.78489],[-4.27506,55.75434],[-4.22314,55.72756],[-4.22162,55.69154],[-4.24691,55.67905],[-4.20192,55.62693],[-4.20249,55.58304],[-4.24265,55.56213],[-4.22468,55.55049],[-4.14773,55.57273],[-4.08158,55.56758],[-4.03959,55.59237],[-3.99701,55.56354],[-3.95706,55.55575],[-3.95871,55.54079],[-4.0257,55.49245],[-4.01683,55.47296],[-3.98624,55.46405],[-3.92436,55.45633],[-3.89545,55.45976],[-3.82551,55.44441],[-3.81641,55.42727],[-3.7646,55.4011],[-3.75367,55.37494],[-3.71105,55.36324],[-3.72019,55.35024],[-3.71116,55.32316],[-3.66362,55.29175],[-3.61866,55.29574],[-3.62156,55.31654],[-3.57397,55.32836],[-3.5785,55.38496],[-3.5314,55.39643],[-3.50738,55.41226]]]}}