{"type":"Feature","properties":{"id":"PAN.6.5","name":"Chepo","level":2,"country":"PAN"},"geometry":{"type":"MultiPolygon","coordinates":[[[[-79.13072,8.95951],[-79.13244,8.95459],[-79.12904,8.94946],[-79.13176,8.94496],[-79.12759,8.9449],[-79.12719,8.94985],[-79.12351,8.95103],[-79.1295,8.95564],[-79.13072,8.95951]]],[[[-78.13346,8.99509],[-78.13193,8.99918],[-78.12683,9.00727],[-78.11902,9.01337],[-78.11793,9.03148],[-78.10809,9.04123],[-78.10697,9.0417],[-78.09269,9.04241],[-78.08012,9.04904],[-78.07224,9.05873],[-78.07579,9.06081],[-78.07979,9.0649],[-78.07998,9.06758],[-78.07104,9.07631],[-78.07266,9.08102],[-78.06732,9.09667],[-78.06166,9.10072],[-78.07069,9.11048],[-78.081,9.11396],[-78.08175,9.11856],[-78.07687,9.13138],[-78.07466,9.14221],[-78.07692,9.14594],[-78.08011,9.14676],[-78.08759,9.1464],[-78.08928,9.14954],[-78.09157,9.16186],[-78.09335,9.16371],[-78.09263,9.16646],[-78.08589,9.17169],[-78.08584,9.17458],[-78.09433,9.17593],[-78.10298,9.18372],[-78.1147,9.18192],[-78.12402,9.1862],[-78.13009,9.18381],[-78.13109,9.18527],[-78.12841,9.19023],[-78.12935,9.19207],[-78.13447,9.1929],[-78.14324,9.19723],[-78.15452,9.19804],[-78.16186,9.20334],[-78.17135,9.20416],[-78.18891,9.20904],[-78.21139,9.21013],[-78.22866,9.21413],[-78.23534,9.21157],[-78.24213,9.20478],[-78.24902,9.2052],[-78.25399,9.20306],[-78.25757,9.20415],[-78.2832,9.2177],[-78.29031,9.22584],[-78.30124,9.23002],[-78.3058,9.23353],[-78.29658,9.23483],[-78.29451,9.23883],[-78.30083,9.26009],[-78.30691,9.26926],[-78.30745,9.27131],[-78.30565,9.27961],[-78.30867,9.28328],[-78.3126,9.28386],[-78.31559,9.28278],[-78.32482,9.27517],[-78.32756,9.27404],[-78.33777,9.27405],[-78.34136,9.27206],[-78.34643,9.26594],[-78.34961,9.26357],[-78.36371,9.2724],[-78.38322,9.27329],[-78.38824,9.28704],[-78.3914,9.29091],[-78.39576,9.29236],[-78.41203,9.28784],[-78.42722,9.27496],[-78.42857,9.27218],[-78.42856,9.25983],[-78.4336,9.2506],[-78.43957,9.25202],[-78.44606,9.26321],[-78.44818,9.26467],[-78.45547,9.26195],[-78.46127,9.25546],[-78.46339,9.25601],[-78.46093,9.26384],[-78.47457,9.28096],[-78.47536,9.29894],[-78.48011,9.30313],[-78.48309,9.30934],[-78.48072,9.31881],[-78.49348,9.31982],[-78.50063,9.32316],[-78.50199,9.32644],[-78.50568,9.32907],[-78.50551,9.33516],[-78.50778,9.33923],[-78.50615,9.34662],[-78.50476,9.34828],[-78.49702,9.35037],[-78.49546,9.35298],[-78.50374,9.35407],[-78.50408,9.36415],[-78.51315,9.36179],[-78.52233,9.36664],[-78.53038,9.35876],[-78.53428,9.35212],[-78.54197,9.34823],[-78.54593,9.34329],[-78.55857,9.34435],[-78.57083,9.33902],[-78.59074,9.34426],[-78.59379,9.3417],[-78.594,9.33718],[-78.5958,9.33566],[-78.61032,9.34003],[-78.61626,9.33755],[-78.61991,9.33758],[-78.62433,9.33915],[-78.62608,9.34232],[-78.62865,9.34327],[-78.63292,9.35128],[-78.63897,9.35177],[-78.64128,9.35412],[-78.64523,9.35285],[-78.64788,9.35739],[-78.65588,9.3583],[-78.65774,9.36083],[-78.66463,9.36267],[-78.67325,9.37859],[-78.68252,9.38081],[-78.69183,9.38939],[-78.70134,9.38267],[-78.70467,9.38528],[-78.71147,9.38605],[-78.71227,9.39408],[-78.71551,9.3956],[-78.72448,9.39044],[-78.7301,9.37701],[-78.74125,9.37196],[-78.75147,9.37447],[-78.76173,9.37471],[-78.76498,9.37634],[-78.76597,9.37888],[-78.77154,9.379],[-78.81624,9.38979],[-78.83023,9.37802],[-78.86424,9.35678],[-78.86928,9.35867],[-78.88078,9.37273],[-78.88333,9.37357],[-78.88777,9.37254],[-78.8941,9.36792],[-78.90021,9.35502],[-78.90826,9.34793],[-78.90941,9.34207],[-78.90363,9.33365],[-78.90571,9.32816],[-78.91863,9.3154],[-78.93417,9.30773],[-78.93835,9.30766],[-78.95553,9.31406],[-78.96206,9.31458],[-78.98943,9.30223],[-79.00575,9.30027],[-79.02053,9.29452],[-79.04713,9.29792],[-79.06159,9.29537],[-79.07718,9.29803],[-79.08906,9.29674],[-79.09228,9.29861],[-79.09269,9.30252],[-79.08358,9.30854],[-79.08203,9.31122],[-79.09838,9.32893],[-79.10533,9.33126],[-79.10864,9.33162],[-79.11724,9.33047],[-79.12775,9.32508],[-79.14186,9.32517],[-79.15615,9.33311],[-79.16099,9.33415],[-79.16287,9.32896],[-79.18324,9.32852],[-79.1892,9.32617],[-79.19721,9.31939],[-79.20458,9.31907],[-79.21173,9.31664],[-79.21575,9.31088],[-79.21967,9.31014],[-79.22376,9.31114],[-79.22843,9.31451],[-79.2355,9.31148],[-79.24116,9.31157],[-79.24796,9.31422],[-79.25685,9.31243],[-79.26689,9.31964],[-79.27238,9.31966],[-79.27327,9.31793],[-79.28298,9.31274],[-79.2771,9.28788],[-79.27165,9.27883],[-79.26322,9.2702],[-79.24808,9.26503],[-79.24421,9.2625],[-79.23748,9.26207],[-79.22885,9.25783],[-79.22435,9.25367],[-79.22025,9.25254],[-79.21838,9.24908],[-79.20963,9.24598],[-79.20567,9.2469],[-79.19729,9.24289],[-79.19324,9.24951],[-79.18824,9.25272],[-79.18256,9.24984],[-79.1728,9.24327],[-79.16959,9.24382],[-79.16766,9.23895],[-79.15989,9.22479],[-79.15942,9.22121],[-79.17074,9.22096],[-79.17624,9.21589],[-79.18166,9.21517],[-79.18694,9.21301],[-79.1894,9.20659],[-79.19133,9.20488],[-79.19589,9.2046],[-79.2096,9.19661],[-79.21294,9.19727],[-79.21811,9.19481],[-79.22532,9.18677],[-79.22603,9.18343],[-79.22555,9.17814],[-79.23338,9.17215],[-79.23891,9.16335],[-79.23951,9.15288],[-79.23502,9.14623],[-79.23498,9.14111],[-79.23157,9.1331],[-79.23389,9.12834],[-79.22845,9.12313],[-79.22517,9.12276],[-79.22468,9.11996],[-79.22081,9.11879],[-79.21979,9.11529],[-79.2169,9.1162],[-79.21123,9.11604],[-79.20869,9.11463],[-79.20154,9.1153],[-79.19764,9.11416],[-79.19562,9.11072],[-79.19292,9.10896],[-79.19261,9.10656],[-79.18855,9.10157],[-79.17828,9.10046],[-79.17296,9.09754],[-79.16697,9.09635],[-79.15964,9.10201],[-79.15426,9.10303],[-79.15027,9.09935],[-79.14266,9.097],[-79.14236,9.0946],[-79.13801,9.09334],[-79.1384,9.09002],[-79.141,9.08624],[-79.13466,9.0836],[-79.14014,9.07715],[-79.13676,9.07233],[-79.13229,9.07146],[-79.13685,9.06692],[-79.13196,9.06252],[-79.13567,9.05946],[-79.13424,9.05527],[-79.12896,9.05704],[-79.12509,9.05304],[-79.12617,9.05],[-79.12975,9.04788],[-79.13617,9.04786],[-79.137,9.04571],[-79.13387,9.0389],[-79.13097,9.03637],[-79.13155,9.0346],[-79.13776,9.02943],[-79.14058,9.02908],[-79.14196,9.03374],[-79.13651,9.03772],[-79.13783,9.03987],[-79.14506,9.04048],[-79.15291,9.04258],[-79.154,9.04181],[-79.15128,9.03043],[-79.15776,9.01931],[-79.16092,9.01948],[-79.1621,9.02173],[-79.15881,9.03271],[-79.1603,9.0374],[-79.1709,9.03496],[-79.17349,9.03286],[-79.17407,9.02906],[-79.17383,9.02663],[-79.16528,9.02096],[-79.16378,9.01439],[-79.15324,9.00837],[-79.1482,9.00871],[-79.12283,9.00219],[-79.10807,9.00844],[-79.10342,9.01614],[-79.10059,9.01697],[-79.09668,9.01579],[-79.09572,9.0077],[-79.09463,9.00386],[-79.09686,9.00212],[-79.10476,9.00041],[-79.10273,8.99726],[-79.09231,8.99384],[-79.07539,8.98095],[-79.06088,8.97615],[-79.05907,8.9768],[-79.04629,8.97141],[-79.04356,8.97179],[-79.03905,8.97675],[-79.03819,8.98022],[-79.04947,8.98908],[-79.05506,8.99781],[-79.05428,8.99851],[-79.04837,8.99043],[-79.04887,8.98872],[-79.04267,8.98581],[-79.04154,8.9875],[-79.04161,8.99345],[-79.03692,8.99024],[-79.04089,8.98736],[-79.04144,8.9849],[-79.03646,8.97944],[-79.03626,8.97677],[-79.03266,8.97601],[-79.02714,8.97103],[-79.02288,8.97068],[-79.01135,8.96036],[-78.99398,8.95434],[-78.97859,8.94608],[-78.9765,8.94358],[-78.97015,8.94507],[-78.96598,8.94056],[-78.96053,8.9406],[-78.95822,8.93736],[-78.95422,8.93763],[-78.95135,8.93459],[-78.94665,8.93437],[-78.94318,8.93207],[-78.93592,8.93555],[-78.93244,8.93524],[-78.93102,8.93117],[-78.92784,8.92836],[-78.92346,8.93071],[-78.91856,8.92908],[-78.91436,8.92962],[-78.91331,8.93168],[-78.91439,8.93763],[-78.91141,8.94157],[-78.90689,8.94283],[-78.90431,8.94471],[-78.90511,8.94844],[-78.90134,8.94824],[-78.90106,8.95105],[-78.89257,8.95383],[-78.89136,8.95142],[-78.88825,8.95224],[-78.88494,8.94961],[-78.88072,8.95109],[-78.87536,8.94951],[-78.8729,8.95156],[-78.86964,8.94987],[-78.86678,8.95138],[-78.8635,8.94932],[-78.86176,8.95212],[-78.85764,8.95189],[-78.84984,8.95484],[-78.84805,8.95217],[-78.84455,8.95294],[-78.84321,8.95536],[-78.83968,8.95366],[-78.83606,8.95457],[-78.83357,8.95738],[-78.83131,8.9577],[-78.82822,8.9617],[-78.81555,8.96258],[-78.8134,8.96548],[-78.81094,8.96571],[-78.805,8.97057],[-78.79862,8.96878],[-78.79208,8.96286],[-78.78683,8.96243],[-78.78347,8.95456],[-78.77686,8.94688],[-78.77815,8.93876],[-78.77287,8.93713],[-78.76703,8.93938],[-78.75746,8.9368],[-78.74957,8.93669],[-78.75102,8.94116],[-78.74927,8.94557],[-78.73817,8.95088],[-78.73418,8.95038],[-78.7317,8.94748],[-78.71282,8.93761],[-78.70783,8.94084],[-78.70044,8.9408],[-78.69409,8.94275],[-78.68367,8.93856],[-78.6781,8.94407],[-78.67327,8.94408],[-78.66849,8.94076],[-78.66372,8.93299],[-78.65739,8.92836],[-78.64853,8.93096],[-78.64666,8.93543],[-78.64269,8.9333],[-78.63854,8.9349],[-78.63069,8.93371],[-78.62765,8.93057],[-78.62865,8.91799],[-78.62332,8.9138],[-78.62043,8.90674],[-78.61509,8.9042],[-78.61254,8.90089],[-78.60442,8.89814],[-78.59857,8.89025],[-78.59786,8.88452],[-78.58277,8.87561],[-78.57398,8.87447],[-78.56843,8.87095],[-78.56421,8.85928],[-78.55818,8.85066],[-78.55534,8.83891],[-78.55229,8.83282],[-78.55265,8.82424],[-78.54816,8.82136],[-78.54395,8.82006],[-78.53623,8.82215],[-78.53313,8.82573],[-78.5164,8.81943],[-78.51154,8.82016],[-78.50407,8.81915],[-78.49508,8.825],[-78.47679,8.81916],[-78.46176,8.81914],[-78.45641,8.82333],[-78.45028,8.83493],[-78.44199,8.839],[-78.43301,8.84032],[-78.42787,8.83919],[-78.41048,8.8503],[-78.40252,8.85329],[-78.36779,8.84926],[-78.36162,8.84567],[-78.35907,8.84198],[-78.35648,8.81875],[-78.35216,8.8113],[-78.34097,8.80799],[-78.3213,8.81662],[-78.31755,8.82503],[-78.31366,8.82838],[-78.313,8.83437],[-78.31678,8.84087],[-78.31709,8.84776],[-78.30764,8.86152],[-78.30579,8.8663],[-78.29707,8.86365],[-78.28955,8.85896],[-78.27981,8.8632],[-78.27544,8.86993],[-78.27494,8.87409],[-78.26803,8.88235],[-78.26166,8.8861],[-78.25586,8.89364],[-78.25013,8.89134],[-78.24765,8.88679],[-78.2427,8.88819],[-78.24008,8.8931],[-78.22602,8.89222],[-78.2103,8.87665],[-78.19658,8.86879],[-78.18802,8.86992],[-78.17946,8.87444],[-78.17779,8.87918],[-78.1786,8.88249],[-78.18577,8.89686],[-78.18014,8.90431],[-78.17834,8.90952],[-78.17884,8.916],[-78.17546,8.91962],[-78.17562,8.92307],[-78.17209,8.92657],[-78.17604,8.93731],[-78.17615,8.94087],[-78.17326,8.94416],[-78.15877,8.94925],[-78.14798,8.95113],[-78.1352,8.96056],[-78.13362,8.96236],[-78.13042,8.98205],[-78.13092,8.98661],[-78.13321,8.99134],[-78.13346,8.99509]],[[-78.76664,9.05572],[-78.76944,9.06029],[-78.76729,9.07186],[-78.76903,9.07296],[-78.76968,9.08086],[-78.77514,9.08408],[-78.78081,9.08592],[-78.78404,9.08217],[-78.78787,9.08341],[-78.78582,9.0869],[-78.79126,9.0894],[-78.79653,9.08594],[-78.80583,9.08627],[-78.80731,9.09007],[-78.81092,9.09147],[-78.81572,9.08941],[-78.81817,9.09668],[-78.82429,9.09693],[-78.82939,9.10225],[-78.82334,9.10698],[-78.82843,9.10711],[-78.82984,9.1031],[-78.83426,9.10213],[-78.83526,9.10357],[-78.84158,9.10469],[-78.84341,9.10788],[-78.8461,9.10685],[-78.85074,9.10895],[-78.8516,9.11131],[-78.85485,9.11354],[-78.8586,9.11407],[-78.86201,9.11613],[-78.86511,9.11155],[-78.86686,9.11813],[-78.87102,9.11965],[-78.86783,9.12664],[-78.87405,9.12696],[-78.876,9.12983],[-78.86675,9.12798],[-78.8665,9.125],[-78.86836,9.12168],[-78.86378,9.11742],[-78.85928,9.11647],[-78.85177,9.12149],[-78.85311,9.12567],[-78.85603,9.13035],[-78.86084,9.1359],[-78.86353,9.14364],[-78.86368,9.14818],[-78.86602,9.15044],[-78.86773,9.14377],[-78.87009,9.1442],[-78.87032,9.14837],[-78.87795,9.14717],[-78.87493,9.15051],[-78.87482,9.15439],[-78.87753,9.15653],[-78.872,9.16102],[-78.87679,9.1652],[-78.87744,9.17454],[-78.88649,9.18005],[-78.88443,9.18343],[-78.88192,9.18168],[-78.87751,9.18199],[-78.87576,9.17908],[-78.87281,9.17814],[-78.86857,9.17413],[-78.86743,9.17807],[-78.86987,9.18864],[-78.86801,9.19081],[-78.86182,9.19425],[-78.86737,9.18343],[-78.86424,9.18265],[-78.86624,9.1722],[-78.86348,9.17404],[-78.86126,9.17957],[-78.86028,9.18751],[-78.85722,9.19164],[-78.85647,9.19503],[-78.85273,9.19584],[-78.85187,9.194],[-78.84708,9.19813],[-78.84615,9.19687],[-78.84709,9.19076],[-78.84504,9.18625],[-78.84614,9.18391],[-78.84213,9.18303],[-78.83754,9.18607],[-78.82988,9.1836],[-78.8283,9.1901],[-78.83283,9.19322],[-78.83062,9.19562],[-78.82719,9.197],[-78.826,9.1946],[-78.8257,9.18788],[-78.82417,9.18498],[-78.82052,9.18534],[-78.81699,9.18716],[-78.82011,9.19233],[-78.81981,9.19406],[-78.81499,9.19344],[-78.81524,9.19079],[-78.81237,9.1876],[-78.81708,9.18137],[-78.81079,9.17961],[-78.80775,9.18552],[-78.80451,9.1839],[-78.80447,9.17426],[-78.80003,9.16576],[-78.79714,9.17017],[-78.80172,9.17249],[-78.80359,9.17758],[-78.79886,9.18185],[-78.79668,9.18268],[-78.79932,9.19173],[-78.80131,9.19262],[-78.79736,9.19906],[-78.8078,9.2066],[-78.81406,9.20535],[-78.81533,9.20718],[-78.82096,9.20575],[-78.82193,9.20729],[-78.81883,9.21599],[-78.81457,9.2181],[-78.80585,9.21806],[-78.79906,9.22066],[-78.7955,9.21884],[-78.79078,9.22032],[-78.78852,9.21913],[-78.78677,9.22173],[-78.78839,9.22427],[-78.78685,9.22663],[-78.78384,9.22547],[-78.78543,9.2214],[-78.78063,9.22139],[-78.77895,9.22263],[-78.77425,9.22285],[-78.77437,9.21982],[-78.76787,9.21861],[-78.75631,9.22061],[-78.75822,9.22417],[-78.75785,9.23056],[-78.75335,9.22794],[-78.75243,9.22435],[-78.74822,9.22106],[-78.74533,9.22122],[-78.74506,9.22429],[-78.74166,9.22271],[-78.73843,9.21952],[-78.73409,9.22616],[-78.73303,9.22316],[-78.72481,9.22469],[-78.72192,9.22644],[-78.72002,9.22327],[-78.72132,9.22051],[-78.71328,9.21825],[-78.70926,9.21495],[-78.70225,9.21665],[-78.6983,9.2166],[-78.69684,9.221],[-78.69483,9.21989],[-78.68766,9.22289],[-78.68834,9.22933],[-78.68392,9.22168],[-78.69077,9.22049],[-78.6938,9.217],[-78.69107,9.21573],[-78.68026,9.214],[-78.67125,9.21439],[-78.6697,9.21731],[-78.67022,9.2205],[-78.66101,9.21716],[-78.65946,9.21527],[-78.66837,9.21596],[-78.67002,9.21205],[-78.66556,9.2076],[-78.66913,9.20705],[-78.66587,9.20373],[-78.65763,9.20814],[-78.65311,9.20757],[-78.65172,9.20529],[-78.6556,9.20241],[-78.65318,9.19789],[-78.6517,9.19918],[-78.64342,9.1983],[-78.64221,9.19956],[-78.6321,9.19514],[-78.62931,9.19796],[-78.62674,9.19497],[-78.62266,9.19831],[-78.61968,9.19862],[-78.61893,9.2027],[-78.60566,9.20551],[-78.61247,9.20141],[-78.6176,9.20077],[-78.61791,9.19796],[-78.62127,9.19365],[-78.62696,9.19343],[-78.62316,9.19023],[-78.61652,9.19674],[-78.62108,9.18771],[-78.61998,9.18586],[-78.61533,9.19272],[-78.6096,9.19018],[-78.6147,9.18846],[-78.6142,9.18558],[-78.62266,9.18416],[-78.62477,9.18604],[-78.62982,9.18438],[-78.63454,9.17796],[-78.63449,9.17431],[-78.63932,9.17128],[-78.6386,9.16846],[-78.64162,9.16216],[-78.64958,9.15732],[-78.64726,9.15414],[-78.64112,9.14924],[-78.63546,9.15109],[-78.62807,9.14834],[-78.63077,9.1405],[-78.62536,9.1394],[-78.62533,9.13611],[-78.62198,9.13085],[-78.61887,9.13186],[-78.61536,9.14346],[-78.60902,9.14554],[-78.61155,9.14175],[-78.61048,9.13922],[-78.60473,9.13588],[-78.60233,9.13623],[-78.59851,9.13979],[-78.59242,9.14188],[-78.58753,9.13904],[-78.58071,9.1374],[-78.57915,9.13341],[-78.57709,9.13149],[-78.57351,9.13262],[-78.56874,9.13036],[-78.56627,9.13179],[-78.55665,9.1318],[-78.54933,9.12801],[-78.53898,9.12838],[-78.53069,9.12668],[-78.52673,9.12443],[-78.52402,9.12796],[-78.52267,9.12478],[-78.51923,9.12361],[-78.51128,9.12853],[-78.50668,9.12803],[-78.50331,9.13076],[-78.50054,9.12813],[-78.49425,9.1259],[-78.49262,9.12325],[-78.49783,9.11988],[-78.50552,9.12231],[-78.50462,9.11849],[-78.50814,9.11242],[-78.50685,9.10797],[-78.49934,9.11443],[-78.49513,9.11394],[-78.49131,9.11047],[-78.48978,9.10664],[-78.49623,9.10255],[-78.49269,9.09986],[-78.49625,9.0958],[-78.49596,9.09357],[-78.49173,9.09526],[-78.49007,9.09967],[-78.48606,9.10105],[-78.48539,9.10332],[-78.48173,9.10497],[-78.47463,9.10256],[-78.47284,9.10518],[-78.46773,9.10811],[-78.46576,9.10546],[-78.46102,9.10512],[-78.4603,9.1019],[-78.45732,9.09977],[-78.45374,9.09188],[-78.45416,9.087],[-78.45287,9.08057],[-78.45349,9.07478],[-78.45072,9.07243],[-78.4423,9.08428],[-78.44241,9.08686],[-78.43917,9.0902],[-78.44462,9.07546],[-78.44538,9.06826],[-78.4426,9.06626],[-78.44688,9.06349],[-78.44858,9.0593],[-78.45295,9.05892],[-78.45401,9.06564],[-78.4593,9.07371],[-78.46197,9.07258],[-78.45791,9.06711],[-78.46143,9.05967],[-78.46164,9.05384],[-78.46479,9.05809],[-78.46292,9.06011],[-78.46333,9.06313],[-78.46828,9.06651],[-78.46975,9.07021],[-78.46737,9.07185],[-78.46749,9.07466],[-78.4698,9.07592],[-78.47242,9.07393],[-78.47696,9.07906],[-78.48253,9.06948],[-78.48974,9.07122],[-78.48856,9.0754],[-78.49366,9.07734],[-78.49581,9.07186],[-78.49442,9.06713],[-78.49648,9.06093],[-78.49876,9.0633],[-78.50177,9.05999],[-78.49909,9.05482],[-78.49909,9.04568],[-78.50049,9.03916],[-78.5032,9.03563],[-78.50298,9.02926],[-78.50974,9.02861],[-78.51225,9.02385],[-78.51843,9.02365],[-78.51567,9.02867],[-78.51547,9.03386],[-78.52006,9.03532],[-78.51822,9.03855],[-78.51827,9.04454],[-78.52345,9.04704],[-78.52318,9.05543],[-78.52602,9.06046],[-78.5232,9.06523],[-78.52044,9.06705],[-78.52185,9.06928],[-78.51906,9.0724],[-78.52064,9.07598],[-78.52325,9.06888],[-78.52585,9.0658],[-78.53144,9.06437],[-78.5391,9.0713],[-78.53805,9.07649],[-78.54304,9.07635],[-78.54526,9.07827],[-78.54719,9.0747],[-78.55125,9.07266],[-78.54987,9.06604],[-78.5525,9.06568],[-78.55449,9.07227],[-78.55898,9.07109],[-78.55915,9.06622],[-78.55645,9.06484],[-78.55509,9.05906],[-78.56076,9.06365],[-78.56344,9.06811],[-78.56586,9.06712],[-78.56904,9.06881],[-78.57135,9.06433],[-78.57365,9.06546],[-78.57171,9.07086],[-78.56465,9.06988],[-78.56295,9.07233],[-78.56654,9.07446],[-78.55804,9.07589],[-78.55817,9.08244],[-78.56174,9.08022],[-78.56408,9.08411],[-78.56149,9.09209],[-78.56581,9.09579],[-78.56641,9.10082],[-78.56547,9.10606],[-78.56955,9.10557],[-78.5721,9.1027],[-78.57353,9.1098],[-78.56735,9.1149],[-78.57149,9.11554],[-78.57665,9.11251],[-78.57754,9.1079],[-78.57508,9.10515],[-78.57896,9.10242],[-78.57785,9.10003],[-78.58198,9.09767],[-78.5787,9.09532],[-78.58163,9.09297],[-78.58136,9.08975],[-78.58464,9.08681],[-78.59009,9.0796],[-78.58822,9.07896],[-78.59244,9.07392],[-78.59616,9.07401],[-78.59819,9.07073],[-78.60052,9.07084],[-78.60047,9.07492],[-78.59716,9.07796],[-78.60016,9.08115],[-78.60261,9.07663],[-78.60505,9.07975],[-78.60142,9.08264],[-78.59697,9.08211],[-78.59228,9.0921],[-78.59432,9.09379],[-78.5943,9.0984],[-78.59935,9.08902],[-78.59955,9.0857],[-78.60576,9.08344],[-78.60393,9.08768],[-78.60202,9.09538],[-78.605,9.09498],[-78.6078,9.09764],[-78.60799,9.10027],[-78.61042,9.10754],[-78.6096,9.11332],[-78.6069,9.11571],[-78.60792,9.11985],[-78.60467,9.12089],[-78.60134,9.12866],[-78.60175,9.1325],[-78.59366,9.13295],[-78.59128,9.13105],[-78.58856,9.1335],[-78.58897,9.13585],[-78.59268,9.13841],[-78.59549,9.13868],[-78.60034,9.13454],[-78.60406,9.13345],[-78.6119,9.13608],[-78.61575,9.13647],[-78.61749,9.1292],[-78.61518,9.12339],[-78.61893,9.11541],[-78.62226,9.10973],[-78.61709,9.10107],[-78.61877,9.09762],[-78.62235,9.09718],[-78.62282,9.10035],[-78.62782,9.09959],[-78.62808,9.09365],[-78.63245,9.09066],[-78.63092,9.09619],[-78.63402,9.09847],[-78.63326,9.1018],[-78.63586,9.10292],[-78.62923,9.10673],[-78.63236,9.1099],[-78.62957,9.11368],[-78.63094,9.11572],[-78.64122,9.12271],[-78.64382,9.11983],[-78.64175,9.11515],[-78.64525,9.11317],[-78.64204,9.11005],[-78.64749,9.10541],[-78.64346,9.10363],[-78.64819,9.09676],[-78.65057,9.10284],[-78.65433,9.09329],[-78.6567,9.09254],[-78.65615,9.08748],[-78.66069,9.08667],[-78.65988,9.09036],[-78.6668,9.08787],[-78.67021,9.09069],[-78.66848,9.0932],[-78.66597,9.09146],[-78.66361,9.09449],[-78.66613,9.09896],[-78.66231,9.09879],[-78.65908,9.10049],[-78.65822,9.10326],[-78.66082,9.10641],[-78.66097,9.10887],[-78.65738,9.112],[-78.65874,9.1142],[-78.66436,9.11809],[-78.65693,9.11813],[-78.65511,9.12306],[-78.65836,9.12437],[-78.66191,9.12175],[-78.66621,9.12255],[-78.66807,9.12429],[-78.66697,9.13031],[-78.6726,9.12949],[-78.67117,9.13408],[-78.66871,9.13853],[-78.6647,9.1356],[-78.66228,9.13145],[-78.66013,9.13316],[-78.66199,9.13807],[-78.65702,9.1385],[-78.65513,9.13652],[-78.64696,9.13575],[-78.64118,9.13258],[-78.62789,9.12929],[-78.62523,9.13117],[-78.62811,9.13741],[-78.63276,9.1353],[-78.63892,9.13964],[-78.63908,9.14341],[-78.63252,9.14368],[-78.63905,9.14748],[-78.63932,9.14518],[-78.64669,9.14401],[-78.64874,9.14811],[-78.65371,9.14964],[-78.65532,9.14842],[-78.65969,9.15273],[-78.65662,9.15388],[-78.65875,9.157],[-78.65246,9.15915],[-78.6427,9.16475],[-78.64188,9.1667],[-78.64476,9.1715],[-78.64377,9.17546],[-78.64623,9.17708],[-78.64092,9.18176],[-78.64128,9.18411],[-78.64599,9.18532],[-78.64739,9.18804],[-78.65512,9.1836],[-78.67281,9.18415],[-78.67757,9.18757],[-78.68221,9.18546],[-78.68634,9.18647],[-78.68902,9.19401],[-78.69309,9.19694],[-78.69944,9.19423],[-78.70724,9.19799],[-78.71354,9.19889],[-78.71854,9.20314],[-78.72591,9.2021],[-78.72549,9.19838],[-78.74398,9.2013],[-78.75134,9.20087],[-78.75594,9.19878],[-78.75834,9.1945],[-78.76295,9.19449],[-78.76826,9.19343],[-78.76953,9.19144],[-78.76578,9.1899],[-78.77172,9.1871],[-78.776,9.18663],[-78.78491,9.18847],[-78.78573,9.18999],[-78.79068,9.19149],[-78.79401,9.18507],[-78.79164,9.18385],[-78.79183,9.17749],[-78.79478,9.17805],[-78.79788,9.17477],[-78.78859,9.16765],[-78.786,9.17107],[-78.78424,9.16964],[-78.78583,9.16437],[-78.78339,9.16313],[-78.77784,9.1654],[-78.77175,9.1653],[-78.77096,9.16731],[-78.76715,9.16848],[-78.7657,9.16707],[-78.75668,9.16445],[-78.75973,9.16179],[-78.7578,9.15914],[-78.75172,9.1561],[-78.7473,9.15617],[-78.74427,9.15022],[-78.74993,9.15093],[-78.75336,9.15036],[-78.75668,9.14813],[-78.75416,9.14624],[-78.74673,9.14578],[-78.7422,9.14212],[-78.74258,9.13901],[-78.73708,9.14138],[-78.73492,9.14109],[-78.73102,9.14367],[-78.73202,9.14891],[-78.73045,9.15176],[-78.72544,9.15169],[-78.7224,9.1536],[-78.71807,9.15176],[-78.72399,9.1484],[-78.7268,9.1451],[-78.7305,9.13823],[-78.72978,9.13221],[-78.72765,9.13177],[-78.7211,9.13375],[-78.71165,9.13338],[-78.70984,9.12995],[-78.70567,9.12892],[-78.70368,9.12626],[-78.72138,9.13216],[-78.72281,9.12958],[-78.72114,9.12646],[-78.7217,9.12355],[-78.71916,9.11671],[-78.71026,9.11436],[-78.70795,9.11262],[-78.70189,9.1103],[-78.70243,9.1076],[-78.69889,9.10612],[-78.69817,9.10365],[-78.69277,9.10377],[-78.68655,9.10066],[-78.68726,9.09458],[-78.68653,9.09028],[-78.69158,9.09459],[-78.69719,9.09478],[-78.70326,9.09956],[-78.70501,9.10209],[-78.71059,9.10433],[-78.7072,9.10663],[-78.71031,9.10888],[-78.71175,9.10637],[-78.71436,9.11179],[-78.71806,9.10787],[-78.71906,9.10974],[-78.71719,9.11244],[-78.72587,9.11044],[-78.72947,9.11223],[-78.72922,9.10826],[-78.73389,9.10883],[-78.73204,9.10279],[-78.72821,9.10284],[-78.72681,9.09898],[-78.7236,9.09693],[-78.72698,9.09051],[-78.72573,9.08428],[-78.72343,9.08189],[-78.72689,9.08008],[-78.72866,9.07761],[-78.73218,9.07724],[-78.73236,9.08098],[-78.73848,9.08775],[-78.73723,9.09109],[-78.74089,9.09398],[-78.74144,9.08962],[-78.74079,9.08536],[-78.74373,9.08336],[-78.74716,9.08399],[-78.74424,9.08815],[-78.74632,9.08929],[-78.74995,9.08611],[-78.75281,9.08623],[-78.74952,9.09241],[-78.75291,9.09652],[-78.75707,9.08994],[-78.75847,9.08627],[-78.75722,9.07983],[-78.7587,9.07726],[-78.76425,9.07579],[-78.76579,9.07152],[-78.76611,9.06653],[-78.76853,9.06089],[-78.76664,9.05572]]],[[[-78.4497,9.06701],[-78.45111,9.06676],[-78.44976,9.0653],[-78.4497,9.06701]]],[[[-78.46663,9.0688],[-78.46831,9.06908],[-78.46735,9.06676],[-78.46663,9.0688]]],[[[-78.46408,9.0695],[-78.46273,9.07079],[-78.46317,9.07264],[-78.46408,9.0695]]],[[[-78.48183,9.07735],[-78.48269,9.07915],[-78.48289,9.0774],[-78.48183,9.07735]]],[[[-78.48287,9.08193],[-78.48417,9.08192],[-78.48086,9.07717],[-78.48122,9.08044],[-78.48287,9.08193]]],[[[-78.48915,9.08281],[-78.4893,9.08154],[-78.48828,9.08224],[-78.48915,9.08281]]],[[[-78.49361,9.09181],[-78.49476,9.09252],[-78.49375,9.09026],[-78.49361,9.09181]]],[[[-78.46397,9.09168],[-78.46584,9.08992],[-78.47039,9.09068],[-78.4666,9.08834],[-78.46881,9.08644],[-78.46328,9.08535],[-78.46683,9.0894],[-78.46421,9.09046],[-78.46397,9.09168]]],[[[-78.47228,9.09296],[-78.4752,9.09253],[-78.47517,9.08929],[-78.48096,9.08972],[-78.48677,9.08604],[-78.49162,9.08808],[-78.49196,9.08454],[-78.48454,9.08407],[-78.47868,9.08108],[-78.47304,9.08097],[-78.47063,9.07801],[-78.46753,9.08186],[-78.4701,9.08356],[-78.47476,9.0913],[-78.47228,9.09296]]],[[[-78.46497,9.09687],[-78.46553,9.09582],[-78.46399,9.09542],[-78.46497,9.09687]]],[[[-78.79878,9.09854],[-78.80323,9.09996],[-78.80527,9.09615],[-78.80146,9.09687],[-78.79878,9.09854]]],[[[-78.49673,9.09997],[-78.49791,9.09982],[-78.49742,9.09887],[-78.49591,9.09935],[-78.49673,9.09997]]],[[[-78.47562,9.10101],[-78.47764,9.09984],[-78.47493,9.09985],[-78.47562,9.10101]]],[[[-78.80054,9.10375],[-78.80234,9.10392],[-78.8033,9.10093],[-78.8012,9.10159],[-78.80054,9.10375]]],[[[-78.4812,9.10172],[-78.482,9.10257],[-78.48577,9.0995],[-78.48222,9.09942],[-78.4812,9.10172]]],[[[-78.4972,9.10122],[-78.49821,9.10312],[-78.49965,9.10083],[-78.4972,9.10122]]],[[[-78.84343,9.11165],[-78.84645,9.11089],[-78.84389,9.11025],[-78.84343,9.11165]]],[[[-78.84824,9.11192],[-78.85049,9.11123],[-78.84749,9.11095],[-78.84824,9.11192]]],[[[-78.72989,9.11597],[-78.73159,9.11564],[-78.73055,9.1149],[-78.72989,9.11597]]],[[[-78.73836,9.11667],[-78.73987,9.11613],[-78.73722,9.1139],[-78.73836,9.11667]]],[[[-78.72693,9.11994],[-78.7292,9.11795],[-78.72713,9.11461],[-78.72522,9.11608],[-78.72693,9.11994]]],[[[-78.72745,9.12368],[-78.7291,9.12324],[-78.7237,9.12207],[-78.72745,9.12368]]],[[[-78.74198,9.12447],[-78.74149,9.1279],[-78.74306,9.12624],[-78.74198,9.12447]]],[[[-78.73846,9.13132],[-78.73809,9.12672],[-78.73535,9.12893],[-78.73846,9.13132]]],[[[-78.74348,9.1323],[-78.74517,9.13232],[-78.74613,9.13018],[-78.74348,9.1323]]],[[[-78.64668,9.13268],[-78.64839,9.13515],[-78.65065,9.13541],[-78.64932,9.13216],[-78.64668,9.13268]]],[[[-78.73665,9.13781],[-78.73847,9.13763],[-78.73847,9.13622],[-78.73665,9.13781]]],[[[-78.74536,9.14325],[-78.75009,9.14131],[-78.75091,9.13768],[-78.74821,9.13564],[-78.74428,9.13737],[-78.74282,9.14186],[-78.74536,9.14325]]],[[[-78.80167,9.14532],[-78.80166,9.1418],[-78.79883,9.14418],[-78.80167,9.14532]]],[[[-78.80065,9.14894],[-78.79952,9.14772],[-78.79919,9.14857],[-78.80065,9.14894]]],[[[-78.76927,9.14883],[-78.77057,9.14883],[-78.77044,9.14728],[-78.76927,9.14883]]],[[[-78.76191,9.14844],[-78.7633,9.1483],[-78.76232,9.14659],[-78.76191,9.14844]]],[[[-78.75726,9.14957],[-78.7614,9.14944],[-78.75866,9.14395],[-78.75655,9.145],[-78.75726,9.14957]]],[[[-78.64267,9.14803],[-78.64304,9.15058],[-78.64478,9.15024],[-78.64522,9.14722],[-78.64267,9.14803]]],[[[-78.65054,9.14876],[-78.65012,9.15082],[-78.65158,9.15023],[-78.65054,9.14876]]],[[[-78.65611,9.15233],[-78.65643,9.15097],[-78.65466,9.15177],[-78.65611,9.15233]]],[[[-78.64851,9.15259],[-78.65099,9.15163],[-78.6486,9.151],[-78.64851,9.15259]]],[[[-78.82747,9.1544],[-78.82635,9.15233],[-78.82561,9.15381],[-78.82747,9.1544]]],[[[-78.79184,9.15406],[-78.79315,9.15417],[-78.79185,9.15291],[-78.79184,9.15406]]],[[[-78.83139,9.15518],[-78.83266,9.15426],[-78.83074,9.15415],[-78.83139,9.15518]]],[[[-78.82815,9.1544],[-78.8303,9.15449],[-78.82806,9.15224],[-78.82815,9.1544]]],[[[-78.79042,9.1558],[-78.79053,9.15408],[-78.7894,9.15404],[-78.79042,9.1558]]],[[[-78.78096,9.15597],[-78.78178,9.15363],[-78.77944,9.15464],[-78.78096,9.15597]]],[[[-78.83334,9.15492],[-78.83399,9.15695],[-78.8347,9.1556],[-78.83334,9.15492]]],[[[-78.76703,9.15662],[-78.76909,9.1561],[-78.76715,9.15419],[-78.7656,9.15583],[-78.76703,9.15662]]],[[[-78.82625,9.156],[-78.82626,9.15771],[-78.82691,9.15517],[-78.82625,9.156]]],[[[-78.77519,9.15783],[-78.77726,9.15643],[-78.77616,9.15536],[-78.77458,9.15648],[-78.77519,9.15783]]],[[[-78.65211,9.15626],[-78.65206,9.15738],[-78.65377,9.15494],[-78.65211,9.15626]]],[[[-78.85764,9.15721],[-78.85921,9.1577],[-78.85968,9.15453],[-78.85764,9.15721]]],[[[-78.76467,9.15781],[-78.76586,9.15782],[-78.76808,9.15854],[-78.76397,9.15603],[-78.76467,9.15781]]],[[[-78.78448,9.15824],[-78.78569,9.15797],[-78.78537,9.1554],[-78.78297,9.1581],[-78.78448,9.15824]]],[[[-78.85357,9.15824],[-78.85321,9.15462],[-78.85125,9.15158],[-78.8519,9.1471],[-78.85775,9.14217],[-78.8605,9.14164],[-78.85934,9.13558],[-78.85569,9.13293],[-78.8536,9.12922],[-78.84579,9.13359],[-78.84738,9.12979],[-78.83939,9.13372],[-78.83218,9.13348],[-78.83169,9.13217],[-78.82393,9.13193],[-78.82205,9.12938],[-78.8183,9.12844],[-78.81262,9.13121],[-78.80924,9.1306],[-78.80895,9.13617],[-78.80511,9.13545],[-78.80134,9.13807],[-78.80553,9.14122],[-78.80664,9.14603],[-78.8111,9.1446],[-78.81742,9.14723],[-78.82071,9.14556],[-78.82641,9.14641],[-78.82891,9.14804],[-78.83207,9.14746],[-78.833,9.14966],[-78.83088,9.1533],[-78.83404,9.15366],[-78.83623,9.15695],[-78.84295,9.15621],[-78.84711,9.15936],[-78.84993,9.15667],[-78.85357,9.15824]]],[[[-78.75924,9.15867],[-78.75916,9.15433],[-78.7562,9.15719],[-78.75924,9.15867]]],[[[-78.78122,9.15826],[-78.78215,9.15998],[-78.78245,9.15802],[-78.78122,9.15826]]],[[[-78.82333,9.15904],[-78.82286,9.16032],[-78.82441,9.159],[-78.82333,9.15904]]],[[[-78.81543,9.15976],[-78.81725,9.1594],[-78.81541,9.15768],[-78.81543,9.15976]]],[[[-78.86266,9.16054],[-78.86434,9.15879],[-78.86279,9.158],[-78.86266,9.16054]]],[[[-78.76271,9.15921],[-78.76351,9.1572],[-78.76238,9.15652],[-78.76271,9.15921]]],[[[-78.77638,9.15966],[-78.77678,9.1607],[-78.77785,9.15989],[-78.77638,9.15966]]],[[[-78.84176,9.1613],[-78.8443,9.1605],[-78.84245,9.1569],[-78.84176,9.1613]]],[[[-78.86066,9.16261],[-78.86194,9.16207],[-78.8605,9.15896],[-78.86066,9.16261]]],[[[-78.79243,9.16282],[-78.79272,9.16185],[-78.79159,9.16239],[-78.79243,9.16282]]],[[[-78.82863,9.16252],[-78.82995,9.16291],[-78.83007,9.15987],[-78.82894,9.1605],[-78.82969,9.16151],[-78.82863,9.16252]]],[[[-78.83233,9.16457],[-78.83332,9.16487],[-78.83055,9.16305],[-78.83233,9.16457]]],[[[-78.82392,9.1649],[-78.82506,9.16468],[-78.8243,9.16268],[-78.82271,9.1633],[-78.82392,9.1649]]],[[[-78.81262,9.16479],[-78.81384,9.1642],[-78.81277,9.16297],[-78.81262,9.16479]]],[[[-78.83571,9.16432],[-78.8369,9.16554],[-78.83878,9.16149],[-78.83722,9.16205],[-78.83571,9.16432]]],[[[-78.82329,9.16716],[-78.82663,9.1668],[-78.82612,9.16521],[-78.82523,9.16657],[-78.82329,9.16716]]],[[[-78.82725,9.16738],[-78.82737,9.16865],[-78.82866,9.16773],[-78.82725,9.16738]]],[[[-78.83148,9.16897],[-78.83331,9.16556],[-78.82821,9.16639],[-78.83148,9.16897]]],[[[-78.87395,9.16884],[-78.8758,9.16994],[-78.87561,9.16844],[-78.87395,9.16884]]],[[[-78.78967,9.1668],[-78.79337,9.16712],[-78.79455,9.16312],[-78.78942,9.16427],[-78.78967,9.1668]]],[[[-78.8295,9.16959],[-78.82945,9.16839],[-78.8272,9.1691],[-78.8295,9.16959]]],[[[-78.83254,9.16943],[-78.83144,9.17028],[-78.83434,9.1696],[-78.83254,9.16943]]],[[[-78.83802,9.17199],[-78.8405,9.16984],[-78.83772,9.17056],[-78.83802,9.17199]]],[[[-78.82907,9.17326],[-78.83176,9.17308],[-78.83071,9.17083],[-78.82907,9.17326]]],[[[-78.82725,9.1733],[-78.82839,9.17438],[-78.82983,9.17064],[-78.82725,9.1733]]],[[[-78.83125,9.17429],[-78.83247,9.17521],[-78.83282,9.17336],[-78.83125,9.17429]]],[[[-78.83781,9.17395],[-78.83821,9.17316],[-78.8347,9.17097],[-78.83723,9.17364],[-78.83781,9.17395]]],[[[-78.83168,9.17985],[-78.83264,9.17771],[-78.83071,9.17546],[-78.83002,9.17642],[-78.8319,9.17805],[-78.83168,9.17985]]],[[[-78.80674,9.17915],[-78.8093,9.17824],[-78.80638,9.17527],[-78.80489,9.17898],[-78.80674,9.17915]]],[[[-78.83402,9.17887],[-78.83642,9.18011],[-78.83677,9.17738],[-78.83402,9.17887]]],[[[-78.82352,9.18031],[-78.82538,9.17957],[-78.82341,9.17936],[-78.82352,9.18031]]],[[[-78.80845,9.18076],[-78.80715,9.18144],[-78.80798,9.1828],[-78.80845,9.18076]]],[[[-78.82047,9.18246],[-78.82106,9.18356],[-78.82265,9.1827],[-78.82341,9.18058],[-78.82047,9.18246]]],[[[-78.82128,9.18419],[-78.82271,9.18322],[-78.82035,9.18397],[-78.82128,9.18419]]],[[[-78.85175,9.18751],[-78.85343,9.18738],[-78.85518,9.17613],[-78.85162,9.17669],[-78.85432,9.1655],[-78.86038,9.16956],[-78.86327,9.16766],[-78.86999,9.16992],[-78.87057,9.16496],[-78.86813,9.16257],[-78.8617,9.16359],[-78.85777,9.16318],[-78.85602,9.16149],[-78.84789,9.15987],[-78.8439,9.16122],[-78.84168,9.16458],[-78.84262,9.16857],[-78.8387,9.17312],[-78.84006,9.1753],[-78.84654,9.17285],[-78.85003,9.17435],[-78.8528,9.18016],[-78.85175,9.18751]]],[[[-78.67183,9.18706],[-78.67303,9.18625],[-78.67096,9.18439],[-78.67183,9.18706]]],[[[-78.67496,9.18697],[-78.67299,9.18835],[-78.67374,9.19013],[-78.67618,9.1889],[-78.67496,9.18697]]],[[[-78.76957,9.19393],[-78.77309,9.19395],[-78.77326,9.1929],[-78.77104,9.19291],[-78.76957,9.19393]]],[[[-78.6585,9.19369],[-78.66389,9.192],[-78.66521,9.18874],[-78.66026,9.18803],[-78.65696,9.19254],[-78.6585,9.19369]]],[[[-78.78433,9.19754],[-78.78459,9.19564],[-78.78342,9.19627],[-78.78433,9.19754]]],[[[-78.63518,9.19547],[-78.64012,9.19686],[-78.64371,9.19595],[-78.64416,9.19304],[-78.64101,9.18999],[-78.63637,9.19028],[-78.63316,9.18886],[-78.63075,9.19353],[-78.63518,9.19547]]],[[[-78.78127,9.19611],[-78.78329,9.19782],[-78.7834,9.19595],[-78.78127,9.19611]]],[[[-78.78459,9.19952],[-78.78552,9.19988],[-78.78505,9.19846],[-78.78459,9.19952]]],[[[-78.78673,9.19979],[-78.79182,9.19959],[-78.79044,9.19707],[-78.78673,9.19979]]],[[[-78.79006,9.20303],[-78.79192,9.20251],[-78.79055,9.20151],[-78.79006,9.20303]]]]}}