{"type":"Feature","properties":{"id":"PAN.6.9","name":"Chimán","level":2,"country":"PAN"},"geometry":{"type":"MultiPolygon","coordinates":[[[[-78.46677,8.41011],[-78.46526,8.41365],[-78.46734,8.41211],[-78.46677,8.41011]]],[[[-78.46583,8.44317],[-78.46545,8.44473],[-78.46657,8.44432],[-78.46583,8.44317]]],[[[-78.62431,8.6419],[-78.627,8.64474],[-78.63204,8.64263],[-78.63439,8.6388],[-78.63378,8.6354],[-78.62937,8.63538],[-78.62584,8.6382],[-78.62431,8.6419]]],[[[-78.63005,8.65824],[-78.62994,8.65943],[-78.63122,8.659],[-78.63005,8.65824]]],[[[-78.63127,8.66313],[-78.63473,8.66385],[-78.63739,8.66159],[-78.63689,8.65862],[-78.62907,8.66151],[-78.63127,8.66313]]],[[[-78.78238,8.81462],[-78.78489,8.82069],[-78.7851,8.82494],[-78.78326,8.82654],[-78.78976,8.8305],[-78.79291,8.82904],[-78.81541,8.82527],[-78.81886,8.82181],[-78.81605,8.81584],[-78.81246,8.81502],[-78.80427,8.80638],[-78.80753,8.79361],[-78.80646,8.7912],[-78.80153,8.79395],[-78.79785,8.79406],[-78.78946,8.80075],[-78.78217,8.81077],[-78.78238,8.81462]]],[[[-78.46176,8.81914],[-78.47679,8.81916],[-78.49508,8.825],[-78.50407,8.81915],[-78.51154,8.82016],[-78.5164,8.81943],[-78.53313,8.82573],[-78.53623,8.82215],[-78.54395,8.82006],[-78.54816,8.82136],[-78.55265,8.82424],[-78.55229,8.83282],[-78.55534,8.83891],[-78.55818,8.85066],[-78.56421,8.85928],[-78.56843,8.87095],[-78.57398,8.87447],[-78.58277,8.87561],[-78.59786,8.88452],[-78.59857,8.89025],[-78.60442,8.89814],[-78.61254,8.90089],[-78.61509,8.9042],[-78.62043,8.90674],[-78.62332,8.9138],[-78.62865,8.91799],[-78.62765,8.93057],[-78.63069,8.93371],[-78.63854,8.9349],[-78.64269,8.9333],[-78.64666,8.93543],[-78.64853,8.93096],[-78.65739,8.92836],[-78.66372,8.93299],[-78.66849,8.94076],[-78.67327,8.94408],[-78.6781,8.94407],[-78.68367,8.93856],[-78.69409,8.94275],[-78.70044,8.9408],[-78.70783,8.94084],[-78.71282,8.93761],[-78.7317,8.94748],[-78.73418,8.95038],[-78.73817,8.95088],[-78.74927,8.94557],[-78.75102,8.94116],[-78.74957,8.93669],[-78.75746,8.9368],[-78.76703,8.93938],[-78.77287,8.93713],[-78.77815,8.93876],[-78.77686,8.94688],[-78.78347,8.95456],[-78.78683,8.96243],[-78.79208,8.96286],[-78.79862,8.96878],[-78.805,8.97057],[-78.81094,8.96571],[-78.8134,8.96548],[-78.81555,8.96258],[-78.82822,8.9617],[-78.83131,8.9577],[-78.83357,8.95738],[-78.83606,8.95457],[-78.83968,8.95366],[-78.84321,8.95536],[-78.84455,8.95294],[-78.84805,8.95217],[-78.84984,8.95484],[-78.85764,8.95189],[-78.86176,8.95212],[-78.8635,8.94932],[-78.86678,8.95138],[-78.86964,8.94987],[-78.8729,8.95156],[-78.87536,8.94951],[-78.88072,8.95109],[-78.88494,8.94961],[-78.88825,8.95224],[-78.89136,8.95142],[-78.89257,8.95383],[-78.90106,8.95105],[-78.90134,8.94824],[-78.90511,8.94844],[-78.90431,8.94471],[-78.90689,8.94283],[-78.91141,8.94157],[-78.91439,8.93763],[-78.91331,8.93168],[-78.91436,8.92962],[-78.91345,8.92617],[-78.91401,8.92155],[-78.91009,8.92251],[-78.90607,8.91748],[-78.90665,8.91244],[-78.90475,8.90531],[-78.90009,8.90366],[-78.89659,8.90439],[-78.89659,8.90048],[-78.89334,8.90088],[-78.88866,8.89844],[-78.88728,8.89082],[-78.88261,8.88866],[-78.8809,8.88513],[-78.88133,8.8819],[-78.87926,8.87662],[-78.87665,8.87474],[-78.87793,8.86677],[-78.8729,8.86144],[-78.87222,8.85284],[-78.86294,8.83846],[-78.86277,8.82998],[-78.85693,8.82622],[-78.85213,8.81943],[-78.84528,8.81332],[-78.83651,8.80831],[-78.83382,8.80864],[-78.82907,8.81395],[-78.82585,8.82106],[-78.82118,8.82706],[-78.81579,8.8295],[-78.80336,8.83153],[-78.79925,8.83047],[-78.79756,8.83161],[-78.80097,8.84399],[-78.79867,8.84843],[-78.80021,8.85566],[-78.8002,8.86119],[-78.80414,8.86305],[-78.81046,8.86295],[-78.81592,8.86014],[-78.81942,8.8565],[-78.82176,8.85683],[-78.81012,8.86475],[-78.81284,8.86675],[-78.8123,8.87187],[-78.80832,8.87181],[-78.80041,8.86657],[-78.79843,8.86266],[-78.79673,8.86241],[-78.798,8.85629],[-78.7955,8.84766],[-78.79319,8.85152],[-78.79117,8.84618],[-78.78437,8.84273],[-78.78245,8.83723],[-78.7827,8.83343],[-78.77902,8.83098],[-78.77353,8.831],[-78.76951,8.82995],[-78.75601,8.83411],[-78.76013,8.83102],[-78.76241,8.83186],[-78.77008,8.82847],[-78.77867,8.82811],[-78.78201,8.82158],[-78.78103,8.81706],[-78.77124,8.81558],[-78.75762,8.80688],[-78.75302,8.81258],[-78.75559,8.81959],[-78.75432,8.82345],[-78.75156,8.81219],[-78.75575,8.80268],[-78.75283,8.80045],[-78.75693,8.79757],[-78.75393,8.78518],[-78.75462,8.78135],[-78.75297,8.7805],[-78.75345,8.77263],[-78.74475,8.77146],[-78.74222,8.76799],[-78.73951,8.76664],[-78.73917,8.76016],[-78.73247,8.76023],[-78.72601,8.75555],[-78.71168,8.75247],[-78.71163,8.75841],[-78.7189,8.76394],[-78.71537,8.76385],[-78.71461,8.7617],[-78.71035,8.75838],[-78.70427,8.76077],[-78.70334,8.75273],[-78.70075,8.75187],[-78.69498,8.75197],[-78.69123,8.74927],[-78.68427,8.75142],[-78.68144,8.75699],[-78.68009,8.74996],[-78.67358,8.74476],[-78.67386,8.74173],[-78.67039,8.73894],[-78.6746,8.73641],[-78.67384,8.73255],[-78.66485,8.73336],[-78.66543,8.73176],[-78.67257,8.73118],[-78.67603,8.72705],[-78.68119,8.72459],[-78.6756,8.7207],[-78.66557,8.71023],[-78.66238,8.70879],[-78.66242,8.71285],[-78.6655,8.71608],[-78.65924,8.72184],[-78.65603,8.72811],[-78.64955,8.73334],[-78.64108,8.7336],[-78.63663,8.73176],[-78.63223,8.72785],[-78.62628,8.73041],[-78.62697,8.73943],[-78.62134,8.7561],[-78.62716,8.76346],[-78.62786,8.76995],[-78.63277,8.77507],[-78.63101,8.77962],[-78.63356,8.78424],[-78.62921,8.78411],[-78.62742,8.78701],[-78.62273,8.78891],[-78.62198,8.79488],[-78.62379,8.80131],[-78.62261,8.80696],[-78.6215,8.78868],[-78.62906,8.78315],[-78.63205,8.78326],[-78.6293,8.77761],[-78.63125,8.77397],[-78.62759,8.77157],[-78.62536,8.76347],[-78.61879,8.75574],[-78.61899,8.75973],[-78.62385,8.76479],[-78.62555,8.77109],[-78.62107,8.77597],[-78.61995,8.77511],[-78.62492,8.77025],[-78.62053,8.76664],[-78.61741,8.76142],[-78.61768,8.75193],[-78.62184,8.74342],[-78.62198,8.73121],[-78.62553,8.72645],[-78.6305,8.72465],[-78.63245,8.7224],[-78.63377,8.71679],[-78.64037,8.70814],[-78.63594,8.70429],[-78.63486,8.69943],[-78.6378,8.69425],[-78.63523,8.69341],[-78.63323,8.68971],[-78.63032,8.69238],[-78.62696,8.69092],[-78.62611,8.68286],[-78.62176,8.67797],[-78.6223,8.67561],[-78.61803,8.67456],[-78.61528,8.67695],[-78.61696,8.6808],[-78.61546,8.68261],[-78.61565,8.68661],[-78.61078,8.68284],[-78.61033,8.68683],[-78.6078,8.6874],[-78.60489,8.68497],[-78.60416,8.68883],[-78.59215,8.69589],[-78.60005,8.68864],[-78.58723,8.68208],[-78.57874,8.67432],[-78.57451,8.67689],[-78.57498,8.68692],[-78.57303,8.68865],[-78.57294,8.67948],[-78.57515,8.67194],[-78.57995,8.6674],[-78.57651,8.66309],[-78.5715,8.66159],[-78.56074,8.65404],[-78.55584,8.6525],[-78.5529,8.65029],[-78.54475,8.64814],[-78.54113,8.65384],[-78.54208,8.65895],[-78.54614,8.66326],[-78.55299,8.66532],[-78.55484,8.67159],[-78.55289,8.6736],[-78.55237,8.68071],[-78.5502,8.68127],[-78.55243,8.66685],[-78.54505,8.66472],[-78.54013,8.6596],[-78.53697,8.66108],[-78.53935,8.64687],[-78.5298,8.64592],[-78.52556,8.64636],[-78.52497,8.64398],[-78.52065,8.64054],[-78.52008,8.63866],[-78.52333,8.63655],[-78.52262,8.63236],[-78.52423,8.63101],[-78.52014,8.6249],[-78.52012,8.61958],[-78.52406,8.61694],[-78.52221,8.61253],[-78.52501,8.61137],[-78.52353,8.6058],[-78.52167,8.6039],[-78.51557,8.60359],[-78.5146,8.59931],[-78.51117,8.59932],[-78.50909,8.59637],[-78.51136,8.59443],[-78.5062,8.58903],[-78.50305,8.58327],[-78.49637,8.58059],[-78.50042,8.57846],[-78.503,8.57977],[-78.50497,8.5755],[-78.50466,8.57224],[-78.50229,8.56952],[-78.49676,8.57315],[-78.49899,8.56654],[-78.49595,8.55771],[-78.50296,8.56727],[-78.50576,8.56916],[-78.50843,8.57823],[-78.51065,8.58116],[-78.51249,8.57794],[-78.51521,8.58077],[-78.51959,8.58755],[-78.52672,8.59122],[-78.53461,8.58625],[-78.53665,8.58764],[-78.54178,8.58757],[-78.54157,8.57947],[-78.53649,8.57746],[-78.5316,8.5714],[-78.53403,8.56946],[-78.52914,8.56483],[-78.52781,8.55783],[-78.53103,8.5563],[-78.52512,8.55284],[-78.52257,8.55356],[-78.51074,8.54484],[-78.50587,8.54227],[-78.51118,8.54047],[-78.51205,8.53495],[-78.51363,8.53194],[-78.51148,8.52946],[-78.50281,8.52756],[-78.50089,8.52412],[-78.49855,8.52518],[-78.49638,8.52221],[-78.49779,8.51919],[-78.49591,8.50857],[-78.49923,8.50688],[-78.50385,8.50149],[-78.50969,8.50433],[-78.51058,8.49879],[-78.50686,8.49509],[-78.50596,8.48942],[-78.49823,8.48237],[-78.50009,8.47618],[-78.50521,8.47705],[-78.5077,8.4753],[-78.50767,8.47068],[-78.50527,8.46839],[-78.50305,8.46018],[-78.49811,8.45377],[-78.49726,8.4501],[-78.49056,8.4466],[-78.47777,8.43606],[-78.47419,8.42974],[-78.46967,8.43214],[-78.46951,8.43387],[-78.47596,8.43681],[-78.47415,8.4457],[-78.47228,8.45019],[-78.46882,8.4491],[-78.46636,8.45095],[-78.46381,8.46263],[-78.46319,8.44938],[-78.46028,8.44558],[-78.45663,8.44401],[-78.45692,8.44083],[-78.46053,8.43964],[-78.4603,8.43605],[-78.45562,8.43536],[-78.4573,8.43055],[-78.46431,8.4323],[-78.45971,8.42574],[-78.45352,8.42192],[-78.45032,8.41752],[-78.45232,8.41325],[-78.45222,8.40877],[-78.45032,8.40602],[-78.45493,8.4032],[-78.4553,8.40066],[-78.45007,8.39463],[-78.44959,8.38506],[-78.4478,8.38725],[-78.44486,8.38757],[-78.44187,8.38578],[-78.43902,8.38711],[-78.437,8.38542],[-78.43884,8.38266],[-78.43022,8.37146],[-78.43044,8.36722],[-78.42323,8.36325],[-78.42394,8.35966],[-78.42025,8.3472],[-78.41492,8.35632],[-78.41891,8.37649],[-78.41791,8.40355],[-78.42108,8.42863],[-78.4249,8.44463],[-78.43403,8.47749],[-78.44147,8.49035],[-78.44687,8.49363],[-78.45128,8.50154],[-78.45228,8.50681],[-78.45137,8.51673],[-78.45589,8.52771],[-78.45758,8.5304],[-78.4629,8.53336],[-78.46634,8.5386],[-78.46725,8.5521],[-78.47834,8.57699],[-78.47985,8.59807],[-78.48374,8.60547],[-78.47674,8.60956],[-78.4691,8.61741],[-78.47042,8.62322],[-78.46859,8.62863],[-78.46926,8.63596],[-78.47233,8.63938],[-78.46958,8.6463],[-78.47523,8.65194],[-78.47967,8.66035],[-78.48938,8.66254],[-78.49534,8.66675],[-78.49652,8.66914],[-78.4963,8.67455],[-78.49291,8.68565],[-78.49382,8.68715],[-78.50397,8.69043],[-78.50843,8.69909],[-78.50938,8.70463],[-78.49926,8.73343],[-78.49842,8.74539],[-78.49604,8.74794],[-78.49095,8.74632],[-78.48459,8.74771],[-78.48278,8.74985],[-78.48296,8.75384],[-78.47708,8.75556],[-78.47187,8.7592],[-78.47068,8.76227],[-78.47262,8.76539],[-78.46726,8.76696],[-78.46762,8.77536],[-78.46515,8.78381],[-78.46628,8.78828],[-78.45898,8.80369],[-78.46176,8.81914]]]]}}