{"type":"Feature","properties":{"id":"ARM.5.2","name":"Ararat","level":2,"country":"ARM"},"geometry":{"type":"Polygon","coordinates":[[[44.83944,40.14132],[44.83479,40.12166],[44.88971,40.12669],[44.89298,40.10024],[44.91667,40.10356],[44.90379,40.07296],[44.87583,40.0597],[44.86618,40.04232],[44.87266,40.03159],[44.84684,40.03073],[44.82537,40.01416],[44.81671,40.03317],[44.79101,39.99922],[44.76518,40.00496],[44.74586,39.99582],[44.68889,39.99403],[44.67824,39.9725],[44.63544,39.93599],[44.6097,39.93012],[44.5968,39.9309],[44.57323,39.92172],[44.57764,39.90272],[44.55303,39.90081],[44.55085,39.88709],[44.57605,39.86294],[44.59072,39.86135],[44.5961,39.84294],[44.58946,39.83404],[44.60262,39.82191],[44.61311,39.82929],[44.63428,39.80688],[44.64995,39.80089],[44.65838,39.79115],[44.67902,39.78803],[44.69089,39.77063],[44.71022,39.77101],[44.72227,39.74252],[44.74443,39.74433],[44.74376,39.73412],[44.75378,39.71462],[44.78571,39.72071],[44.85314,39.7364],[44.87801,39.73752],[44.88694,39.74872],[44.90399,39.74182],[44.91254,39.72966],[44.94024,39.72517],[44.96069,39.7321],[44.98185,39.7445],[45.00885,39.7502],[45.01184,39.76281],[45.03856,39.77323],[45.05023,39.79088],[45.07034,39.78879],[45.07591,39.80692],[45.07683,39.82743],[45.08948,39.83993],[45.10842,39.84721],[45.10574,39.8632],[45.11208,39.87709],[45.11876,39.91149],[45.11245,39.9328],[45.11022,39.95794],[45.12388,39.98203],[45.12163,39.99704],[45.10392,39.99531],[45.07351,40.00302],[45.06988,40.00721],[45.07036,40.03585],[45.03672,40.04948],[45.02037,40.06555],[45.02037,40.08021],[45.03141,40.09784],[45.01132,40.11046],[45.02457,40.12168],[45.03188,40.14094],[45.02504,40.16653],[44.98441,40.17213],[44.95033,40.17222],[44.93368,40.16407],[44.86771,40.15065],[44.83944,40.14132]]]}}