{"type":"Feature","properties":{"id":"MAR.9","name":"Tadla - Azilal","level":1,"country":"MAR"},"geometry":{"type":"Polygon","coordinates":[[[-6.04167,32.79306],[-6.09174,32.7473],[-6.29209,32.7018],[-6.57861,32.721],[-6.66137,32.68478],[-6.85761,32.69059],[-6.99541,32.61005],[-7.06972,32.40727],[-7.12666,32.3466],[-7.09773,32.06549],[-7.0276,31.88185],[-7.08052,31.78586],[-7.22392,31.75935],[-7.28443,31.69693],[-7.14995,31.56211],[-7.18645,31.44718],[-6.98368,31.3731],[-6.80387,31.39227],[-6.70256,31.49472],[-6.48112,31.57415],[-6.05629,31.75279],[-5.80592,31.93025],[-5.85961,32.01342],[-5.82106,32.1021],[-5.63787,32.21473],[-5.46842,32.26209],[-5.52728,32.38994],[-5.43731,32.50794],[-5.77473,32.64318],[-5.89945,32.74413],[-6.04167,32.79306]]]}}