{"type":"Feature","properties":{"id":"YEM.8.11","name":"Halmin","level":2,"country":"YEM"},"geometry":{"type":"Polygon","coordinates":[[[45.07386,13.80933],[45.05349,13.80789],[45.04461,13.80366],[44.99453,13.79197],[44.97939,13.77553],[44.96043,13.76783],[44.95644,13.75625],[44.94208,13.74435],[44.91926,13.7438],[44.88911,13.73073],[44.88302,13.71717],[44.87231,13.71157],[44.8605,13.71455],[44.83803,13.73432],[44.82486,13.73702],[44.80708,13.72986],[44.80993,13.71322],[44.82143,13.69574],[44.82441,13.65004],[44.83466,13.61685],[44.83153,13.59353],[44.86917,13.5826],[44.87001,13.59635],[44.87932,13.61498],[44.91161,13.6343],[44.92398,13.64725],[44.94332,13.6742],[44.97035,13.68923],[44.98925,13.69509],[45.00582,13.69593],[45.023,13.70164],[45.06053,13.73147],[45.09919,13.7594],[45.09236,13.77257],[45.06926,13.78971],[45.07386,13.80933]]]}}