{"type":"Feature","properties":{"id":"YEM.5.17","name":"Hajjah","level":2,"country":"YEM"},"geometry":{"type":"MultiPolygon","coordinates":[[[[43.58067,15.61806],[43.58705,15.63017],[43.59641,15.62845],[43.60534,15.61702],[43.62493,15.60589],[43.63557,15.6102],[43.64496,15.62683],[43.64752,15.64233],[43.65846,15.65774],[43.65048,15.67409],[43.65226,15.69027],[43.64142,15.69322],[43.63454,15.68616],[43.61996,15.64508],[43.59979,15.66371],[43.55838,15.67251],[43.56653,15.65616],[43.57199,15.63626],[43.56502,15.6314],[43.58067,15.61806]]],[[[43.44317,15.70887],[43.42601,15.70281],[43.42102,15.69604],[43.43171,15.68682],[43.44756,15.65975],[43.47206,15.64118],[43.47497,15.66806],[43.50708,15.66734],[43.5068,15.67527],[43.48773,15.68882],[43.47112,15.69836],[43.44317,15.70887]]]]}}