{"type":"Feature","properties":{"id":"YEM.14.8","name":"Markhah As Sufla","level":2,"country":"YEM"},"geometry":{"type":"Polygon","coordinates":[[[46.21865,14.30468],[46.21112,14.32933],[46.20714,14.35347],[46.21688,14.37468],[46.21395,14.39845],[46.21167,14.44734],[46.21527,14.48819],[46.22085,14.52085],[46.23892,14.54699],[46.2446,14.56224],[46.25776,14.58261],[46.28957,14.61218],[46.32451,14.63436],[46.37782,14.65938],[46.42744,14.67116],[46.51101,14.69583],[46.54553,14.72283],[46.59788,14.82769],[46.52492,14.88103],[46.44031,15.01941],[46.39912,15.1105],[46.34585,15.1861],[46.20837,15.04097],[46.19007,15.02458],[46.16883,14.99964],[46.15251,14.98501],[46.17079,14.95695],[46.18609,14.91767],[46.18558,14.88042],[46.15701,14.86512],[46.0361,14.84471],[45.87285,14.75237],[45.81789,14.73561],[45.80552,14.68717],[45.79543,14.66464],[45.78504,14.64931],[45.87795,14.6607],[45.91206,14.66001],[45.93642,14.65026],[45.96698,14.64258],[46.0243,14.6457],[46.05243,14.63997],[46.07506,14.6315],[46.0833,14.62365],[46.08321,14.6125],[46.09089,14.59765],[46.08803,14.57895],[46.09309,14.57564],[46.09082,14.55061],[46.08596,14.53471],[46.05931,14.49987],[46.06475,14.47599],[46.06344,14.46447],[46.04051,14.42083],[46.01139,14.40515],[45.96401,14.37506],[45.93903,14.36135],[45.94798,14.3492],[45.97205,14.32709],[45.97733,14.31657],[45.96856,14.29445],[45.98145,14.26761],[45.98535,14.25149],[45.97959,14.24285],[45.98726,14.23012],[46.00495,14.21911],[46.04326,14.2058],[46.07431,14.21653],[46.11577,14.24957],[46.11954,14.26936],[46.12729,14.28451],[46.13712,14.28005],[46.15479,14.28052],[46.16415,14.27055],[46.17776,14.27039],[46.21865,14.30468]]]}}