{"type":"Feature","properties":{"id":"YEM.17.8","name":"As Sawm","level":2,"country":"YEM"},"geometry":{"type":"Polygon","coordinates":[[[49.84023,15.37795],[49.85879,15.37299],[49.9289,15.38821],[49.99576,15.39108],[50.01587,15.39683],[50.05004,15.41165],[50.10761,15.42595],[50.15619,15.43055],[50.18496,15.42878],[50.18783,15.43373],[50.2205,15.46012],[50.23049,15.47155],[50.23623,15.50188],[50.24208,15.50926],[50.25649,15.50728],[50.26668,15.51816],[50.27077,15.53875],[50.26824,15.55363],[50.27253,15.56926],[50.26337,15.58191],[50.26998,15.5891],[50.23467,15.5956],[50.20729,15.61167],[50.16595,15.60767],[50.14183,15.61511],[50.13096,15.62701],[50.11717,15.65305],[50.1169,15.66756],[50.13103,15.68801],[50.13375,15.7132],[50.12798,15.72733],[50.14003,15.7485],[50.14989,15.75001],[50.15571,15.76326],[50.15617,15.7844],[50.13896,15.80895],[50.14035,15.83487],[50.14914,15.86062],[50.16677,15.87025],[50.157,15.88601],[50.16303,15.89504],[50.15039,15.91557],[50.16022,15.92645],[50.1841,15.93811],[50.20167,15.9571],[50.20478,15.98284],[50.22026,16.00384],[50.22629,16.0256],[50.2302,16.03327],[50.26007,16.06903],[50.26288,16.07859],[50.2438,16.09378],[50.22789,16.1211],[50.21417,16.12675],[50.19355,16.14229],[50.15831,16.15465],[50.16407,16.18168],[50.16559,16.21789],[50.1735,16.23683],[50.1932,16.25419],[50.20015,16.27388],[50.19912,16.28912],[50.21155,16.3171],[50.21339,16.36965],[50.23852,16.4098],[50.23824,16.43001],[50.24917,16.45246],[50.2508,16.47286],[50.25969,16.48649],[50.25865,16.5056],[50.27042,16.51538],[50.24459,16.53824],[50.22016,16.5457],[50.21686,16.55818],[50.2343,16.57791],[50.23898,16.59317],[50.25988,16.60941],[50.24705,16.62333],[50.24395,16.63269],[50.2256,16.64273],[50.21784,16.65463],[50.17254,16.65728],[50.09699,16.65777],[50.06055,16.65865],[50.00363,16.66485],[49.98071,16.67044],[49.93675,16.67265],[49.90384,16.66975],[49.85148,16.66019],[49.80707,16.64516],[49.69611,16.59583],[49.62593,16.56756],[49.57074,16.54859],[49.54012,16.54144],[49.51244,16.53791],[49.46232,16.54104],[49.40687,16.54015],[49.37412,16.53376],[49.31491,16.51475],[49.25763,16.49394],[49.24289,16.4556],[49.2561,16.44041],[49.27742,16.43677],[49.28169,16.42635],[49.24485,16.4062],[49.23553,16.39399],[49.22471,16.35747],[49.22781,16.33675],[49.23812,16.31979],[49.22055,16.29993],[49.22389,16.27943],[49.21503,16.24494],[49.21291,16.21422],[49.21531,16.19397],[49.22813,16.14114],[49.23268,16.11166],[49.24294,16.0924],[49.27189,16.04958],[49.27881,16.0304],[49.28252,15.99474],[49.2723,15.96257],[49.24847,15.91529],[49.24761,15.90841],[49.25123,15.8475],[49.24942,15.80851],[49.28042,15.80583],[49.32865,15.81063],[49.37552,15.80809],[49.42561,15.81167],[49.45714,15.81149],[49.46987,15.80848],[49.4982,15.79389],[49.51441,15.77772],[49.52624,15.75659],[49.53201,15.73995],[49.54894,15.66409],[49.55366,15.61236],[49.55915,15.57323],[49.55392,15.55268],[49.56002,15.53947],[49.59856,15.49806],[49.6281,15.44627],[49.64094,15.42902],[49.66519,15.40395],[49.68861,15.3871],[49.69984,15.38787],[49.72841,15.4073],[49.76613,15.41987],[49.78557,15.42101],[49.80843,15.4153],[49.83242,15.39244],[49.84023,15.37795]]]}}