{"type":"Feature","properties":{"id":"YEM.2.14","name":"At Tuhayta","level":2,"country":"YEM"},"geometry":{"type":"MultiPolygon","coordinates":[[[[42.70059,13.96497],[42.70165,13.96813],[42.69869,13.96813],[42.70059,13.96497]]],[[[43.28636,13.90326],[43.27594,14.12498],[43.28987,14.14223],[43.29047,14.16784],[43.30067,14.17396],[43.30149,14.18739],[43.29596,14.19925],[43.29575,14.21443],[43.26502,14.21928],[43.12039,14.26159],[43.11351,14.27814],[43.05053,14.26442],[43.069,14.23258],[43.07619,14.20263],[43.07549,14.18266],[43.08806,14.15325],[43.08912,14.12388],[43.1085,14.08732],[43.10597,14.07441],[43.09738,14.06351],[43.11187,14.05621],[43.12248,14.0424],[43.1272,14.02617],[43.14629,14.00685],[43.1455,13.98675],[43.15552,13.97495],[43.16033,13.95317],[43.18966,13.93362],[43.20126,13.9173],[43.2006,13.9056],[43.21776,13.89727],[43.24111,13.90091],[43.28636,13.90326]]]]}}