{"type":"Feature","properties":{"id":"YEM.19.2","name":"Bilad Atta'am","level":2,"country":"YEM"},"geometry":{"type":"Polygon","coordinates":[[[43.57,14.94661],[43.5713,14.93214],[43.56715,14.9085],[43.5517,14.90034],[43.54208,14.89022],[43.50543,14.87614],[43.50031,14.86177],[43.49948,14.83954],[43.48483,14.83215],[43.47324,14.81583],[43.4819,14.79811],[43.49704,14.7563],[43.51371,14.7292],[43.55254,14.7309],[43.56243,14.75092],[43.58478,14.75541],[43.60156,14.75551],[43.61271,14.76211],[43.63059,14.78709],[43.64042,14.78603],[43.67582,14.75874],[43.6865,14.76051],[43.70728,14.78616],[43.73602,14.82703],[43.73349,14.85695],[43.72035,14.85319],[43.71557,14.86059],[43.70514,14.87279],[43.67937,14.88378],[43.66569,14.89589],[43.65856,14.91046],[43.64373,14.92612],[43.61852,14.93157],[43.58462,14.94641],[43.57,14.94661]]]}}