{"type":"Feature","properties":{"id":"YEM.6.2","name":"Jabal Eyal Yazid","level":2,"country":"YEM"},"geometry":{"type":"Polygon","coordinates":[[[43.9065,15.89185],[43.88762,15.88542],[43.88026,15.89405],[43.86475,15.89698],[43.84259,15.89462],[43.83028,15.92202],[43.8024,15.90588],[43.8043,15.88309],[43.81384,15.85579],[43.81814,15.80818],[43.83566,15.78732],[43.84324,15.76903],[43.83929,15.75893],[43.81844,15.75457],[43.79757,15.76229],[43.76514,15.74245],[43.76083,15.73086],[43.78182,15.71861],[43.78602,15.69355],[43.79566,15.66533],[43.80282,15.64239],[43.81511,15.63158],[43.84139,15.62952],[43.87233,15.61782],[43.87745,15.63645],[43.89651,15.66158],[43.91253,15.66727],[43.91582,15.68572],[43.93336,15.69972],[43.9472,15.72693],[43.96608,15.72652],[43.98422,15.72078],[44.00106,15.73822],[44.00621,15.73841],[44.01337,15.74945],[44.02569,15.75687],[44.03621,15.78301],[44.03245,15.79672],[44.02373,15.79975],[43.99401,15.79777],[43.96488,15.78844],[43.94374,15.81107],[43.92964,15.8516],[43.92893,15.87372],[43.91492,15.87928],[43.9065,15.89185]]]}}