{"type":"Feature","properties":{"id":"PSE.1.2","name":"Khan Yunis","level":2,"country":"PSE"},"geometry":{"type":"Polygon","coordinates":[[[34.32585,31.25739],[34.33662,31.26764],[34.34297,31.27842],[34.36665,31.29],[34.37023,31.29636],[34.37377,31.30728],[34.36544,31.36158],[34.36729,31.36889],[34.37195,31.36973],[34.37368,31.37394],[34.35898,31.37739],[34.35011,31.38846],[34.34564,31.39092],[34.34099,31.38479],[34.33314,31.39082],[34.32344,31.39049],[34.32031,31.39696],[34.31116,31.40283],[34.29952,31.3943],[34.27685,31.37241],[34.24212,31.34302],[34.25378,31.33314],[34.25764,31.33683],[34.26338,31.33047],[34.26959,31.31984],[34.27625,31.32468],[34.28469,31.31663],[34.28245,31.3108],[34.27718,31.3041],[34.28307,31.29861],[34.28615,31.29942],[34.29694,31.29343],[34.30517,31.29322],[34.31533,31.29516],[34.31342,31.28791],[34.31551,31.28646],[34.31937,31.27256],[34.32406,31.2731],[34.3294,31.26428],[34.32459,31.26085],[34.32585,31.25739]]]}}