{"type":"Feature","properties":{"id":"PSE.2.3","name":"Jericho & Al Aghwar","level":2,"country":"PSE"},"geometry":{"type":"Polygon","coordinates":[[[35.56913,32.19041],[35.56052,32.1924],[35.55521,32.1958],[35.54969,32.194],[35.54499,32.1954],[35.53771,32.1943],[35.53219,32.19057],[35.52926,32.18465],[35.52331,32.17987],[35.51784,32.18289],[35.51117,32.17918],[35.49873,32.18353],[35.49243,32.18951],[35.48437,32.18938],[35.47522,32.18],[35.47136,32.18001],[35.46556,32.17615],[35.46294,32.17779],[35.45632,32.16955],[35.44811,32.17003],[35.44099,32.17331],[35.43854,32.17727],[35.4402,32.18659],[35.43884,32.18939],[35.42931,32.18752],[35.4288,32.17998],[35.43309,32.17652],[35.43418,32.17226],[35.42797,32.16909],[35.42771,32.16424],[35.41894,32.16221],[35.41404,32.15704],[35.41313,32.13935],[35.41024,32.12948],[35.41011,32.11738],[35.4134,32.11344],[35.42044,32.10932],[35.42062,32.10631],[35.41181,32.09927],[35.4058,32.09778],[35.40088,32.1003],[35.40016,32.10621],[35.39196,32.10326],[35.39047,32.09768],[35.38094,32.09507],[35.38028,32.08655],[35.38537,32.06882],[35.38897,32.06665],[35.40422,32.0515],[35.41647,32.05115],[35.4206,32.04595],[35.42649,32.04372],[35.42693,32.03299],[35.42582,32.01036],[35.42805,31.99524],[35.43133,31.99024],[35.4019,31.98627],[35.41207,31.98252],[35.41234,31.97092],[35.40929,31.96344],[35.39802,31.95365],[35.40247,31.94719],[35.39924,31.94045],[35.40333,31.93628],[35.4011,31.93035],[35.40582,31.92563],[35.39758,31.92002],[35.4071,31.91832],[35.40679,31.91211],[35.41136,31.90814],[35.41308,31.89889],[35.41126,31.8929],[35.40401,31.88796],[35.39774,31.88679],[35.39597,31.87897],[35.40175,31.86695],[35.40004,31.8613],[35.40437,31.8534],[35.40394,31.84318],[35.40002,31.8369],[35.39431,31.83431],[35.37532,31.83548],[35.36163,31.81576],[35.36435,31.80693],[35.37368,31.80967],[35.38811,31.79573],[35.37053,31.79284],[35.36808,31.79121],[35.3785,31.78277],[35.38431,31.78314],[35.38856,31.77785],[35.39691,31.77696],[35.40141,31.77311],[35.407,31.77161],[35.41815,31.7772],[35.42673,31.77797],[35.43138,31.78026],[35.43976,31.77988],[35.44513,31.78391],[35.45215,31.78505],[35.45983,31.78442],[35.46506,31.77875],[35.47123,31.77685],[35.47546,31.77254],[35.47798,31.75961],[35.4848,31.75201],[35.49172,31.74033],[35.50165,31.75427],[35.50394,31.76338],[35.50684,31.7668],[35.52173,31.7632],[35.52767,31.76488],[35.54526,31.76053],[35.55567,31.76066],[35.55885,31.76349],[35.55401,31.76808],[35.55486,31.77209],[35.5484,31.78073],[35.54827,31.7842],[35.55186,31.79274],[35.54647,31.80161],[35.54193,31.80554],[35.54115,31.81359],[35.54556,31.8215],[35.54864,31.82357],[35.54642,31.83327],[35.54708,31.84036],[35.53983,31.85125],[35.5394,31.85729],[35.54727,31.86833],[35.5434,31.87521],[35.53892,31.87972],[35.53244,31.88269],[35.53006,31.89062],[35.53246,31.89645],[35.52794,31.89921],[35.52428,31.90797],[35.52793,31.91643],[35.52724,31.9228],[35.5368,31.92527],[35.53607,31.93018],[35.54535,31.93546],[35.541,31.93807],[35.54503,31.94164],[35.54197,31.94764],[35.54022,31.95842],[35.54523,31.96235],[35.54168,31.96537],[35.54736,31.96929],[35.54132,31.97536],[35.53451,31.98573],[35.53577,31.99276],[35.54104,31.99592],[35.52943,32.00017],[35.52629,32.01363],[35.52897,32.01981],[35.52057,32.02192],[35.52271,32.03506],[35.52246,32.04169],[35.51928,32.04627],[35.52322,32.05023],[35.52981,32.05032],[35.52878,32.05851],[35.53065,32.05975],[35.52987,32.07129],[35.53517,32.06915],[35.53506,32.07681],[35.54254,32.08024],[35.54377,32.08794],[35.53901,32.0946],[35.53987,32.09666],[35.532,32.10795],[35.53849,32.11048],[35.54268,32.11476],[35.55057,32.12649],[35.54697,32.13141],[35.5427,32.13052],[35.54308,32.14059],[35.55137,32.14504],[35.55885,32.14454],[35.55903,32.1524],[35.55217,32.15629],[35.55327,32.16145],[35.55771,32.16434],[35.55999,32.17514],[35.55821,32.18427],[35.56391,32.18908],[35.56913,32.19041]]]}}