{"type":"Feature","properties":{"id":"PRY.11","name":"Ñeembucú","level":1,"country":"PRY"},"geometry":{"type":"Polygon","coordinates":[[[-57.81966,-25.84978],[-57.87535,-25.87615],[-57.86331,-25.92761],[-57.90584,-25.96865],[-57.87272,-26.0103],[-57.98821,-26.08854],[-58.0865,-26.12719],[-58.12402,-26.20191],[-58.12329,-26.25152],[-58.16996,-26.27033],[-58.1727,-26.34929],[-58.20618,-26.40273],[-58.21337,-26.54453],[-58.16495,-26.59228],[-58.23554,-26.64984],[-58.24794,-26.75816],[-58.27481,-26.79836],[-58.35238,-26.83051],[-58.32892,-26.88415],[-58.45981,-26.92817],[-58.46663,-26.97592],[-58.51154,-27.06016],[-58.54544,-27.04104],[-58.56549,-27.11597],[-58.65329,-27.15627],[-58.65236,-27.19803],[-58.60156,-27.24567],[-58.60016,-27.31296],[-58.51076,-27.27844],[-58.23822,-27.25704],[-58.12882,-27.26965],[-58.02196,-27.25983],[-57.69779,-27.33352],[-57.53568,-27.40721],[-57.48767,-27.41641],[-57.3867,-27.40349],[-57.31012,-27.42921],[-57.29135,-27.36153],[-57.20206,-27.13385],[-57.23219,-27.07271],[-57.42173,-27.04429],[-57.53682,-26.92373],[-57.61973,-26.818],[-57.63482,-26.78085],[-57.70549,-26.4125],[-57.66451,-26.3773],[-57.61415,-26.2941],[-57.48124,-26.17432],[-57.50359,-26.01107],[-57.55961,-25.91309],[-57.70384,-25.80974],[-57.78052,-25.81496],[-57.81966,-25.84978]]]}}