{"type":"Feature","properties":{"id":"TWN.3.26","name":"Guantian","level":2,"country":"TWN"},"geometry":{"type":"Polygon","coordinates":[[[120.29298,23.22321],[120.28694,23.21616],[120.28994,23.20224],[120.2874,23.19269],[120.29122,23.18827],[120.28984,23.17608],[120.29913,23.17635],[120.32012,23.16856],[120.33135,23.15966],[120.34544,23.15145],[120.3527,23.15123],[120.36152,23.15663],[120.36236,23.16106],[120.37045,23.1649],[120.38514,23.16513],[120.39148,23.16335],[120.39714,23.17337],[120.40287,23.17601],[120.40841,23.17441],[120.4149,23.17842],[120.42263,23.19372],[120.43003,23.2007],[120.42096,23.20102],[120.41587,23.20454],[120.39753,23.20701],[120.39287,23.20646],[120.38612,23.19872],[120.38057,23.19585],[120.37036,23.21017],[120.37095,23.21539],[120.35624,23.21597],[120.34973,23.2133],[120.34284,23.21444],[120.34114,23.22293],[120.32755,23.22848],[120.3131,23.22838],[120.30955,23.22611],[120.29298,23.22321]]]}}