{"type":"Feature","properties":{"id":"TWN.2.10","name":"Hengchun","level":2,"country":"TWN"},"geometry":{"type":"Polygon","coordinates":[[[120.78455,22.05036],[120.77088,22.05572],[120.76982,22.05971],[120.75338,22.06277],[120.74754,22.05023],[120.73818,22.0477],[120.73328,22.05256],[120.72427,22.05282],[120.71263,22.04948],[120.70586,22.04434],[120.69997,22.0339],[120.69087,22.03182],[120.69081,22.02572],[120.69833,22.00998],[120.69254,22.00958],[120.69894,21.99863],[120.70656,21.99556],[120.70809,21.98768],[120.71421,21.98099],[120.71589,21.97268],[120.7125,21.96521],[120.71013,21.93961],[120.71103,21.93469],[120.71926,21.93302],[120.71919,21.92753],[120.7281,21.91876],[120.73951,21.9196],[120.73947,21.92718],[120.74621,21.93284],[120.74531,21.9431],[120.7488,21.95052],[120.75639,21.957],[120.76611,21.95922],[120.77062,21.95241],[120.78257,21.94439],[120.79646,21.94367],[120.8035,21.94114],[120.81009,21.9342],[120.82208,21.93475],[120.83187,21.92469],[120.83607,21.91673],[120.84676,21.91349],[120.8486,21.90037],[120.85984,21.89691],[120.86631,21.90062],[120.86104,21.90734],[120.86119,21.9166],[120.84799,21.93558],[120.84085,21.95015],[120.84105,21.96362],[120.84391,21.96785],[120.84404,21.97887],[120.83436,21.97078],[120.82849,21.97035],[120.82426,21.975],[120.81854,21.97392],[120.81471,21.98057],[120.80487,21.97999],[120.79317,21.98218],[120.77075,21.9794],[120.77073,21.98585],[120.77967,21.99003],[120.78658,21.9985],[120.7852,22.00971],[120.7776,22.01415],[120.77243,22.02369],[120.78491,22.02501],[120.78604,22.03049],[120.79331,22.03749],[120.79046,22.04462],[120.78455,22.05036]]]}}