{"type":"Feature","properties":{"id":"TWN.16.5","name":"Yuchi Town","level":2,"country":"TWN"},"geometry":{"type":"Polygon","coordinates":[[[120.99079,23.89533],[120.98426,23.90067],[120.98449,23.90731],[120.96746,23.91816],[120.96514,23.93043],[120.95803,23.92834],[120.9538,23.93173],[120.94426,23.93321],[120.93416,23.92849],[120.92866,23.9234],[120.91687,23.92793],[120.90946,23.92276],[120.89326,23.93304],[120.8875,23.92529],[120.87976,23.92507],[120.87624,23.91162],[120.86559,23.90768],[120.87284,23.88253],[120.87676,23.87582],[120.87108,23.86366],[120.87191,23.85571],[120.8803,23.8556],[120.87925,23.84857],[120.88212,23.8417],[120.87749,23.83401],[120.87284,23.83135],[120.86729,23.82191],[120.87385,23.8131],[120.88173,23.81308],[120.89203,23.80986],[120.89645,23.814],[120.90457,23.81381],[120.91534,23.82739],[120.93331,23.82948],[120.93418,23.83657],[120.94114,23.84306],[120.95269,23.84844],[120.95882,23.84544],[120.96372,23.83836],[120.96763,23.84211],[120.97628,23.83786],[120.99257,23.83935],[120.99578,23.84622],[120.99306,23.86281],[120.98727,23.87387],[120.98135,23.87873],[120.9804,23.88342],[120.99076,23.88548],[120.9882,23.89057],[120.99079,23.89533]]]}}