{"type":"Feature","properties":{"id":"TWN.17.21","name":"Daya District","level":2,"country":"TWN"},"geometry":{"type":"Polygon","coordinates":[[[120.68136,24.23211],[120.67473,24.23307],[120.67518,24.24309],[120.65304,24.25131],[120.64407,24.24316],[120.64203,24.24826],[120.63317,24.25927],[120.62426,24.25125],[120.62338,24.23955],[120.61709,24.23558],[120.6057,24.23919],[120.59632,24.21415],[120.62143,24.20863],[120.63572,24.20391],[120.64591,24.20419],[120.65177,24.20985],[120.66482,24.20715],[120.66447,24.20157],[120.66982,24.20365],[120.67866,24.21754],[120.67424,24.22282],[120.68136,24.23211]]]}}