{"type":"Feature","properties":{"id":"TWN.17.14","name":"Houli District","level":2,"country":"TWN"},"geometry":{"type":"Polygon","coordinates":[[[120.76449,24.32573],[120.75816,24.32879],[120.73065,24.35165],[120.72434,24.35409],[120.71827,24.35583],[120.71844,24.3451],[120.71434,24.33768],[120.71475,24.33098],[120.70125,24.33261],[120.70063,24.32706],[120.68893,24.3218],[120.67295,24.31678],[120.65091,24.31493],[120.65093,24.3071],[120.64634,24.29914],[120.65814,24.29178],[120.68314,24.2847],[120.71271,24.28365],[120.74824,24.28064],[120.74893,24.28734],[120.76369,24.29077],[120.7635,24.31431],[120.75856,24.31873],[120.76449,24.32573]]]}}