{"type":"Feature","properties":{"id":"TWN.2.14","name":"Wandan","level":2,"country":"TWN"},"geometry":{"type":"Polygon","coordinates":[[[120.44076,22.55759],[120.45346,22.55777],[120.47317,22.5607],[120.48066,22.55935],[120.48103,22.55178],[120.47534,22.54408],[120.4782,22.53105],[120.48444,22.5267],[120.49163,22.52917],[120.49684,22.53927],[120.50421,22.54273],[120.50605,22.54902],[120.5032,22.55534],[120.49796,22.55873],[120.49075,22.55891],[120.48724,22.56504],[120.49949,22.57268],[120.50609,22.57392],[120.51056,22.58126],[120.51498,22.58275],[120.52282,22.59423],[120.52268,22.59716],[120.50685,22.61609],[120.50796,22.62072],[120.50632,22.62487],[120.50368,22.61918],[120.49305,22.61929],[120.49248,22.62314],[120.48071,22.62076],[120.48036,22.63026],[120.47146,22.62621],[120.45868,22.63015],[120.44124,22.62764],[120.4353,22.62878],[120.43352,22.62324],[120.43464,22.61342],[120.438,22.60671],[120.4451,22.6003],[120.44704,22.586],[120.44441,22.56989],[120.44076,22.55759]]]}}