{"type":"Feature","properties":{"id":"HUN.14.7","name":"Kazincbarcika","level":2,"country":"HUN"},"geometry":{"type":"Polygon","coordinates":[[[20.62925,48.42785],[20.61172,48.39649],[20.59809,48.39971],[20.59265,48.38989],[20.60024,48.37608],[20.60993,48.37519],[20.62091,48.3602],[20.62008,48.35183],[20.63132,48.34598],[20.62927,48.33458],[20.60836,48.32268],[20.61444,48.31613],[20.60853,48.30973],[20.59387,48.31525],[20.57052,48.31708],[20.55586,48.32299],[20.54827,48.31737],[20.53412,48.32136],[20.50795,48.32436],[20.50706,48.31294],[20.51587,48.3018],[20.50997,48.29463],[20.50666,48.2783],[20.5099,48.27217],[20.5224,48.27049],[20.52038,48.2591],[20.50552,48.25814],[20.4888,48.2515],[20.47911,48.25124],[20.4422,48.23493],[20.46195,48.22784],[20.46749,48.22207],[20.45915,48.20884],[20.43885,48.195],[20.44931,48.18154],[20.44895,48.16823],[20.44338,48.15116],[20.45914,48.14488],[20.46843,48.13106],[20.47795,48.12561],[20.48441,48.11259],[20.4836,48.10347],[20.49179,48.11212],[20.50792,48.11991],[20.53189,48.12304],[20.53101,48.13181],[20.54945,48.14033],[20.54588,48.15484],[20.56835,48.16445],[20.58237,48.17922],[20.56834,48.18387],[20.56462,48.19305],[20.58026,48.20198],[20.58859,48.21406],[20.59997,48.21353],[20.61547,48.21751],[20.62995,48.20703],[20.64376,48.21141],[20.67055,48.21218],[20.68227,48.20441],[20.70093,48.20034],[20.71125,48.18458],[20.73568,48.18309],[20.75239,48.18932],[20.74415,48.19858],[20.75601,48.21287],[20.75006,48.22247],[20.76743,48.23098],[20.76535,48.2371],[20.73921,48.2569],[20.70925,48.26494],[20.70094,48.27268],[20.69898,48.2826],[20.6875,48.29837],[20.67909,48.30306],[20.68401,48.33269],[20.68375,48.34258],[20.6696,48.34659],[20.66242,48.35431],[20.6439,48.36522],[20.6558,48.38028],[20.65384,48.39097],[20.64766,48.39448],[20.67497,48.40857],[20.67758,48.41881],[20.67237,48.43526],[20.66613,48.43686],[20.65374,48.42485],[20.64414,48.42879],[20.62925,48.42785]]]}}