{"type":"Feature","properties":{"id":"HUN.14.11","name":"Putnok","level":2,"country":"HUN"},"geometry":{"type":"Polygon","coordinates":[[[20.57301,48.53925],[20.54649,48.54429],[20.53747,48.52788],[20.52522,48.53039],[20.5191,48.53752],[20.50651,48.53442],[20.50249,48.51985],[20.50874,48.51586],[20.50471,48.49036],[20.49507,48.48767],[20.48867,48.47586],[20.47309,48.46615],[20.46982,48.45255],[20.45176,48.44856],[20.43452,48.43017],[20.41672,48.41899],[20.41461,48.41027],[20.42058,48.40414],[20.41265,48.38781],[20.40253,48.38257],[20.41148,48.37109],[20.40748,48.36282],[20.38412,48.35116],[20.38652,48.34775],[20.36856,48.32981],[20.37428,48.32699],[20.35791,48.30977],[20.33747,48.30167],[20.3281,48.28845],[20.32571,48.27279],[20.30656,48.27251],[20.31096,48.26559],[20.32154,48.2641],[20.3384,48.25402],[20.35279,48.25956],[20.35582,48.26677],[20.37389,48.26009],[20.38755,48.25917],[20.38278,48.25085],[20.36896,48.24568],[20.3594,48.2279],[20.3649,48.21984],[20.37913,48.2193],[20.38845,48.22757],[20.41513,48.22421],[20.42451,48.234],[20.4422,48.23493],[20.47911,48.25124],[20.4888,48.2515],[20.50552,48.25814],[20.52038,48.2591],[20.5224,48.27049],[20.5099,48.27217],[20.50666,48.2783],[20.50997,48.29463],[20.51587,48.3018],[20.50706,48.31294],[20.50795,48.32436],[20.53412,48.32136],[20.54827,48.31737],[20.55586,48.32299],[20.57052,48.31708],[20.59387,48.31525],[20.60853,48.30973],[20.61444,48.31613],[20.60836,48.32268],[20.62927,48.33458],[20.63132,48.34598],[20.62008,48.35183],[20.62091,48.3602],[20.60993,48.37519],[20.60024,48.37608],[20.59265,48.38989],[20.59809,48.39971],[20.61172,48.39649],[20.62925,48.42785],[20.59617,48.43134],[20.57754,48.4392],[20.56205,48.43787],[20.54271,48.44155],[20.54243,48.45183],[20.55257,48.46616],[20.56134,48.47252],[20.59411,48.47742],[20.59166,48.49116],[20.58606,48.49542],[20.59448,48.50901],[20.60604,48.51229],[20.60575,48.52181],[20.59175,48.53265],[20.57301,48.53925]]]}}