{"type":"Feature","properties":{"id":"BTN.20.5","name":"Merak","level":2,"country":"BTN"},"geometry":{"type":"Polygon","coordinates":[[[91.82028,27.13601],[91.83014,27.14429],[91.84526,27.14794],[91.85683,27.15449],[91.86803,27.15516],[91.88632,27.16089],[91.90812,27.16237],[91.92695,27.15548],[91.92332,27.16815],[91.92523,27.18654],[91.92902,27.19623],[91.92634,27.20713],[91.9277,27.23901],[91.93536,27.2499],[91.95347,27.24236],[91.9596,27.22478],[91.95851,27.21837],[91.96794,27.20569],[91.9699,27.19373],[91.99254,27.18231],[92.0216,27.18039],[92.03977,27.18189],[92.05066,27.18355],[92.05901,27.19416],[92.0621,27.21088],[92.06895,27.21592],[92.07065,27.23802],[92.05631,27.25399],[92.03853,27.25476],[92.04514,27.26889],[92.07554,27.27819],[92.08721,27.26908],[92.10447,27.26802],[92.12185,27.27265],[92.12475,27.28237],[92.11634,27.27661],[92.10237,27.2773],[92.09239,27.28452],[92.04973,27.29903],[92.02661,27.29897],[92.01767,27.30737],[92.00841,27.30706],[91.99226,27.31344],[91.97682,27.30689],[91.97224,27.3003],[91.94422,27.2964],[91.93146,27.29154],[91.92042,27.29718],[91.91656,27.31064],[91.9004,27.32374],[91.8805,27.31371],[91.86926,27.31905],[91.85793,27.31897],[91.84494,27.33225],[91.83245,27.33652],[91.82257,27.33392],[91.81094,27.34413],[91.80545,27.35823],[91.78151,27.35591],[91.77282,27.34619],[91.75606,27.34247],[91.74125,27.3465],[91.74317,27.34055],[91.73457,27.32711],[91.72221,27.32891],[91.71498,27.318],[91.72225,27.30378],[91.71652,27.28252],[91.71764,27.27746],[91.70603,27.26247],[91.72577,27.26969],[91.73013,27.27874],[91.75772,27.2723],[91.77283,27.26371],[91.78258,27.26668],[91.78802,27.26189],[91.78585,27.25173],[91.79615,27.23829],[91.80544,27.21794],[91.80602,27.1979],[91.80932,27.18994],[91.81919,27.18329],[91.81663,27.17194],[91.82522,27.15007],[91.82028,27.13601]]]}}