{"type":"Feature","properties":{"id":"BTN.1.4","name":"Phuentsholing","level":2,"country":"BTN"},"geometry":{"type":"Polygon","coordinates":[[[89.2668,26.93591],[89.27629,26.92663],[89.28515,26.92346],[89.29147,26.92877],[89.30013,26.91824],[89.33158,26.90857],[89.32665,26.89791],[89.33534,26.88735],[89.32975,26.88135],[89.33603,26.87382],[89.34884,26.87897],[89.35266,26.88551],[89.36334,26.88736],[89.37211,26.87953],[89.37377,26.87066],[89.36741,26.85821],[89.38359,26.85913],[89.38955,26.84199],[89.41488,26.84],[89.42279,26.85342],[89.42004,26.86942],[89.43841,26.88939],[89.44396,26.89919],[89.45106,26.90597],[89.44872,26.92491],[89.47078,26.93363],[89.47566,26.95316],[89.47007,26.95651],[89.47044,26.968],[89.46192,26.99276],[89.44421,26.99673],[89.42714,26.98711],[89.42836,26.97778],[89.41422,26.96798],[89.41174,26.95493],[89.40488,26.94578],[89.39823,26.92769],[89.39064,26.92334],[89.38441,26.91304],[89.37305,26.91803],[89.36299,26.93243],[89.35085,26.93084],[89.32982,26.93816],[89.3258,26.94615],[89.31387,26.95136],[89.30913,26.95771],[89.29379,26.94979],[89.28398,26.93985],[89.2668,26.93591]]]}}