{"type":"Feature","properties":{"id":"THA.62.1","name":"Ban Fang","level":2,"country":"THA"},"geometry":{"type":"Polygon","coordinates":[[[102.69703,16.6334],[102.68736,16.65251],[102.67419,16.65398],[102.66999,16.65868],[102.66266,16.65719],[102.6496,16.65916],[102.63948,16.65651],[102.63553,16.65915],[102.6221,16.66053],[102.61177,16.6555],[102.58287,16.64529],[102.57578,16.63444],[102.57633,16.62732],[102.58017,16.61651],[102.57892,16.59454],[102.58341,16.57741],[102.57873,16.55272],[102.57336,16.50366],[102.56467,16.46916],[102.55293,16.43989],[102.55079,16.3932],[102.54881,16.38469],[102.54354,16.37473],[102.52898,16.3638],[102.52232,16.35505],[102.52691,16.34297],[102.5366,16.34587],[102.54469,16.35632],[102.55504,16.34988],[102.56721,16.34667],[102.60561,16.3492],[102.62031,16.35728],[102.62313,16.3634],[102.63862,16.36512],[102.64155,16.37027],[102.65202,16.37381],[102.65903,16.3723],[102.66613,16.37434],[102.66851,16.38045],[102.67434,16.38064],[102.67979,16.38274],[102.6833,16.39343],[102.68232,16.41836],[102.6726,16.42262],[102.67293,16.42987],[102.66395,16.43901],[102.66548,16.44932],[102.65534,16.45175],[102.6533,16.45581],[102.64466,16.45863],[102.64541,16.47452],[102.63833,16.4898],[102.64082,16.50227],[102.64996,16.512],[102.64287,16.51315],[102.64243,16.52402],[102.63686,16.5257],[102.63031,16.53713],[102.64153,16.54952],[102.6569,16.57101],[102.66438,16.59958],[102.67861,16.5986],[102.68259,16.60368],[102.68027,16.6144],[102.69576,16.62934],[102.69703,16.6334]]]}}