{"type":"Feature","properties":{"id":"THA.27.7","name":"Nam Nao","level":2,"country":"THA"},"geometry":{"type":"Polygon","coordinates":[[[101.75082,16.66782],[101.75026,16.67668],[101.7655,16.67941],[101.77269,16.68841],[101.77611,16.71218],[101.77937,16.71277],[101.78956,16.73251],[101.78999,16.74673],[101.79334,16.75013],[101.7931,16.76374],[101.79725,16.76901],[101.78555,16.76224],[101.7691,16.76049],[101.76387,16.75654],[101.74548,16.75731],[101.72686,16.75393],[101.71806,16.75988],[101.70422,16.78431],[101.68638,16.79848],[101.69989,16.80941],[101.71948,16.79954],[101.71861,16.8159],[101.70892,16.8226],[101.70684,16.82998],[101.70067,16.82854],[101.69843,16.83496],[101.69311,16.83536],[101.68552,16.84648],[101.68464,16.85515],[101.6788,16.86122],[101.68352,16.87395],[101.67866,16.88368],[101.6815,16.89616],[101.68505,16.89962],[101.68288,16.91258],[101.68667,16.91931],[101.68874,16.9344],[101.67883,16.94046],[101.67269,16.95215],[101.67256,16.95867],[101.67518,16.97577],[101.66876,16.98012],[101.66803,16.98557],[101.65975,16.99539],[101.65449,17.00514],[101.65514,17.01229],[101.65002,17.01797],[101.64549,17.02831],[101.64458,17.0392],[101.63786,17.04458],[101.63147,17.04283],[101.62418,17.03654],[101.6214,17.02781],[101.61655,17.02236],[101.61707,17.01504],[101.61298,17.00429],[101.60738,16.9988],[101.59921,16.99992],[101.59384,16.99527],[101.58787,16.9964],[101.58312,16.98765],[101.57518,16.98374],[101.56665,16.98558],[101.56026,16.99384],[101.55164,16.99473],[101.54672,17.00205],[101.54501,17.01513],[101.53324,17.0232],[101.52064,17.01928],[101.51813,17.01519],[101.50428,17.01014],[101.48761,17.00469],[101.47999,17.00687],[101.47181,17.00507],[101.46558,17.00691],[101.45087,17.00745],[101.44315,17.01299],[101.43245,17.0075],[101.43007,16.99009],[101.43466,16.98258],[101.43103,16.97726],[101.42922,16.96661],[101.42282,16.95609],[101.42639,16.94668],[101.42578,16.94134],[101.41694,16.93171],[101.42581,16.92829],[101.42539,16.91533],[101.42093,16.91078],[101.424,16.89416],[101.40868,16.88553],[101.40667,16.87446],[101.40884,16.868],[101.40146,16.86374],[101.40005,16.8548],[101.40995,16.85246],[101.42078,16.85427],[101.42519,16.85003],[101.4305,16.85209],[101.43789,16.84352],[101.43801,16.83675],[101.44269,16.8297],[101.45091,16.82627],[101.45664,16.83116],[101.46104,16.82804],[101.46839,16.83752],[101.48078,16.8455],[101.48013,16.85404],[101.48285,16.85934],[101.49076,16.86033],[101.50346,16.85782],[101.50751,16.85177],[101.50973,16.84098],[101.51653,16.82848],[101.51623,16.81936],[101.52445,16.79035],[101.52414,16.78361],[101.51961,16.77005],[101.51509,16.7657],[101.51635,16.76052],[101.51134,16.75248],[101.5087,16.73715],[101.51057,16.72937],[101.51476,16.72595],[101.51066,16.71267],[101.51506,16.69949],[101.51531,16.68628],[101.51343,16.68113],[101.526,16.68005],[101.53596,16.6706],[101.53751,16.66618],[101.54602,16.66813],[101.55404,16.65685],[101.56102,16.65403],[101.56493,16.64792],[101.57175,16.64826],[101.57711,16.66097],[101.57877,16.66974],[101.57181,16.68034],[101.57089,16.69121],[101.56078,16.69793],[101.5585,16.70559],[101.55197,16.71535],[101.55325,16.72759],[101.55986,16.72883],[101.56389,16.72505],[101.57404,16.72239],[101.58555,16.72269],[101.59138,16.71709],[101.59043,16.70839],[101.60379,16.70703],[101.61387,16.69092],[101.62019,16.68487],[101.63015,16.68428],[101.63595,16.68051],[101.64581,16.68321],[101.64972,16.68688],[101.66611,16.68836],[101.67038,16.68546],[101.68165,16.68828],[101.68588,16.68452],[101.69434,16.68365],[101.70143,16.67957],[101.71371,16.66176],[101.72459,16.65202],[101.73085,16.65763],[101.74132,16.66068],[101.74402,16.66959],[101.75082,16.66782]]]}}