{"type":"Feature","properties":{"id":"THA.27.8","name":"Wichian Buri","level":2,"country":"THA"},"geometry":{"type":"Polygon","coordinates":[[[100.81852,15.71301],[100.81744,15.70752],[100.82312,15.69868],[100.82554,15.68481],[100.83347,15.68072],[100.82581,15.67568],[100.82815,15.6666],[100.8231,15.66198],[100.82741,15.64466],[100.81946,15.6276],[100.82562,15.61506],[100.81732,15.60407],[100.81112,15.60183],[100.80783,15.5928],[100.81833,15.58581],[100.81344,15.57801],[100.82117,15.57494],[100.83097,15.56263],[100.84563,15.55536],[100.84847,15.54959],[100.85444,15.54784],[100.85358,15.54185],[100.85651,15.53279],[100.85294,15.52538],[100.86732,15.52954],[100.88512,15.52879],[100.88968,15.52436],[100.88781,15.51802],[100.90025,15.51276],[100.90086,15.50368],[100.90398,15.49635],[100.91557,15.49501],[100.91656,15.48884],[100.92315,15.49045],[100.9287,15.48769],[100.93374,15.49385],[100.94905,15.49322],[100.95814,15.49925],[100.96625,15.49806],[100.97091,15.50389],[100.98108,15.50161],[100.99115,15.50942],[100.99865,15.51049],[101.01406,15.49815],[101.02296,15.49621],[101.03572,15.48986],[101.0411,15.4901],[101.04496,15.48489],[101.05043,15.48803],[101.06318,15.48357],[101.07116,15.48467],[101.08676,15.48226],[101.08996,15.48709],[101.08366,15.49602],[101.09343,15.5099],[101.09042,15.51779],[101.08377,15.51934],[101.08856,15.5347],[101.08146,15.54133],[101.08358,15.54971],[101.09016,15.55734],[101.09972,15.56035],[101.11405,15.54593],[101.13567,15.56678],[101.1422,15.56979],[101.15377,15.56831],[101.1627,15.55986],[101.172,15.56134],[101.17907,15.55798],[101.18822,15.55909],[101.19962,15.55717],[101.22771,15.56292],[101.23539,15.56042],[101.25006,15.56526],[101.26799,15.56307],[101.28181,15.57048],[101.29144,15.56853],[101.30219,15.56937],[101.31081,15.57546],[101.30977,15.57914],[101.31567,15.5881],[101.31706,15.60253],[101.32294,15.60663],[101.32913,15.60552],[101.33218,15.61091],[101.33246,15.62214],[101.34318,15.63564],[101.34394,15.64807],[101.33941,15.65376],[101.34083,15.65891],[101.3516,15.66785],[101.35102,15.67382],[101.36003,15.68604],[101.35307,15.69503],[101.35315,15.70396],[101.34124,15.71728],[101.33534,15.728],[101.33851,15.74734],[101.33632,15.75302],[101.33431,15.77579],[101.32948,15.78412],[101.31963,15.78874],[101.32054,15.7968],[101.32984,15.80095],[101.32306,15.81124],[101.33052,15.83014],[101.32454,15.83712],[101.32974,15.84067],[101.33247,15.8491],[101.3267,15.8514],[101.31638,15.84595],[101.30704,15.85007],[101.30321,15.85816],[101.30264,15.86607],[101.2866,15.87114],[101.27291,15.86506],[101.27538,15.85984],[101.26514,15.85846],[101.26146,15.86585],[101.24721,15.86032],[101.24154,15.84773],[101.23567,15.84767],[101.21784,15.85149],[101.20792,15.84537],[101.20407,15.83628],[101.19789,15.83472],[101.19572,15.82744],[101.19804,15.80976],[101.18835,15.80352],[101.14553,15.80469],[101.12633,15.81127],[101.11166,15.81084],[101.09837,15.8078],[101.09028,15.7998],[101.09143,15.79299],[101.08774,15.77848],[101.07169,15.76675],[101.06515,15.77004],[101.0585,15.76095],[101.05396,15.76127],[101.04292,15.77274],[101.03433,15.76605],[101.02688,15.75377],[101.02114,15.75477],[101.01526,15.74768],[101.00138,15.7411],[100.99138,15.74329],[100.98217,15.74175],[100.97205,15.73698],[100.96637,15.7374],[100.96274,15.73261],[100.95411,15.73444],[100.95126,15.72793],[100.93634,15.72846],[100.90217,15.73798],[100.89091,15.73216],[100.8873,15.72802],[100.87668,15.72736],[100.8737,15.72124],[100.86225,15.71654],[100.85685,15.71137],[100.84974,15.7116],[100.84233,15.70809],[100.83185,15.70728],[100.81852,15.71301]]]}}