{"type":"Feature","properties":{"id":"THA.64.1","name":"Na Dun","level":2,"country":"THA"},"geometry":{"type":"Polygon","coordinates":[[[103.12355,15.70412],[103.12854,15.69887],[103.14525,15.70769],[103.15583,15.71004],[103.1579,15.70301],[103.15509,15.69373],[103.17538,15.68504],[103.18018,15.68152],[103.18368,15.67355],[103.19693,15.66281],[103.19947,15.65789],[103.2144,15.65533],[103.22875,15.65116],[103.24083,15.653],[103.25588,15.64423],[103.2612,15.63033],[103.26544,15.63123],[103.26712,15.64962],[103.27682,15.65416],[103.28422,15.66352],[103.28543,15.67429],[103.29853,15.68451],[103.29186,15.69255],[103.30837,15.69358],[103.30817,15.70282],[103.31692,15.7084],[103.32111,15.69955],[103.32971,15.69943],[103.3446,15.71714],[103.33208,15.73593],[103.33007,15.74658],[103.32009,15.76634],[103.29707,15.78794],[103.28922,15.79176],[103.29009,15.79704],[103.27298,15.79888],[103.25755,15.79894],[103.24127,15.78494],[103.22782,15.78917],[103.23166,15.80637],[103.22705,15.80681],[103.22329,15.79532],[103.21953,15.79349],[103.21135,15.79777],[103.19565,15.79963],[103.18844,15.79577],[103.17948,15.80115],[103.18344,15.79561],[103.19061,15.77954],[103.17929,15.77925],[103.17402,15.7755],[103.17263,15.75599],[103.16642,15.75503],[103.15727,15.73757],[103.14452,15.73876],[103.13608,15.72224],[103.13595,15.71038],[103.12528,15.70731],[103.12355,15.70412]]]}}