{"type":"Feature","properties":{"id":"THA.46.3","name":"Suan Phueng","level":2,"country":"THA"},"geometry":{"type":"Polygon","coordinates":[[[99.47483,13.51457],[99.47923,13.51818],[99.49234,13.53436],[99.49322,13.54635],[99.48776,13.55306],[99.49044,13.56443],[99.48651,13.57755],[99.47307,13.58776],[99.47512,13.59313],[99.46852,13.59955],[99.46864,13.6063],[99.46179,13.61232],[99.45724,13.60884],[99.43216,13.60131],[99.42092,13.61079],[99.41981,13.6172],[99.41066,13.61764],[99.40532,13.62245],[99.41447,13.62674],[99.41122,13.6323],[99.4105,13.64222],[99.41298,13.64499],[99.40533,13.65226],[99.39727,13.65012],[99.38353,13.65073],[99.37068,13.6488],[99.36888,13.65961],[99.36086,13.66157],[99.35385,13.66865],[99.34737,13.66774],[99.34045,13.6805],[99.34217,13.6832],[99.33698,13.69307],[99.33478,13.70505],[99.31602,13.73484],[99.31575,13.74644],[99.32118,13.75623],[99.31602,13.76738],[99.30838,13.7765],[99.30358,13.77597],[99.29863,13.76854],[99.29377,13.76857],[99.28566,13.76032],[99.28024,13.76094],[99.27312,13.75475],[99.27332,13.74988],[99.26565,13.74341],[99.24335,13.74809],[99.24016,13.75146],[99.22113,13.74778],[99.21908,13.74398],[99.211,13.74205],[99.21186,13.73701],[99.19262,13.73411],[99.17261,13.74087],[99.16733,13.73606],[99.16732,13.72585],[99.1695,13.70727],[99.16726,13.69363],[99.17133,13.68896],[99.16599,13.6798],[99.17051,13.67075],[99.17052,13.66403],[99.16628,13.65436],[99.17113,13.64735],[99.16893,13.64044],[99.17177,13.62983],[99.16526,13.61309],[99.16846,13.60418],[99.17558,13.59395],[99.17825,13.58492],[99.17349,13.58336],[99.16284,13.57416],[99.16762,13.57121],[99.1705,13.56418],[99.17697,13.56232],[99.17811,13.55588],[99.18712,13.54683],[99.19143,13.54516],[99.19125,13.53406],[99.18896,13.52828],[99.19171,13.51151],[99.18749,13.50542],[99.18711,13.4966],[99.19756,13.48229],[99.20362,13.47975],[99.20244,13.47155],[99.20591,13.46716],[99.2072,13.4582],[99.19726,13.45049],[99.19896,13.44286],[99.20397,13.43469],[99.20041,13.42701],[99.21028,13.4117],[99.20378,13.4023],[99.20567,13.39645],[99.20454,13.37929],[99.20169,13.37191],[99.20598,13.36602],[99.20314,13.35474],[99.20691,13.33913],[99.19883,13.32913],[99.20278,13.31557],[99.21137,13.3071],[99.2232,13.3008],[99.2376,13.3115],[99.26744,13.3028],[99.27455,13.30743],[99.27916,13.31719],[99.28566,13.31882],[99.29551,13.31765],[99.30064,13.32613],[99.30331,13.34169],[99.31067,13.34709],[99.31033,13.35253],[99.31805,13.35559],[99.31814,13.36521],[99.32139,13.37004],[99.32808,13.36988],[99.32741,13.37846],[99.33042,13.3895],[99.34025,13.39605],[99.34907,13.39883],[99.3548,13.40856],[99.34679,13.4234],[99.33456,13.43664],[99.33394,13.44912],[99.34478,13.46499],[99.34287,13.47088],[99.33498,13.47157],[99.33491,13.4774],[99.34114,13.48339],[99.35454,13.48505],[99.3567,13.49394],[99.34624,13.49372],[99.34532,13.50174],[99.34736,13.51327],[99.35791,13.51047],[99.36163,13.5024],[99.37521,13.49288],[99.38378,13.4816],[99.39337,13.49315],[99.39528,13.48481],[99.41391,13.48641],[99.42044,13.498],[99.4321,13.50514],[99.44496,13.50499],[99.45548,13.50073],[99.46633,13.50569],[99.47483,13.51457]]]}}