{"type":"Feature","properties":{"id":"THA.3.18","name":"Mueang Nakhon Si Thammarat","level":2,"country":"THA"},"geometry":{"type":"Polygon","coordinates":[[[100.01905,8.24814],[100.03221,8.2509],[100.037,8.26986],[100.04239,8.2784],[100.04298,8.28698],[100.04791,8.29228],[100.04537,8.29909],[100.04494,8.31326],[100.05277,8.32105],[100.05509,8.33329],[100.06613,8.33723],[100.07703,8.33584],[100.07865,8.35886],[100.08679,8.36338],[100.08838,8.38594],[100.09558,8.39903],[100.09048,8.40588],[100.08898,8.41454],[100.08233,8.42089],[100.07512,8.43334],[100.07122,8.45565],[100.0618,8.47694],[100.05344,8.49986],[100.04901,8.50686],[100.04695,8.51714],[100.02887,8.5413],[100.01558,8.56263],[100.00573,8.56639],[100.01148,8.5741],[100.00912,8.57874],[99.99722,8.59032],[99.98945,8.59458],[99.98286,8.59303],[99.9781,8.58692],[99.97617,8.58071],[99.9653,8.57749],[99.95892,8.59152],[99.95273,8.59841],[99.94046,8.59932],[99.94325,8.59172],[99.94401,8.57652],[99.93298,8.56972],[99.93626,8.56109],[99.92841,8.55527],[99.92631,8.54343],[99.93277,8.53951],[99.93538,8.53004],[99.94294,8.51852],[99.95096,8.51476],[99.94807,8.50857],[99.92908,8.50843],[99.91233,8.5041],[99.90001,8.50463],[99.89008,8.49159],[99.88507,8.49015],[99.87354,8.495],[99.87029,8.48987],[99.85866,8.4864],[99.84873,8.49143],[99.84203,8.48659],[99.83682,8.48791],[99.83164,8.48384],[99.81168,8.47753],[99.80622,8.48403],[99.79997,8.47591],[99.79821,8.46965],[99.80191,8.46173],[99.80994,8.45598],[99.81685,8.44752],[99.82009,8.4397],[99.83136,8.43049],[99.83679,8.41495],[99.84495,8.41268],[99.84906,8.41995],[99.85339,8.41585],[99.84733,8.39112],[99.84918,8.37515],[99.86844,8.37144],[99.87666,8.37644],[99.88836,8.37856],[99.8916,8.38216],[99.90286,8.38069],[99.91259,8.38227],[99.91303,8.38866],[99.92501,8.38831],[99.93347,8.39692],[99.94393,8.39551],[99.94302,8.38819],[99.95046,8.38471],[99.96001,8.38531],[99.96963,8.3916],[99.97052,8.38022],[99.98033,8.35748],[99.9774,8.35315],[99.98138,8.3322],[99.9855,8.32009],[99.98351,8.3155],[99.98875,8.29195],[99.9993,8.27555],[100.00446,8.26024],[100.00274,8.25347],[100.00738,8.24704],[100.01905,8.24814]]]}}