{"type":"Feature","properties":{"id":"THA.40.6","name":"Nong Khae","level":2,"country":"THA"},"geometry":{"type":"Polygon","coordinates":[[[100.84518,14.45941],[100.83776,14.45259],[100.83331,14.43959],[100.82945,14.43368],[100.82059,14.44014],[100.79316,14.44323],[100.78529,14.44108],[100.77494,14.43075],[100.77236,14.43463],[100.76266,14.4275],[100.76845,14.42267],[100.75946,14.41173],[100.77145,14.40686],[100.78042,14.41123],[100.78314,14.40267],[100.78056,14.39769],[100.7936,14.39457],[100.79064,14.38282],[100.78527,14.37537],[100.78678,14.37024],[100.78828,14.35696],[100.78329,14.35499],[100.78118,14.34101],[100.77399,14.33693],[100.77756,14.32777],[100.7722,14.32524],[100.7755,14.31862],[100.78507,14.32316],[100.81166,14.32512],[100.82318,14.32966],[100.82311,14.24746],[100.8215,14.24275],[100.89155,14.27595],[100.90667,14.2832],[100.90672,14.29951],[100.93781,14.3144],[100.92458,14.34078],[100.93082,14.3458],[100.9325,14.3601],[100.94087,14.36399],[100.94804,14.37615],[100.954,14.38277],[100.95573,14.38948],[100.96163,14.39481],[100.95813,14.40215],[100.94815,14.41105],[100.94805,14.42336],[100.94192,14.42705],[100.93926,14.43399],[100.93496,14.43582],[100.93449,14.4476],[100.92561,14.46245],[100.90818,14.46155],[100.88103,14.45031],[100.87771,14.44536],[100.86894,14.44577],[100.86894,14.45458],[100.86311,14.45417],[100.84518,14.45941]]]}}