{"type":"Feature","properties":{"id":"THA.7.17","name":"Ko Pha-Ngan","level":2,"country":"THA"},"geometry":{"type":"MultiPolygon","coordinates":[[[[99.95015,9.70679],[99.94421,9.70644],[99.947,9.70221],[99.95015,9.70679]]],[[[99.97391,9.71061],[99.97155,9.71003],[99.97263,9.7052],[99.97515,9.70765],[99.97391,9.71061]]],[[[100.07502,9.76455],[100.07553,9.76721],[100.07364,9.76498],[100.07502,9.76455]]],[[[99.9803,9.80205],[99.97769,9.79969],[99.98017,9.79911],[99.9803,9.80205]]],[[[100.02707,9.80398],[100.0167,9.80239],[100.00958,9.78945],[100.00551,9.78704],[99.99573,9.79217],[99.99404,9.80106],[99.98255,9.79939],[99.97303,9.78736],[99.96664,9.78522],[99.96653,9.77652],[99.96138,9.77203],[99.96088,9.75676],[99.96389,9.75095],[99.97171,9.75125],[99.97508,9.74745],[99.98024,9.733],[99.97584,9.72949],[99.97788,9.7206],[99.98321,9.71313],[99.99203,9.70511],[99.99833,9.70645],[100.01909,9.70069],[100.02417,9.69712],[100.03935,9.69336],[100.04371,9.68797],[100.05909,9.67988],[100.06459,9.67207],[100.06907,9.67914],[100.07807,9.68255],[100.07378,9.69069],[100.07998,9.70114],[100.07532,9.7139],[100.08123,9.7365],[100.07931,9.74502],[100.07521,9.74779],[100.07612,9.75439],[100.07187,9.76188],[100.07276,9.76633],[100.06615,9.77323],[100.0615,9.76936],[100.05659,9.77243],[100.05625,9.782],[100.06209,9.78685],[100.05174,9.79248],[100.0388,9.79423],[100.03462,9.79294],[100.03104,9.80273],[100.02707,9.80398]]],[[[99.81395,10.1161],[99.81355,10.11439],[99.81503,10.11398],[99.81558,10.11517],[99.81395,10.1161]]],[[[99.81448,10.12301],[99.81086,10.12265],[99.81265,10.11807],[99.81575,10.12079],[99.81448,10.12301]]],[[[99.82798,10.12451],[99.82063,10.11891],[99.82004,10.11155],[99.82693,10.10474],[99.82705,10.09026],[99.82268,10.08271],[99.81672,10.08065],[99.81507,10.06914],[99.83706,10.06446],[99.83942,10.07267],[99.84637,10.07406],[99.84812,10.08458],[99.85608,10.08966],[99.84622,10.10535],[99.85052,10.11053],[99.84373,10.11853],[99.82798,10.12451]]]]}}