{"type":"Feature","properties":{"id":"THA.52.7","name":"Chanuman","level":2,"country":"THA"},"geometry":{"type":"Polygon","coordinates":[[[104.97872,16.27913],[104.97278,16.27396],[104.95983,16.28436],[104.95592,16.27974],[104.96032,16.27486],[104.94779,16.26198],[104.93513,16.25688],[104.93116,16.25291],[104.91921,16.25633],[104.91273,16.25549],[104.91021,16.24725],[104.89607,16.23908],[104.88555,16.23514],[104.88223,16.2135],[104.87603,16.20914],[104.86577,16.20868],[104.85492,16.20165],[104.84173,16.20319],[104.83523,16.20022],[104.82616,16.20501],[104.82032,16.19137],[104.81239,16.18522],[104.80008,16.18887],[104.79648,16.19661],[104.78887,16.19943],[104.76607,16.19644],[104.76572,16.19048],[104.77289,16.18764],[104.78293,16.17531],[104.78927,16.1574],[104.79885,16.15981],[104.80448,16.16416],[104.81177,16.15764],[104.82493,16.15547],[104.82104,16.1374],[104.81623,16.13378],[104.81575,16.11667],[104.81298,16.10762],[104.81385,16.09868],[104.82183,16.09532],[104.82857,16.08674],[104.83684,16.08317],[104.82306,16.07259],[104.81613,16.07188],[104.8168,16.055],[104.81149,16.04914],[104.80449,16.04621],[104.8087,16.03919],[104.80644,16.02491],[104.80697,16.01316],[104.81837,16.00863],[104.82167,16.00073],[104.83206,15.9978],[104.84478,15.99895],[104.84999,16.00714],[104.86563,16.01106],[104.873,16.00552],[104.89054,16.00744],[104.89884,16.00526],[104.91776,16.01274],[104.92364,16.00542],[104.9295,16.00357],[104.93449,16.00834],[104.94363,16.00755],[104.96223,16.02214],[104.96672,16.02083],[104.96957,16.0131],[104.97946,16.00849],[104.98028,16.00322],[105.00164,15.99847],[105.00994,15.9996],[105.0049,16.00938],[105.00335,16.01923],[105.00712,16.03324],[105.0148,16.03992],[105.0258,16.05602],[105.02529,16.06354],[105.02876,16.07253],[105.03531,16.07805],[105.0418,16.09376],[105.05036,16.09528],[105.05664,16.09335],[105.06026,16.09815],[105.0473,16.10196],[105.04082,16.11119],[105.04019,16.12082],[105.0325,16.14448],[105.02646,16.15306],[105.02556,16.16402],[105.01768,16.18262],[105.01405,16.18729],[105.01151,16.20346],[105.01646,16.22983],[105.01621,16.24327],[104.98803,16.27335],[104.97872,16.27913]]]}}