{"type":"Feature","properties":{"id":"THA.65.15","name":"Kham Thale So","level":2,"country":"THA"},"geometry":{"type":"Polygon","coordinates":[[[101.83554,15.07397],[101.85092,15.07106],[101.86929,15.05884],[101.88441,15.0462],[101.88728,15.03592],[101.89049,15.01324],[101.88769,15.00294],[101.88769,14.99413],[101.89175,14.98364],[101.90123,14.96524],[101.90412,14.95421],[101.89968,14.94088],[101.90585,14.93314],[101.91652,14.93704],[101.92852,14.93062],[101.94193,14.93123],[101.94952,14.93899],[101.9573,14.9363],[101.96385,14.94184],[101.97596,14.94233],[101.97752,14.94848],[101.98407,14.94669],[101.99419,14.95919],[101.99214,14.97281],[101.98508,14.97801],[101.98116,14.98983],[101.97507,14.9965],[101.97402,15.00533],[101.9808,15.01368],[101.98223,15.02127],[101.98704,15.0236],[101.99334,15.03463],[101.99161,15.04663],[101.99191,15.05861],[101.99508,15.07418],[101.99501,15.08526],[101.98493,15.09022],[101.97329,15.08709],[101.97216,15.09118],[101.96374,15.09396],[101.95149,15.09504],[101.94629,15.10239],[101.93365,15.10499],[101.92799,15.10831],[101.91068,15.10561],[101.88884,15.1106],[101.88396,15.10756],[101.86069,15.1053],[101.84938,15.09016],[101.84205,15.08672],[101.83966,15.0772],[101.83554,15.07397]]]}}