{"type":"Feature","properties":{"id":"THA.71.13","name":"Prachaksinlapakhom","level":2,"country":"THA"},"geometry":{"type":"Polygon","coordinates":[[[103.08394,17.22089],[103.08585,17.22889],[103.08256,17.24002],[103.0807,17.25739],[103.07481,17.26501],[103.07113,17.27535],[103.06019,17.27534],[103.04952,17.2731],[103.0407,17.26722],[103.02791,17.26256],[103.0202,17.26368],[102.99303,17.28817],[102.98124,17.29043],[102.96417,17.29871],[102.95906,17.30365],[102.9477,17.32047],[102.94134,17.30662],[102.93033,17.29303],[102.91835,17.28188],[102.9045,17.25817],[102.90463,17.24984],[102.90054,17.24378],[102.91454,17.22797],[102.91743,17.21256],[102.92888,17.20985],[102.93432,17.20404],[102.94324,17.20342],[102.96392,17.19629],[102.97095,17.20627],[102.97824,17.20542],[102.98769,17.21018],[102.99568,17.20069],[103.00272,17.20949],[103.00827,17.22728],[103.01431,17.23048],[103.01148,17.24078],[103.01914,17.24709],[103.02585,17.2451],[103.0283,17.23167],[103.03479,17.23174],[103.03366,17.22286],[103.03808,17.22029],[103.04347,17.19468],[103.05704,17.19315],[103.06891,17.19783],[103.08082,17.19539],[103.08856,17.20328],[103.08201,17.2136],[103.08394,17.22089]]]}}