{"type":"Feature","properties":{"id":"THA.42.6","name":"Bang Kruai","level":2,"country":"THA"},"geometry":{"type":"Polygon","coordinates":[[[100.42761,13.83386],[100.42332,13.83605],[100.41451,13.82912],[100.40303,13.824],[100.3994,13.83059],[100.38473,13.82458],[100.36799,13.81567],[100.34965,13.81681],[100.3481,13.82475],[100.32811,13.82559],[100.3192,13.82256],[100.32791,13.80413],[100.41106,13.80135],[100.46415,13.79731],[100.46618,13.78892],[100.50068,13.8005],[100.51526,13.81327],[100.5074,13.81604],[100.50235,13.81949],[100.49134,13.80956],[100.48771,13.8193],[100.48204,13.82242],[100.47344,13.83235],[100.46602,13.82533],[100.45632,13.83098],[100.44015,13.82789],[100.42761,13.83386]]]}}