{"type":"Feature","properties":{"id":"THA.10.4","name":"La-Ngu","level":2,"country":"THA"},"geometry":{"type":"MultiPolygon","coordinates":[[[[99.76372,6.78302],[99.75933,6.78298],[99.76114,6.779],[99.76372,6.78302]]],[[[99.77669,6.78132],[99.77767,6.78645],[99.77073,6.79305],[99.76757,6.7843],[99.77669,6.78132]]],[[[99.5284,6.7972],[99.52547,6.79723],[99.52507,6.79465],[99.52803,6.79423],[99.5284,6.7972]]],[[[99.50534,6.79915],[99.50686,6.80064],[99.50561,6.80093],[99.50534,6.79915]]],[[[99.68172,6.83237],[99.67709,6.82295],[99.68156,6.81977],[99.68172,6.83237]]],[[[99.59129,6.83238],[99.58513,6.83243],[99.5869,6.82825],[99.59129,6.83238]]],[[[99.53727,6.83301],[99.52545,6.82672],[99.53753,6.82446],[99.53727,6.83301]]],[[[99.70089,6.84573],[99.69978,6.84564],[99.70079,6.84378],[99.70089,6.84573]]],[[[99.69655,6.85273],[99.68934,6.85046],[99.68337,6.83351],[99.68683,6.81853],[99.69344,6.81528],[99.69463,6.82396],[99.69848,6.83177],[99.69502,6.84759],[99.69655,6.85273]]],[[[99.59376,6.85136],[99.59665,6.85327],[99.5949,6.85831],[99.59026,6.85974],[99.59376,6.85136]]],[[[99.57128,6.89324],[99.56979,6.89666],[99.5683,6.89654],[99.57128,6.89324]]],[[[99.54596,6.91251],[99.54536,6.91475],[99.54434,6.9132],[99.54596,6.91251]]],[[[99.86516,6.91172],[99.85762,6.92196],[99.86297,6.92699],[99.86432,6.93571],[99.87254,6.94003],[99.87293,6.9565],[99.87989,6.96228],[99.88858,6.97371],[99.88745,6.98108],[99.89007,6.99126],[99.88554,6.99271],[99.89084,7.00624],[99.88627,7.01887],[99.88893,7.02413],[99.88258,7.03041],[99.88903,7.04151],[99.88755,7.05577],[99.88357,7.07219],[99.87445,7.07945],[99.87093,7.07387],[99.87268,7.05435],[99.87721,7.03838],[99.86438,7.03066],[99.86224,7.01973],[99.85421,7.01877],[99.84772,7.01304],[99.8462,7.00564],[99.83545,7.0132],[99.8283,7.01004],[99.82573,7.00494],[99.81131,7.01032],[99.80339,7.0094],[99.79104,7.01418],[99.78549,7.01299],[99.78817,7.00344],[99.78733,6.99555],[99.79193,6.99021],[99.79189,6.98367],[99.76316,6.97339],[99.76081,6.95851],[99.7561,6.95628],[99.74563,6.95724],[99.73727,6.96995],[99.72952,6.97577],[99.72975,6.9807],[99.7193,6.98616],[99.71228,6.9979],[99.70573,6.99495],[99.70116,6.98127],[99.68804,6.97181],[99.68285,6.97147],[99.68225,6.96438],[99.68657,6.95974],[99.69123,6.96729],[99.70147,6.96955],[99.70613,6.96371],[99.7077,6.95502],[99.69276,6.95554],[99.68109,6.94396],[99.68254,6.92389],[99.68563,6.91075],[99.67824,6.90202],[99.68488,6.89623],[99.69282,6.87511],[99.69683,6.87009],[99.69807,6.86142],[99.70816,6.85822],[99.71225,6.8601],[99.73883,6.84793],[99.75068,6.84002],[99.76348,6.8349],[99.77339,6.84249],[99.78347,6.83411],[99.79739,6.81293],[99.80681,6.77405],[99.81305,6.77037],[99.8228,6.77323],[99.82542,6.7766],[99.83295,6.77503],[99.84009,6.77901],[99.83753,6.78991],[99.84466,6.80012],[99.85189,6.80373],[99.85054,6.80921],[99.84025,6.81089],[99.83738,6.82232],[99.85924,6.8283],[99.8676,6.84464],[99.88462,6.85138],[99.88635,6.85481],[99.88554,6.86807],[99.88315,6.86942],[99.87046,6.87281],[99.87154,6.88042],[99.86394,6.88328],[99.86268,6.89173],[99.86684,6.89585],[99.86435,6.90553],[99.86516,6.91172]]]]}}