{"type":"Feature","properties":{"id":"THA.60.7","name":"Ban Mai Chaiyaphot","level":2,"country":"THA"},"geometry":{"type":"Polygon","coordinates":[[[102.83821,15.63674],[102.80605,15.63275],[102.79205,15.63726],[102.78586,15.63273],[102.77659,15.63359],[102.76714,15.62633],[102.77612,15.61365],[102.78015,15.59904],[102.77671,15.5943],[102.78436,15.58484],[102.7813,15.58052],[102.78526,15.57079],[102.78082,15.56926],[102.78386,15.55861],[102.79024,15.55269],[102.79434,15.54119],[102.79892,15.53507],[102.79662,15.53128],[102.8121,15.52459],[102.81287,15.51789],[102.82922,15.50741],[102.83348,15.51083],[102.83808,15.51526],[102.846,15.51233],[102.85839,15.51411],[102.86245,15.5084],[102.87136,15.51393],[102.87168,15.52025],[102.883,15.52299],[102.8895,15.51697],[102.89595,15.52145],[102.90922,15.53303],[102.92467,15.55572],[102.93088,15.56148],[102.93259,15.58135],[102.93507,15.58715],[102.91682,15.59727],[102.91414,15.58926],[102.90296,15.58458],[102.89311,15.58385],[102.8936,15.59987],[102.89051,15.61055],[102.87584,15.61506],[102.86148,15.62491],[102.8404,15.62611],[102.83821,15.63674]]]}}