{"type":"Feature","properties":{"id":"THA.66.2","name":"Phon Thong","level":2,"country":"THA"},"geometry":{"type":"Polygon","coordinates":[[[103.88959,16.45255],[103.87618,16.43314],[103.87852,16.42067],[103.88502,16.40894],[103.87859,16.39579],[103.87652,16.3812],[103.86257,16.35097],[103.85484,16.34559],[103.85648,16.33971],[103.8473,16.33465],[103.83975,16.32769],[103.82812,16.32519],[103.82297,16.3263],[103.81765,16.31233],[103.80321,16.30579],[103.82291,16.2918],[103.83364,16.29052],[103.84095,16.28443],[103.83659,16.26782],[103.83642,16.2579],[103.83977,16.23781],[103.83891,16.22945],[103.84306,16.22351],[103.8474,16.20947],[103.85709,16.207],[103.86008,16.2029],[103.85761,16.19106],[103.86775,16.19084],[103.87872,16.198],[103.89467,16.19634],[103.89514,16.19223],[103.90497,16.18781],[103.92916,16.18381],[103.93331,16.17973],[103.94512,16.17485],[103.98164,16.17367],[103.9903,16.16715],[103.99368,16.16186],[103.9891,16.15016],[103.99064,16.14214],[103.9982,16.13943],[104.00597,16.14307],[104.01189,16.14936],[104.00563,16.15561],[104.01112,16.16082],[104.01824,16.15848],[104.02402,16.16223],[104.03493,16.16],[104.04015,16.1554],[104.05141,16.15104],[104.05948,16.15047],[104.06771,16.15449],[104.07883,16.15214],[104.08742,16.14639],[104.09952,16.15829],[104.09988,16.16232],[104.11052,16.17285],[104.11948,16.19029],[104.1288,16.18941],[104.13028,16.19631],[104.12791,16.20008],[104.12993,16.21086],[104.12232,16.22333],[104.10021,16.22606],[104.08927,16.22875],[104.08515,16.23462],[104.07585,16.22839],[104.07308,16.23242],[104.07672,16.23824],[104.07765,16.25643],[104.07266,16.26262],[104.07704,16.27895],[104.06606,16.29414],[104.06408,16.30925],[104.05958,16.31024],[104.05292,16.30284],[104.03419,16.30155],[104.02117,16.29683],[104.0185,16.30012],[104.01917,16.30959],[104.02365,16.31544],[104.01791,16.32587],[104.01788,16.33638],[104.02463,16.34523],[104.03147,16.34482],[104.03212,16.36145],[104.03655,16.3742],[104.0432,16.37852],[104.04675,16.38483],[104.04547,16.39088],[104.03923,16.39614],[104.04022,16.41439],[104.03549,16.41581],[104.03969,16.42741],[104.03785,16.4366],[104.02716,16.44382],[104.02464,16.44138],[104.00975,16.44204],[104.00052,16.44549],[103.99289,16.44347],[103.98351,16.43259],[103.97386,16.43093],[103.96146,16.43595],[103.95503,16.44052],[103.94264,16.44292],[103.92849,16.43433],[103.91454,16.4456],[103.90977,16.45352],[103.90433,16.44737],[103.89684,16.45179],[103.88959,16.45255]]]}}