{"type":"Feature","properties":{"id":"THA.73.11","name":"Na Wa","level":2,"country":"THA"},"geometry":{"type":"Polygon","coordinates":[[[104.01574,17.46211],[104.02937,17.44509],[104.02758,17.43767],[104.037,17.43006],[104.03764,17.4203],[104.04471,17.41379],[104.05247,17.40138],[104.06281,17.38887],[104.07248,17.37794],[104.07431,17.38452],[104.08153,17.39203],[104.09108,17.38424],[104.08747,17.37842],[104.09377,17.37513],[104.09826,17.3781],[104.09964,17.38664],[104.09188,17.38956],[104.09619,17.39796],[104.10496,17.40272],[104.12644,17.39598],[104.1269,17.3822],[104.1312,17.37982],[104.14022,17.38443],[104.14256,17.39093],[104.15312,17.39444],[104.1426,17.40617],[104.15116,17.40901],[104.15741,17.41709],[104.17003,17.41797],[104.17198,17.42936],[104.1807,17.42923],[104.18446,17.42227],[104.19778,17.42938],[104.19877,17.43991],[104.18779,17.44961],[104.19023,17.46188],[104.18479,17.47711],[104.17852,17.50266],[104.16859,17.50687],[104.16115,17.50697],[104.14928,17.5154],[104.13127,17.50948],[104.12584,17.51366],[104.13045,17.52454],[104.12779,17.53255],[104.13013,17.54664],[104.13773,17.55113],[104.13102,17.55922],[104.13871,17.56517],[104.14884,17.55689],[104.15431,17.56074],[104.16209,17.55764],[104.1655,17.56407],[104.16215,17.56906],[104.16442,17.57745],[104.17301,17.57111],[104.18094,17.5622],[104.19301,17.56826],[104.19749,17.58083],[104.17674,17.58045],[104.16485,17.5852],[104.15551,17.59235],[104.13725,17.59202],[104.13058,17.59478],[104.11734,17.60667],[104.10548,17.61136],[104.09734,17.61239],[104.0894,17.61962],[104.08421,17.63744],[104.07115,17.65158],[104.06472,17.64368],[104.04991,17.64009],[104.04319,17.64633],[104.03685,17.63926],[104.03248,17.62814],[104.03217,17.61834],[104.04399,17.60725],[104.05217,17.59475],[104.0538,17.58505],[104.05142,17.57371],[104.03886,17.56825],[104.03517,17.56352],[104.03738,17.54246],[104.04075,17.52698],[104.03437,17.52189],[104.03006,17.50741],[104.02414,17.50269],[104.02005,17.48749],[104.00947,17.48596],[104.01574,17.46211]]]}}