{"type":"Feature","properties":{"id":"THA.66.14","name":"Si Somdet","level":2,"country":"THA"},"geometry":{"type":"Polygon","coordinates":[[[103.52285,15.93874],[103.5294,15.94244],[103.53571,15.95588],[103.53192,15.95824],[103.54719,15.96839],[103.57386,15.98977],[103.56899,15.99388],[103.56541,16.00406],[103.56617,16.0173],[103.5737,16.02421],[103.57253,16.03508],[103.56559,16.04171],[103.56035,16.05976],[103.5572,16.06559],[103.54544,16.0657],[103.52741,16.05691],[103.50652,16.05541],[103.49856,16.05639],[103.4984,16.06677],[103.4955,16.07957],[103.49597,16.11539],[103.46505,16.13011],[103.45771,16.1223],[103.45814,16.1112],[103.45834,16.106],[103.45358,16.08354],[103.45991,16.07112],[103.46471,16.06687],[103.46311,16.06197],[103.47057,16.0461],[103.46784,16.03446],[103.46066,16.02],[103.46333,16.00882],[103.45983,15.99714],[103.46197,15.99413],[103.46305,15.97167],[103.46679,15.96221],[103.48143,15.93652],[103.48819,15.93134],[103.49962,15.92991],[103.50697,15.934],[103.51396,15.93426],[103.52285,15.93874]]]}}