{"type":"Feature","properties":{"id":"THA.21.3","name":"Wat Bot","level":2,"country":"THA"},"geometry":{"type":"Polygon","coordinates":[[[100.37165,17.3911],[100.36424,17.38879],[100.35616,17.38279],[100.34845,17.39263],[100.3426,17.38696],[100.33625,17.38932],[100.3291,17.38685],[100.33017,17.37849],[100.32283,17.36823],[100.30738,17.38309],[100.29846,17.37476],[100.28891,17.37611],[100.29487,17.36581],[100.29688,17.34781],[100.2901,17.33969],[100.28334,17.33639],[100.28053,17.32014],[100.2822,17.30674],[100.28104,17.30123],[100.27507,17.29661],[100.27647,17.29099],[100.27258,17.27423],[100.27788,17.26878],[100.27729,17.25931],[100.27351,17.25321],[100.27363,17.23876],[100.27794,17.23605],[100.28246,17.22061],[100.29089,17.21539],[100.29487,17.20808],[100.29022,17.19982],[100.29209,17.18875],[100.28708,17.17951],[100.28712,17.17293],[100.29188,17.16087],[100.29152,17.15335],[100.29686,17.14287],[100.30115,17.12616],[100.30521,17.1244],[100.31417,17.10181],[100.3197,17.09393],[100.32435,17.08274],[100.32653,17.07114],[100.31475,17.0612],[100.28592,17.0344],[100.25859,17.03667],[100.26142,17.02342],[100.28009,17.01961],[100.27824,17.0066],[100.28056,16.99741],[100.27159,16.98298],[100.27715,16.9621],[100.28066,16.93354],[100.2939,16.92899],[100.30246,16.92828],[100.31755,16.94236],[100.32289,16.94538],[100.34546,16.94589],[100.35662,16.95182],[100.36963,16.95002],[100.37136,16.94719],[100.38251,16.95093],[100.38551,16.9549],[100.41302,16.96387],[100.42596,16.96447],[100.43592,16.97275],[100.45143,16.97081],[100.47313,16.97749],[100.48593,16.977],[100.48184,16.98911],[100.47804,16.99417],[100.45797,17.01328],[100.46139,17.02343],[100.45704,17.02935],[100.46267,17.03713],[100.45406,17.04388],[100.45257,17.04992],[100.45946,17.05457],[100.46336,17.06651],[100.47635,17.08138],[100.48304,17.09229],[100.48706,17.09014],[100.50058,17.09333],[100.50825,17.102],[100.52628,17.10026],[100.52239,17.11398],[100.49758,17.11881],[100.4921,17.12458],[100.49535,17.14163],[100.49404,17.14879],[100.49991,17.1521],[100.498,17.16045],[100.50082,17.167],[100.49306,17.18021],[100.48951,17.19903],[100.48275,17.19604],[100.46932,17.20038],[100.46389,17.19992],[100.45462,17.20446],[100.43962,17.21967],[100.43302,17.23391],[100.4301,17.24624],[100.43834,17.24889],[100.45294,17.25052],[100.46118,17.25402],[100.47448,17.26313],[100.46293,17.27585],[100.46421,17.28493],[100.45531,17.29742],[100.44796,17.30185],[100.44402,17.31024],[100.43543,17.31487],[100.42914,17.31295],[100.42065,17.32275],[100.40575,17.32618],[100.39732,17.33995],[100.39947,17.35542],[100.38974,17.36458],[100.38343,17.37685],[100.37115,17.3833],[100.37165,17.3911]]]}}