{"type":"Feature","properties":{"id":"LBR.6.1","name":"Suehn Mecca","level":2,"country":"LBR"},"geometry":{"type":"Polygon","coordinates":[[[-10.68078,6.84601],[-10.67719,6.83145],[-10.68502,6.82364],[-10.68259,6.79332],[-10.67945,6.78104],[-10.68159,6.76948],[-10.67413,6.75404],[-10.66397,6.74578],[-10.67016,6.7383],[-10.69321,6.72899],[-10.71608,6.71559],[-10.73728,6.68712],[-10.73776,6.67167],[-10.72649,6.64863],[-10.74046,6.63172],[-10.74902,6.6089],[-10.74899,6.58162],[-10.74545,6.57652],[-10.73725,6.57183],[-10.72742,6.55176],[-10.71395,6.56362],[-10.71412,6.57907],[-10.70819,6.58704],[-10.69657,6.59219],[-10.66541,6.59251],[-10.65724,6.58999],[-10.62974,6.59654],[-10.59688,6.60824],[-10.59073,6.61856],[-10.60843,6.63275],[-10.61118,6.64787],[-10.60197,6.68008],[-10.58787,6.69307],[-10.59782,6.71181],[-10.59334,6.71818],[-10.57394,6.72788],[-10.57417,6.76776],[-10.56649,6.7765],[-10.56526,6.78854],[-10.55632,6.80876],[-10.53172,6.82184],[-10.50932,6.82679],[-10.5105,6.83626],[-10.50421,6.86123],[-10.537,6.86836],[-10.5441,6.87552],[-10.57743,6.88117],[-10.59624,6.87768],[-10.60616,6.87903],[-10.64068,6.87474],[-10.64075,6.86725],[-10.65513,6.84768],[-10.68078,6.84601]]]}}