{"type":"Feature","properties":{"id":"LBR.2.2","name":"Gounwolaila","level":2,"country":"LBR"},"geometry":{"type":"Polygon","coordinates":[[[-9.97652,7.30859],[-9.98844,7.29755],[-10.00836,7.29064],[-10.02448,7.27551],[-10.0629,7.25072],[-10.06871,7.23732],[-10.11709,7.19998],[-10.11027,7.18362],[-10.09666,7.17131],[-10.10567,7.15197],[-10.11404,7.14764],[-10.10725,7.1273],[-10.1134,7.11454],[-10.1253,7.09971],[-10.11875,7.09474],[-10.11511,7.07985],[-10.10187,7.04434],[-10.10272,7.03945],[-10.09448,7.03993],[-10.0774,7.05054],[-10.07085,7.05849],[-10.06417,7.07712],[-10.04567,7.0795],[-10.02681,7.09454],[-10.01241,7.09543],[-10.0106,7.10982],[-9.97758,7.12588],[-9.94598,7.13696],[-9.92461,7.12708],[-9.90096,7.14336],[-9.90598,7.15413],[-9.89526,7.16009],[-9.87888,7.15976],[-9.86603,7.16828],[-9.86605,7.17777],[-9.85269,7.18447],[-9.8458,7.18211],[-9.83058,7.19736],[-9.8166,7.20572],[-9.79295,7.22739],[-9.79085,7.24596],[-9.78063,7.25635],[-9.76935,7.26018],[-9.78189,7.2788],[-9.76518,7.29958],[-9.758,7.32703],[-9.75805,7.33702],[-9.77822,7.35287],[-9.81056,7.37134],[-9.82225,7.37338],[-9.83787,7.36425],[-9.85193,7.3481],[-9.88285,7.33809],[-9.89694,7.33806],[-9.90689,7.33049],[-9.93024,7.31912],[-9.97652,7.30859]]]}}