{"type":"Feature","properties":{"id":"LBR.13.14","name":"Garr-Bain","level":2,"country":"LBR"},"geometry":{"type":"Polygon","coordinates":[[[-8.79605,7.12767],[-8.78493,7.17202],[-8.78129,7.20151],[-8.78476,7.25458],[-8.78799,7.27705],[-8.79731,7.28844],[-8.83774,7.30981],[-8.84481,7.30622],[-8.83608,7.28939],[-8.83844,7.27431],[-8.85254,7.26359],[-8.86127,7.26661],[-8.86631,7.25756],[-8.88007,7.25723],[-8.8935,7.26494],[-8.91129,7.26628],[-8.92136,7.28975],[-8.94418,7.2864],[-8.93848,7.27701],[-8.96097,7.27366],[-8.96265,7.26168],[-8.97524,7.25163],[-9.00042,7.25205],[-9.00251,7.24744],[-9.03314,7.24073],[-9.04111,7.22523],[-9.06167,7.20805],[-9.07887,7.20469],[-9.09356,7.21265],[-9.1059,7.19943],[-9.11231,7.18421],[-9.1073,7.17896],[-9.10153,7.18388],[-9.10272,7.19931],[-9.08909,7.2022],[-9.08834,7.1869],[-9.07212,7.17749],[-9.06307,7.14548],[-9.0397,7.14662],[-9.03894,7.13419],[-9.02047,7.13909],[-9.00389,7.13758],[-8.99718,7.14266],[-8.97976,7.16093],[-8.9432,7.16582],[-8.92209,7.16167],[-8.81805,7.14997],[-8.79605,7.12767]]]}}