{"type":"Feature","properties":{"id":"LBR.3.8","name":"Kpi","level":2,"country":"LBR"},"geometry":{"type":"Polygon","coordinates":[[[-8.17785,4.89084],[-8.17792,4.90133],[-8.18399,4.91257],[-8.1825,4.93044],[-8.18747,4.95684],[-8.17407,4.96477],[-8.1689,4.97724],[-8.16685,4.99623],[-8.13598,4.99561],[-8.12592,4.98803],[-8.12418,4.98022],[-8.13115,4.94155],[-8.09256,4.93964],[-8.07614,4.93594],[-8.04888,4.94332],[-8.04628,4.96408],[-8.03982,4.97687],[-8.04336,4.98373],[-8.03678,5.013],[-8.0307,5.03026],[-8.04921,5.0366],[-8.07893,5.03789],[-8.10545,5.03109],[-8.12559,5.04074],[-8.13565,5.04125],[-8.1716,5.03342],[-8.18779,5.02394],[-8.19637,5.00882],[-8.19957,4.98796],[-8.20966,4.97678],[-8.22288,4.96828],[-8.23798,4.93958],[-8.22522,4.93036],[-8.21734,4.91436],[-8.20403,4.90872],[-8.19045,4.89454],[-8.17785,4.89084]]]}}