{"type":"Feature","properties":{"id":"ROU.34.110","name":"OSTRA","level":2,"country":"ROU"},"geometry":{"type":"Polygon","coordinates":[[[25.808,47.31606],[25.81062,47.32313],[25.82393,47.33322],[25.82569,47.33894],[25.8217,47.34857],[25.81157,47.35596],[25.8142,47.36306],[25.79905,47.37832],[25.80243,47.38788],[25.80151,47.39713],[25.77906,47.39794],[25.77363,47.41047],[25.76887,47.41429],[25.74457,47.42005],[25.70168,47.40081],[25.68311,47.39021],[25.6773,47.39344],[25.66269,47.38315],[25.66627,47.37103],[25.67291,47.36479],[25.66809,47.35725],[25.67302,47.34934],[25.67345,47.34019],[25.67964,47.33684],[25.68849,47.32382],[25.69989,47.31905],[25.70589,47.31352],[25.71633,47.3114],[25.72806,47.30454],[25.74085,47.31017],[25.74681,47.32157],[25.76407,47.31781],[25.77295,47.32095],[25.79455,47.31922],[25.808,47.31606]]]}}