{"type":"Feature","properties":{"id":"ROU.1.3","name":"BOTOSESTI-PAIA","level":2,"country":"ROU"},"geometry":{"type":"Polygon","coordinates":[[[23.31426,44.3932],[23.31427,44.41443],[23.29006,44.41216],[23.28526,44.42535],[23.26637,44.42382],[23.23015,44.43462],[23.21018,44.43627],[23.20518,44.43606],[23.19719,44.41377],[23.17827,44.42422],[23.16641,44.41214],[23.19985,44.39205],[23.21743,44.38652],[23.22294,44.38319],[23.24482,44.37967],[23.24287,44.3885],[23.24604,44.39733],[23.25816,44.39515],[23.262,44.39796],[23.31426,44.3932]]]}}