{"type":"Feature","properties":{"id":"ROU.22.67","name":"CHIBED","level":2,"country":"ROU"},"geometry":{"type":"Polygon","coordinates":[[[24.98329,46.49548],[24.99071,46.50004],[24.99791,46.50934],[25.00453,46.51023],[25.01787,46.52748],[25.01411,46.52974],[25.02239,46.54112],[25.01042,46.5435],[25.00545,46.54933],[24.99674,46.54731],[24.97311,46.56963],[24.9674,46.57831],[24.95404,46.5748],[24.94857,46.5699],[24.94937,46.56152],[24.93976,46.55631],[24.92826,46.54624],[24.91906,46.54262],[24.9198,46.53417],[24.9349,46.5268],[24.96115,46.50977],[24.96795,46.50008],[24.98329,46.49548]]]}}