{"type":"Feature","properties":{"id":"ROU.5.7","name":"TATARASTII DE JOS","level":2,"country":"ROU"},"geometry":{"type":"Polygon","coordinates":[[[25.24662,44.32391],[25.23217,44.33864],[25.2371,44.34084],[25.22419,44.35847],[25.23468,44.36322],[25.23111,44.37765],[25.21621,44.38652],[25.24963,44.405],[25.24007,44.42247],[25.23477,44.42425],[25.22443,44.43662],[25.20295,44.45645],[25.18846,44.45055],[25.18057,44.44756],[25.19342,44.43565],[25.17136,44.42168],[25.18555,44.4074],[25.14922,44.38052],[25.10699,44.36189],[25.10531,44.35834],[25.12877,44.33962],[25.12408,44.33826],[25.13816,44.32562],[25.14365,44.32758],[25.14924,44.31794],[25.16165,44.3168],[25.16583,44.31255],[25.16624,44.30647],[25.18865,44.31381],[25.20307,44.31524],[25.21784,44.3117],[25.24662,44.32391]]]}}