{"type":"Feature","properties":{"id":"ROU.14.30","name":"SOPOTU NOU","level":2,"country":"ROU"},"geometry":{"type":"Polygon","coordinates":[[[21.91931,44.75435],[21.92003,44.75882],[21.93305,44.76547],[21.93296,44.77099],[21.94111,44.77369],[21.9436,44.78094],[21.92658,44.78236],[21.92308,44.78946],[21.91137,44.79202],[21.904,44.78318],[21.89256,44.79133],[21.88809,44.79883],[21.89237,44.8046],[21.87849,44.81941],[21.87782,44.82895],[21.8662,44.82854],[21.85515,44.83814],[21.84989,44.83682],[21.84283,44.84445],[21.83642,44.84586],[21.82054,44.85528],[21.816,44.84583],[21.81503,44.83656],[21.81879,44.8275],[21.80501,44.82926],[21.80575,44.81671],[21.80346,44.8119],[21.78237,44.79916],[21.77403,44.78707],[21.80048,44.78418],[21.81078,44.7788],[21.81736,44.77158],[21.82848,44.76695],[21.83536,44.77134],[21.84751,44.75764],[21.8613,44.75088],[21.87141,44.75137],[21.89331,44.75934],[21.90222,44.75275],[21.91931,44.75435]]]}}