{"type":"Feature","properties":{"id":"ROU.39.46","name":"ALBESTI","level":2,"country":"ROU"},"geometry":{"type":"Polygon","coordinates":[[[27.91378,46.49404],[27.9056,46.49804],[27.90184,46.50555],[27.92465,46.51318],[27.9249,46.52161],[27.91816,46.53629],[27.91648,46.54639],[27.9011,46.54086],[27.87628,46.54239],[27.871,46.54114],[27.85651,46.5487],[27.8431,46.54275],[27.83636,46.54513],[27.83963,46.55207],[27.83216,46.55408],[27.82278,46.55601],[27.80597,46.55032],[27.81158,46.53959],[27.81094,46.53385],[27.81451,46.52109],[27.81469,46.50544],[27.83356,46.48657],[27.83107,46.4766],[27.82122,46.46925],[27.82635,46.46319],[27.82324,46.45881],[27.8314,46.45898],[27.8396,46.46425],[27.85518,46.46186],[27.84916,46.47901],[27.87092,46.48569],[27.87768,46.47493],[27.8906,46.47688],[27.89001,46.48948],[27.89569,46.49275],[27.90633,46.49137],[27.91378,46.49404]]]}}