{"type":"Feature","properties":{"id":"ROU.23.56","name":"PLOPIS","level":2,"country":"ROU"},"geometry":{"type":"Polygon","coordinates":[[[22.65026,47.05645],[22.64716,47.06301],[22.65228,47.07267],[22.66124,47.08056],[22.6609,47.08462],[22.67283,47.10063],[22.6815,47.10275],[22.68592,47.10801],[22.70181,47.11408],[22.71586,47.12245],[22.71612,47.12985],[22.72779,47.1397],[22.71717,47.13674],[22.70469,47.13667],[22.69446,47.1433],[22.68987,47.15587],[22.68537,47.1581],[22.68351,47.15959],[22.6613,47.15057],[22.64611,47.13757],[22.6338,47.13724],[22.6246,47.13114],[22.6071,47.12875],[22.5999,47.1255],[22.57205,47.11991],[22.56668,47.12175],[22.55253,47.11509],[22.54344,47.1155],[22.53013,47.10984],[22.5143,47.10914],[22.53722,47.09969],[22.54502,47.08803],[22.56858,47.08245],[22.57477,47.0756],[22.58405,47.07295],[22.60058,47.06411],[22.63487,47.05659],[22.65026,47.05645]]]}}