{"type":"Feature","properties":{"id":"ROU.22.46","name":"EREMITU","level":2,"country":"ROU"},"geometry":{"type":"Polygon","coordinates":[[[24.89737,46.61701],[24.90697,46.6152],[24.91176,46.62331],[24.91853,46.62706],[24.93401,46.62249],[24.94287,46.62481],[24.96454,46.62347],[24.99672,46.63245],[25.0055,46.63825],[25.00326,46.64717],[25.02212,46.65244],[25.02961,46.65955],[25.02831,46.66347],[25.02429,46.67255],[25.03354,46.68567],[25.02589,46.6908],[25.02253,46.69792],[25.0151,46.70089],[25.00387,46.69869],[24.97465,46.68597],[24.955,46.68376],[24.94598,46.68658],[24.92347,46.67883],[24.91255,46.67014],[24.89972,46.66638],[24.89162,46.66973],[24.8736,46.66887],[24.86848,46.66597],[24.8666,46.65822],[24.86061,46.65587],[24.85696,46.64431],[24.84639,46.63991],[24.84605,46.62864],[24.83095,46.61817],[24.8326,46.61504],[24.86187,46.61244],[24.88209,46.61835],[24.89737,46.61701]]]}}