{"type":"Feature","properties":{"id":"ROU.41.27","name":"GLINA","level":2,"country":"ROU"},"geometry":{"type":"Polygon","coordinates":[[[26.28668,44.34593],[26.28592,44.35295],[26.25883,44.36554],[26.26237,44.38577],[26.26172,44.3979],[26.26837,44.40559],[26.26006,44.40925],[26.25242,44.41654],[26.21816,44.41266],[26.21118,44.40636],[26.21207,44.39565],[26.22158,44.39605],[26.22706,44.3841],[26.22144,44.37672],[26.21902,44.36582],[26.24385,44.35265],[26.23123,44.34243],[26.25252,44.33024],[26.26441,44.33613],[26.28036,44.34894],[26.28668,44.34593]]]}}