{"type":"Feature","properties":{"id":"ROU.34.55","name":"BRODINA","level":2,"country":"ROU"},"geometry":{"type":"Polygon","coordinates":[[[25.49473,47.82106],[25.50261,47.82852],[25.52218,47.83656],[25.52015,47.84201],[25.50811,47.84861],[25.51858,47.85542],[25.51664,47.86275],[25.50084,47.86963],[25.49657,47.87434],[25.50322,47.88113],[25.48433,47.89188],[25.4895,47.90027],[25.47565,47.90849],[25.46754,47.91614],[25.45461,47.92364],[25.45527,47.92771],[25.34672,47.91601],[25.34014,47.91408],[25.3109,47.91434],[25.31639,47.90748],[25.33547,47.89688],[25.34259,47.88975],[25.35278,47.88653],[25.35503,47.88128],[25.33596,47.86852],[25.31966,47.86823],[25.30803,47.84358],[25.29685,47.83627],[25.29132,47.82473],[25.29474,47.82011],[25.3079,47.81601],[25.30881,47.80554],[25.31566,47.80478],[25.31846,47.79272],[25.33753,47.77691],[25.34298,47.76535],[25.35594,47.76827],[25.35935,47.77327],[25.37753,47.77485],[25.38036,47.77875],[25.39734,47.7817],[25.41457,47.79463],[25.43289,47.79453],[25.43393,47.80256],[25.44713,47.8135],[25.46047,47.80987],[25.4724,47.81059],[25.47543,47.81584],[25.49473,47.82106]]]}}