{"type":"Feature","properties":{"id":"ROU.34.11","name":"BOSANCI","level":2,"country":"ROU"},"geometry":{"type":"Polygon","coordinates":[[[26.24706,47.52576],[26.26374,47.53311],[26.27369,47.54598],[26.29328,47.53966],[26.29086,47.54715],[26.29898,47.54989],[26.30919,47.5431],[26.31879,47.54004],[26.33619,47.53316],[26.33719,47.53987],[26.33003,47.54846],[26.33545,47.55015],[26.33652,47.56114],[26.33144,47.56552],[26.33599,47.58257],[26.3413,47.58916],[26.33667,47.59866],[26.34562,47.60687],[26.33172,47.6146],[26.31803,47.60723],[26.29933,47.6075],[26.29769,47.60221],[26.27897,47.59354],[26.26671,47.60604],[26.25313,47.60105],[26.25776,47.59446],[26.24989,47.59158],[26.23839,47.59337],[26.23972,47.58783],[26.25039,47.5705],[26.23994,47.57054],[26.25148,47.5536],[26.25282,47.54222],[26.24811,47.53787],[26.23463,47.53533],[26.23238,47.53204],[26.24706,47.52576]]]}}