{"type":"Feature","properties":{"id":"ROU.35.1","name":"HEMEIUS","level":2,"country":"ROU"},"geometry":{"type":"Polygon","coordinates":[[[26.84353,46.65774],[26.83462,46.65161],[26.82309,46.65317],[26.81146,46.64359],[26.81255,46.63338],[26.8089,46.62476],[26.81928,46.61745],[26.83173,46.59773],[26.83242,46.6088],[26.84374,46.59865],[26.86391,46.60184],[26.87388,46.60644],[26.8804,46.61341],[26.88723,46.61312],[26.89742,46.60625],[26.90032,46.61361],[26.89067,46.62079],[26.88683,46.63058],[26.87348,46.64207],[26.85403,46.65099],[26.84353,46.65774]]]}}