{"type":"Feature","properties":{"id":"ROU.3.41","name":"CUJMIR","level":2,"country":"ROU"},"geometry":{"type":"Polygon","coordinates":[[[22.9248,44.17746],[22.93094,44.17754],[22.95306,44.19257],[22.96274,44.19439],[22.9632,44.20426],[22.97492,44.20264],[23.00615,44.20267],[23.00597,44.21431],[22.99645,44.21978],[22.96253,44.22007],[22.96252,44.2253],[22.94796,44.23216],[22.93945,44.2231],[22.9004,44.23103],[22.89513,44.22742],[22.86995,44.22851],[22.8621,44.22624],[22.8685,44.20558],[22.87631,44.19357],[22.87583,44.1825],[22.87979,44.17892],[22.89478,44.17717],[22.9248,44.17746]]]}}