{"type":"Feature","properties":{"id":"ROU.21.6","name":"ARDUSAT","level":2,"country":"ROU"},"geometry":{"type":"Polygon","coordinates":[[[23.42264,47.61555],[23.41441,47.62366],[23.39909,47.62947],[23.40139,47.63577],[23.41282,47.64739],[23.39439,47.65216],[23.40055,47.65692],[23.39696,47.66629],[23.38947,47.66689],[23.38268,47.67238],[23.37353,47.67172],[23.36335,47.6654],[23.356,47.66766],[23.34405,47.66116],[23.33435,47.65249],[23.33995,47.64383],[23.34679,47.63175],[23.34213,47.62005],[23.35185,47.61579],[23.38583,47.61551],[23.38199,47.60711],[23.39101,47.60427],[23.39805,47.59657],[23.40174,47.59691],[23.42015,47.6091],[23.42264,47.61555]]]}}