{"type":"Feature","properties":{"id":"ROU.7.4","name":"LUPSANU","level":2,"country":"ROU"},"geometry":{"type":"Polygon","coordinates":[[[27.01795,44.32985],[27.02692,44.33879],[27.03278,44.34301],[27.01948,44.36034],[27.02626,44.37284],[27.01958,44.37805],[27.02877,44.39646],[26.99927,44.40011],[26.99776,44.39787],[26.92415,44.40666],[26.93127,44.43534],[26.92021,44.43541],[26.91197,44.42786],[26.89738,44.40727],[26.87864,44.40351],[26.86704,44.41259],[26.8566,44.40389],[26.85288,44.39332],[26.86281,44.3802],[26.89549,44.35443],[26.88709,44.34763],[26.90788,44.33477],[26.90586,44.3256],[26.91141,44.33595],[26.9314,44.32173],[26.94674,44.33297],[26.95335,44.35873],[26.98189,44.35398],[26.98125,44.34568],[26.97431,44.34597],[26.97138,44.33715],[27.01614,44.33016],[27.01795,44.32985]]]}}