{"type":"Feature","properties":{"id":"ROU.38.12","name":"BRAHASESTI","level":2,"country":"ROU"},"geometry":{"type":"Polygon","coordinates":[[[27.39051,46.01181],[27.38658,46.02051],[27.39251,46.03579],[27.38611,46.04352],[27.38724,46.0511],[27.3786,46.05613],[27.38194,46.06838],[27.38899,46.07664],[27.36854,46.08112],[27.3227,46.0791],[27.31959,46.08614],[27.29631,46.08447],[27.28514,46.07935],[27.28358,46.06722],[27.28995,46.06121],[27.30306,46.06245],[27.31807,46.0443],[27.32695,46.02219],[27.33037,46.01902],[27.34765,46.02218],[27.35503,46.01886],[27.35577,46.01054],[27.39051,46.01181]]]}}