{"type":"Feature","properties":{"id":"ROU.2.43","name":"VLADIMIR","level":2,"country":"ROU"},"geometry":{"type":"Polygon","coordinates":[[[23.57459,44.78815],[23.57219,44.79389],[23.59269,44.80717],[23.60033,44.82213],[23.60557,44.82649],[23.59382,44.83714],[23.59228,44.84377],[23.58433,44.85104],[23.58712,44.85809],[23.58128,44.87456],[23.57102,44.87547],[23.55424,44.87149],[23.55678,44.86701],[23.55298,44.85744],[23.54597,44.84897],[23.53363,44.84731],[23.53062,44.84272],[23.51311,44.82814],[23.52522,44.82091],[23.51702,44.81492],[23.52694,44.81175],[23.52268,44.79749],[23.51592,44.79705],[23.50689,44.77251],[23.51807,44.76719],[23.51605,44.76145],[23.52761,44.76082],[23.54835,44.76523],[23.55442,44.76128],[23.57301,44.7638],[23.57849,44.77635],[23.57459,44.78815]]]}}