{"type":"Feature","properties":{"id":"ROU.35.20","name":"GAICEANA","level":2,"country":"ROU"},"geometry":{"type":"Polygon","coordinates":[[[27.16625,46.34295],[27.17255,46.34295],[27.18163,46.33511],[27.18932,46.33686],[27.21082,46.32186],[27.21827,46.31005],[27.22534,46.30873],[27.23766,46.29894],[27.24505,46.29928],[27.2561,46.3005],[27.26137,46.30645],[27.27895,46.31156],[27.27295,46.33408],[27.26468,46.3397],[27.25491,46.35503],[27.24579,46.36931],[27.2333,46.38105],[27.22757,46.39399],[27.21654,46.39616],[27.20951,46.40275],[27.20717,46.41372],[27.1951,46.42757],[27.18678,46.42772],[27.18839,46.40839],[27.17614,46.42096],[27.16261,46.42437],[27.15664,46.42332],[27.1543,46.41816],[27.15878,46.40853],[27.15175,46.40017],[27.15683,46.38233],[27.15585,46.36913],[27.16184,46.35714],[27.16625,46.34295]]]}}