{"type":"Feature","properties":{"id":"ROU.30.3","name":"LUPENI","level":2,"country":"ROU"},"geometry":{"type":"Polygon","coordinates":[[[25.26447,46.34644],[25.25974,46.35111],[25.25843,46.36006],[25.26555,46.3633],[25.26838,46.3775],[25.25942,46.39166],[25.26411,46.39819],[25.27563,46.40221],[25.28935,46.43396],[25.28489,46.44582],[25.27853,46.45526],[25.2884,46.45453],[25.30757,46.45823],[25.312,46.46994],[25.32273,46.47168],[25.3256,46.48488],[25.33763,46.49379],[25.32387,46.49754],[25.31457,46.51004],[25.29275,46.50121],[25.26938,46.49928],[25.26201,46.48041],[25.26092,46.46794],[25.25107,46.47001],[25.2364,46.46878],[25.23871,46.45714],[25.22443,46.44811],[25.22936,46.44071],[25.20984,46.4417],[25.21351,46.44805],[25.18843,46.44664],[25.18017,46.44881],[25.17183,46.44263],[25.16345,46.4468],[25.14128,46.451],[25.12948,46.43931],[25.13156,46.43028],[25.12773,46.41469],[25.12573,46.41262],[25.13594,46.41625],[25.15711,46.41584],[25.17162,46.40904],[25.16672,46.39969],[25.1764,46.39077],[25.1777,46.38077],[25.18412,46.37585],[25.18235,46.3685],[25.19647,46.35402],[25.19298,46.34442],[25.19507,46.33696],[25.20939,46.33246],[25.21367,46.32817],[25.22874,46.34269],[25.23828,46.34287],[25.24912,46.34993],[25.26447,46.34644]]]}}