{"type":"Feature","properties":{"id":"ROU.37.11","name":"VADU PASII","level":2,"country":"ROU"},"geometry":{"type":"Polygon","coordinates":[[[26.93449,45.11793],[26.96919,45.15226],[26.99343,45.18247],[26.96455,45.19027],[26.95026,45.19764],[26.92572,45.20722],[26.91418,45.19678],[26.9012,45.20271],[26.88134,45.20786],[26.8679,45.21342],[26.85246,45.21534],[26.84628,45.20952],[26.84017,45.19476],[26.83383,45.19151],[26.83531,45.17548],[26.83024,45.16798],[26.85934,45.15921],[26.87454,45.14849],[26.87794,45.14012],[26.88487,45.13288],[26.90142,45.12732],[26.90845,45.12158],[26.9006,45.11879],[26.90547,45.11095],[26.91401,45.10895],[26.93449,45.11793]]]}}