{"type":"Feature","properties":{"id":"ROU.9.45","name":"COMANA","level":2,"country":"ROU"},"geometry":{"type":"Polygon","coordinates":[[[26.14467,44.0814],[26.16943,44.09959],[26.18665,44.10717],[26.18497,44.14661],[26.18988,44.14821],[26.19267,44.18164],[26.20131,44.18687],[26.19267,44.1872],[26.19509,44.19883],[26.18168,44.21206],[26.16587,44.21561],[26.16178,44.23597],[26.15475,44.24],[26.1454,44.2345],[26.14622,44.2321],[26.13444,44.22158],[26.11716,44.22916],[26.10723,44.22077],[26.10692,44.21314],[26.10019,44.20848],[26.09917,44.20178],[26.07653,44.1952],[26.08443,44.17589],[26.08037,44.16208],[26.10225,44.16024],[26.1054,44.14479],[26.08455,44.14256],[26.08665,44.13039],[26.11017,44.11839],[26.11732,44.12239],[26.13346,44.09909],[26.12329,44.09725],[26.12588,44.09023],[26.13854,44.09169],[26.14467,44.0814]]]}}