{"type":"Feature","properties":{"id":"ROU.19.44","name":"CHINTENI","level":2,"country":"ROU"},"geometry":{"type":"Polygon","coordinates":[[[23.70109,46.88238],[23.68225,46.88693],[23.67009,46.89346],[23.65306,46.89837],[23.6389,46.89836],[23.61894,46.89521],[23.61709,46.9047],[23.62497,46.90725],[23.608,46.92066],[23.60272,46.91704],[23.57964,46.91827],[23.57564,46.91303],[23.56024,46.91286],[23.55157,46.90694],[23.53951,46.90293],[23.53221,46.90779],[23.51419,46.93415],[23.50688,46.93437],[23.49619,46.9292],[23.49068,46.9303],[23.48726,46.92507],[23.47698,46.92026],[23.47571,46.91335],[23.4663,46.91359],[23.45235,46.90151],[23.45473,46.89494],[23.471,46.88573],[23.47876,46.8885],[23.49702,46.87782],[23.50493,46.87704],[23.52485,46.85529],[23.52546,46.84489],[23.54216,46.83446],[23.55723,46.84559],[23.56854,46.83796],[23.57681,46.84624],[23.56521,46.84953],[23.57011,46.85667],[23.58604,46.85737],[23.60558,46.86183],[23.62132,46.86008],[23.65531,46.86836],[23.66971,46.86828],[23.67884,46.86103],[23.68918,46.86791],[23.69364,46.86217],[23.70785,46.86677],[23.70053,46.87858],[23.70109,46.88238]]]}}