{"type":"Feature","properties":{"id":"ROU.37.3","name":"GLODEANU-SILISTEA","level":2,"country":"ROU"},"geometry":{"type":"Polygon","coordinates":[[[26.6787,44.80878],[26.68116,44.81071],[26.71399,44.81952],[26.71875,44.80918],[26.7766,44.81511],[26.81021,44.79534],[26.81685,44.80408],[26.83043,44.79768],[26.84646,44.81495],[26.86582,44.80608],[26.87839,44.82026],[26.88468,44.82901],[26.87951,44.83175],[26.89307,44.84582],[26.88267,44.85611],[26.8697,44.85008],[26.85524,44.86632],[26.80838,44.84438],[26.77143,44.88351],[26.7657,44.8857],[26.73639,44.87248],[26.73203,44.87787],[26.72121,44.87041],[26.70194,44.86133],[26.69605,44.866],[26.68707,44.86026],[26.68676,44.85454],[26.67096,44.81115],[26.6787,44.80878]]]}}