{"type":"Feature","properties":{"id":"ROU.35.40","name":"FARAOANI","level":2,"country":"ROU"},"geometry":{"type":"Polygon","coordinates":[[[26.96474,46.42097],[26.95666,46.43227],[26.96167,46.43782],[26.9581,46.44758],[26.94834,46.44911],[26.93767,46.44674],[26.93292,46.45132],[26.89311,46.45293],[26.88299,46.45032],[26.87671,46.45227],[26.85112,46.44788],[26.83316,46.45208],[26.81783,46.4503],[26.8203,46.44821],[26.81552,46.43653],[26.81833,46.43128],[26.82665,46.43129],[26.86117,46.41259],[26.87976,46.40845],[26.88641,46.40947],[26.89584,46.41822],[26.90704,46.42194],[26.92263,46.41551],[26.9375,46.42027],[26.94854,46.4199],[26.95074,46.41545],[26.96474,46.42097]]]}}