{"type":"Feature","properties":{"id":"ROU.17.12","name":"SUGAG","level":2,"country":"ROU"},"geometry":{"type":"Polygon","coordinates":[[[23.69759,45.49863],[23.68487,45.49564],[23.67298,45.49605],[23.66507,45.49338],[23.65395,45.50519],[23.64777,45.52708],[23.63875,45.53436],[23.6361,45.54397],[23.6283,45.54783],[23.61063,45.56365],[23.61579,45.56666],[23.61798,45.58093],[23.62937,45.58852],[23.64368,45.58836],[23.64891,45.59427],[23.6471,45.60702],[23.63663,45.6118],[23.63232,45.62157],[23.63341,45.62866],[23.64453,45.62994],[23.6449,45.64006],[23.62535,45.65891],[23.61629,45.66044],[23.61264,45.66524],[23.59712,45.67033],[23.59066,45.67634],[23.5968,45.6829],[23.61087,45.68749],[23.58906,45.70051],[23.59657,45.70352],[23.61687,45.73489],[23.6168,45.74528],[23.62223,45.75042],[23.63189,45.75233],[23.64126,45.74853],[23.64976,45.74906],[23.65936,45.76119],[23.6492,45.7657],[23.63874,45.77808],[23.62788,45.77928],[23.62198,45.78331],[23.62447,45.79444],[23.61656,45.80191],[23.62495,45.80832],[23.61602,45.80294],[23.60686,45.80572],[23.58592,45.80257],[23.57611,45.79702],[23.56143,45.7786],[23.54358,45.77136],[23.54133,45.7604],[23.52591,45.74355],[23.53895,45.73135],[23.54861,45.71802],[23.54697,45.70975],[23.558,45.70122],[23.55305,45.69718],[23.55541,45.6867],[23.54685,45.68782],[23.54026,45.68425],[23.5307,45.68573],[23.52483,45.67604],[23.52658,45.67129],[23.52857,45.65878],[23.53357,45.65372],[23.54763,45.64704],[23.55547,45.63956],[23.55588,45.62871],[23.56277,45.61913],[23.5564,45.61507],[23.55927,45.60858],[23.551,45.60505],[23.54452,45.59698],[23.53623,45.59547],[23.52728,45.58827],[23.52416,45.57579],[23.50932,45.56547],[23.51919,45.55771],[23.52327,45.55021],[23.5366,45.54981],[23.55153,45.53791],[23.55418,45.53064],[23.56883,45.52461],[23.57733,45.50755],[23.58463,45.49942],[23.59544,45.49234],[23.59187,45.48622],[23.59733,45.48077],[23.59728,45.47348],[23.61476,45.46198],[23.61304,45.45622],[23.62778,45.45877],[23.6406,45.45554],[23.6535,45.45841],[23.67643,45.4676],[23.68807,45.47703],[23.68985,45.48686],[23.69603,45.48793],[23.70362,45.49678],[23.69759,45.49863]]]}}