{"type":"Feature","properties":{"id":"ROU.15.24","name":"MOSNITA NOUA","level":2,"country":"ROU"},"geometry":{"type":"Polygon","coordinates":[[[21.39763,45.69497],[21.40119,45.69805],[21.40946,45.71618],[21.41136,45.72097],[21.40606,45.73136],[21.38402,45.737],[21.37215,45.73016],[21.36524,45.73602],[21.35893,45.75667],[21.35119,45.76849],[21.33626,45.76922],[21.33113,45.76175],[21.29757,45.75067],[21.29749,45.74147],[21.2886,45.72469],[21.27905,45.71487],[21.27212,45.71575],[21.26334,45.70194],[21.27038,45.70172],[21.27851,45.71111],[21.28542,45.70384],[21.27927,45.69885],[21.27662,45.68934],[21.28692,45.66916],[21.29673,45.6722],[21.30072,45.67834],[21.30793,45.67873],[21.32573,45.68656],[21.33771,45.67936],[21.34804,45.68286],[21.36898,45.68663],[21.37322,45.68976],[21.38987,45.69058],[21.39763,45.69497]]]}}