{"type":"Feature","properties":{"id":"ROU.2.39","name":"BOLBOSI","level":2,"country":"ROU"},"geometry":{"type":"Polygon","coordinates":[[[23.25733,44.74036],[23.24363,44.7459],[23.23781,44.75402],[23.2094,44.76371],[23.20408,44.77296],[23.19346,44.77842],[23.19024,44.7733],[23.17367,44.76651],[23.17251,44.76142],[23.1853,44.76013],[23.18458,44.75475],[23.17503,44.7399],[23.17236,44.73127],[23.1572,44.72003],[23.17031,44.71447],[23.18044,44.71607],[23.19339,44.71276],[23.20594,44.71349],[23.20581,44.70665],[23.22988,44.70685],[23.23802,44.70903],[23.24213,44.70188],[23.25941,44.70832],[23.26602,44.70695],[23.28039,44.72141],[23.27755,44.72645],[23.25733,44.74036]]]}}