{"type":"Feature","properties":{"id":"ROU.25.87","name":"MUSATESTI","level":2,"country":"ROU"},"geometry":{"type":"Polygon","coordinates":[[[24.72022,45.12606],[24.72734,45.1055],[24.73067,45.10199],[24.74679,45.10877],[24.73839,45.12096],[24.74802,45.12032],[24.75317,45.11488],[24.76875,45.11299],[24.77876,45.11486],[24.79489,45.10988],[24.81958,45.11609],[24.81341,45.12897],[24.81643,45.13335],[24.8106,45.15847],[24.80707,45.16094],[24.81219,45.17444],[24.80653,45.18812],[24.80864,45.19878],[24.80713,45.20707],[24.79877,45.21044],[24.8051,45.2216],[24.79069,45.24676],[24.77156,45.24799],[24.76401,45.24622],[24.75008,45.24964],[24.74572,45.26312],[24.72604,45.27591],[24.72656,45.28193],[24.71679,45.28583],[24.71492,45.29051],[24.71198,45.28966],[24.70661,45.27515],[24.70914,45.26795],[24.72041,45.25502],[24.71633,45.2456],[24.72927,45.23943],[24.72427,45.23276],[24.72953,45.22225],[24.72817,45.20347],[24.73934,45.20118],[24.74943,45.18043],[24.73659,45.18146],[24.74071,45.17154],[24.73288,45.16463],[24.73923,45.14762],[24.73174,45.1472],[24.72909,45.12732],[24.72022,45.12606]]]}}