{"type":"Feature","properties":{"id":"ROU.12.51","name":"SICULA","level":2,"country":"ROU"},"geometry":{"type":"Polygon","coordinates":[[[21.78001,46.40691],[21.79017,46.4294],[21.80274,46.4325],[21.80558,46.44644],[21.81941,46.46281],[21.82478,46.46166],[21.83938,46.49196],[21.83289,46.49436],[21.83634,46.50279],[21.83026,46.50603],[21.8109,46.50569],[21.80112,46.5106],[21.78995,46.51059],[21.77986,46.50709],[21.77676,46.51155],[21.76617,46.51242],[21.75062,46.50902],[21.74479,46.51468],[21.73606,46.51665],[21.72874,46.51476],[21.72175,46.52553],[21.69905,46.53252],[21.69336,46.53927],[21.68385,46.54182],[21.66752,46.53692],[21.6553,46.52383],[21.65572,46.51215],[21.64999,46.50406],[21.6505,46.4933],[21.65719,46.48488],[21.6671,46.48347],[21.67045,46.47792],[21.68588,46.4683],[21.67488,46.4641],[21.68179,46.45079],[21.69073,46.44932],[21.69645,46.4391],[21.69008,46.42615],[21.69627,46.41905],[21.71129,46.42237],[21.72687,46.41051],[21.72462,46.40469],[21.74042,46.40293],[21.74243,46.40634],[21.78001,46.40691]]]}}