{"type":"Feature","properties":{"id":"ROU.21.75","name":"DRAGOMIRESTI","level":2,"country":"ROU"},"geometry":{"type":"Polygon","coordinates":[[[24.28101,47.54539],[24.28763,47.54629],[24.29343,47.55568],[24.30195,47.55822],[24.30435,47.56646],[24.30078,47.57304],[24.30736,47.5784],[24.31383,47.58754],[24.32538,47.58971],[24.31146,47.59867],[24.32288,47.61289],[24.31656,47.62425],[24.32205,47.62975],[24.32064,47.63788],[24.31307,47.64675],[24.32049,47.66137],[24.32854,47.66618],[24.32557,47.6779],[24.31139,47.6809],[24.30606,47.68638],[24.29412,47.6882],[24.2813,47.68384],[24.27015,47.66819],[24.26076,47.66768],[24.26185,47.65217],[24.24825,47.63905],[24.24678,47.61922],[24.23768,47.61935],[24.23826,47.60657],[24.22543,47.59675],[24.22431,47.59297],[24.21224,47.59133],[24.20501,47.58015],[24.19983,47.58],[24.18788,47.57238],[24.19072,47.566],[24.18688,47.5611],[24.20059,47.54695],[24.21694,47.54817],[24.23013,47.53958],[24.24625,47.5343],[24.25854,47.5204],[24.26985,47.52375],[24.27801,47.52998],[24.27775,47.54117],[24.28101,47.54539]]]}}