{"type":"Feature","properties":{"id":"ROU.11.1","name":"BARAGANU","level":2,"country":"ROU"},"geometry":{"type":"Polygon","coordinates":[[[28.33236,44.05507],[28.35256,44.05414],[28.35044,44.04944],[28.37835,44.04878],[28.38135,44.05715],[28.41354,44.05697],[28.41749,44.05796],[28.43728,44.04948],[28.44289,44.06093],[28.44431,44.07603],[28.43556,44.07835],[28.4457,44.09003],[28.44519,44.09492],[28.45931,44.10161],[28.45799,44.10515],[28.44753,44.11144],[28.44308,44.11731],[28.43724,44.13057],[28.43769,44.13671],[28.42068,44.13727],[28.41851,44.13086],[28.39675,44.13303],[28.38222,44.13294],[28.37683,44.11444],[28.36716,44.11863],[28.36609,44.09307],[28.33912,44.09444],[28.32414,44.0876],[28.33751,44.0769],[28.33236,44.05507]]]}}