{"type":"Feature","properties":{"id":"ROU.12.11","name":"BATA","level":2,"country":"ROU"},"geometry":{"type":"Polygon","coordinates":[[[22.0862,45.94909],[22.10031,45.96366],[22.10784,45.96364],[22.11267,45.97299],[22.11329,45.9814],[22.12027,45.98513],[22.11794,45.99198],[22.10853,45.99605],[22.1202,46.00029],[22.11551,46.00939],[22.10502,46.009],[22.09951,46.01759],[22.08274,46.01793],[22.0792,46.03117],[22.06633,46.02356],[22.05808,46.03364],[22.05547,46.04495],[22.04846,46.04823],[22.04235,46.04433],[22.03409,46.04893],[22.02426,46.04528],[22.02176,46.03942],[22.00999,46.03218],[21.99845,46.02844],[21.98027,46.02855],[21.97459,46.01703],[21.96691,46.01444],[21.96475,46.00711],[21.9664,45.99427],[21.9813,45.9917],[21.9872,45.98847],[21.98788,45.97756],[21.99838,45.96795],[22.00892,45.97095],[22.02113,45.96999],[22.03315,45.96619],[22.03973,45.96847],[22.04701,45.96184],[22.06992,45.95913],[22.08078,45.95463],[22.0862,45.94909]]]}}