{"type":"Feature","properties":{"id":"ROU.33.39","name":"PODENII NOI","level":2,"country":"ROU"},"geometry":{"type":"Polygon","coordinates":[[[26.15139,45.07087],[26.16373,45.07568],[26.16878,45.07326],[26.18049,45.07671],[26.17884,45.08566],[26.19644,45.08819],[26.20045,45.08337],[26.2101,45.08603],[26.21998,45.0836],[26.23168,45.09473],[26.23638,45.10358],[26.23744,45.11597],[26.23336,45.12564],[26.23566,45.13512],[26.23056,45.1512],[26.22169,45.14445],[26.2158,45.14416],[26.20241,45.13299],[26.20122,45.12621],[26.17569,45.12678],[26.15857,45.12582],[26.15471,45.12096],[26.1497,45.11279],[26.14848,45.09102],[26.14633,45.07887],[26.15045,45.07065],[26.15139,45.07087]]]}}