{"type":"Feature","properties":{"id":"ROU.33.37","name":"SCORTENI","level":2,"country":"ROU"},"geometry":{"type":"Polygon","coordinates":[[[25.87713,45.0624],[25.87556,45.07475],[25.89753,45.07457],[25.89769,45.08228],[25.88375,45.08949],[25.88004,45.09683],[25.88595,45.10111],[25.87183,45.11168],[25.87533,45.11609],[25.90192,45.12381],[25.90191,45.12836],[25.89078,45.13942],[25.89164,45.1501],[25.86262,45.14921],[25.87164,45.13878],[25.86989,45.13482],[25.85566,45.1249],[25.85137,45.13147],[25.84003,45.13099],[25.83641,45.12071],[25.82351,45.11937],[25.81254,45.10661],[25.81441,45.0915],[25.80534,45.08531],[25.80726,45.08326],[25.82188,45.08316],[25.8248,45.07763],[25.83566,45.07178],[25.85952,45.06309],[25.87713,45.0624]]]}}