{"type":"Feature","properties":{"id":"ROU.14.43","name":"DOGNECEA","level":2,"country":"ROU"},"geometry":{"type":"Polygon","coordinates":[[[21.75401,45.2226],[21.75657,45.23869],[21.77135,45.24227],[21.77733,45.2671],[21.76887,45.27618],[21.77707,45.28471],[21.77675,45.28909],[21.78444,45.29524],[21.79053,45.30695],[21.79306,45.31916],[21.76522,45.32918],[21.75135,45.32258],[21.72566,45.32003],[21.72682,45.31099],[21.72194,45.30838],[21.72161,45.29828],[21.71282,45.2932],[21.71027,45.27692],[21.70139,45.27027],[21.68436,45.26188],[21.67346,45.25172],[21.6806,45.23989],[21.67239,45.22559],[21.68629,45.2169],[21.68628,45.20842],[21.70541,45.20776],[21.71954,45.19912],[21.73195,45.21531],[21.73624,45.21299],[21.75401,45.2226]]]}}