{"type":"Feature","properties":{"id":"ROU.5.105","name":"NASTURELU","level":2,"country":"ROU"},"geometry":{"type":"Polygon","coordinates":[[[25.49276,43.70392],[25.48098,43.72172],[25.46803,43.71419],[25.45493,43.71488],[25.45922,43.70825],[25.48052,43.70399],[25.48004,43.69877],[25.47013,43.69781],[25.47514,43.6901],[25.44612,43.68686],[25.41071,43.67775],[25.4126,43.67375],[25.39311,43.66917],[25.40148,43.65174],[25.40646,43.62066],[25.451,43.62839],[25.45055,43.63039],[25.47895,43.64092],[25.50833,43.64685],[25.5264,43.64497],[25.52577,43.65316],[25.5104,43.65144],[25.51001,43.65754],[25.52543,43.65783],[25.51927,43.69216],[25.52926,43.69795],[25.52024,43.69663],[25.51585,43.70344],[25.49712,43.69715],[25.49276,43.70392]],[[25.51577,43.69096],[25.50402,43.68132],[25.49645,43.68152],[25.51037,43.69276],[25.51577,43.69096]]]}}