{"type":"Feature","properties":{"id":"ROU.19.34","name":"CIURILA","level":2,"country":"ROU"},"geometry":{"type":"Polygon","coordinates":[[[23.55105,46.59722],[23.56634,46.60284],[23.5799,46.60271],[23.58367,46.60698],[23.58037,46.62398],[23.57653,46.62856],[23.58436,46.63299],[23.5926,46.63251],[23.59386,46.6401],[23.60187,46.64098],[23.60037,46.65338],[23.58882,46.66026],[23.59372,46.66544],[23.58328,46.67094],[23.5682,46.6904],[23.5672,46.69506],[23.55713,46.69026],[23.54787,46.7055],[23.53574,46.70578],[23.52925,46.70911],[23.5215,46.70439],[23.52359,46.69345],[23.51367,46.69471],[23.50744,46.69004],[23.50422,46.68758],[23.50958,46.67701],[23.52193,46.66222],[23.51215,46.65617],[23.51437,46.64733],[23.50872,46.6432],[23.49568,46.64158],[23.49133,46.62834],[23.48177,46.61757],[23.47093,46.61959],[23.46853,46.60749],[23.47592,46.59536],[23.49363,46.59547],[23.50288,46.60485],[23.50777,46.60228],[23.52521,46.60775],[23.52928,46.6002],[23.55105,46.59722]]]}}