{"type":"Feature","properties":{"id":"ROU.8.69","name":"DRAGOMIRESTI","level":2,"country":"ROU"},"geometry":{"type":"Polygon","coordinates":[[[25.35752,44.869],[25.36905,44.87901],[25.38474,44.86959],[25.39485,44.85799],[25.41086,44.86017],[25.41767,44.86896],[25.40344,44.87779],[25.41354,44.89142],[25.4048,44.89719],[25.41474,44.90176],[25.40928,44.90799],[25.39878,44.90012],[25.3856,44.90187],[25.37542,44.89865],[25.36463,44.90995],[25.37001,44.9173],[25.3599,44.93701],[25.34857,44.94172],[25.34289,44.93616],[25.32426,44.92924],[25.32476,44.92191],[25.30895,44.92057],[25.31173,44.90782],[25.31942,44.89921],[25.31591,44.8918],[25.32306,44.87433],[25.3332,44.88975],[25.35752,44.869]]]}}