{"type":"Feature","properties":{"id":"ROU.35.11","name":"BOGDANESTI","level":2,"country":"ROU"},"geometry":{"type":"Polygon","coordinates":[[[26.62965,46.15302],[26.626,46.16067],[26.64667,46.16705],[26.65252,46.17233],[26.67024,46.1767],[26.68087,46.19577],[26.69087,46.19423],[26.69994,46.19683],[26.71572,46.19662],[26.73376,46.20452],[26.73921,46.21163],[26.73666,46.2217],[26.72492,46.23689],[26.72294,46.24495],[26.71159,46.24595],[26.68369,46.24546],[26.6843,46.23524],[26.66239,46.22322],[26.66679,46.21739],[26.66971,46.20491],[26.65901,46.1898],[26.64093,46.16879],[26.62991,46.16261],[26.61465,46.16335],[26.60186,46.15537],[26.60299,46.14712],[26.62965,46.15302]]]}}