{"type":"Feature","properties":{"id":"ROU.27.21","name":"PERISANI","level":2,"country":"ROU"},"geometry":{"type":"Polygon","coordinates":[[[24.49129,45.32388],[24.48318,45.33188],[24.47259,45.32948],[24.47319,45.34011],[24.46948,45.34789],[24.47279,45.35768],[24.49601,45.35632],[24.50047,45.36314],[24.4991,45.37151],[24.49396,45.37862],[24.50435,45.37935],[24.50246,45.38932],[24.491,45.39931],[24.49053,45.40904],[24.48321,45.41617],[24.48479,45.42767],[24.47903,45.43766],[24.4856,45.4626],[24.4958,45.46464],[24.50495,45.46313],[24.51588,45.46595],[24.52498,45.47529],[24.52522,45.48946],[24.52787,45.49679],[24.51364,45.5108],[24.5119,45.51753],[24.51641,45.52262],[24.53235,45.52896],[24.54053,45.53577],[24.5317,45.55371],[24.53105,45.57063],[24.52314,45.58057],[24.51312,45.58678],[24.50584,45.58532],[24.50211,45.58161],[24.48466,45.57336],[24.48812,45.56986],[24.49526,45.55597],[24.49471,45.5444],[24.49079,45.54021],[24.49126,45.53131],[24.48485,45.52298],[24.46842,45.51655],[24.46462,45.49571],[24.45751,45.48824],[24.4541,45.47702],[24.43632,45.47169],[24.4434,45.46212],[24.45163,45.45658],[24.45197,45.4456],[24.4485,45.43945],[24.44786,45.4279],[24.45723,45.42334],[24.45115,45.41903],[24.44861,45.40726],[24.43514,45.40046],[24.40992,45.40157],[24.3933,45.39538],[24.39204,45.39263],[24.37123,45.38983],[24.35965,45.3814],[24.36316,45.37064],[24.35602,45.37023],[24.34828,45.3597],[24.35109,45.35119],[24.3388,45.33944],[24.35669,45.33882],[24.36018,45.32964],[24.37072,45.32575],[24.39189,45.32501],[24.40097,45.32],[24.43154,45.32762],[24.43785,45.32394],[24.46091,45.32345],[24.4801,45.31994],[24.49129,45.32388]]]}}