{"type":"Feature","properties":{"id":"ROU.25.62","name":"TEIU","level":2,"country":"ROU"},"geometry":{"type":"Polygon","coordinates":[[[25.16839,44.66178],[25.14774,44.67765],[25.11743,44.66849],[25.11139,44.68229],[25.09382,44.67751],[25.07182,44.66236],[25.06016,44.66163],[25.06362,44.65465],[25.05924,44.64832],[25.06928,44.64961],[25.10435,44.62711],[25.11777,44.63576],[25.13512,44.62558],[25.12608,44.61885],[25.13435,44.61192],[25.16814,44.62587],[25.16477,44.61859],[25.19717,44.63526],[25.18437,44.63074],[25.17924,44.63464],[25.19264,44.64338],[25.17921,44.64958],[25.16839,44.66178]]]}}