{"type":"Feature","properties":{"id":"ROU.40.37","name":"TULNICI","level":2,"country":"ROU"},"geometry":{"type":"Polygon","coordinates":[[[26.37229,45.84954],[26.39948,45.85566],[26.41725,45.86484],[26.43166,45.87563],[26.43856,45.88793],[26.44695,45.89318],[26.45089,45.91197],[26.4486,45.91748],[26.45458,45.92468],[26.45487,45.93198],[26.47008,45.94193],[26.48435,45.94284],[26.50604,45.95109],[26.51893,45.95291],[26.54132,45.94788],[26.56556,45.9517],[26.58181,45.94521],[26.56962,45.93902],[26.56414,45.93004],[26.56758,45.91607],[26.55117,45.90687],[26.55871,45.89002],[26.57567,45.90004],[26.58511,45.9018],[26.60069,45.8958],[26.61356,45.88472],[26.62969,45.88794],[26.63137,45.88409],[26.64474,45.88112],[26.66916,45.89355],[26.67467,45.90077],[26.7022,45.9125],[26.70671,45.91728],[26.6926,45.92971],[26.68917,45.94337],[26.6775,45.94219],[26.67493,45.94786],[26.6529,45.94665],[26.64057,45.94295],[26.62607,45.94997],[26.62673,45.9537],[26.60623,45.97689],[26.59405,45.98279],[26.60283,45.9883],[26.58667,45.99833],[26.58828,46.00931],[26.57978,46.0216],[26.5726,46.01684],[26.54845,46.02419],[26.54006,46.0233],[26.53574,46.0279],[26.51565,46.02692],[26.50533,46.03312],[26.50155,46.03892],[26.49173,46.04522],[26.48004,46.04479],[26.47723,46.03995],[26.46037,46.03514],[26.44001,46.03889],[26.43755,46.03553],[26.44068,46.02258],[26.44542,46.01704],[26.4346,46.00659],[26.43193,46.00022],[26.43777,45.98935],[26.41862,45.97624],[26.39758,45.9657],[26.38926,45.95489],[26.39191,45.94801],[26.38724,45.94087],[26.39255,45.93332],[26.38978,45.92885],[26.3945,45.92086],[26.38229,45.91691],[26.37567,45.90732],[26.37914,45.89473],[26.37703,45.88934],[26.38557,45.88313],[26.38799,45.87359],[26.37695,45.86014],[26.37229,45.84954]]]}}