{"type":"Feature","properties":{"id":"ROU.26.11","name":"BOITA","level":2,"country":"ROU"},"geometry":{"type":"Polygon","coordinates":[[[24.28463,45.6499],[24.26514,45.65246],[24.26385,45.64467],[24.24525,45.64028],[24.23781,45.64027],[24.2308,45.6346],[24.22872,45.62078],[24.21356,45.61305],[24.22084,45.60556],[24.21853,45.59617],[24.21231,45.59084],[24.21248,45.57721],[24.20085,45.58072],[24.17949,45.57349],[24.15644,45.56873],[24.13787,45.57142],[24.13008,45.57837],[24.12011,45.56912],[24.10501,45.56028],[24.09897,45.55368],[24.08254,45.54509],[24.07804,45.53641],[24.07739,45.52483],[24.08478,45.5125],[24.09447,45.51342],[24.10514,45.51097],[24.11385,45.51247],[24.11903,45.50881],[24.12025,45.51274],[24.13759,45.5151],[24.14662,45.51221],[24.15648,45.51738],[24.17222,45.51441],[24.17963,45.5207],[24.20505,45.52358],[24.21208,45.52617],[24.21713,45.53581],[24.22794,45.54536],[24.25726,45.54309],[24.26682,45.54938],[24.26617,45.5558],[24.25144,45.56606],[24.2513,45.57767],[24.25986,45.58755],[24.26344,45.59672],[24.26038,45.61276],[24.26805,45.61908],[24.26243,45.62789],[24.27839,45.63276],[24.27831,45.64065],[24.28463,45.6499]]]}}