{"type":"Feature","properties":{"id":"ROU.27.15","name":"OTESANI","level":2,"country":"ROU"},"geometry":{"type":"Polygon","coordinates":[[[24.08855,45.02772],[24.06566,45.04758],[24.05263,45.06101],[24.04848,45.07153],[24.04392,45.0751],[24.03959,45.09141],[24.03451,45.09531],[24.01815,45.09434],[24.01646,45.08974],[24.00446,45.09131],[23.99944,45.08896],[23.98491,45.0893],[23.99282,45.07902],[23.99494,45.06807],[24.00674,45.06099],[24.00903,45.05556],[24.02221,45.05383],[24.02959,45.04612],[24.01868,45.04002],[24.01743,45.03016],[24.02429,45.02289],[24.03697,45.01846],[24.05503,45.01577],[24.0819,45.02184],[24.08855,45.02772]]]}}