{"type":"Feature","properties":{"id":"ROU.13.20","name":"TILEAGD","level":2,"country":"ROU"},"geometry":{"type":"Polygon","coordinates":[[[22.24346,47.0006],[22.24185,47.01059],[22.24835,47.01577],[22.26101,47.01637],[22.26341,47.02861],[22.26222,47.03642],[22.23802,47.03858],[22.24379,47.04375],[22.25305,47.04548],[22.25186,47.05472],[22.25668,47.06188],[22.24463,47.06385],[22.23514,47.07551],[22.24212,47.09113],[22.24665,47.10713],[22.2397,47.111],[22.23183,47.10326],[22.21325,47.11299],[22.21312,47.11908],[22.20689,47.12446],[22.20987,47.13077],[22.19988,47.13745],[22.19466,47.12969],[22.17095,47.12575],[22.15198,47.11508],[22.14805,47.1106],[22.15279,47.09901],[22.16887,47.09493],[22.17069,47.09013],[22.1714,47.07493],[22.17877,47.07267],[22.18355,47.05741],[22.18185,47.04181],[22.18871,47.03515],[22.20114,47.03327],[22.19736,47.01404],[22.20188,47.01139],[22.19728,47.00144],[22.2309,46.9994],[22.24346,47.0006]]]}}