{"type":"Feature","properties":{"id":"ROU.41.12","name":"BALOTESTI","level":2,"country":"ROU"},"geometry":{"type":"Polygon","coordinates":[[[26.14305,44.6023],[26.13204,44.62547],[26.13847,44.62689],[26.13477,44.64269],[26.12932,44.64921],[26.13777,44.65316],[26.13451,44.6597],[26.12398,44.66074],[26.10162,44.65054],[26.09919,44.64261],[26.07987,44.64829],[26.06162,44.64235],[26.04969,44.64326],[26.03893,44.63995],[26.01749,44.63851],[26.00425,44.6329],[26.00828,44.62909],[26.01921,44.63253],[26.03603,44.61027],[26.05579,44.60127],[26.06253,44.6046],[26.0715,44.60167],[26.06952,44.58412],[26.09817,44.58931],[26.11409,44.59401],[26.13669,44.59933],[26.14305,44.6023]]]}}