{"type":"Feature","properties":{"id":"ROU.15.79","name":"GIULVAZ","level":2,"country":"ROU"},"geometry":{"type":"Polygon","coordinates":[[[21.01051,45.49037],[21.01887,45.49419],[21.03131,45.49339],[21.03536,45.49892],[21.02956,45.50251],[21.02363,45.5191],[21.02896,45.5252],[21.03936,45.52876],[21.04373,45.53663],[21.02096,45.55044],[21.00947,45.55174],[21.01113,45.55694],[21.0007,45.56488],[20.99252,45.57099],[20.99403,45.57782],[20.98308,45.58677],[20.97047,45.58435],[20.95417,45.57832],[20.93274,45.58945],[20.93322,45.59869],[20.91994,45.60279],[20.90624,45.60027],[20.89499,45.59561],[20.90611,45.58167],[20.92436,45.57254],[20.91744,45.5595],[20.93097,45.55516],[20.92376,45.53919],[20.91493,45.53211],[20.89314,45.5263],[20.88745,45.52044],[20.90514,45.51264],[20.89849,45.50233],[20.90347,45.48861],[20.91888,45.49165],[20.93837,45.4749],[20.9343,45.46942],[20.96258,45.47396],[20.97495,45.46905],[20.98212,45.47369],[20.9994,45.47899],[21.01051,45.49037]]]}}