{"type":"Feature","properties":{"id":"ROU.24.58","name":"PIR","level":2,"country":"ROU"},"geometry":{"type":"Polygon","coordinates":[[[22.42095,47.43215],[22.41786,47.44076],[22.43096,47.4577],[22.43033,47.46393],[22.42514,47.46366],[22.42517,47.48361],[22.41409,47.48052],[22.39608,47.48803],[22.37996,47.50308],[22.36993,47.4961],[22.36899,47.49142],[22.34107,47.49045],[22.34104,47.45563],[22.35244,47.43358],[22.36262,47.42757],[22.38158,47.42715],[22.38978,47.42953],[22.40732,47.43394],[22.42095,47.43215]]]}}