{"type":"Feature","properties":{"id":"ROU.3.61","name":"SVINITA","level":2,"country":"ROU"},"geometry":{"type":"Polygon","coordinates":[[[22.1092,44.59652],[22.10415,44.60432],[22.09597,44.60954],[22.09228,44.61908],[22.07863,44.62183],[22.06375,44.61507],[22.062,44.60995],[22.02971,44.60583],[22.02347,44.60775],[22.01614,44.59921],[22.02629,44.59118],[22.02662,44.56761],[22.03527,44.54923],[22.0416,44.54318],[22.06811,44.5287],[22.07383,44.51998],[22.07445,44.50788],[22.0897,44.49577],[22.12811,44.47525],[22.14546,44.47271],[22.16831,44.47501],[22.17806,44.47803],[22.18726,44.48495],[22.19125,44.49282],[22.18426,44.49365],[22.18886,44.50608],[22.18229,44.51866],[22.1708,44.52401],[22.15975,44.5245],[22.14886,44.53118],[22.14179,44.53083],[22.12692,44.53682],[22.10645,44.56206],[22.11091,44.57739],[22.10701,44.57978],[22.10565,44.58986],[22.1092,44.59652]]]}}