{"type":"Feature","properties":{"id":"ROU.38.28","name":"FUNDENI","level":2,"country":"ROU"},"geometry":{"type":"Polygon","coordinates":[[[27.63334,45.58771],[27.63539,45.60399],[27.63014,45.61105],[27.59345,45.60109],[27.57278,45.59273],[27.55826,45.58487],[27.55519,45.5905],[27.53629,45.5811],[27.5341,45.57844],[27.51006,45.57666],[27.50453,45.56727],[27.50568,45.56087],[27.51827,45.5567],[27.52831,45.54855],[27.52823,45.53866],[27.52223,45.52969],[27.52367,45.52429],[27.53216,45.52458],[27.54866,45.54099],[27.56035,45.54675],[27.5798,45.54607],[27.59273,45.54157],[27.59894,45.54981],[27.59739,45.56548],[27.60049,45.57842],[27.61394,45.57789],[27.61255,45.58538],[27.63334,45.58771]]]}}