{"type":"Feature","properties":{"id":"ROU.28.40","name":"CODLEA","level":2,"country":"ROU"},"geometry":{"type":"Polygon","coordinates":[[[25.45741,45.65752],[25.46738,45.66601],[25.48543,45.6764],[25.49263,45.68581],[25.49184,45.69163],[25.50271,45.69533],[25.50305,45.69946],[25.51815,45.71331],[25.52724,45.72644],[25.50001,45.74943],[25.50369,45.75487],[25.49614,45.75061],[25.48519,45.75016],[25.47487,45.75769],[25.45899,45.75372],[25.44902,45.75346],[25.43839,45.7611],[25.42723,45.76165],[25.42639,45.75532],[25.41121,45.75726],[25.40711,45.7621],[25.3947,45.761],[25.36745,45.76324],[25.35551,45.76665],[25.3492,45.77145],[25.33659,45.76984],[25.32812,45.76093],[25.31917,45.7576],[25.31037,45.74671],[25.29196,45.73563],[25.27834,45.72077],[25.29602,45.70744],[25.32168,45.71671],[25.33222,45.72707],[25.35255,45.728],[25.37194,45.71227],[25.38809,45.70731],[25.40277,45.71003],[25.40518,45.70427],[25.39781,45.68722],[25.39659,45.67826],[25.39056,45.66992],[25.40674,45.66802],[25.41118,45.66309],[25.43384,45.66351],[25.45741,45.65752]]]}}