{"type":"Feature","properties":{"id":"ROU.34.63","name":"HORODNICENI","level":2,"country":"ROU"},"geometry":{"type":"Polygon","coordinates":[[[26.20213,47.48296],[26.20975,47.48806],[26.21114,47.49488],[26.21871,47.5035],[26.21781,47.5084],[26.23597,47.51204],[26.23238,47.53204],[26.23463,47.53533],[26.23698,47.54233],[26.23191,47.54968],[26.20944,47.56186],[26.19276,47.56506],[26.18721,47.55815],[26.17663,47.55384],[26.16192,47.55746],[26.14492,47.55082],[26.14592,47.54071],[26.13073,47.52864],[26.1205,47.52878],[26.11062,47.51605],[26.11809,47.5072],[26.13666,47.50139],[26.14809,47.49365],[26.15709,47.49517],[26.17237,47.49125],[26.16319,47.47936],[26.18547,47.47224],[26.20213,47.48296]]]}}