{"type":"Feature","properties":{"id":"ROU.8.65","name":"BUCSANI","level":2,"country":"ROU"},"geometry":{"type":"Polygon","coordinates":[[[25.59897,44.81519],[25.6066,44.82354],[25.61421,44.81846],[25.6389,44.83524],[25.64876,44.8434],[25.66256,44.84677],[25.66904,44.83947],[25.67708,44.83938],[25.68926,44.84524],[25.69285,44.85002],[25.71331,44.86138],[25.72277,44.86891],[25.69605,44.88025],[25.69112,44.88682],[25.68083,44.88778],[25.67247,44.89635],[25.66557,44.89527],[25.6463,44.91357],[25.63238,44.90993],[25.63464,44.90384],[25.61489,44.89599],[25.60797,44.89579],[25.60255,44.90119],[25.59329,44.90211],[25.59321,44.89333],[25.58091,44.89336],[25.59384,44.88402],[25.604,44.88283],[25.60769,44.87744],[25.61684,44.87546],[25.62589,44.86936],[25.58552,44.85018],[25.60016,44.84294],[25.59917,44.83419],[25.59125,44.83381],[25.59124,44.82641],[25.59897,44.81519]]]}}