{"type":"Feature","properties":{"id":"ROU.29.5","name":"BARCANI","level":2,"country":"ROU"},"geometry":{"type":"Polygon","coordinates":[[[26.06707,45.665],[26.07829,45.6693],[26.08485,45.67959],[26.10138,45.67908],[26.11297,45.67153],[26.11399,45.65449],[26.12459,45.65741],[26.12832,45.66273],[26.14956,45.656],[26.16397,45.66117],[26.16365,45.67279],[26.17274,45.6765],[26.17482,45.68431],[26.14933,45.69281],[26.14772,45.70336],[26.13959,45.71451],[26.12875,45.71857],[26.1211,45.73619],[26.11032,45.73674],[26.1041,45.74419],[26.09674,45.74334],[26.09294,45.73702],[26.07885,45.73731],[26.06843,45.74675],[26.06055,45.74653],[26.0526,45.75135],[26.04805,45.74664],[26.04872,45.73152],[26.0521,45.72327],[26.03784,45.72173],[26.03466,45.72805],[26.03743,45.71649],[26.0338,45.71407],[26.0328,45.69933],[26.0368,45.69026],[26.04842,45.68858],[26.06555,45.68927],[26.05986,45.68282],[26.06707,45.665]]]}}