{"type":"Feature","properties":{"id":"ROU.16.43","name":"TODIRENI","level":2,"country":"ROU"},"geometry":{"type":"Polygon","coordinates":[[[27.0828,47.58627],[27.09269,47.58769],[27.0978,47.57138],[27.10388,47.56108],[27.1255,47.57213],[27.13068,47.57798],[27.12758,47.59339],[27.11762,47.59595],[27.11958,47.60882],[27.13118,47.61377],[27.14201,47.61461],[27.14851,47.61938],[27.14013,47.62689],[27.13852,47.63288],[27.15809,47.64427],[27.1756,47.6468],[27.17653,47.65281],[27.18902,47.65741],[27.17931,47.66522],[27.17184,47.67283],[27.16039,47.67815],[27.14818,47.67277],[27.15551,47.66587],[27.12793,47.6533],[27.12695,47.65017],[27.10294,47.63968],[27.09373,47.63994],[27.0843,47.63644],[27.07048,47.64985],[27.05869,47.64906],[27.04123,47.64258],[27.04937,47.63249],[27.0447,47.62811],[27.06395,47.61791],[27.05775,47.61472],[27.05889,47.59596],[27.06425,47.59055],[27.0785,47.58273],[27.0828,47.58627]]]}}