{"type":"Feature","properties":{"id":"ROU.36.2","name":"SALCIA TUDOR","level":2,"country":"ROU"},"geometry":{"type":"Polygon","coordinates":[[[27.54015,45.34511],[27.53316,45.35733],[27.53859,45.35882],[27.53152,45.37538],[27.5317,45.39903],[27.5458,45.42367],[27.55299,45.42192],[27.55523,45.43256],[27.56389,45.4453],[27.55937,45.44677],[27.56738,45.45847],[27.58755,45.45175],[27.60145,45.46527],[27.61124,45.46595],[27.61358,45.47501],[27.60274,45.47758],[27.60077,45.4842],[27.58821,45.48541],[27.58005,45.49072],[27.57265,45.48727],[27.55855,45.48838],[27.48662,45.43999],[27.4404,45.4148],[27.42944,45.4056],[27.43476,45.39471],[27.44174,45.37574],[27.45753,45.35214],[27.46746,45.35486],[27.48027,45.33278],[27.48608,45.32963],[27.52742,45.34146],[27.54015,45.34511]]]}}