{"type":"Feature","properties":{"id":"ROU.32.27","name":"DOLJESTI","level":2,"country":"ROU"},"geometry":{"type":"Polygon","coordinates":[[[27.03361,46.99969],[27.02957,47.00724],[27.01344,47.00713],[26.9945,47.00153],[26.99148,47.01597],[27.00464,47.0195],[27.00678,47.02808],[27.01905,47.02913],[27.02246,47.03346],[27.00266,47.03959],[26.98943,47.06946],[26.98338,47.07932],[26.97093,47.07726],[26.97177,47.0619],[26.95936,47.06023],[26.95991,47.04502],[26.9475,47.04073],[26.94284,47.04296],[26.9323,47.03432],[26.94624,47.03148],[26.94639,47.02124],[26.9597,47.01436],[26.96093,47.00617],[26.96826,46.99841],[26.96272,46.99481],[26.96713,46.98688],[26.9784,46.9888],[26.98576,46.98337],[26.98174,46.97938],[27.00598,46.98234],[27.00363,46.99529],[27.03361,46.99969]]]}}