{"type":"Feature","properties":{"id":"ROU.4.106","name":"FARCASELE","level":2,"country":"ROU"},"geometry":{"type":"Polygon","coordinates":[[[24.49369,44.13628],[24.47775,44.14045],[24.47854,44.15192],[24.48373,44.16232],[24.4715,44.18487],[24.46656,44.19037],[24.45659,44.18439],[24.44932,44.18335],[24.44047,44.19604],[24.43585,44.18954],[24.40891,44.16741],[24.40409,44.17107],[24.38886,44.15453],[24.40342,44.14987],[24.38527,44.13614],[24.40174,44.12883],[24.4117,44.12733],[24.42045,44.12073],[24.43057,44.11861],[24.43164,44.10319],[24.45152,44.09962],[24.45123,44.11908],[24.46218,44.12193],[24.49369,44.13628]]]}}