{"type":"Feature","properties":{"id":"CHN.16.62","name":"Tianmenshi","level":2,"country":"CHN"},"geometry":{"type":"Polygon","coordinates":[[[112.58579,30.74978],[112.55541,30.68284],[112.60191,30.63906],[112.69571,30.62879],[112.64907,30.52044],[112.73632,30.54578],[112.77952,30.54476],[112.79977,30.50324],[112.84203,30.47486],[112.88795,30.55581],[112.92435,30.53677],[112.92975,30.51374],[113.0161,30.51154],[113.07889,30.45518],[113.12203,30.45403],[113.14159,30.39877],[113.20626,30.39701],[113.31511,30.42134],[113.39917,30.36419],[113.46437,30.37595],[113.42654,30.46912],[113.40883,30.54279],[113.43205,30.60507],[113.40668,30.6726],[113.40453,30.7417],[113.37337,30.82664],[113.30836,30.91864],[113.27251,30.90674],[113.16331,30.81867],[113.11339,30.81027],[113.07517,30.83728],[113.03861,30.78941],[112.94904,30.77081],[112.81162,30.699],[112.81978,30.75488],[112.78245,30.82083],[112.7541,30.83793],[112.63215,30.74072],[112.58579,30.74978]]]}}