{"type":"Feature","properties":{"id":"CHN.11.25","name":"Chabuchaerxibozuzizhixian","level":2,"country":"CHN"},"geometry":{"type":"Polygon","coordinates":[[[80.54323,43.82112],[80.74101,43.54595],[80.76623,43.41434],[80.71636,43.33058],[80.74344,43.30458],[80.80151,43.30994],[80.83812,43.28578],[81.01933,43.31349],[81.06636,43.36777],[81.23744,43.36558],[81.38923,43.38016],[81.56848,43.41938],[81.59391,43.50112],[81.6887,43.57792],[81.68738,43.67685],[81.62642,43.69637],[81.52017,43.82462],[81.45206,43.84261],[81.39165,43.87832],[81.32345,43.89625],[81.25178,43.94033],[81.17861,43.95178],[81.10402,43.9306],[80.99467,43.90197],[80.93607,43.93256],[80.87193,43.9404],[80.72181,43.86509],[80.68101,43.81858],[80.6405,43.84217],[80.54323,43.82112]]]}}