{"type":"Feature","properties":{"id":"CHN.19.4","name":"Songmingxian","level":2,"country":"CHN"},"geometry":{"type":"Polygon","coordinates":[[[102.78641,25.46958],[102.77182,25.42181],[102.70688,25.42275],[102.72675,25.34074],[102.77872,25.31475],[102.81559,25.25085],[102.89564,25.24702],[102.98421,25.27232],[103.02056,25.20696],[103.07304,25.15373],[103.18105,25.20893],[103.20514,25.27867],[103.2647,25.31681],[103.30388,25.26652],[103.34609,25.35616],[103.2801,25.38447],[103.22477,25.42579],[103.16573,25.41254],[103.05745,25.47896],[103.01317,25.48264],[102.9484,25.45164],[102.88635,25.48321],[102.81938,25.44472],[102.78641,25.46958]]]}}