{"type":"Feature","properties":{"id":"CHN.21.122","name":"Shangshuixian","level":2,"country":"CHN"},"geometry":{"type":"Polygon","coordinates":[[[114.20155,33.7104],[114.24918,33.66795],[114.308,33.55836],[114.28632,33.48778],[114.34386,33.45208],[114.45508,33.47299],[114.57173,33.43022],[114.59879,33.34675],[114.68706,33.33414],[114.71702,33.30695],[114.78617,33.35787],[114.79014,33.42744],[114.82868,33.48282],[114.82286,33.51827],[114.73295,33.55077],[114.70506,33.57421],[114.62051,33.56571],[114.57348,33.62893],[114.5121,33.63575],[114.41519,33.71195],[114.39495,33.75355],[114.35079,33.76875],[114.23735,33.75003],[114.20155,33.7104]]]}}