{"type":"Feature","properties":{"id":"CHN.16.66","name":"Laohekoushi","level":2,"country":"CHN"},"geometry":{"type":"Polygon","coordinates":[[[111.54404,32.59832],[111.53412,32.52802],[111.51097,32.50467],[111.64229,32.43445],[111.65361,32.40679],[111.60802,32.35804],[111.60279,32.32511],[111.66904,32.28104],[111.68256,32.20709],[111.70367,32.19365],[111.74703,32.22335],[111.73511,32.26231],[111.84873,32.33268],[111.92198,32.35621],[111.96974,32.42932],[111.93574,32.44855],[111.76992,32.49066],[111.69845,32.5886],[111.64944,32.6218],[111.61337,32.62989],[111.54404,32.59832]]]}}