{"type":"Feature","properties":{"id":"CHN.1.80","name":"Huiningxian","level":2,"country":"CHN"},"geometry":{"type":"Polygon","coordinates":[[[104.58868,36.18323],[104.59528,36.1476],[104.53124,36.11037],[104.50016,36.06954],[104.4957,36.02213],[104.55867,36.01644],[104.6299,36.03499],[104.7543,35.93654],[104.77566,35.86951],[104.84763,35.82838],[104.86212,35.76169],[104.89866,35.73837],[104.97425,35.72975],[105.00535,35.66875],[104.94926,35.55989],[104.94783,35.49664],[104.99608,35.42905],[105.06249,35.43029],[105.13793,35.41241],[105.20941,35.45539],[105.25502,35.44352],[105.28081,35.47632],[105.36184,35.49228],[105.43939,35.51915],[105.4903,35.56589],[105.4993,35.60308],[105.48206,35.66615],[105.51568,35.73219],[105.44792,35.77026],[105.37758,35.7787],[105.38359,35.8338],[105.33313,35.8594],[105.3235,35.90295],[105.35776,35.99202],[105.45554,36.03579],[105.5072,36.1108],[105.49739,36.19825],[105.4869,36.29665],[105.46939,36.32702],[105.3777,36.30879],[105.34634,36.32085],[105.29082,36.38304],[105.24657,36.38348],[105.18165,36.33651],[105.03303,36.28573],[104.88478,36.27693],[104.67843,36.16996],[104.58868,36.18323]]]}}