{"type":"Feature","properties":{"id":"CHN.4.42","name":"Luodianxian","level":2,"country":"CHN"},"geometry":{"type":"Polygon","coordinates":[[[106.48624,25.69938],[106.39523,25.50368],[106.3839,25.439],[106.44519,25.36996],[106.46842,25.3066],[106.49712,25.27552],[106.47887,25.21598],[106.49015,25.1687],[106.59421,25.10079],[106.64826,25.1643],[106.82215,25.17667],[106.91741,25.17218],[106.91591,25.21538],[106.96317,25.2239],[106.99144,25.32555],[106.95724,25.39664],[107.04888,25.50714],[107.0647,25.57894],[106.98587,25.59028],[106.97912,25.64945],[106.90579,25.65927],[106.81128,25.61131],[106.74591,25.62994],[106.69088,25.71029],[106.62151,25.76073],[106.50406,25.72982],[106.48624,25.69938]]]}}