{"type":"Feature","properties":{"id":"CHN.6.9","name":"Huairouxian","level":2,"country":"CHN"},"geometry":{"type":"Polygon","coordinates":[[[116.32454,40.90677],[116.30017,40.8793],[116.36548,40.80047],[116.45498,40.73969],[116.47906,40.65955],[116.51863,40.64529],[116.54204,40.59431],[116.46682,40.53626],[116.48707,40.48364],[116.43665,40.45168],[116.35419,40.47483],[116.28342,40.44904],[116.28961,40.39221],[116.46447,40.24344],[116.57385,40.25489],[116.65274,40.21532],[116.75147,40.29014],[116.70954,40.32712],[116.68743,40.4079],[116.68845,40.57274],[116.74083,40.68995],[116.85799,40.76172],[116.79799,40.81577],[116.70335,40.85357],[116.70747,40.89061],[116.65552,40.95132],[116.65052,40.98429],[116.6215,41.05733],[116.55766,41.02903],[116.53714,40.9661],[116.40542,40.94854],[116.43816,40.87012],[116.39609,40.87185],[116.32454,40.90677]]]}}