{"type":"Feature","properties":{"id":"CHN.2.18","name":"Huangzhongxian","level":2,"country":"CHN"},"geometry":{"type":"Polygon","coordinates":[[[101.3235,36.84857],[101.41,36.78699],[101.4346,36.75269],[101.44416,36.68749],[101.42602,36.66062],[101.32465,36.58492],[101.30377,36.54919],[101.31922,36.44939],[101.36124,36.40903],[101.4525,36.36131],[101.57329,36.33772],[101.61478,36.27607],[101.77316,36.29184],[101.81805,36.30845],[101.84811,36.34557],[101.90129,36.45943],[101.91506,36.53146],[101.79928,36.54456],[101.72818,36.57075],[101.64904,36.57961],[101.56678,36.6094],[101.55274,36.64094],[101.58982,36.69239],[101.67606,36.71684],[101.73068,36.75471],[101.70234,36.81369],[101.61712,36.82414],[101.42469,36.95726],[101.31841,37.00428],[101.32891,36.96023],[101.2898,36.93843],[101.3235,36.84857]]]}}