{"type":"Feature","properties":{"id":"CHN.13.7","name":"Taolexian","level":2,"country":"CHN"},"geometry":{"type":"Polygon","coordinates":[[[106.84535,39.07391],[106.81673,39.00557],[106.78154,38.92243],[106.69273,38.84893],[106.64709,38.84047],[106.61475,38.7537],[106.55226,38.69106],[106.52619,38.63072],[106.55034,38.52714],[106.53009,38.44433],[106.46749,38.3933],[106.40852,38.36793],[106.46135,38.32],[106.5186,38.30133],[106.51346,38.34378],[106.58933,38.3909],[106.609,38.44537],[106.61054,38.56482],[106.64539,38.69841],[106.73018,38.81821],[106.76795,38.84531],[106.81992,38.87582],[106.95106,38.92644],[106.96713,39.00727],[106.93393,39.04673],[106.84535,39.07391]]]}}