{"type":"Feature","properties":{"id":"CHN.19.78","name":"Suijiangxian","level":2,"country":"CHN"},"geometry":{"type":"Polygon","coordinates":[[[104.35378,28.65842],[104.29368,28.64564],[104.20657,28.65114],[104.1198,28.62166],[103.96273,28.62338],[103.89093,28.63123],[103.86444,28.66924],[103.8192,28.58081],[103.81965,28.51859],[103.84181,28.46539],[103.89783,28.44389],[103.91859,28.40903],[103.982,28.40702],[104.01954,28.34469],[104.05306,28.33403],[104.08243,28.36785],[104.07694,28.47105],[104.13813,28.53236],[104.40094,28.59774],[104.42757,28.63519],[104.35378,28.65842]]]}}