{"type":"Feature","properties":{"id":"CHN.31.64","name":"Binxian","level":2,"country":"CHN"},"geometry":{"type":"Polygon","coordinates":[[[127.27449,45.96553],[127.13391,45.98258],[126.99465,46.03275],[126.90941,45.99518],[126.94078,45.92699],[127.00238,45.88381],[127.10998,45.76345],[127.11758,45.70719],[127.18729,45.62181],[127.28257,45.61472],[127.39355,45.53655],[127.49008,45.52492],[127.63039,45.54649],[127.67908,45.55099],[127.74486,45.52253],[127.78228,45.56013],[127.87297,45.55948],[127.99048,45.59557],[128.08442,45.58187],[128.17514,45.59868],[128.15567,45.66218],[128.25206,45.73351],[128.24225,45.83483],[128.30024,45.87925],[128.2251,45.8931],[128.15891,45.92908],[128.10872,45.9092],[128.0007,45.94449],[127.77199,45.92793],[127.73457,45.95652],[127.64978,45.96233],[127.64349,46.01809],[127.52477,46.03997],[127.49979,45.94268],[127.3324,45.9083],[127.27449,45.96553]]]}}