{"type":"Feature","properties":{"id":"CHN.31.74","name":"Qiqihaershi","level":2,"country":"CHN"},"geometry":{"type":"Polygon","coordinates":[[[124.22432,47.81524],[124.14925,47.86625],[124.10341,47.85251],[124.00193,47.7671],[123.86839,47.70698],[123.72864,47.69194],[123.60042,47.62971],[123.50016,47.63228],[123.45631,47.57853],[123.50913,47.53835],[123.59568,47.51298],[123.52633,47.46199],[123.56408,47.33767],[123.49086,47.28086],[123.51358,47.21116],[123.49173,47.10317],[123.5073,46.99772],[123.66021,47.08513],[123.7545,47.05566],[123.80524,46.98199],[123.97718,46.92237],[124.08755,46.99134],[124.13153,47.07978],[124.23266,47.10218],[124.30962,47.20626],[124.3614,47.23906],[124.39466,47.28833],[124.30084,47.33616],[124.2069,47.33855],[124.10448,47.37147],[124.0639,47.40245],[123.94089,47.40643],[123.86616,47.43177],[123.93905,47.52651],[123.98544,47.5184],[124.04219,47.56016],[124.03986,47.62583],[124.19418,47.6981],[124.18599,47.76076],[124.22432,47.81524]]]}}