{"type":"Feature","properties":{"id":"CHN.20.71","name":"Fupingxian","level":2,"country":"CHN"},"geometry":{"type":"Polygon","coordinates":[[[114.25485,39.09148],[114.15849,39.0388],[114.08413,39.0592],[114.00395,39.1106],[113.94643,39.09793],[113.89517,39.06633],[113.77477,39.02134],[113.74801,38.988],[113.72117,38.93771],[113.75466,38.86012],[113.81286,38.81908],[113.80367,38.76187],[113.90584,38.71606],[113.97832,38.665],[114.11481,38.65815],[114.1489,38.67533],[114.29504,38.70607],[114.36575,38.68996],[114.47172,38.76984],[114.50021,38.81117],[114.48773,38.87081],[114.51864,38.93905],[114.51712,38.96935],[114.45584,39.01148],[114.25485,39.09148]]]}}