{"type":"Feature","properties":{"id":"CHN.15.7","name":"Kelanxian","level":2,"country":"CHN"},"geometry":{"type":"Polygon","coordinates":[[[111.30008,38.89028],[111.27621,38.85536],[111.18711,38.77916],[111.20458,38.71024],[111.23606,38.59161],[111.36974,38.56441],[111.41064,38.55652],[111.44969,38.49228],[111.53265,38.50573],[111.68095,38.57535],[111.7399,38.56306],[111.78855,38.55098],[111.82489,38.57936],[111.80532,38.63286],[111.82846,38.73147],[111.81869,38.75753],[111.72185,38.84338],[111.62728,38.89927],[111.51748,38.9231],[111.46314,38.97106],[111.39632,38.95412],[111.37175,38.89997],[111.30008,38.89028]]]}}