{"type":"Feature","properties":{"id":"CHN.30.29","name":"Alashanzuoqi","level":2,"country":"CHN"},"geometry":{"type":"Polygon","coordinates":[[[105.26331,41.7358],[105.14098,41.66774],[105.05243,41.59392],[104.99492,41.58533],[104.92915,41.63593],[104.81014,41.62207],[104.54606,41.6263],[104.54086,41.85443],[104.35357,41.83632],[104.24193,41.80604],[104.15807,41.79952],[104.02787,41.77002],[103.86779,41.76966],[103.64314,41.80838],[103.39684,41.86504],[103.48045,41.68141],[103.54825,41.59197],[103.64065,41.52097],[103.77216,41.4544],[103.84998,41.40502],[103.9188,41.33429],[103.96847,41.20392],[104.10104,41.08202],[104.19435,40.91249],[104.29717,40.78945],[104.43386,40.64718],[104.49847,40.59408],[104.50865,40.53322],[104.48898,40.46821],[104.51988,40.43567],[104.59711,40.41484],[104.60535,40.37643],[104.57267,40.32639],[104.57841,40.29209],[104.65999,40.19285],[104.68168,40.14043],[104.52056,40.10315],[104.39504,40.03692],[104.34002,39.98692],[104.31516,39.92643],[104.24861,39.88858],[104.30336,39.73641],[104.32912,39.59611],[104.30479,39.50446],[104.23879,39.46112],[104.14637,39.4333],[104.09379,39.39861],[104.07953,39.27348],[104.20733,39.07383],[104.18,38.93632],[104.09405,38.87777],[104.02319,38.84752],[103.89665,38.60598],[103.42454,38.38906],[103.50591,38.32482],[103.53765,38.24068],[103.53339,38.11116],[103.43097,38.10721],[103.37581,38.054],[103.36837,38.00593],[103.41923,37.83526],[103.7128,37.74873],[103.77415,37.70787],[103.8329,37.62335],[103.8566,37.59141],[103.92165,37.5632],[104.10461,37.44204],[104.22675,37.41921],[104.28942,37.48323],[104.3904,37.45596],[104.44722,37.50804],[104.53359,37.51251],[104.62142,37.55649],[104.77626,37.52872],[104.89352,37.52487],[104.96385,37.54747],[105.29107,37.69514],[105.4166,37.72333],[105.44148,37.71625],[105.53887,37.68849],[105.61937,37.70366],[105.61045,37.77627],[105.6983,37.78179],[105.80449,37.83161],[105.86941,37.92],[105.8719,37.98108],[105.85273,38.05429],[105.7544,38.16085],[105.80156,38.26354],[105.85914,38.32996],[105.84524,38.41315],[105.85714,38.4484],[105.86209,38.60379],[105.89536,38.68937],[105.9542,38.8839],[105.99175,38.90694],[106.07208,38.95615],[106.08503,39.0309],[106.22049,39.12811],[106.26951,39.12288],[106.28092,39.25366],[106.35567,39.28759],[106.46572,39.27511],[106.53576,39.34914],[106.63768,39.36517],[106.73457,39.38032],[106.70777,39.4249],[106.60043,39.44369],[106.59277,39.52022],[106.69871,39.53516],[106.73515,39.63734],[106.76621,39.67799],[106.73171,39.71399],[106.73307,39.77541],[106.67816,39.89685],[106.72536,39.94714],[106.71268,40.04507],[106.84013,40.15253],[106.76802,40.2144],[106.60684,40.30024],[106.52364,40.38688],[106.4917,40.48821],[106.39258,40.5656],[106.22401,40.72034],[106.04902,40.70726],[105.89726,40.74095],[105.77123,40.82372],[105.68804,40.83418],[105.58523,40.82656],[105.49528,40.80611],[105.38859,40.81757],[105.33182,40.86201],[105.29103,40.95019],[105.28524,41.00199],[105.29747,41.12283],[105.28698,41.23107],[105.20371,41.37073],[105.20497,41.42906],[105.24857,41.55856],[105.2488,41.70372],[105.26331,41.7358]]]}}