{"type":"Feature","properties":{"id":"CHN.13.1","name":"Helanxian","level":2,"country":"CHN"},"geometry":{"type":"Polygon","coordinates":[[[105.89536,38.68937],[106.00361,38.64809],[106.08603,38.64478],[106.15295,38.68626],[106.20978,38.66904],[106.20422,38.52107],[106.2376,38.50056],[106.32968,38.51362],[106.38237,38.45968],[106.46036,38.50789],[106.55034,38.52714],[106.52619,38.63072],[106.55226,38.69106],[106.4089,38.72677],[106.35313,38.77705],[106.27773,38.75627],[106.1383,38.77874],[106.07516,38.84354],[105.99175,38.90694],[105.9542,38.8839],[105.89536,38.68937]]]}}