{"type":"Feature","properties":{"id":"CHN.10.75","name":"Bomixian","level":2,"country":"CHN"},"geometry":{"type":"Polygon","coordinates":[[[94.03086,30.33032],[94.14034,30.20349],[94.22497,30.1539],[94.25416,30.16648],[94.29943,30.17562],[94.36019,30.22238],[94.47734,30.19944],[94.60137,30.1585],[94.70983,30.14888],[94.79581,30.08419],[94.86839,30.09098],[94.91113,30.07781],[95.00322,30.0891],[95.14317,30.01984],[95.24416,29.9236],[95.30333,29.87246],[95.39379,29.83042],[95.47411,29.7559],[95.53915,29.73746],[95.60671,29.77203],[95.65411,29.77053],[95.72176,29.7179],[95.73875,29.66279],[95.81435,29.63207],[95.95396,29.55413],[95.99927,29.54117],[96.07538,29.55442],[96.10002,29.52776],[96.16901,29.51588],[96.26976,29.45897],[96.45621,29.38766],[96.49512,29.39585],[96.47399,29.49396],[96.59151,29.63291],[96.57554,29.69473],[96.49705,29.79324],[96.5665,29.91503],[96.57893,29.99144],[96.6211,29.99663],[96.6584,30.03519],[96.67557,30.10173],[96.66909,30.14606],[96.59708,30.17963],[96.55972,30.26212],[96.48721,30.24656],[96.46577,30.30678],[96.4342,30.33107],[96.36768,30.33499],[96.24541,30.28596],[96.21874,30.22788],[96.14557,30.19559],[96.08926,30.23453],[95.972,30.22485],[95.88765,30.29389],[95.86617,30.35189],[95.82268,30.36309],[95.75649,30.44231],[95.70399,30.48696],[95.71566,30.5449],[95.59435,30.56835],[95.4694,30.60894],[95.37311,30.55514],[95.33441,30.56422],[95.35106,30.63401],[95.28618,30.66088],[95.18843,30.61974],[95.14512,30.67234],[95.10583,30.6674],[95.09973,30.57007],[95.05154,30.5555],[94.92319,30.55022],[94.76283,30.64231],[94.68383,30.67103],[94.48508,30.58865],[94.43919,30.5351],[94.39955,30.53776],[94.35834,30.59077],[94.17665,30.50297],[94.13002,30.49462],[94.0943,30.38489],[94.05306,30.37985],[94.03086,30.33032]]]}}