{"type":"Feature","properties":{"id":"CHN.26.9","name":"Donghaixian","level":2,"country":"CHN"},"geometry":{"type":"Polygon","coordinates":[[[118.6983,34.78698],[118.72381,34.71362],[118.65125,34.68894],[118.59354,34.70229],[118.49974,34.70171],[118.45539,34.70381],[118.40607,34.56607],[118.40493,34.49559],[118.37145,34.43338],[118.41696,34.40717],[118.59447,34.4252],[118.63127,34.40705],[118.63096,34.34129],[118.73708,34.30413],[118.8011,34.34443],[118.90457,34.34646],[119.01441,34.3833],[119.08134,34.43658],[119.09816,34.50235],[119.07977,34.58076],[119.1452,34.65668],[119.04263,34.67039],[119.01178,34.68724],[118.92717,34.6837],[118.82883,34.7622],[118.6983,34.78698]]]}}