{"type":"Feature","properties":{"id":"CHN.16.4","name":"Yuananxian","level":2,"country":"CHN"},"geometry":{"type":"Polygon","coordinates":[[[111.29641,31.37027],[111.23808,31.2925],[111.2321,31.21928],[111.33869,31.13574],[111.49143,31.05725],[111.51662,30.93359],[111.5586,30.89774],[111.62158,30.89299],[111.65983,30.97004],[111.69994,31.0176],[111.75608,31.02394],[111.78395,31.1082],[111.83693,31.15079],[111.86706,31.21953],[111.84713,31.24824],[111.81085,31.23827],[111.7185,31.30789],[111.70698,31.37048],[111.61271,31.37993],[111.52334,31.31324],[111.45677,31.30735],[111.38814,31.38],[111.29641,31.37027]]]}}