{"type":"Feature","properties":{"id":"CHN.26.19","name":"Huaiyinxian","level":2,"country":"CHN"},"geometry":{"type":"Polygon","coordinates":[[[118.86381,33.91351],[118.78069,33.80071],[118.79208,33.68927],[118.75504,33.62558],[118.79005,33.56189],[118.76316,33.43595],[118.71371,33.36985],[118.73606,33.30235],[118.80175,33.29603],[118.83765,33.33474],[118.91237,33.43744],[118.94092,33.4986],[118.94587,33.59721],[119.01698,33.62205],[119.09457,33.61314],[119.14057,33.62453],[119.14358,33.72409],[119.07375,33.7342],[119.07681,33.80625],[119.0136,33.84062],[119.01894,33.89036],[118.94738,33.91066],[118.92262,33.89248],[118.86381,33.91351]]]}}