{"type":"Feature","properties":{"id":"CHN.26.49","name":"Jianhuxian","level":2,"country":"CHN"},"geometry":{"type":"Polygon","coordinates":[[[119.94661,33.64053],[119.90528,33.63189],[119.73069,33.63126],[119.69475,33.53865],[119.56845,33.44309],[119.55717,33.41414],[119.63021,33.30061],[119.66682,33.29961],[119.86921,33.35165],[119.90594,33.40683],[119.98086,33.42985],[119.99237,33.48873],[120.05157,33.51273],[120.02977,33.57747],[120.05809,33.6297],[120.01436,33.66965],[119.94661,33.64053]]]}}