{"type":"Feature","properties":{"id":"CHN.4.77","name":"Yuqingxian","level":2,"country":"CHN"},"geometry":{"type":"Polygon","coordinates":[[[107.61437,27.68532],[107.59322,27.62882],[107.53812,27.5901],[107.5116,27.55061],[107.545,27.47346],[107.53177,27.44292],[107.45747,27.40323],[107.42486,27.35437],[107.49009,27.34128],[107.44335,27.29151],[107.43942,27.25958],[107.51187,27.22206],[107.55126,27.27642],[107.66226,27.25802],[107.76157,27.21959],[107.77524,27.18778],[107.87404,27.17776],[107.98072,27.2192],[108.00549,27.24379],[107.96561,27.32842],[107.78779,27.36359],[107.7631,27.39095],[107.81058,27.44056],[107.81658,27.53922],[107.74948,27.56962],[107.73583,27.59962],[107.67206,27.62239],[107.61437,27.68532]]]}}