{"type":"Feature","properties":{"id":"CHN.5.16","name":"Zhongxian","level":2,"country":"CHN"},"geometry":{"type":"Polygon","coordinates":[[[107.64867,30.45971],[107.64657,30.41548],[107.60281,30.36284],[107.59522,30.29698],[107.55573,30.24243],[107.58628,30.20068],[107.66728,30.25346],[107.69217,30.22602],[107.76398,30.21196],[107.82909,30.17164],[107.81828,30.11133],[107.90463,30.09472],[107.97419,30.04779],[108.00838,30.05385],[108.09044,30.09943],[108.06517,30.15786],[108.1225,30.19311],[108.10902,30.23433],[108.13415,30.25937],[108.1294,30.34796],[108.20055,30.4111],[108.22054,30.46661],[108.18737,30.52606],[108.08864,30.58173],[108.0214,30.56874],[107.90784,30.48939],[107.8524,30.55682],[107.81908,30.55118],[107.79861,30.48133],[107.73508,30.5004],[107.6812,30.4479],[107.64867,30.45971]]]}}