{"type":"Feature","properties":{"id":"CHN.8.26","name":"Suixixian","level":2,"country":"CHN"},"geometry":{"type":"Polygon","coordinates":[[[116.8564,33.91774],[116.84632,33.86895],[116.73351,33.94351],[116.75199,34.008],[116.68202,34.00891],[116.53933,34.03773],[116.61924,33.9169],[116.60046,33.885],[116.52053,33.90642],[116.46811,33.88048],[116.44917,33.84503],[116.40647,33.84784],[116.37466,33.78918],[116.42334,33.76509],[116.47247,33.71005],[116.4842,33.64222],[116.53957,33.59087],[116.52271,33.46603],[116.64113,33.47305],[116.72775,33.44897],[116.78845,33.39298],[116.78411,33.29581],[116.85433,33.30443],[116.86429,33.3488],[116.91841,33.44308],[116.89341,33.50546],[116.91171,33.56168],[116.85622,33.60312],[116.85922,33.66634],[116.91698,33.67358],[116.92775,33.77847],[116.95263,33.87249],[116.8564,33.91774]]]}}