{"type":"Feature","properties":{"id":"CHN.18.98","name":"Tianquanxian","level":2,"country":"CHN"},"geometry":{"type":"Polygon","coordinates":[[[102.43207,30.32524],[102.41206,30.25254],[102.35732,30.22195],[102.32656,30.1659],[102.31537,30.10779],[102.27402,30.07055],[102.27637,30.01955],[102.30299,29.96142],[102.28844,29.86806],[102.34377,29.81004],[102.41612,29.82837],[102.54846,29.91618],[102.64229,29.92634],[102.69699,29.91063],[102.77563,29.85275],[102.89235,29.92348],[102.90811,29.99323],[102.93509,30.02363],[102.89154,30.03564],[102.90864,30.09895],[102.86248,30.21277],[102.80802,30.16358],[102.7404,30.19414],[102.66379,30.30188],[102.56481,30.35619],[102.43207,30.32524]]]}}