{"type":"Feature","properties":{"id":"CHN.7.45","name":"Dehuaxian","level":2,"country":"CHN"},"geometry":{"type":"Polygon","coordinates":[[[118.00653,25.8838],[117.96596,25.78201],[117.97323,25.71763],[117.91869,25.68648],[117.97596,25.64535],[118.03624,25.65004],[118.01011,25.58753],[118.09048,25.54223],[118.12939,25.48251],[118.18926,25.4754],[118.24654,25.43048],[118.29166,25.4701],[118.37008,25.45019],[118.43476,25.4621],[118.45722,25.56063],[118.51812,25.63675],[118.50083,25.69543],[118.41345,25.74701],[118.36245,25.8259],[118.35843,25.86128],[118.3903,25.92225],[118.28033,25.95594],[118.2339,25.92273],[118.16459,25.92806],[118.09122,25.91824],[118.06267,25.8737],[118.00653,25.8838]]]}}