{"type":"Feature","properties":{"id":"CHN.15.68","name":"Zhongyanxian","level":2,"country":"CHN"},"geometry":{"type":"Polygon","coordinates":[[[111.05662,37.47178],[111.06093,37.42693],[111.01327,37.31716],[110.95405,37.28476],[110.9065,37.22445],[110.89826,37.14864],[110.8423,37.15679],[110.83513,37.12549],[110.88846,37.09626],[111.0298,37.08652],[111.105,37.05175],[111.22594,37.04812],[111.30198,37.09445],[111.32373,37.19014],[111.36427,37.22469],[111.39644,37.30471],[111.43274,37.34371],[111.40984,37.37021],[111.33054,37.37628],[111.25491,37.3588],[111.2552,37.43853],[111.16025,37.44507],[111.05662,37.47178]]]}}