{"type":"Feature","properties":{"id":"CHN.9.24","name":"Gaozhoushi","level":2,"country":"CHN"},"geometry":{"type":"Polygon","coordinates":[[[110.62131,22.19406],[110.65834,22.18799],[110.69319,22.12691],[110.64923,22.08135],[110.64475,21.98748],[110.59559,21.94363],[110.63259,21.89621],[110.62783,21.8597],[110.6509,21.74326],[110.67374,21.71296],[110.7377,21.71045],[110.75416,21.76807],[110.8092,21.79871],[110.8498,21.79818],[110.91941,21.7637],[111.05647,21.75932],[111.0823,21.86252],[111.14753,21.83424],[111.16885,21.85716],[111.17358,21.92372],[111.24481,21.99475],[111.27002,22.01766],[111.27625,22.08737],[111.31269,22.15584],[111.34846,22.26433],[111.29922,22.3096],[111.07748,22.24321],[111.03201,22.28156],[110.98544,22.2357],[110.91191,22.20005],[110.75498,22.20722],[110.74618,22.27947],[110.6565,22.29597],[110.62131,22.19406]]]}}