{"type":"Feature","properties":{"id":"CHN.5.15","name":"Fulingshi","level":2,"country":"CHN"},"geometry":{"type":"Polygon","coordinates":[[[107.43482,30.02265],[107.42134,29.969],[107.3665,29.92554],[107.33564,29.86344],[107.27681,29.83288],[107.20461,29.82681],[107.19023,29.78535],[107.06095,29.74854],[106.98887,29.71439],[106.94268,29.53011],[106.94358,29.49178],[107.0096,29.45693],[107.02442,29.39176],[107.08662,29.34532],[107.14355,29.38895],[107.2164,29.38737],[107.23065,29.42131],[107.32913,29.50294],[107.36731,29.51978],[107.50505,29.48555],[107.54674,29.48752],[107.69234,29.59615],[107.68852,29.66776],[107.63792,29.71576],[107.5791,29.92673],[107.54797,29.95466],[107.46854,29.9742],[107.43482,30.02265]]]}}