{"type":"Feature","properties":{"id":"CHN.17.37","name":"Changshaxian","level":2,"country":"CHN"},"geometry":{"type":"Polygon","coordinates":[[[113.1812,28.6239],[113.15,28.57763],[113.15159,28.47681],[113.11753,28.44762],[113.05354,28.48169],[112.98808,28.45214],[113.00986,28.42075],[112.92041,28.374],[112.95619,28.31727],[112.95486,28.25501],[113.00087,28.24072],[113.04227,28.18409],[113.08159,28.17206],[113.05463,28.1124],[113.06449,28.08589],[113.02183,28.03399],[113.05972,27.99823],[113.05638,27.9401],[113.08268,27.91835],[113.11838,27.98817],[113.16756,28.02919],[113.25724,28.05451],[113.2963,28.04291],[113.37989,28.10854],[113.30463,28.1726],[113.25731,28.16379],[113.23204,28.21779],[113.28957,28.31102],[113.29748,28.38157],[113.44785,28.48274],[113.46823,28.50606],[113.43396,28.55592],[113.35019,28.59909],[113.28812,28.58778],[113.21777,28.59618],[113.1812,28.6239]]]}}