{"type":"Feature","properties":{"id":"CHN.6.4","name":"Yanqingxian","level":2,"country":"CHN"},"geometry":{"type":"Polygon","coordinates":[[[115.76588,40.53632],[115.70876,40.49903],[115.77507,40.39483],[115.84637,40.3506],[115.9281,40.267],[115.92452,40.23601],[116.00115,40.30879],[116.05642,40.29748],[116.10708,40.31485],[116.14638,40.37278],[116.27803,40.35753],[116.28961,40.39221],[116.28342,40.44904],[116.35419,40.47483],[116.43665,40.45168],[116.48707,40.48364],[116.46682,40.53626],[116.54204,40.59431],[116.51863,40.64529],[116.47906,40.65955],[116.45498,40.73969],[116.316,40.74906],[116.27571,40.7313],[116.19123,40.73523],[116.06093,40.59472],[116.00576,40.57042],[115.89819,40.58592],[115.76588,40.53632]]]}}