{"type":"Feature","properties":{"id":"CHN.19.117","name":"Shuangboxian","level":2,"country":"CHN"},"geometry":{"type":"Polygon","coordinates":[[[101.82523,24.8972],[101.65252,24.83127],[101.5833,24.86375],[101.5611,24.79771],[101.50437,24.80186],[101.47567,24.75148],[101.41456,24.72701],[101.49435,24.66251],[101.47687,24.60365],[101.35426,24.58957],[101.31256,24.53558],[101.26661,24.52247],[101.2211,24.57704],[101.16633,24.57982],[101.10256,24.54172],[101.06399,24.54151],[101.10223,24.48218],[101.16016,24.43569],[101.19874,24.3768],[101.29323,24.32884],[101.32346,24.30321],[101.42194,24.40772],[101.47209,24.36668],[101.4676,24.33263],[101.52065,24.21823],[101.60189,24.24507],[101.63125,24.28193],[101.65512,24.35005],[101.69249,24.36447],[101.74571,24.32996],[101.83914,24.23011],[101.92144,24.24311],[101.99402,24.26936],[102.04397,24.3679],[102.01587,24.5119],[101.9611,24.5973],[101.99067,24.65261],[101.9691,24.7273],[101.97517,24.75778],[102.03798,24.82694],[102.00504,24.905],[101.96817,24.92885],[101.82523,24.8972]]]}}