{"type":"Feature","properties":{"id":"CHN.25.83","name":"Xingguoxian","level":2,"country":"CHN"},"geometry":{"type":"Polygon","coordinates":[[[115.31069,26.68122],[115.21511,26.5334],[115.12228,26.51159],[115.06181,26.4732],[115.02694,26.38145],[115.05401,26.28411],[115.15078,26.2681],[115.19436,26.22721],[115.23655,26.23035],[115.25519,26.18942],[115.30479,26.15484],[115.34331,26.15071],[115.36314,26.08069],[115.41306,26.12332],[115.48969,26.14235],[115.4943,26.20173],[115.56876,26.28722],[115.64019,26.3029],[115.72129,26.34069],[115.79109,26.39051],[115.79338,26.45696],[115.85083,26.50568],[115.85398,26.54378],[115.79332,26.56255],[115.74835,26.61855],[115.71073,26.62175],[115.68311,26.67138],[115.55606,26.64776],[115.48009,26.70153],[115.38839,26.6542],[115.31069,26.68122]]]}}