{"type":"Feature","properties":{"id":"CHN.16.31","name":"Guchengxian","level":2,"country":"CHN"},"geometry":{"type":"Polygon","coordinates":[[[111.18744,32.29797],[111.22208,32.238],[111.21857,32.1717],[111.11942,32.10422],[111.16662,32.02912],[111.25593,32.01818],[111.29059,31.99426],[111.33987,31.9193],[111.46612,31.8834],[111.47592,31.9439],[111.51718,32.00185],[111.59032,32.01172],[111.66708,31.96714],[111.78013,31.95897],[111.81807,31.97545],[111.75003,32.00142],[111.75946,32.03913],[111.80519,32.04822],[111.75212,32.13704],[111.70367,32.19365],[111.68256,32.20709],[111.66904,32.28104],[111.60279,32.32511],[111.60802,32.35804],[111.65361,32.40679],[111.64229,32.43445],[111.51097,32.50467],[111.44177,32.42527],[111.36493,32.41115],[111.28301,32.35007],[111.20601,32.32069],[111.18744,32.29797]]]}}