{"type":"Feature","properties":{"id":"CHN.3.2","name":"Yongfuxian","level":2,"country":"CHN"},"geometry":{"type":"Polygon","coordinates":[[[109.75279,25.46671],[109.73195,25.42399],[109.68912,25.22764],[109.63351,25.19139],[109.64621,25.12042],[109.60664,25.00239],[109.59844,24.87863],[109.70282,24.87169],[109.77479,24.85592],[109.8403,24.88419],[109.87662,24.82846],[109.93094,24.78158],[109.93407,24.7514],[109.98748,24.69815],[110.06044,24.67318],[110.1316,24.66928],[110.13663,24.76458],[110.19497,24.78306],[110.21287,24.8204],[110.2436,24.874],[110.14839,24.888],[110.17785,24.94888],[110.17152,24.99479],[110.12546,25.09869],[110.02855,25.18774],[109.93435,25.14515],[109.89112,25.17369],[109.82823,25.32127],[109.86045,25.41014],[109.91032,25.42408],[109.86745,25.47376],[109.80895,25.44569],[109.75279,25.46671]]]}}