{"type":"Feature","properties":{"id":"CHN.23.98","name":"Yuchengxian","level":2,"country":"CHN"},"geometry":{"type":"Polygon","coordinates":[[[116.66688,37.18112],[116.59385,37.11656],[116.54959,37.05923],[116.44767,36.99717],[116.41803,36.9412],[116.42445,36.91055],[116.37122,36.78769],[116.38668,36.70422],[116.46289,36.65647],[116.50538,36.65294],[116.55234,36.74312],[116.61448,36.78557],[116.60729,36.85068],[116.64272,36.86268],[116.69839,36.83992],[116.70535,36.90873],[116.67095,36.97005],[116.69208,37.03109],[116.69197,37.14713],[116.66688,37.18112]]]}}