{"type":"Feature","properties":{"id":"CHN.21.119","name":"Fengqiuxian","level":2,"country":"CHN"},"geometry":{"type":"Polygon","coordinates":[[[114.3794,35.25972],[114.31669,35.17645],[114.249,35.13826],[114.23671,35.082],[114.2519,34.92507],[114.22763,34.88454],[114.29767,34.8947],[114.41693,34.88046],[114.45462,34.87661],[114.5572,34.90304],[114.62657,34.90048],[114.71051,34.87722],[114.73766,34.90885],[114.70474,34.94026],[114.77684,34.98274],[114.77505,35.00543],[114.62513,35.12131],[114.54173,35.14543],[114.50991,35.17259],[114.50965,35.21637],[114.46448,35.21848],[114.3794,35.25972]]]}}