{"type":"Feature","properties":{"id":"CHN.2.36","name":"Qilianxian","level":2,"country":"CHN"},"geometry":{"type":"Polygon","coordinates":[[[98.1137,38.80841],[98.12425,38.76055],[98.19044,38.66368],[98.30594,38.6536],[98.36112,38.61067],[98.48572,38.59135],[98.60597,38.52984],[98.80227,38.47739],[98.89405,38.4608],[98.9719,38.4199],[98.9833,38.38841],[98.92569,38.34644],[98.91902,38.31481],[98.98685,38.27332],[99.0593,38.25457],[99.10994,38.26117],[99.22786,38.31292],[99.26477,38.31133],[99.3411,38.26418],[99.60011,38.21226],[99.71756,38.15747],[99.79281,38.05953],[99.90394,37.97954],[100.0121,37.96301],[100.11094,37.92391],[100.22499,37.861],[100.3434,37.85743],[100.46364,37.80724],[100.56161,37.70531],[100.51307,37.66219],[100.5221,37.60756],[100.63541,37.58395],[100.746,37.56471],[100.80234,37.63364],[100.84267,37.46998],[100.90486,37.48605],[101.02731,37.59186],[101.10369,37.58137],[101.16931,37.6158],[101.08726,37.75863],[101.20464,37.88488],[101.01119,37.98783],[100.90196,37.99712],[100.80734,38.05016],[100.75962,38.07685],[100.63033,38.07739],[100.63897,38.14823],[100.60895,38.22782],[100.60406,38.24082],[100.392,38.29295],[100.29419,38.38085],[100.22454,38.46637],[100.16309,38.49733],[100.12287,38.48274],[100.10544,38.41622],[100.11787,38.36342],[100.18573,38.3024],[100.20078,38.22912],[100.18194,38.20703],[100.04957,38.26314],[99.92264,38.33494],[99.76147,38.39357],[99.62717,38.48441],[99.57297,38.57888],[99.51245,38.60875],[99.27123,38.79218],[99.06808,38.90098],[99.04878,38.9439],[98.83764,39.05352],[98.80568,39.08546],[98.73499,39.06398],[98.70954,39.01541],[98.60758,38.93581],[98.43827,38.93171],[98.45916,38.95672],[98.36744,39.01458],[98.29394,39.01609],[98.2899,38.94443],[98.24429,38.88954],[98.13908,38.83908],[98.1137,38.80841]]]}}