{"type":"Feature","properties":{"id":"NOR.6.14","name":"Halsa nor","level":2,"country":"NOR"},"geometry":{"type":"MultiPolygon","coordinates":[[[[8.54258,63.15535],[8.52003,63.14824],[8.49658,63.14467],[8.50624,63.14104],[8.52374,63.14478],[8.5315,63.14135],[8.5477,63.15259],[8.54258,63.15535]]],[[[8.76414,63.1844],[8.743,63.18206],[8.73432,63.18514],[8.71944,63.18578],[8.66618,63.18035],[8.64529,63.17321],[8.6343,63.1732],[8.61305,63.16965],[8.60473,63.17079],[8.57118,63.16709],[8.54577,63.15847],[8.55469,63.15264],[8.56274,63.15152],[8.56588,63.14617],[8.55543,63.14236],[8.56336,63.13868],[8.56228,63.13406],[8.57928,63.12773],[8.59608,63.12876],[8.61113,63.12371],[8.62632,63.11417],[8.62452,63.10542],[8.63096,63.10102],[8.61861,63.0943],[8.60649,63.09806],[8.58391,63.1241],[8.57018,63.12103],[8.56302,63.12225],[8.55555,63.12855],[8.54463,63.13165],[8.54104,63.13593],[8.52753,63.13486],[8.51828,63.13036],[8.50306,63.13248],[8.4999,63.13937],[8.49272,63.13942],[8.47006,63.13281],[8.45508,63.13624],[8.43311,63.13621],[8.42748,63.14207],[8.401,63.13457],[8.3703,63.1324],[8.34886,63.13823],[8.33429,63.14454],[8.33401,63.14979],[8.30651,63.14609],[8.28923,63.14807],[8.25445,63.14781],[8.2435,63.14478],[8.24294,63.13568],[8.25351,63.12849],[8.26483,63.12438],[8.27294,63.11874],[8.29088,63.1191],[8.29475,63.11655],[8.31164,63.11496],[8.32455,63.10857],[8.31651,63.10405],[8.32541,63.09693],[8.33764,63.0941],[8.32335,63.0896],[8.32912,63.08419],[8.32168,63.07671],[8.2867,63.0725],[8.27771,63.07737],[8.28459,63.08651],[8.30682,63.09282],[8.29833,63.10043],[8.27633,63.10255],[8.25691,63.11053],[8.24796,63.12659],[8.22925,63.13682],[8.23093,63.1406],[8.20333,63.13774],[8.18178,63.12907],[8.16943,63.12924],[8.15772,63.12334],[8.1619,63.11807],[8.15591,63.11338],[8.18141,63.09966],[8.17751,63.08812],[8.18943,63.08427],[8.19177,63.07942],[8.2085,63.07709],[8.21324,63.07357],[8.23338,63.06632],[8.22979,63.06212],[8.2348,63.04891],[8.23054,63.04255],[8.22038,63.03563],[8.21944,63.02874],[8.25305,63.02249],[8.2577,63.02054],[8.2645,63.02474],[8.27377,63.02591],[8.29682,63.03806],[8.3286,63.04515],[8.33833,63.03553],[8.3805,63.05253],[8.4028,63.05688],[8.42517,63.04674],[8.43698,63.05157],[8.43721,63.06555],[8.45367,63.07378],[8.4815,63.07965],[8.49736,63.06166],[8.50199,63.04897],[8.52603,63.05789],[8.54707,63.05604],[8.55364,63.0616],[8.57536,63.06456],[8.59269,63.0648],[8.6223,63.07094],[8.63299,63.06864],[8.64769,63.07254],[8.65257,63.06418],[8.68872,63.0734],[8.70595,63.08283],[8.72126,63.08542],[8.7348,63.0945],[8.77726,63.10713],[8.77273,63.11131],[8.79261,63.12278],[8.80715,63.12662],[8.80484,63.13321],[8.82173,63.15012],[8.77054,63.17188],[8.76414,63.1844]]]]}}