{"type":"Feature","properties":{"id":"NOR.18.17","name":"Hjartdal nor","level":2,"country":"NOR"},"geometry":{"type":"Polygon","coordinates":[[[8.77928,59.52892],[8.79213,59.53269],[8.81215,59.53475],[8.83079,59.5339],[8.84997,59.54101],[8.8943,59.54992],[8.95111,59.56757],[8.97868,59.57432],[8.98634,59.58106],[9.01622,59.58967],[9.02247,59.59719],[9.01619,59.59814],[9.01967,59.60963],[9.01216,59.61369],[9.01392,59.62566],[9.00487,59.63265],[9.00475,59.64678],[8.99228,59.65269],[8.97989,59.65623],[8.94179,59.66276],[8.9401,59.66602],[8.92449,59.67035],[8.91105,59.66777],[8.8936,59.65973],[8.88062,59.6636],[8.87466,59.6685],[8.87434,59.67878],[8.91333,59.68209],[8.91648,59.68747],[8.91018,59.6944],[8.90698,59.70771],[8.91141,59.71754],[8.90748,59.72298],[8.91203,59.72777],[8.90763,59.73282],[8.89808,59.73563],[8.88143,59.74678],[8.90034,59.75731],[8.89702,59.76396],[8.88421,59.76446],[8.88282,59.79148],[8.87916,59.79508],[8.86176,59.8015],[8.85725,59.80989],[8.85347,59.82744],[8.85469,59.83301],[8.84837,59.83749],[8.82665,59.83852],[8.80814,59.84888],[8.78995,59.84498],[8.77151,59.85205],[8.75297,59.85147],[8.75925,59.83822],[8.73811,59.83484],[8.72738,59.83891],[8.68786,59.83806],[8.67484,59.83542],[8.65804,59.82652],[8.6389,59.82781],[8.62164,59.83627],[8.59772,59.84162],[8.59512,59.84463],[8.58319,59.84551],[8.55876,59.85192],[8.53533,59.85448],[8.47822,59.84067],[8.39791,59.8118],[8.38762,59.80724],[8.38163,59.80128],[8.37091,59.79507],[8.39968,59.78074],[8.41668,59.77587],[8.45462,59.76045],[8.45555,59.75352],[8.44245,59.74577],[8.43937,59.74163],[8.44242,59.72886],[8.45718,59.71478],[8.46083,59.70478],[8.47159,59.69143],[8.47974,59.68803],[8.47814,59.68279],[8.48351,59.67415],[8.50507,59.6586],[8.50476,59.65284],[8.51709,59.64864],[8.5257,59.62551],[8.53628,59.61472],[8.55502,59.60749],[8.57007,59.6059],[8.57716,59.60296],[8.58037,59.58637],[8.58376,59.5842],[8.59783,59.58641],[8.60948,59.58405],[8.62832,59.58903],[8.63202,59.58258],[8.65042,59.5816],[8.65857,59.5829],[8.69752,59.58084],[8.69907,59.57634],[8.71495,59.56175],[8.73442,59.55185],[8.75951,59.5474],[8.7678,59.53801],[8.77928,59.52892]]]}}