{"type":"Feature","properties":{"id":"NOR.12.13","name":"Songdalen nor","level":2,"country":"NOR"},"geometry":{"type":"Polygon","coordinates":[[[7.85938,58.23931],[7.8392,58.24529],[7.83333,58.24992],[7.79417,58.25155],[7.79064,58.22741],[7.77426,58.21934],[7.75363,58.21931],[7.73419,58.23526],[7.73038,58.24043],[7.73287,58.2443],[7.72768,58.25149],[7.69128,58.26127],[7.70048,58.27257],[7.72659,58.29074],[7.72728,58.30182],[7.71818,58.31057],[7.72541,58.3378],[7.69011,58.33292],[7.67805,58.31645],[7.65571,58.3173],[7.64632,58.32058],[7.64665,58.32403],[7.63929,58.33469],[7.62714,58.33585],[7.63562,58.34502],[7.6239,58.35022],[7.63219,58.36895],[7.61136,58.35693],[7.59459,58.357],[7.56944,58.3616],[7.56197,58.34761],[7.55203,58.34284],[7.56402,58.33145],[7.56378,58.32018],[7.5475,58.31731],[7.55,58.31396],[7.54209,58.30995],[7.54053,58.30414],[7.52803,58.30369],[7.5273,58.29923],[7.54738,58.29823],[7.54451,58.29016],[7.54819,58.2821],[7.5474,58.27181],[7.54083,58.2634],[7.55679,58.26469],[7.56726,58.2638],[7.56414,58.25504],[7.61244,58.25069],[7.59908,58.23958],[7.62061,58.23723],[7.65796,58.22994],[7.68453,58.23091],[7.70145,58.21996],[7.71887,58.21549],[7.73466,58.20919],[7.72873,58.19924],[7.72596,58.18594],[7.71587,58.1828],[7.71078,58.17649],[7.70959,58.16762],[7.73316,58.16982],[7.74917,58.15319],[7.75716,58.14954],[7.7592,58.13767],[7.7665,58.13936],[7.78383,58.13479],[7.80675,58.13176],[7.82127,58.12703],[7.83716,58.12428],[7.84258,58.12049],[7.85777,58.11659],[7.88454,58.11367],[7.89519,58.10847],[7.89992,58.11323],[7.90028,58.12324],[7.89033,58.14366],[7.90621,58.14908],[7.88006,58.18194],[7.86627,58.18191],[7.85776,58.18811],[7.85195,58.2],[7.84593,58.20397],[7.85524,58.21931],[7.85532,58.23204],[7.85938,58.23931]]]}}