{"type":"Feature","properties":{"id":"NOR.7.2","name":"Hitra nor","level":2,"country":"NOR"},"geometry":{"type":"MultiPolygon","coordinates":[[[[8.32367,63.45395],[8.29441,63.45033],[8.29567,63.44307],[8.31307,63.44556],[8.31185,63.43871],[8.32943,63.4323],[8.33445,63.43573],[8.32517,63.43981],[8.34338,63.44593],[8.35194,63.45145],[8.34112,63.45381],[8.32367,63.45395]]],[[[9.11354,63.5242],[9.10335,63.52231],[9.10655,63.51694],[9.08023,63.51132],[9.06483,63.50604],[9.0824,63.50518],[9.09883,63.51243],[9.10952,63.51347],[9.11354,63.5242]]],[[[8.24911,63.5007],[8.23756,63.49322],[8.24151,63.49129],[8.26694,63.49023],[8.26074,63.497],[8.24911,63.5007]]],[[[8.31031,63.52504],[8.28958,63.51951],[8.28033,63.51507],[8.29436,63.51258],[8.31967,63.52018],[8.31031,63.52504]]],[[[8.34266,63.52864],[8.3328,63.52634],[8.32482,63.51979],[8.3151,63.51827],[8.30401,63.51013],[8.31989,63.50606],[8.33533,63.50849],[8.34657,63.5271],[8.34266,63.52864]]],[[[8.38805,63.54175],[8.35911,63.53169],[8.37652,63.53055],[8.39345,63.53908],[8.38805,63.54175]]],[[[8.42277,63.57719],[8.40969,63.57601],[8.40171,63.56906],[8.40736,63.56586],[8.41834,63.56546],[8.43433,63.56943],[8.44326,63.57482],[8.42277,63.57719]]],[[[8.53608,63.58759],[8.53242,63.58467],[8.51573,63.58002],[8.51394,63.57514],[8.50094,63.569],[8.51003,63.56256],[8.51789,63.56146],[8.55176,63.56112],[8.55492,63.55784],[8.56986,63.55766],[8.59692,63.56216],[8.61152,63.56653],[8.61449,63.57524],[8.59861,63.57726],[8.5928,63.58494],[8.58673,63.58662],[8.57656,63.57964],[8.56894,63.58112],[8.57539,63.58664],[8.54604,63.58589],[8.53608,63.58759]]],[[[8.46515,63.58782],[8.46529,63.57609],[8.48084,63.57393],[8.48134,63.5857],[8.46515,63.58782]]],[[[8.38692,63.5909],[8.36391,63.58153],[8.38643,63.57736],[8.39295,63.57255],[8.40821,63.57581],[8.42363,63.58359],[8.40753,63.59104],[8.38692,63.5909]]],[[[8.66319,63.63403],[8.63848,63.63081],[8.62579,63.6269],[8.63993,63.62327],[8.66086,63.6266],[8.66319,63.63403]]],[[[8.94766,63.65371],[8.91823,63.64415],[8.91284,63.64724],[8.89506,63.64369],[8.88705,63.64633],[8.87855,63.64313],[8.87172,63.63527],[8.89644,63.62876],[8.88677,63.62582],[8.91548,63.62263],[8.87575,63.61433],[8.8649,63.60899],[8.84467,63.61309],[8.86385,63.62344],[8.85198,63.62937],[8.85093,63.63519],[8.85602,63.6444],[8.83418,63.64032],[8.81629,63.63996],[8.80667,63.6377],[8.782,63.63771],[8.77624,63.63523],[8.76137,63.63505],[8.73748,63.63251],[8.73339,63.62972],[8.70981,63.62889],[8.69287,63.62563],[8.69536,63.62192],[8.66104,63.6228],[8.65462,63.61745],[8.64308,63.61821],[8.6436,63.6126],[8.6189,63.61596],[8.58811,63.61137],[8.57889,63.60585],[8.5688,63.6042],[8.54419,63.59379],[8.56923,63.59241],[8.58573,63.59017],[8.60842,63.58277],[8.61308,63.58483],[8.65001,63.57298],[8.67248,63.56995],[8.68865,63.57123],[8.68648,63.56599],[8.70384,63.56563],[8.71503,63.56777],[8.72272,63.56276],[8.71375,63.55959],[8.70107,63.56252],[8.68114,63.56397],[8.65508,63.57067],[8.63075,63.56571],[8.61437,63.56479],[8.56231,63.55381],[8.54581,63.55532],[8.523,63.55922],[8.48546,63.5587],[8.46635,63.55395],[8.44068,63.55122],[8.43233,63.54655],[8.40952,63.54526],[8.40057,63.54154],[8.40121,63.53686],[8.39191,63.53542],[8.37794,63.52828],[8.36274,63.52466],[8.35713,63.51422],[8.34349,63.51074],[8.32844,63.50277],[8.31147,63.49769],[8.29801,63.48143],[8.3035,63.47935],[8.32445,63.49098],[8.36179,63.50199],[8.36718,63.51376],[8.37852,63.50987],[8.38554,63.51297],[8.38487,63.51859],[8.39611,63.52526],[8.40621,63.52496],[8.40314,63.51872],[8.38464,63.51175],[8.38304,63.50902],[8.36899,63.50517],[8.34941,63.49635],[8.32041,63.48646],[8.3125,63.4697],[8.3205,63.4641],[8.31266,63.45384],[8.3286,63.45484],[8.3386,63.45401],[8.3643,63.45461],[8.35373,63.45138],[8.36232,63.44764],[8.35463,63.44191],[8.3694,63.43584],[8.38365,63.43518],[8.39029,63.43224],[8.41502,63.42631],[8.43048,63.42476],[8.44884,63.42839],[8.47573,63.42623],[8.49834,63.42916],[8.52775,63.42682],[8.53903,63.42901],[8.55379,63.43594],[8.57147,63.43813],[8.60564,63.45738],[8.63429,63.46193],[8.64584,63.46618],[8.68529,63.47186],[8.69428,63.47115],[8.73196,63.47445],[8.76364,63.48148],[8.76608,63.4742],[8.79124,63.48105],[8.81052,63.48446],[8.82592,63.48009],[8.84249,63.48084],[8.85583,63.47687],[8.86604,63.47768],[8.88331,63.48315],[8.89164,63.48214],[8.9062,63.48593],[8.91474,63.48574],[8.9274,63.49147],[8.93906,63.49407],[8.96426,63.49688],[8.96617,63.50083],[8.98498,63.50184],[8.997,63.50714],[9.00533,63.50482],[9.03044,63.50851],[9.04487,63.50936],[9.07592,63.51603],[9.13184,63.53088],[9.14937,63.53824],[9.15555,63.54457],[9.17232,63.54818],[9.18112,63.55356],[9.1959,63.55758],[9.20125,63.56482],[9.1985,63.56873],[9.18226,63.57424],[9.16839,63.57115],[9.15221,63.56321],[9.15166,63.55818],[9.13913,63.55693],[9.14001,63.5664],[9.14958,63.57546],[9.14957,63.58099],[9.13345,63.58387],[9.13582,63.58709],[9.12477,63.5911],[9.11645,63.59131],[9.09218,63.6019],[9.0784,63.60116],[9.06276,63.59715],[9.04607,63.60311],[9.0205,63.5975],[9.00676,63.58929],[8.9839,63.58185],[8.97167,63.57945],[8.96582,63.58253],[8.97807,63.58626],[8.97462,63.59053],[8.97964,63.59682],[8.9867,63.59639],[8.9889,63.60325],[8.97651,63.60756],[8.9907,63.61508],[8.9759,63.6178],[8.97605,63.62625],[8.99616,63.63968],[8.9925,63.64191],[9.00159,63.64907],[8.99932,63.65328],[8.98878,63.65416],[8.97601,63.6518],[8.94766,63.65371]]],[[[9.05065,63.66122],[9.04398,63.65878],[9.0501,63.64979],[9.04402,63.64622],[9.0525,63.63231],[9.03271,63.63051],[9.02538,63.62504],[9.01292,63.62083],[9.02005,63.61542],[9.06205,63.61332],[9.07936,63.61098],[9.11337,63.61994],[9.11988,63.62807],[9.13333,63.63396],[9.14619,63.62826],[9.15383,63.63228],[9.1716,63.63585],[9.17266,63.64733],[9.15584,63.65444],[9.13738,63.65027],[9.10793,63.64755],[9.12492,63.65406],[9.11809,63.6614],[9.09888,63.66281],[9.08418,63.66126],[9.05065,63.66122]]],[[[9.15455,63.6747],[9.14139,63.66959],[9.14485,63.66308],[9.15655,63.66178],[9.1604,63.67105],[9.15455,63.6747]]],[[[8.80568,63.66168],[8.78028,63.65767],[8.78069,63.65398],[8.76093,63.6507],[8.75303,63.65172],[8.74253,63.64855],[8.72372,63.64688],[8.71939,63.65005],[8.70319,63.64255],[8.68816,63.64557],[8.67316,63.64005],[8.67433,63.62864],[8.68517,63.6276],[8.71733,63.63517],[8.72731,63.63472],[8.7396,63.63863],[8.76887,63.63915],[8.78121,63.63804],[8.80202,63.6425],[8.81186,63.64167],[8.83427,63.64335],[8.86114,63.64871],[8.84914,63.65949],[8.80568,63.66168]]],[[[9.05216,63.68338],[9.03481,63.67811],[9.03423,63.6724],[9.03997,63.66874],[9.05426,63.66813],[9.0589,63.66328],[9.10695,63.66427],[9.11282,63.66607],[9.11004,63.67193],[9.09435,63.67989],[9.0771,63.68307],[9.05216,63.68338]]]]}}