{"type":"Feature","properties":{"id":"NOR.10.5","name":"Rennesøy nor","level":2,"country":"NOR"},"geometry":{"type":"MultiPolygon","coordinates":[[[[5.72239,59.04041],[5.71302,59.03769],[5.70167,59.04109],[5.70045,59.04527],[5.68503,59.04808],[5.68214,59.0446],[5.69385,59.03443],[5.70794,59.03171],[5.72507,59.03624],[5.72239,59.04041]]],[[[5.62846,59.0532],[5.6251,59.04659],[5.63787,59.03539],[5.64564,59.03391],[5.66556,59.03725],[5.66842,59.04441],[5.65681,59.04602],[5.64857,59.04478],[5.64473,59.04917],[5.63383,59.04972],[5.62846,59.0532]]],[[[5.67702,59.05704],[5.64039,59.0558],[5.63999,59.05219],[5.65735,59.0488],[5.67736,59.0516],[5.67702,59.05704]]],[[[5.80357,59.08926],[5.79766,59.08483],[5.81115,59.0781],[5.81984,59.07678],[5.82523,59.0798],[5.82001,59.08452],[5.80357,59.08926]]],[[[5.61729,59.09991],[5.60804,59.09796],[5.6133,59.09157],[5.60801,59.0868],[5.61592,59.07641],[5.64,59.07456],[5.64346,59.06844],[5.66272,59.07037],[5.66465,59.07555],[5.67317,59.0776],[5.68031,59.07494],[5.66539,59.06796],[5.66561,59.06416],[5.6858,59.06105],[5.69473,59.05773],[5.70537,59.06285],[5.70657,59.06771],[5.69951,59.07368],[5.68575,59.07546],[5.67849,59.0783],[5.67618,59.08631],[5.64583,59.09275],[5.64625,59.096],[5.63184,59.10046],[5.61729,59.09991]]],[[[5.56853,59.10097],[5.57116,59.09383],[5.56798,59.0889],[5.57932,59.08313],[5.58867,59.0841],[5.59876,59.09043],[5.59474,59.09444],[5.58556,59.0989],[5.58168,59.09698],[5.56853,59.10097]]],[[[5.59206,59.1086],[5.58492,59.1051],[5.57268,59.10582],[5.57833,59.09909],[5.58463,59.09924],[5.593,59.10259],[5.59397,59.098],[5.60377,59.10048],[5.60728,59.10581],[5.59206,59.1086]]],[[[5.60193,59.1417],[5.5931,59.14006],[5.58355,59.13395],[5.59982,59.12402],[5.57254,59.1287],[5.57123,59.12071],[5.57513,59.11575],[5.58899,59.11677],[5.59953,59.1227],[5.6162,59.11742],[5.62458,59.11051],[5.64128,59.10768],[5.65058,59.10367],[5.66131,59.10244],[5.66691,59.09914],[5.67984,59.09626],[5.68737,59.09813],[5.69887,59.09662],[5.70274,59.09225],[5.70043,59.08771],[5.72455,59.07961],[5.72917,59.07493],[5.7393,59.07052],[5.75834,59.06817],[5.78093,59.07565],[5.78215,59.08125],[5.77752,59.08774],[5.77903,59.10226],[5.78226,59.10777],[5.76273,59.12216],[5.75556,59.12224],[5.74234,59.12614],[5.72829,59.12524],[5.71715,59.12689],[5.70886,59.12091],[5.69837,59.11746],[5.67592,59.12482],[5.66639,59.12539],[5.65672,59.12931],[5.63622,59.13014],[5.62054,59.12953],[5.60636,59.1343],[5.60899,59.13806],[5.60193,59.1417]]]]}}