{"type":"Feature","properties":{"id":"NOR.2.15","name":"Deatnu sme 1","level":2,"country":"NOR"},"geometry":{"type":"Polygon","coordinates":[[[29.22597,70.47778],[29.21018,70.4768],[29.12386,70.47851],[29.01176,70.51046],[28.79468,70.50541],[28.72082,70.5608],[28.72116,70.58631],[28.60419,70.62829],[28.58985,70.65361],[28.55239,70.66955],[28.50566,70.68371],[28.51295,70.67551],[28.50728,70.66949],[28.50969,70.65693],[28.4884,70.64032],[28.4793,70.62831],[28.47776,70.60865],[28.46729,70.60301],[28.46849,70.5968],[28.44137,70.58944],[28.41665,70.57055],[28.4103,70.54849],[28.39296,70.54266],[28.42231,70.53677],[28.43416,70.53208],[28.4436,70.52435],[28.45819,70.52006],[28.46581,70.50955],[28.50471,70.50592],[28.53544,70.50849],[28.54659,70.50632],[28.5411,70.49984],[28.50883,70.49073],[28.49788,70.47484],[28.48669,70.47146],[28.4899,70.46768],[28.51067,70.46],[28.5033,70.45224],[28.47417,70.4518],[28.46609,70.45942],[28.44608,70.46336],[28.4476,70.47464],[28.4588,70.48114],[28.45218,70.49259],[28.43923,70.49676],[28.42107,70.49173],[28.39479,70.48706],[28.37801,70.48615],[28.35562,70.48067],[28.33871,70.48568],[28.35004,70.48947],[28.3679,70.49956],[28.36584,70.51136],[28.35812,70.51675],[28.34245,70.51383],[28.33842,70.51035],[28.30142,70.50342],[28.29235,70.51031],[28.25031,70.50792],[28.21147,70.49087],[28.19841,70.4881],[28.17169,70.48938],[28.1611,70.48339],[28.12288,70.47385],[28.08664,70.45658],[28.06685,70.44955],[28.05828,70.43284],[28.04428,70.43125],[28.04346,70.43769],[28.0359,70.4447],[28.0414,70.4532],[28.07784,70.46873],[28.1005,70.47512],[28.13001,70.49032],[28.15025,70.49029],[28.18335,70.49405],[28.19429,70.49977],[28.19667,70.51029],[28.16766,70.5125],[28.15132,70.51125],[28.10287,70.49936],[28.08313,70.49614],[28.07146,70.49889],[28.02322,70.48927],[28.00949,70.48301],[27.99421,70.47992],[27.98528,70.48835],[27.95627,70.48175],[27.92984,70.46741],[27.93044,70.46451],[27.91173,70.45928],[27.93996,70.48433],[27.98365,70.49892],[27.9761,70.50041],[27.95129,70.49981],[27.9373,70.49181],[27.92632,70.49089],[27.89052,70.48009],[27.86821,70.45771],[27.87302,70.45621],[27.87061,70.43657],[27.85722,70.4368],[27.85688,70.44208],[27.82392,70.44565],[27.83628,70.45392],[27.83353,70.45713],[27.84418,70.4778],[27.81992,70.48166],[27.81516,70.48763],[27.82542,70.49147],[27.8385,70.49177],[27.88234,70.49991],[27.89471,70.50458],[27.90082,70.51264],[27.93001,70.5186],[27.94752,70.52524],[27.97395,70.52821],[28.0076,70.54034],[28.0694,70.55212],[28.11231,70.5648],[28.15145,70.57845],[28.17583,70.58478],[28.20226,70.59528],[28.24998,70.62002],[28.24792,70.62275],[28.28923,70.65484],[28.30173,70.68261],[28.2984,70.70289],[28.28838,70.70912],[28.2867,70.71809],[28.27772,70.7208],[28.23889,70.664],[28.13499,70.6355],[27.92159,70.56116],[27.86861,70.56036],[27.78029,70.54654],[27.67639,70.52057],[27.62479,70.4985],[27.60303,70.4869],[27.4953,70.4144],[27.42788,70.39948],[27.39103,70.37845],[27.38187,70.36988],[27.37964,70.34751],[27.36986,70.33069],[27.3677,70.29235],[27.0097,70.21418],[27.01149,70.15637],[26.74309,70.14319],[26.24459,70.07825],[26.26534,69.99795],[26.1251,69.97312],[26.0542,69.98215],[25.95556,69.97969],[25.91469,69.97193],[25.84074,69.94927],[25.76737,69.90316],[25.83274,69.8905],[25.81377,69.86266],[25.87984,69.86541],[25.953,69.84173],[25.97982,69.84471],[26.07722,69.84979],[26.10532,69.81768],[26.16992,69.81711],[26.26037,69.81907],[26.28346,69.82604],[26.29699,69.82747],[26.33165,69.83623],[26.34531,69.84412],[26.36149,69.84497],[26.38594,69.85535],[26.40066,69.86639],[26.40183,69.87237],[26.41311,69.8799],[26.41821,69.88909],[26.40861,69.89585],[26.40754,69.90148],[26.43356,69.90896],[26.45509,69.9187],[26.45788,69.9326],[26.46435,69.93939],[26.49049,69.94502],[26.54963,69.9474],[26.57022,69.952],[26.61715,69.95916],[26.66882,69.96281],[26.67869,69.96477],[26.70131,69.94894],[26.71807,69.94499],[26.73237,69.94644],[26.78476,69.95855],[26.85129,69.96013],[26.85893,69.95734],[26.85514,69.94582],[26.85952,69.94058],[26.8783,69.93341],[26.89776,69.93245],[26.93025,69.93943],[26.95583,69.9398],[26.98704,69.93463],[27.01938,69.91539],[27.03976,69.91056],[27.06216,69.91775],[27.09993,69.91756],[27.13083,69.9322],[27.15123,69.93262],[27.16732,69.93508],[27.22959,69.94761],[27.27565,69.95071],[27.29619,69.95346],[27.30495,69.95763],[27.28955,69.97131],[27.27471,69.97591],[27.28879,69.98451],[27.31192,69.99041],[27.3271,69.98834],[27.35074,69.99012],[27.3843,70.00064],[27.40408,70.01289],[27.42855,70.01921],[27.52598,70.02346],[27.53976,70.03359],[27.54054,70.0454],[27.55429,70.05898],[27.56979,70.0627],[27.57465,70.06676],[27.59349,70.06928],[27.61245,70.07456],[27.65131,70.07556],[27.66981,70.07739],[27.69293,70.07658],[27.73015,70.06615],[27.74411,70.06429],[27.76785,70.06875],[27.79768,70.0773],[27.83614,70.07948],[27.8709,70.08468],[27.91001,70.0867],[27.95938,70.09211],[27.97699,70.05425],[27.98429,70.01397],[28.01788,69.99524],[28.16071,69.92099],[28.34526,69.88083],[28.37719,69.93628],[28.3282,70.00474],[28.3044,70.08878],[28.32466,70.16428],[28.32667,70.18581],[28.3346,70.19497],[28.37005,70.22196],[28.54983,70.34037],[28.72869,70.34348],[28.80575,70.33693],[28.8301,70.35429],[28.87628,70.37592],[28.9208,70.38074],[28.94314,70.39498],[28.96799,70.4056],[28.98101,70.40654],[28.99825,70.40511],[29.05201,70.40827],[29.07904,70.42512],[29.08681,70.44033],[29.10478,70.45067],[29.14922,70.46492],[29.19748,70.46946],[29.22597,70.47778]]]}}