{"type":"Feature","properties":{"id":"POL.4.8","name":"powiat kamieński","level":2,"country":"POL"},"geometry":{"type":"Polygon","coordinates":[[[14.39176,53.91592],[14.40803,53.89448],[14.41965,53.86614],[14.43715,53.86271],[14.47054,53.86552],[14.51022,53.86088],[14.52234,53.8571],[14.54009,53.85897],[14.57007,53.85088],[14.58385,53.83748],[14.58198,53.82953],[14.57316,53.82438],[14.57281,53.81541],[14.57985,53.80442],[14.59626,53.8073],[14.58708,53.81777],[14.59456,53.8274],[14.60494,53.82807],[14.61274,53.80478],[14.61031,53.78608],[14.6165,53.771],[14.64014,53.77579],[14.6553,53.77255],[14.66238,53.7673],[14.67078,53.77081],[14.69748,53.77603],[14.6989,53.78383],[14.72367,53.78616],[14.72714,53.79455],[14.72733,53.80787],[14.73746,53.81683],[14.74808,53.81577],[14.75527,53.80355],[14.76171,53.8034],[14.79711,53.81184],[14.81092,53.80912],[14.81452,53.79973],[14.82214,53.79387],[14.83836,53.79065],[14.84526,53.79846],[14.85925,53.80485],[14.86485,53.81771],[14.87699,53.81038],[14.89547,53.81407],[14.90157,53.80503],[14.91385,53.80915],[14.91944,53.80305],[14.93052,53.79896],[14.9504,53.77574],[14.96357,53.7735],[14.96293,53.76776],[14.98177,53.77207],[15.01082,53.78647],[15.02007,53.78307],[15.04736,53.7839],[15.06715,53.78783],[15.0725,53.78512],[15.08326,53.79385],[15.09577,53.79909],[15.0967,53.8127],[15.05877,53.81507],[15.05471,53.83094],[15.03895,53.83711],[15.04251,53.84402],[15.05557,53.84947],[15.0413,53.87801],[15.05018,53.88871],[15.0594,53.88971],[15.05507,53.90266],[15.0245,53.91206],[15.02123,53.91624],[15.02694,53.92423],[15.039,53.92381],[15.05833,53.9314],[15.07477,53.92844],[15.05485,53.94449],[15.05735,53.96353],[15.04243,53.96584],[15.03594,53.97932],[15.0086,53.99278],[15.00623,54.00129],[14.99271,54.0055],[14.97939,54.00078],[14.96577,54.00901],[14.9673,54.01861],[14.97889,54.02378],[14.96132,54.04796],[14.95409,54.04028],[14.92959,54.03923],[14.92599,54.0475],[14.90127,54.04468],[14.89598,54.05455],[14.72897,54.02344],[14.70488,54.01395],[14.6714,54.00385],[14.58732,53.98583],[14.5317,53.9695],[14.50196,53.96429],[14.44868,53.9334],[14.42854,53.92562],[14.39176,53.91592]]]}}