{"type":"Feature","properties":{"id":"POL.8.16","name":"Siemianowice Śląskie","level":2,"country":"POL"},"geometry":{"type":"Polygon","coordinates":[[[19.00128,50.2963],[19.0171,50.29235],[19.03128,50.28566],[19.0338,50.27845],[19.05058,50.27484],[19.0611,50.2954],[19.04507,50.30096],[19.04985,50.31533],[19.05655,50.32674],[19.05436,50.33878],[19.06123,50.34532],[19.05326,50.34969],[19.04153,50.34877],[19.0363,50.3484],[19.03454,50.3339],[19.02475,50.3366],[19.01094,50.33065],[18.98541,50.33588],[18.98721,50.30956],[19.00128,50.2963]]]}}