{"type":"Feature","properties":{"id":"POL.10.27","name":"Warszawa","level":2,"country":"POL"},"geometry":{"type":"Polygon","coordinates":[[[20.91514,52.35403],[20.92497,52.3404],[20.92206,52.32373],[20.89523,52.32144],[20.88092,52.30918],[20.87618,52.2987],[20.87579,52.28046],[20.88118,52.27965],[20.87878,52.26545],[20.86368,52.25003],[20.89077,52.24705],[20.89362,52.24247],[20.88955,52.23205],[20.87279,52.22883],[20.87463,52.21665],[20.8709,52.20885],[20.85455,52.20554],[20.85307,52.1972],[20.85669,52.1913],[20.86714,52.19078],[20.8672,52.1825],[20.89773,52.18252],[20.91874,52.17745],[20.9239,52.16616],[20.93773,52.16013],[20.95379,52.15615],[20.95844,52.1499],[20.98503,52.13908],[20.97989,52.12804],[20.98627,52.11761],[20.98686,52.1039],[21.01838,52.10366],[21.0355,52.10619],[21.04372,52.11296],[21.07998,52.09785],[21.08933,52.10395],[21.12285,52.12043],[21.13473,52.12346],[21.14012,52.13295],[21.15323,52.14272],[21.16496,52.14473],[21.17585,52.14846],[21.21513,52.15179],[21.23472,52.15891],[21.24875,52.15304],[21.27028,52.17379],[21.25977,52.18256],[21.26538,52.186],[21.24023,52.19588],[21.25095,52.20249],[21.24909,52.20696],[21.26173,52.21007],[21.25049,52.22256],[21.24878,52.2366],[21.23947,52.23626],[21.23795,52.24503],[21.25372,52.24576],[21.25047,52.26269],[21.19045,52.2562],[21.18486,52.26614],[21.17058,52.27694],[21.17238,52.28861],[21.14905,52.27935],[21.10501,52.27399],[21.08551,52.30325],[21.07779,52.32196],[21.08951,52.32377],[21.0852,52.3374],[21.0859,52.34351],[21.07866,52.35366],[21.07381,52.36729],[21.06065,52.36255],[21.04457,52.364],[21.02344,52.35743],[21.00885,52.35713],[21.00567,52.3641],[20.97127,52.35898],[20.9661,52.36815],[20.94362,52.36636],[20.93093,52.35794],[20.91514,52.35403]]]}}