{"type":"Feature","properties":{"id":"POL.9.4","name":"powiat tomaszowski","level":2,"country":"POL"},"geometry":{"type":"Polygon","coordinates":[[[19.98141,51.74104],[19.98225,51.72702],[19.96867,51.72815],[19.95572,51.71914],[19.95362,51.70596],[19.91289,51.66444],[19.87895,51.66042],[19.88108,51.6656],[19.87441,51.67536],[19.87731,51.67975],[19.86273,51.68827],[19.85746,51.69447],[19.84519,51.69046],[19.82542,51.69994],[19.79107,51.708],[19.78006,51.70786],[19.77892,51.6953],[19.77077,51.69584],[19.77232,51.70614],[19.75205,51.7102],[19.7334,51.6925],[19.74672,51.68742],[19.73202,51.68035],[19.72061,51.63867],[19.72717,51.63492],[19.70828,51.6294],[19.709,51.62338],[19.72094,51.61248],[19.71727,51.60055],[19.72434,51.59681],[19.71365,51.57202],[19.73419,51.56939],[19.73123,51.56339],[19.73936,51.55868],[19.7577,51.55664],[19.77352,51.55856],[19.77814,51.5451],[19.79773,51.53127],[19.80385,51.53152],[19.82183,51.54305],[19.82928,51.5561],[19.82585,51.56997],[19.84168,51.57892],[19.8495,51.57846],[19.86632,51.56476],[19.87,51.55772],[19.8781,51.55695],[19.89068,51.54455],[19.88144,51.53937],[19.88093,51.52877],[19.86366,51.52859],[19.85618,51.52341],[19.87029,51.51978],[19.8747,51.50745],[19.90178,51.5133],[19.90988,51.50357],[19.92166,51.49627],[19.91849,51.48213],[19.94884,51.47965],[19.95805,51.47706],[19.95343,51.46696],[19.95785,51.45196],[19.94737,51.44698],[19.93831,51.43543],[19.93591,51.4271],[19.92639,51.42425],[19.94732,51.42826],[20.00556,51.43521],[20.01569,51.43098],[20.03917,51.43437],[20.05744,51.44088],[20.06133,51.45506],[20.05524,51.4681],[20.07815,51.47091],[20.08317,51.46502],[20.10164,51.47058],[20.11934,51.45182],[20.12911,51.46333],[20.14796,51.46181],[20.19176,51.46314],[20.18512,51.48605],[20.19938,51.48222],[20.21002,51.49217],[20.22509,51.48874],[20.23071,51.50506],[20.24957,51.50594],[20.26549,51.50159],[20.26849,51.50759],[20.25451,51.52117],[20.26797,51.52815],[20.28599,51.54299],[20.29181,51.55052],[20.30045,51.55276],[20.32306,51.57414],[20.32561,51.58238],[20.33669,51.58342],[20.347,51.57475],[20.35184,51.58332],[20.36677,51.57635],[20.38808,51.58472],[20.39972,51.58564],[20.41131,51.59828],[20.41981,51.6005],[20.4249,51.61162],[20.41882,51.6205],[20.41481,51.63398],[20.39125,51.63602],[20.385,51.64161],[20.36966,51.63206],[20.35444,51.64616],[20.31789,51.6503],[20.30485,51.65345],[20.28552,51.65433],[20.28063,51.67187],[20.28762,51.68218],[20.27879,51.69579],[20.26853,51.69944],[20.26458,51.71021],[20.25281,51.70987],[20.23176,51.71271],[20.22046,51.72438],[20.19809,51.71807],[20.17735,51.7101],[20.17379,51.70222],[20.13814,51.70962],[20.15144,51.71388],[20.1495,51.72294],[20.1341,51.72416],[20.11608,51.73085],[20.11584,51.74013],[20.10236,51.74256],[20.09793,51.73888],[20.07213,51.75159],[20.06101,51.76258],[20.03487,51.76676],[20.01598,51.77319],[20.00668,51.76591],[19.99061,51.76234],[19.98907,51.75572],[19.9964,51.7475],[19.98141,51.74104]]]}}