{"type":"Feature","properties":{"id":"POL.15.12","name":"powiat brzeski","level":2,"country":"POL"},"geometry":{"type":"Polygon","coordinates":[[[17.54366,50.99979],[17.54071,50.99207],[17.50474,50.98496],[17.51485,50.97969],[17.51312,50.97239],[17.50155,50.97559],[17.46909,50.97186],[17.46401,50.9783],[17.45003,50.97174],[17.4314,50.96709],[17.4338,50.95431],[17.43095,50.94595],[17.43958,50.93697],[17.42968,50.92368],[17.42724,50.91057],[17.40805,50.91055],[17.40022,50.92008],[17.36935,50.92574],[17.37041,50.91819],[17.35243,50.90065],[17.36794,50.89799],[17.39391,50.88776],[17.39511,50.87553],[17.3851,50.87557],[17.38429,50.86207],[17.365,50.8595],[17.3472,50.85202],[17.3282,50.8506],[17.3304,50.84458],[17.34324,50.82874],[17.31834,50.82115],[17.32824,50.81813],[17.33981,50.80818],[17.35023,50.8076],[17.35466,50.7948],[17.34515,50.78428],[17.33307,50.78696],[17.30627,50.78817],[17.28586,50.79492],[17.27376,50.78811],[17.27117,50.78053],[17.25622,50.77459],[17.27954,50.76089],[17.29758,50.75334],[17.29139,50.74647],[17.30116,50.74303],[17.29428,50.73757],[17.28551,50.7431],[17.27555,50.7446],[17.26254,50.73911],[17.26188,50.73049],[17.25212,50.71773],[17.22881,50.7173],[17.22079,50.7137],[17.22018,50.70137],[17.25908,50.69047],[17.24723,50.68211],[17.23475,50.68111],[17.23957,50.67165],[17.235,50.64546],[17.23022,50.64051],[17.23399,50.63222],[17.24273,50.62805],[17.24477,50.61972],[17.23217,50.61447],[17.21649,50.60463],[17.21314,50.59344],[17.20648,50.58611],[17.24182,50.57883],[17.2481,50.5858],[17.27786,50.58354],[17.27041,50.59956],[17.2739,50.60225],[17.29511,50.602],[17.30613,50.60835],[17.32853,50.61531],[17.33178,50.63118],[17.33832,50.63658],[17.35962,50.64141],[17.36147,50.6521],[17.36676,50.6551],[17.36969,50.66747],[17.37403,50.66945],[17.40555,50.66562],[17.39867,50.65682],[17.41467,50.65391],[17.39844,50.64449],[17.41554,50.63332],[17.40919,50.60714],[17.41945,50.61103],[17.44792,50.61302],[17.45729,50.61651],[17.46685,50.61506],[17.47792,50.6273],[17.48279,50.63733],[17.47825,50.64509],[17.48323,50.64988],[17.49065,50.67176],[17.50377,50.69616],[17.50175,50.70397],[17.50425,50.71363],[17.51612,50.7291],[17.53798,50.73215],[17.53968,50.72067],[17.58128,50.71258],[17.61457,50.72],[17.60659,50.71078],[17.63079,50.69053],[17.64481,50.68158],[17.65496,50.68726],[17.66502,50.68419],[17.66981,50.69112],[17.65752,50.69526],[17.66233,50.70314],[17.66925,50.72287],[17.67665,50.72858],[17.70588,50.71454],[17.71232,50.72205],[17.73958,50.72004],[17.74502,50.72628],[17.73156,50.7326],[17.73963,50.74139],[17.73326,50.75714],[17.75539,50.76895],[17.76183,50.77976],[17.75061,50.77999],[17.74265,50.78433],[17.72287,50.78829],[17.71304,50.79681],[17.69186,50.79635],[17.67077,50.80993],[17.65951,50.81151],[17.65868,50.81973],[17.64278,50.81828],[17.61422,50.82372],[17.60164,50.83279],[17.60792,50.84614],[17.59276,50.85411],[17.60247,50.85745],[17.61262,50.86699],[17.64027,50.86074],[17.63641,50.8777],[17.64943,50.88027],[17.64715,50.88484],[17.65986,50.89927],[17.68732,50.89781],[17.69365,50.90796],[17.68603,50.90956],[17.68358,50.91758],[17.69195,50.91903],[17.68048,50.92695],[17.66659,50.92797],[17.67641,50.93887],[17.66865,50.95227],[17.66032,50.95534],[17.65425,50.96321],[17.66597,50.97447],[17.66481,50.97883],[17.65221,50.98467],[17.64022,50.98295],[17.63723,50.97778],[17.62172,50.9823],[17.60209,50.98475],[17.59172,50.9915],[17.58831,50.9783],[17.58171,50.97442],[17.56839,50.97689],[17.55809,50.98197],[17.55661,50.99183],[17.54366,50.99979]]]}}