{"type":"Feature","properties":{"id":"POL.6.29","name":"Konin","level":2,"country":"POL"},"geometry":{"type":"Polygon","coordinates":[[[18.19261,52.23382],[18.19701,52.22135],[18.20577,52.22258],[18.23033,52.21952],[18.22485,52.21177],[18.22607,52.20444],[18.21474,52.19775],[18.21873,52.18967],[18.22666,52.18872],[18.24125,52.19231],[18.24316,52.18524],[18.26645,52.18801],[18.26916,52.18309],[18.28514,52.18245],[18.28304,52.19353],[18.29677,52.19817],[18.28331,52.20201],[18.29346,52.22834],[18.29995,52.22266],[18.3158,52.21993],[18.33076,52.2207],[18.32401,52.22882],[18.32383,52.24547],[18.29863,52.24397],[18.27994,52.23834],[18.27795,52.24624],[18.2941,52.25065],[18.29243,52.26554],[18.31244,52.27994],[18.30558,52.28353],[18.30876,52.29484],[18.31737,52.29616],[18.30222,52.30848],[18.30718,52.31669],[18.29649,52.32122],[18.28772,52.32022],[18.25432,52.32269],[18.25662,52.32998],[18.22706,52.32862],[18.23126,52.32033],[18.229,52.30824],[18.23323,52.29929],[18.21592,52.29943],[18.20712,52.29635],[18.20848,52.28936],[18.22371,52.29061],[18.2229,52.28409],[18.23378,52.28061],[18.24636,52.27235],[18.25256,52.257],[18.22139,52.24996],[18.20174,52.24804],[18.20316,52.2441],[18.19261,52.23382]]]}}