{"type":"Feature","properties":{"id":"POL.14.24","name":"powiat kolbuszowski","level":2,"country":"POL"},"geometry":{"type":"Polygon","coordinates":[[[21.80337,50.15144],[21.80703,50.15038],[21.85938,50.15098],[21.86476,50.1774],[21.88817,50.18558],[21.90506,50.18539],[21.91558,50.18235],[21.93465,50.20096],[21.92858,50.20836],[21.92824,50.22729],[21.92008,50.23571],[21.94849,50.24793],[21.97588,50.24839],[21.98981,50.24195],[22.00091,50.23233],[22.0193,50.23067],[22.03127,50.23243],[22.05,50.23175],[22.04556,50.24567],[22.06862,50.25935],[22.09206,50.26745],[22.09619,50.28024],[22.08269,50.28448],[22.07922,50.3],[22.08598,50.30761],[22.00818,50.30262],[22.00556,50.30891],[21.99205,50.3031],[21.98785,50.30912],[21.97327,50.31309],[21.9667,50.32037],[21.96709,50.32685],[21.99465,50.33254],[21.9915,50.34091],[21.98371,50.34757],[21.9903,50.3522],[21.98398,50.36745],[21.96613,50.37264],[21.97494,50.3855],[21.9732,50.39016],[21.95248,50.38408],[21.95149,50.39983],[21.93446,50.39767],[21.91925,50.41479],[21.89687,50.40273],[21.89097,50.39341],[21.88093,50.39173],[21.85189,50.46227],[21.88235,50.47295],[21.86617,50.48224],[21.85291,50.47057],[21.80192,50.45893],[21.77645,50.44924],[21.79552,50.43139],[21.7924,50.42589],[21.79726,50.40598],[21.78894,50.39925],[21.75913,50.38781],[21.74942,50.3905],[21.73983,50.4005],[21.71086,50.41153],[21.70707,50.41677],[21.68486,50.42909],[21.67572,50.44805],[21.67066,50.43697],[21.64233,50.41546],[21.6388,50.4085],[21.63679,50.38996],[21.5985,50.38692],[21.60525,50.37434],[21.62281,50.36173],[21.62342,50.3551],[21.64063,50.34466],[21.62622,50.34238],[21.60112,50.34255],[21.56686,50.33237],[21.57678,50.30864],[21.57398,50.29612],[21.56396,50.29562],[21.53697,50.30073],[21.52989,50.29368],[21.53133,50.28543],[21.54116,50.27616],[21.55605,50.2761],[21.58554,50.25867],[21.59672,50.25774],[21.61036,50.24964],[21.61084,50.24391],[21.59974,50.24002],[21.60233,50.23479],[21.57487,50.2302],[21.58141,50.21951],[21.60274,50.20909],[21.61489,50.20102],[21.63169,50.20072],[21.6421,50.19314],[21.61945,50.18065],[21.6372,50.18193],[21.69527,50.17859],[21.70711,50.1759],[21.71598,50.16734],[21.7306,50.16717],[21.74455,50.15763],[21.75205,50.16589],[21.77082,50.17281],[21.78873,50.16873],[21.7963,50.16933],[21.80562,50.16088],[21.80337,50.15144]]]}}