{"type":"Feature","properties":{"id":"POL.4.10","name":"powiat białogardzki","level":2,"country":"POL"},"geometry":{"type":"Polygon","coordinates":[[[15.88018,54.14565],[15.88056,54.13474],[15.87227,54.12876],[15.86338,54.10842],[15.85444,54.10869],[15.84288,54.09729],[15.83101,54.09404],[15.8341,54.08382],[15.8215,54.0832],[15.81767,54.07598],[15.79311,54.07747],[15.79207,54.0675],[15.77549,54.06647],[15.74854,54.07674],[15.73995,54.06003],[15.74496,54.05098],[15.74444,54.03555],[15.7393,54.02707],[15.75449,54.01045],[15.74626,54.00055],[15.72822,54.00064],[15.72113,53.99023],[15.73146,53.98568],[15.73909,53.97798],[15.72434,53.97337],[15.72573,53.96396],[15.73426,53.95993],[15.76419,53.95338],[15.75447,53.9424],[15.76196,53.93432],[15.81205,53.93424],[15.81531,53.93228],[15.78228,53.9154],[15.78135,53.90626],[15.78688,53.89057],[15.80277,53.89454],[15.80538,53.90119],[15.81511,53.90756],[15.82163,53.89871],[15.8392,53.90136],[15.85757,53.8863],[15.86511,53.89484],[15.85939,53.90474],[15.86453,53.91587],[15.885,53.91591],[15.90262,53.92263],[15.91237,53.91364],[15.94018,53.9118],[15.95575,53.91446],[15.95673,53.91809],[15.98196,53.91006],[15.99569,53.90013],[16.01299,53.90192],[16.02175,53.89789],[16.03899,53.88373],[16.04632,53.88086],[16.06867,53.89848],[16.0841,53.89859],[16.09965,53.88521],[16.11061,53.88519],[16.14399,53.87838],[16.14478,53.85488],[16.15415,53.8432],[16.15442,53.83449],[16.14684,53.82486],[16.15801,53.81371],[16.16767,53.80806],[16.18495,53.81107],[16.18316,53.82045],[16.20048,53.82539],[16.21732,53.84072],[16.23834,53.84079],[16.25511,53.84301],[16.26383,53.85688],[16.27366,53.8589],[16.26475,53.87093],[16.27974,53.87513],[16.29594,53.8735],[16.3035,53.87699],[16.32581,53.8765],[16.33797,53.88586],[16.33459,53.88888],[16.34124,53.90051],[16.35364,53.91112],[16.36621,53.91687],[16.38598,53.90953],[16.39992,53.91101],[16.4148,53.90854],[16.42794,53.90045],[16.44047,53.9043],[16.44216,53.91612],[16.44709,53.92266],[16.44486,53.93395],[16.44851,53.93785],[16.44387,53.94935],[16.45691,53.95148],[16.43241,53.96164],[16.43094,53.96705],[16.40123,53.97432],[16.39258,53.96855],[16.37196,53.97346],[16.36915,53.98546],[16.34568,53.97997],[16.32785,53.98423],[16.32687,53.99081],[16.33664,54.0025],[16.34868,54.01204],[16.32929,54.01381],[16.31984,54.01691],[16.28613,54.01984],[16.27078,54.02681],[16.259,54.02174],[16.23223,54.02342],[16.18261,54.04071],[16.14119,54.0512],[16.1339,54.05684],[16.12257,54.05814],[16.1064,54.07164],[16.09949,54.08407],[16.08675,54.08514],[16.08339,54.10679],[16.07439,54.11239],[16.05522,54.11435],[16.05288,54.10607],[16.0548,54.09502],[16.03167,54.08958],[16.00269,54.07338],[15.98798,54.08066],[15.97652,54.07315],[15.95778,54.07247],[15.94414,54.06568],[15.93265,54.07728],[15.91058,54.07649],[15.90963,54.08895],[15.91805,54.0963],[15.93256,54.10033],[15.93602,54.10629],[15.9129,54.1259],[15.92211,54.13479],[15.91716,54.13905],[15.89319,54.1411],[15.88018,54.14565]]]}}