{"type":"Feature","properties":{"id":"POL.1.1","name":"powiat braniewski","level":2,"country":"POL"},"geometry":{"type":"Polygon","coordinates":[[[19.979,54.13394],[19.97483,54.13992],[19.9531,54.14005],[19.94779,54.15232],[19.9549,54.17429],[19.96723,54.17833],[19.99715,54.17836],[20.0014,54.18741],[19.99702,54.19373],[20.01032,54.19927],[20.01931,54.19578],[20.02119,54.18818],[20.03427,54.18522],[20.03681,54.17582],[20.06256,54.17177],[20.06908,54.17829],[20.08669,54.17808],[20.10015,54.17251],[20.10536,54.16638],[20.12794,54.17],[20.11529,54.19293],[20.1283,54.19306],[20.1859,54.20233],[20.19601,54.18875],[20.22045,54.19499],[20.23514,54.19297],[20.24291,54.18793],[20.26818,54.18233],[20.28411,54.18638],[20.3039,54.1853],[20.3327,54.18732],[20.33635,54.19517],[20.33977,54.21595],[20.32689,54.21597],[20.32829,54.22882],[20.37192,54.22626],[20.37205,54.21965],[20.3936,54.22187],[20.38843,54.23548],[20.37929,54.24216],[20.36296,54.2476],[20.34749,54.25817],[20.32074,54.26567],[20.30906,54.27134],[20.26099,54.275],[20.26885,54.29265],[20.27717,54.29841],[20.27865,54.305],[20.26741,54.31344],[20.27879,54.33415],[20.27733,54.34111],[20.29031,54.34206],[20.30209,54.34644],[20.31848,54.35895],[20.3339,54.36737],[20.33129,54.37961],[20.32338,54.38802],[20.32907,54.39407],[20.31349,54.40221],[20.22108,54.40875],[20.0695,54.42211],[20.00737,54.42474],[19.80386,54.4424],[19.79433,54.43636],[19.78243,54.43387],[19.75436,54.43301],[19.74456,54.42974],[19.74919,54.42084],[19.7455,54.4135],[19.7217,54.40329],[19.70654,54.38158],[19.69,54.37605],[19.68573,54.36466],[19.67158,54.35638],[19.64615,54.34503],[19.62478,54.34095],[19.62637,54.33249],[19.63687,54.32757],[19.61914,54.30203],[19.64202,54.29406],[19.64778,54.28869],[19.64877,54.27678],[19.67453,54.27753],[19.68002,54.26477],[19.70411,54.26733],[19.74279,54.26471],[19.75136,54.26103],[19.75356,54.25453],[19.76832,54.25338],[19.77819,54.24501],[19.78096,54.2256],[19.77679,54.21133],[19.78265,54.20637],[19.78006,54.19596],[19.78397,54.17401],[19.81146,54.17144],[19.8143,54.16305],[19.80586,54.1551],[19.79486,54.15661],[19.78336,54.14988],[19.76411,54.14605],[19.75265,54.14988],[19.74099,54.13749],[19.71873,54.12399],[19.73469,54.12279],[19.75113,54.117],[19.75874,54.11077],[19.77473,54.11574],[19.78669,54.1108],[19.7937,54.10238],[19.80518,54.10381],[19.81574,54.10934],[19.831,54.10691],[19.8426,54.12088],[19.85607,54.12147],[19.86391,54.11815],[19.88726,54.12625],[19.89307,54.11904],[19.91394,54.11697],[19.91391,54.12275],[19.95943,54.1317],[19.979,54.13394]]]}}