{"type":"Feature","properties":{"id":"POL.6.35","name":"Kalisz","level":2,"country":"POL"},"geometry":{"type":"Polygon","coordinates":[[[18.00966,51.75967],[18.00482,51.7402],[18.00942,51.7342],[18.01803,51.73308],[17.99789,51.7176],[18.01348,51.71197],[18.01949,51.71492],[18.03379,51.70967],[18.03716,51.7136],[18.0516,51.71202],[18.06352,51.7015],[18.07223,51.70083],[18.08727,51.70625],[18.11899,51.70919],[18.1302,51.72057],[18.12793,51.73129],[18.13931,51.73062],[18.14929,51.73377],[18.15218,51.75932],[18.13208,51.76028],[18.11921,51.77604],[18.10042,51.78537],[18.09593,51.79385],[18.07749,51.78559],[18.04252,51.77947],[18.03257,51.7729],[18.03625,51.76596],[18.00966,51.75967]]]}}