{"type":"Feature","properties":{"id":"POL.6.6","name":"powiat złotowski","level":2,"country":"POL"},"geometry":{"type":"Polygon","coordinates":[[[16.89225,53.65587],[16.86969,53.64764],[16.85349,53.63847],[16.85536,53.63226],[16.84003,53.62927],[16.83058,53.63508],[16.82585,53.64321],[16.8134,53.63993],[16.81388,53.63068],[16.79474,53.6295],[16.75837,53.62409],[16.76283,53.61812],[16.75382,53.61073],[16.74404,53.59601],[16.73961,53.58367],[16.74644,53.57567],[16.74033,53.56677],[16.72771,53.56725],[16.72735,53.55524],[16.71855,53.54366],[16.71691,53.53416],[16.72052,53.52614],[16.71057,53.51605],[16.69521,53.518],[16.64895,53.48576],[16.62244,53.48556],[16.6147,53.48339],[16.58441,53.48369],[16.58032,53.47875],[16.53226,53.47829],[16.49009,53.47029],[16.48242,53.47665],[16.45447,53.48847],[16.43625,53.46055],[16.4398,53.45928],[16.45971,53.45826],[16.45993,53.45265],[16.44384,53.45306],[16.46659,53.40406],[16.47722,53.39738],[16.47532,53.38776],[16.49152,53.38265],[16.49947,53.38509],[16.50838,53.3761],[16.52538,53.36728],[16.53547,53.37827],[16.54148,53.36632],[16.5626,53.35298],[16.57436,53.35435],[16.5851,53.34668],[16.60671,53.34517],[16.62854,53.34759],[16.62902,53.33933],[16.63844,53.33555],[16.65675,53.32084],[16.67002,53.31789],[16.67824,53.31964],[16.68595,53.30781],[16.70546,53.30354],[16.71447,53.29913],[16.72234,53.29096],[16.74376,53.28188],[16.75247,53.29837],[16.77653,53.29077],[16.79854,53.29112],[16.79064,53.28467],[16.79393,53.27594],[16.78953,53.27046],[16.80013,53.25153],[16.82166,53.24155],[16.80634,53.22544],[16.79293,53.22074],[16.79324,53.21257],[16.78647,53.20825],[16.78727,53.18839],[16.79954,53.1913],[16.81171,53.1866],[16.857,53.17791],[16.85293,53.16936],[16.91395,53.17895],[16.90612,53.19701],[16.91498,53.1988],[16.91456,53.20657],[16.94581,53.222],[16.95732,53.2179],[16.96905,53.21889],[16.97252,53.22567],[16.99604,53.23433],[17.01707,53.23146],[17.02856,53.23342],[17.04534,53.224],[17.06983,53.22934],[17.07709,53.23957],[17.13728,53.23768],[17.14355,53.23854],[17.14873,53.25183],[17.14198,53.26201],[17.16419,53.26581],[17.17381,53.2654],[17.18994,53.27042],[17.18566,53.28757],[17.19428,53.29753],[17.23555,53.3115],[17.24494,53.31152],[17.25085,53.32009],[17.26071,53.32699],[17.26589,53.35085],[17.25724,53.36339],[17.24737,53.37475],[17.26718,53.3885],[17.28524,53.39429],[17.296,53.40373],[17.29013,53.41496],[17.29465,53.42176],[17.32404,53.43272],[17.33321,53.43854],[17.33476,53.44504],[17.3629,53.45853],[17.37335,53.46698],[17.38249,53.4686],[17.39406,53.4903],[17.39065,53.49096],[17.38637,53.49671],[17.3733,53.49472],[17.36312,53.49725],[17.35078,53.49348],[17.32666,53.50265],[17.32447,53.51297],[17.30506,53.51292],[17.31003,53.52425],[17.29584,53.52458],[17.28163,53.53401],[17.26564,53.53699],[17.24454,53.53123],[17.20841,53.53636],[17.1971,53.53232],[17.18346,53.53449],[17.16106,53.52783],[17.14261,53.53127],[17.13183,53.53646],[17.11781,53.53645],[17.10119,53.5425],[17.08978,53.54273],[17.07318,53.53243],[17.05851,53.52043],[17.03247,53.51554],[17.01233,53.52004],[16.99302,53.53157],[17.00645,53.53463],[17.0007,53.55202],[16.98132,53.556],[16.9528,53.54199],[16.9504,53.55726],[16.93882,53.57244],[16.94107,53.58368],[16.93135,53.58788],[16.90259,53.61796],[16.89433,53.62813],[16.89889,53.63391],[16.89225,53.65587]]]}}