{"type":"Feature","properties":{"id":"CHL.4","name":"Tarapacá","level":1,"country":"CHL"},"geometry":{"type":"Polygon","coordinates":[[[-68.98961,-18.94649],[-69.07834,-19.04995],[-69.13564,-19.08964],[-69.19298,-19.10287],[-69.29881,-19.08964],[-69.34292,-19.06757],[-69.46198,-19.03233],[-69.55898,-19.02788],[-69.66042,-18.98819],[-69.78829,-18.98819],[-69.90294,-19.02349],[-70.01319,-19.04556],[-70.0661,-19.06757],[-70.1146,-19.10726],[-70.21163,-19.15578],[-70.27033,-19.17148],[-70.28775,-19.30096],[-70.22631,-19.41082],[-70.19957,-19.53436],[-70.21442,-19.59636],[-70.18414,-19.62939],[-70.15119,-19.71942],[-70.1586,-19.81845],[-70.13687,-19.84905],[-70.14436,-19.89007],[-70.12328,-19.99993],[-70.12328,-20.0722],[-70.15119,-20.13763],[-70.14436,-20.17864],[-70.16047,-20.22088],[-70.13073,-20.26678],[-70.14574,-20.33041],[-70.19213,-20.36679],[-70.16669,-20.44807],[-70.1765,-20.49179],[-70.2058,-20.52809],[-70.1942,-20.64463],[-70.20564,-20.73935],[-70.18357,-20.82856],[-70.15401,-20.85621],[-70.12746,-20.93527],[-70.16828,-20.997],[-70.16442,-21.0405],[-70.1273,-21.0892],[-70.13073,-21.12396],[-70.08009,-21.23332],[-70.06867,-21.30584],[-70.09411,-21.34547],[-70.06135,-21.44834],[-69.9133,-21.4513],[-69.88562,-21.41296],[-69.81338,-21.38949],[-69.61272,-21.39322],[-69.50593,-21.44463],[-69.44999,-21.44634],[-69.34491,-21.41714],[-69.12141,-21.33725],[-68.79435,-21.24087],[-68.7536,-21.21147],[-68.70296,-21.1383],[-68.65345,-21.10062],[-68.56969,-21.07323],[-68.54599,-21.02518],[-68.53155,-20.92769],[-68.57196,-20.87237],[-68.57279,-20.74287],[-68.5502,-20.69905],[-68.48163,-20.64303],[-68.51021,-20.60189],[-68.68554,-20.51683],[-68.72968,-20.47921],[-68.76903,-20.39054],[-68.73515,-20.34754],[-68.67852,-20.32863],[-68.72947,-20.22869],[-68.72626,-20.15096],[-68.78947,-20.12585],[-68.77554,-20.08968],[-68.65288,-20.05423],[-68.58834,-20.05557],[-68.54157,-19.92038],[-68.55351,-19.85786],[-68.69841,-19.74634],[-68.6903,-19.69539],[-68.63097,-19.64195],[-68.49636,-19.4584],[-68.44763,-19.43463],[-68.4932,-19.37696],[-68.60007,-19.30337],[-68.66332,-19.2736],[-68.69846,-19.21562],[-68.81541,-19.1133],[-68.89478,-19.07651],[-68.91969,-19.05377],[-68.9617,-18.96943],[-68.98961,-18.94649]]]}}