{"type":"Feature","properties":{"id":"ESP.17","name":"Córdoba","level":1,"country":"ESP"},"geometry":{"type":"Polygon","coordinates":[[[-4.00087,37.40211],[-4.0375,37.45634],[-4.08661,37.48654],[-4.11013,37.53782],[-4.18225,37.61254],[-4.2131,37.62627],[-4.17198,37.69715],[-4.21981,37.71607],[-4.23072,37.77456],[-4.28384,37.82048],[-4.261,37.96354],[-4.28432,38.00369],[-4.19305,38.12756],[-4.16801,38.18076],[-4.1984,38.21476],[-4.21456,38.28927],[-4.2755,38.35092],[-4.3018,38.35011],[-4.44975,38.39595],[-4.51706,38.45551],[-4.61049,38.49698],[-4.63273,38.52354],[-4.72797,38.57976],[-4.82848,38.60405],[-4.8659,38.63501],[-4.88303,38.68524],[-4.94597,38.68374],[-5.03659,38.72841],[-5.15945,38.71795],[-5.18081,38.66604],[-5.36241,38.58387],[-5.41964,38.51584],[-5.48085,38.4692],[-5.56937,38.42533],[-5.56712,38.33629],[-5.52134,38.26676],[-5.53821,38.16237],[-5.58105,38.13509],[-5.58183,38.11555],[-5.49607,38.04284],[-5.47859,37.98129],[-5.42183,37.94069],[-5.41337,37.88508],[-5.34963,37.83059],[-5.30971,37.77343],[-5.31108,37.69792],[-5.39003,37.69758],[-5.401,37.63103],[-5.34437,37.60999],[-5.27677,37.62449],[-5.19106,37.66959],[-5.12942,37.66555],[-5.10502,37.69093],[-5.02664,37.71051],[-4.98207,37.69016],[-4.92802,37.58368],[-4.94388,37.52018],[-4.90827,37.49477],[-4.88488,37.43815],[-4.82207,37.35819],[-4.76344,37.32882],[-4.71058,37.36161],[-4.67725,37.34076],[-4.65323,37.25593],[-4.59627,37.22161],[-4.53931,37.21131],[-4.48062,37.23876],[-4.44494,37.27755],[-4.38351,37.27755],[-4.3722,37.21551],[-4.3203,37.18657],[-4.25516,37.2295],[-4.2634,37.26039],[-4.20917,37.35236],[-4.13717,37.35757],[-4.07638,37.40352],[-4.00087,37.40211]]]}}