{"type":"Feature","properties":{"id":"LVA.116","name":"Smiltenes","level":1,"country":"LVA"},"geometry":{"type":"Polygon","coordinates":[[[26.3115,57.49933],[26.30161,57.5277],[26.1551,57.54724],[26.12335,57.56922],[25.97684,57.54968],[25.94509,57.53015],[25.93533,57.47642],[25.77633,57.49969],[25.7184,57.49656],[25.65795,57.46461],[25.75164,57.33769],[25.74513,57.27511],[25.76987,57.27871],[25.99173,57.29002],[26.0586,57.26529],[26.10128,57.27816],[26.26199,57.28193],[26.27615,57.33102],[26.32049,57.42378],[26.29352,57.4427],[26.3115,57.49933]]]}}