{"type":"Feature","properties":{"id":"DOM.18","name":"Azua","level":1,"country":"DOM"},"geometry":{"type":"Polygon","coordinates":[[[-70.57938,18.27177],[-70.4874,18.32116],[-70.47908,18.41322],[-70.52187,18.48874],[-70.65033,18.57236],[-70.69999,18.67685],[-70.68583,18.73403],[-70.78479,18.80733],[-70.82743,18.86229],[-70.83869,18.95448],[-70.8912,18.98845],[-70.97527,18.88368],[-70.98246,18.78263],[-71.05943,18.76643],[-71.05581,18.67876],[-71.16131,18.61592],[-71.11382,18.57029],[-71.01987,18.54427],[-71.01475,18.50202],[-71.00147,18.45389],[-71.04271,18.38066],[-70.95938,18.35405],[-70.96561,18.26208],[-70.93248,18.26154],[-70.84602,18.34219],[-70.76065,18.34748],[-70.71198,18.38337],[-70.70385,18.43012],[-70.60143,18.41185],[-70.57388,18.37368],[-70.57938,18.27177]]]}}