{"type":"Feature","properties":{"id":"ECU.10.1","name":"Urdaneta","level":2,"country":"ECU"},"geometry":{"type":"Polygon","coordinates":[[[-79.35322,-1.63336],[-79.34405,-1.63025],[-79.31759,-1.62676],[-79.31668,-1.6206],[-79.30701,-1.60648],[-79.29913,-1.5994],[-79.29013,-1.60152],[-79.27864,-1.60994],[-79.27243,-1.5993],[-79.27432,-1.5951],[-79.27009,-1.58664],[-79.25808,-1.57203],[-79.25375,-1.56983],[-79.24484,-1.5459],[-79.24716,-1.54354],[-79.25207,-1.54016],[-79.26192,-1.5385],[-79.27094,-1.54044],[-79.28557,-1.52695],[-79.29265,-1.52419],[-79.30422,-1.52592],[-79.31184,-1.51549],[-79.32174,-1.51257],[-79.3216,-1.50203],[-79.3175,-1.49496],[-79.32883,-1.47626],[-79.32553,-1.4653],[-79.32999,-1.4606],[-79.33884,-1.46092],[-79.34305,-1.46361],[-79.34707,-1.47158],[-79.35515,-1.46925],[-79.3609,-1.47056],[-79.36359,-1.47667],[-79.3697,-1.47948],[-79.37854,-1.49015],[-79.39483,-1.49625],[-79.40413,-1.49472],[-79.41831,-1.48874],[-79.42705,-1.48829],[-79.43092,-1.49873],[-79.43865,-1.50138],[-79.44227,-1.4989],[-79.44824,-1.5028],[-79.461,-1.51817],[-79.46291,-1.52462],[-79.48231,-1.51998],[-79.5022,-1.52039],[-79.50197,-1.55735],[-79.50061,-1.57214],[-79.49714,-1.57729],[-79.49815,-1.5828],[-79.49426,-1.59354],[-79.48984,-1.59951],[-79.49171,-1.60729],[-79.48667,-1.61302],[-79.49105,-1.6233],[-79.49742,-1.62414],[-79.501,-1.63132],[-79.49435,-1.6423],[-79.48354,-1.65267],[-79.49112,-1.65908],[-79.48702,-1.66408],[-79.48958,-1.66898],[-79.47487,-1.67372],[-79.46625,-1.67258],[-79.46454,-1.66741],[-79.45745,-1.66472],[-79.45522,-1.65665],[-79.44444,-1.65447],[-79.43124,-1.6457],[-79.42715,-1.63556],[-79.41754,-1.62921],[-79.41264,-1.61884],[-79.39892,-1.62195],[-79.39596,-1.62487],[-79.3792,-1.62639],[-79.37273,-1.63274],[-79.35322,-1.63336]]]}}