{"type":"Feature","properties":{"id":"ECU.4.8","name":"Zamora","level":2,"country":"ECU"},"geometry":{"type":"Polygon","coordinates":[[[-78.82489,-3.8333],[-78.83232,-3.82261],[-78.83455,-3.81617],[-78.83177,-3.80388],[-78.8337,-3.78773],[-78.84383,-3.79096],[-78.85762,-3.79981],[-78.8715,-3.79454],[-78.87634,-3.79798],[-78.89074,-3.79851],[-78.89939,-3.79549],[-78.90287,-3.80174],[-78.91525,-3.80366],[-78.93157,-3.8028],[-78.94645,-3.80409],[-78.95271,-3.80082],[-78.95814,-3.8088],[-78.97507,-3.82626],[-78.98357,-3.81343],[-78.99068,-3.81681],[-79.00963,-3.80573],[-79.0206,-3.8081],[-79.03744,-3.80279],[-79.04557,-3.80344],[-79.0503,-3.7922],[-79.05361,-3.7895],[-79.07823,-3.78801],[-79.08667,-3.79136],[-79.09179,-3.78774],[-79.10001,-3.78763],[-79.10496,-3.77671],[-79.10229,-3.77012],[-79.10231,-3.76047],[-79.10975,-3.7503],[-79.10828,-3.73355],[-79.12271,-3.72321],[-79.13867,-3.71872],[-79.14556,-3.71016],[-79.15747,-3.70233],[-79.15999,-3.70423],[-79.16219,-3.71526],[-79.17892,-3.71174],[-79.19194,-3.72099],[-79.19529,-3.72502],[-79.19184,-3.73645],[-79.19024,-3.75325],[-79.17935,-3.764],[-79.1736,-3.7972],[-79.16759,-3.80244],[-79.16047,-3.80465],[-79.16098,-3.81441],[-79.15637,-3.81845],[-79.14342,-3.82211],[-79.14016,-3.84697],[-79.14546,-3.85584],[-79.13624,-3.86339],[-79.12955,-3.87762],[-79.13216,-3.88414],[-79.12889,-3.88895],[-79.13705,-3.8989],[-79.14337,-3.90274],[-79.14336,-3.91613],[-79.14795,-3.92687],[-79.15222,-3.93102],[-79.14256,-3.93593],[-79.13955,-3.94984],[-79.14597,-3.95527],[-79.15128,-3.96429],[-79.14323,-3.9739],[-79.1445,-3.98677],[-79.14782,-3.99486],[-79.14394,-4.00981],[-79.14578,-4.01799],[-79.1364,-4.03508],[-79.13944,-4.04699],[-79.13953,-4.05654],[-79.15277,-4.06662],[-79.15389,-4.081],[-79.16049,-4.09421],[-79.1623,-4.115],[-79.1576,-4.12844],[-79.16043,-4.13509],[-79.1573,-4.13984],[-79.15869,-4.15404],[-79.1509,-4.16036],[-79.14093,-4.16333],[-79.13465,-4.16137],[-79.12546,-4.16851],[-79.12115,-4.17757],[-79.10744,-4.18489],[-79.10449,-4.19558],[-79.10575,-4.20635],[-79.10027,-4.21013],[-79.10859,-4.22469],[-79.10691,-4.22912],[-79.09744,-4.23111],[-79.08977,-4.22978],[-79.08442,-4.23215],[-79.07573,-4.24153],[-79.06611,-4.24515],[-79.06359,-4.24098],[-79.05558,-4.24555],[-79.04794,-4.23438],[-79.034,-4.23628],[-79.0205,-4.25846],[-79.01057,-4.25619],[-79.01235,-4.28224],[-79.00974,-4.28745],[-78.99456,-4.29753],[-78.98592,-4.29534],[-78.98188,-4.29028],[-78.97566,-4.28879],[-78.96315,-4.29539],[-78.95392,-4.30507],[-78.95052,-4.29598],[-78.94346,-4.28841],[-78.9293,-4.28288],[-78.9145,-4.27067],[-78.91312,-4.26651],[-78.90098,-4.257],[-78.89453,-4.25688],[-78.89404,-4.24903],[-78.89983,-4.23252],[-78.8754,-4.2127],[-78.87128,-4.20339],[-78.87434,-4.19691],[-78.86121,-4.17076],[-78.85217,-4.16092],[-78.84914,-4.15476],[-78.84226,-4.14985],[-78.8376,-4.13995],[-78.82177,-4.13606],[-78.81519,-4.13882],[-78.80513,-4.13921],[-78.80008,-4.13634],[-78.78837,-4.13569],[-78.78027,-4.14101],[-78.78012,-4.13382],[-78.77578,-4.12598],[-78.77964,-4.12153],[-78.77911,-4.11015],[-78.77643,-4.10455],[-78.77045,-4.10069],[-78.76966,-4.09083],[-78.77178,-4.08252],[-78.77111,-4.06362],[-78.76936,-4.04545],[-78.77116,-4.04071],[-78.76688,-4.03632],[-78.76814,-4.02793],[-78.7627,-4.01687],[-78.76994,-4.01235],[-78.77196,-3.99966],[-78.78237,-3.99211],[-78.78481,-3.98085],[-78.79118,-3.97368],[-78.78867,-3.95887],[-78.78157,-3.94453],[-78.79479,-3.94265],[-78.798,-3.93742],[-78.81054,-3.93228],[-78.81505,-3.92685],[-78.8141,-3.91864],[-78.81661,-3.91148],[-78.82916,-3.91359],[-78.83076,-3.90615],[-78.8381,-3.89787],[-78.84075,-3.88919],[-78.83868,-3.87772],[-78.84379,-3.87474],[-78.85035,-3.85385],[-78.84039,-3.85132],[-78.84,-3.84197],[-78.82489,-3.8333]]]}}