{"type":"Feature","properties":{"id":"ECU.15.5","name":"San Miguel de Los Bancos","level":2,"country":"ECU"},"geometry":{"type":"Polygon","coordinates":[[[-79.13914,0.04063],[-79.13908,0.03259],[-79.14733,0.03499],[-79.15942,0.0359],[-79.15987,0.03096],[-79.15296,0.0298],[-79.1493,0.02409],[-79.14038,0.01998],[-79.1403,0.01495],[-79.13348,0.01264],[-79.13093,0.00317],[-79.14053,0.00046],[-79.14912,0.00067],[-79.15813,0.00524],[-79.1661,0.00154],[-79.16894,-0.01525],[-79.1613,-0.01193],[-79.15629,-0.01668],[-79.14989,-0.0131],[-79.14046,-0.01645],[-79.12308,-0.01965],[-79.11822,-0.0175],[-79.10861,-0.02446],[-79.09752,-0.02642],[-79.09989,-0.03427],[-79.12036,-0.04402],[-79.12699,-0.049],[-79.13121,-0.05609],[-79.13308,-0.06545],[-79.14074,-0.07378],[-79.14174,-0.07938],[-79.14829,-0.08503],[-79.14409,-0.09283],[-79.13622,-0.09398],[-79.1331,-0.08892],[-79.12502,-0.08674],[-79.11234,-0.08608],[-79.1047,-0.08861],[-79.09074,-0.08962],[-79.07676,-0.09409],[-79.07241,-0.09147],[-79.05999,-0.09561],[-79.0536,-0.10417],[-79.04535,-0.10173],[-79.03817,-0.10562],[-79.02427,-0.11759],[-79.0201,-0.11438],[-79.01429,-0.11654],[-79.01324,-0.10987],[-79.00656,-0.1137],[-78.97972,-0.10733],[-78.9722,-0.10798],[-78.96333,-0.10487],[-78.9516,-0.11113],[-78.94304,-0.11071],[-78.94071,-0.11399],[-78.92841,-0.12079],[-78.91781,-0.11595],[-78.91412,-0.11711],[-78.9093,-0.10792],[-78.89727,-0.10728],[-78.88168,-0.10978],[-78.87769,-0.11532],[-78.8683,-0.11838],[-78.85735,-0.13302],[-78.85077,-0.13627],[-78.83958,-0.13381],[-78.83779,-0.12682],[-78.82787,-0.11614],[-78.83441,-0.11182],[-78.8378,-0.09797],[-78.83223,-0.09798],[-78.82444,-0.10428],[-78.81911,-0.10522],[-78.81692,-0.11342],[-78.7985,-0.10101],[-78.78738,-0.11237],[-78.77305,-0.11862],[-78.7657,-0.12434],[-78.75871,-0.12645],[-78.74035,-0.12846],[-78.73284,-0.13309],[-78.71545,-0.12783],[-78.70052,-0.13173],[-78.69433,-0.13017],[-78.68879,-0.13594],[-78.68311,-0.13462],[-78.67795,-0.12834],[-78.66679,-0.135],[-78.66073,-0.13563],[-78.65929,-0.11955],[-78.6509,-0.10271],[-78.64764,-0.10118],[-78.65084,-0.08846],[-78.64749,-0.07576],[-78.65586,-0.06364],[-78.64515,-0.05986],[-78.638,-0.06243],[-78.64446,-0.04941],[-78.65362,-0.04322],[-78.65833,-0.03761],[-78.66077,-0.02507],[-78.6716,-0.00748],[-78.67613,-0.00839],[-78.68104,-0.02019],[-78.68526,-0.02128],[-78.69753,-0.0324],[-78.70669,-0.03153],[-78.72449,-0.02119],[-78.7226,-0.0124],[-78.72532,-0.00232],[-78.73,0.00207],[-78.73335,0.01052],[-78.743,0.0131],[-78.75115,0.02112],[-78.75544,0.02003],[-78.75973,0.02599],[-78.7778,0.03468],[-78.78713,0.03219],[-78.78975,0.0254],[-78.7984,0.02634],[-78.79957,0.03337],[-78.81,0.03295],[-78.82074,0.0349],[-78.84016,0.04286],[-78.84121,0.04883],[-78.8506,0.05124],[-78.86099,0.05743],[-78.87406,0.06091],[-78.88646,0.0612],[-78.89083,0.06791],[-78.89816,0.06813],[-78.90059,0.07636],[-78.90908,0.07486],[-78.92166,0.08302],[-78.93263,0.09573],[-78.95862,0.09548],[-78.95638,0.08583],[-78.95989,0.07984],[-78.96104,0.07108],[-78.96978,0.06097],[-78.97964,0.063],[-78.97977,0.04365],[-78.99519,0.04359],[-78.99516,0.00326],[-79.00575,0.00361],[-79.01125,0.00117],[-79.02966,0.00078],[-79.05186,0.01597],[-79.06297,0.01869],[-79.07023,0.01426],[-79.08644,0.01737],[-79.09332,0.0243],[-79.10288,0.02375],[-79.1113,0.0283],[-79.12179,0.02755],[-79.1244,0.03256],[-79.13214,0.03196],[-79.13914,0.04063]]]}}