{"type":"Feature","properties":{"id":"ECU.11.5","name":"Jama","level":2,"country":"ECU"},"geometry":{"type":"Polygon","coordinates":[[[-80.08288,-0.23638],[-80.09163,-0.23678],[-80.10062,-0.23143],[-80.10455,-0.21988],[-80.1103,-0.21004],[-80.10777,-0.20406],[-80.10913,-0.1976],[-80.10514,-0.18799],[-80.11046,-0.17746],[-80.10125,-0.16713],[-80.10089,-0.16086],[-80.10643,-0.16005],[-80.11493,-0.14881],[-80.12489,-0.14593],[-80.12533,-0.13811],[-80.13022,-0.13536],[-80.13082,-0.12943],[-80.12503,-0.12474],[-80.11704,-0.12442],[-80.10988,-0.11753],[-80.10706,-0.1041],[-80.1034,-0.09947],[-80.11042,-0.08586],[-80.10954,-0.0827],[-80.11627,-0.07194],[-80.12614,-0.06304],[-80.1394,-0.06668],[-80.14385,-0.07246],[-80.14964,-0.07178],[-80.15497,-0.06595],[-80.15999,-0.06733],[-80.17732,-0.07586],[-80.18199,-0.08341],[-80.20408,-0.10939],[-80.23435,-0.13884],[-80.26114,-0.16067],[-80.26669,-0.16237],[-80.27377,-0.17078],[-80.29045,-0.18498],[-80.30215,-0.18888],[-80.30987,-0.18868],[-80.32008,-0.17988],[-80.32597,-0.17207],[-80.33981,-0.2034],[-80.35685,-0.21937],[-80.37356,-0.2271],[-80.37943,-0.23347],[-80.38352,-0.24178],[-80.39207,-0.2732],[-80.38048,-0.28439],[-80.37112,-0.28904],[-80.3664,-0.30642],[-80.36743,-0.31404],[-80.36393,-0.32272],[-80.35868,-0.3233],[-80.35419,-0.32919],[-80.34238,-0.33654],[-80.33123,-0.33651],[-80.32417,-0.33847],[-80.31666,-0.34499],[-80.31574,-0.35302],[-80.31105,-0.35629],[-80.30958,-0.36719],[-80.29577,-0.35638],[-80.29171,-0.35626],[-80.28975,-0.34863],[-80.27465,-0.33522],[-80.26813,-0.33419],[-80.25414,-0.33533],[-80.25034,-0.33243],[-80.24916,-0.3214],[-80.24451,-0.31799],[-80.23552,-0.32006],[-80.23098,-0.3248],[-80.22447,-0.32452],[-80.21678,-0.31216],[-80.21137,-0.30962],[-80.20245,-0.31035],[-80.19368,-0.30174],[-80.1937,-0.29352],[-80.19983,-0.28361],[-80.18502,-0.28157],[-80.18077,-0.27831],[-80.17235,-0.28893],[-80.16594,-0.28839],[-80.14767,-0.27808],[-80.13415,-0.266],[-80.13173,-0.25908],[-80.1238,-0.25966],[-80.11901,-0.25498],[-80.10872,-0.25547],[-80.09936,-0.25127],[-80.0898,-0.25288],[-80.08042,-0.24783],[-80.08288,-0.23638]]]}}