{"type":"Feature","properties":{"id":"UKR.11.1","name":"Chornobai","level":2,"country":"UKR"},"geometry":{"type":"Polygon","coordinates":[[[32.86276,49.59497],[32.86362,49.64612],[32.78495,49.68547],[32.67409,49.77561],[32.55966,49.83101],[32.4488,49.84946],[32.35582,49.82409],[32.32722,49.59747],[32.26092,49.51885],[32.23782,49.44425],[32.3737,49.40238],[32.65449,49.33914],[32.74146,49.29588],[32.82614,49.33765],[32.86742,49.41395],[32.79868,49.46425],[32.84903,49.50142],[32.86276,49.59497]]]}}