{"type":"Feature","properties":{"id":"UKR.16.8","name":"Olevsk","level":2,"country":"UKR"},"geometry":{"type":"Polygon","coordinates":[[[27.66766,51.11004],[27.87507,51.18407],[27.97085,51.13455],[28.1397,51.14819],[28.28274,51.19304],[28.34353,51.27588],[28.20407,51.40991],[28.25413,51.48791],[28.21479,51.60133],[27.91441,51.6302],[27.87871,51.54406],[27.77137,51.52575],[27.74732,51.4755],[27.60329,51.43667],[27.59614,51.36974],[27.52105,51.31837],[27.50674,51.18855],[27.68197,51.18631],[27.66766,51.11004]]]}}