{"type":"Feature","properties":{"id":"UKR.14.24","name":"Bilhorod Dnistrovskyi","level":2,"country":"UKR"},"geometry":{"type":"Polygon","coordinates":[[[30.13869,46.38728],[29.84546,46.37495],[29.79144,46.43178],[29.71672,46.37248],[29.78824,46.31076],[29.85619,46.29841],[29.99208,46.22919],[30.14904,46.08835],[30.153,45.97379],[30.24143,45.94035],[30.30677,45.85935],[30.40332,45.9166],[30.44981,45.98125],[30.46053,46.088],[30.43908,46.1351],[30.27458,46.20444],[30.18518,46.29347],[30.18518,46.33052],[30.30465,46.37143],[30.28556,46.39603],[30.13869,46.38728]]]}}