{"type":"Feature","properties":{"id":"UKR.17.2","name":"Lebedyn","level":2,"country":"UKR"},"geometry":{"type":"Polygon","coordinates":[[[34.44064,50.4088],[34.6266,50.43614],[34.62622,50.484],[34.75533,50.53626],[34.88822,50.64849],[34.8722,50.75721],[34.82414,50.79773],[34.72629,50.79494],[34.59985,50.90898],[34.55155,50.91152],[34.44193,50.91042],[34.37098,50.88011],[34.22222,50.86711],[34.19247,50.75286],[34.27715,50.70216],[34.33208,50.58315],[34.31548,50.52489],[34.32264,50.44753],[34.44064,50.4088]]]}}