{"type":"Feature","properties":{"id":"UKR.10.6","name":"Lutsk","level":2,"country":"UKR"},"geometry":{"type":"Polygon","coordinates":[[[25.73661,50.69056],[25.70134,50.82378],[25.50149,50.86213],[25.47355,50.95022],[25.38415,51.02057],[25.29648,51.00557],[25.31936,50.91042],[25.09919,50.90796],[25.05127,50.81912],[24.96509,50.76681],[24.97067,50.70316],[25.07684,50.67838],[25.12712,50.59333],[25.23597,50.52489],[25.35398,50.5408],[25.36113,50.60439],[25.50775,50.56579],[25.42192,50.67017],[25.57313,50.65638],[25.61145,50.68603],[25.73661,50.69056]]]}}