{"type":"Feature","properties":{"id":"TUR.16","name":"Antalya","level":1,"country":"TUR"},"geometry":{"type":"Polygon","coordinates":[[[32.57179,36.09398],[32.64724,36.26926],[32.65168,36.43804],[32.53159,36.53379],[32.45624,36.6734],[32.46317,36.74158],[32.42637,36.83212],[32.30535,36.85419],[32.32354,36.95821],[32.12789,37.07624],[32.03312,37.16864],[31.81535,37.2985],[31.41548,37.35485],[31.33187,37.42224],[31.02346,37.35139],[30.93499,37.38025],[30.78554,37.23525],[30.44086,37.23083],[30.3558,37.29845],[30.29493,37.30493],[30.08564,37.24662],[29.90601,37.17215],[29.85123,37.11246],[29.83594,37.03712],[29.74447,36.93085],[29.68887,36.91431],[29.58024,36.71605],[29.57549,36.59895],[29.48113,36.53715],[29.4773,36.4824],[29.36196,36.46312],[29.26121,36.29358],[29.49448,36.21101],[29.60222,36.20702],[29.66822,36.14379],[29.79526,36.14521],[29.91163,36.21703],[30.14471,36.25434],[30.15854,36.29865],[30.25457,36.3083],[30.44077,36.23933],[30.51987,36.34186],[30.47462,36.4016],[30.56984,36.52802],[30.55787,36.61962],[30.56984,36.78132],[30.60174,36.83812],[30.68653,36.89118],[30.77589,36.84956],[30.93971,36.857],[31.34083,36.80858],[31.40756,36.76341],[31.73658,36.64228],[31.76905,36.61001],[32.02605,36.54344],[32.10206,36.48615],[32.19215,36.35839],[32.27613,36.28783],[32.36549,36.17797],[32.51344,36.10301],[32.57179,36.09398]]]}}