{"type":"Feature","properties":{"id":"TCD.20","name":"Barh El Gazel","level":1,"country":"TCD"},"geometry":{"type":"Polygon","coordinates":[[[15.88361,13.18788],[15.96526,13.12199],[15.99999,13.04758],[16.24689,13.05197],[16.32493,13.07445],[16.44781,13.05099],[16.48941,13.08163],[16.71937,13.11305],[16.82412,13.15982],[16.88014,13.14318],[16.99729,13.18209],[17.1317,13.144],[17.20384,13.27082],[17.19702,13.50062],[17.22911,13.69648],[17.24962,13.72769],[17.55141,13.82009],[17.99289,15.61641],[17.84282,15.79253],[16.67139,16.34187],[16.48908,16.03738],[16.26443,15.26129],[16.13167,14.81198],[16.11125,14.57711],[16.04998,14.47499],[15.77427,14.14822],[15.59046,14.07674],[15.60072,13.75393],[15.71618,13.75492],[15.76413,13.7896],[15.84175,13.76578],[15.86532,13.70717],[15.8402,13.64263],[15.89839,13.5215],[15.89994,13.25046],[15.88361,13.18788]]]}}