{"type":"Feature","properties":{"id":"BLR.3.16","name":"Asipovichy","level":2,"country":"BLR"},"geometry":{"type":"Polygon","coordinates":[[[28.71404,53.12494],[28.73625,53.12116],[28.76939,53.12745],[28.78481,53.11774],[28.80202,53.12838],[28.83004,53.13593],[28.84494,53.15428],[28.8727,53.16429],[28.88915,53.1951],[28.90225,53.20341],[28.93798,53.20141],[28.95345,53.21572],[28.98947,53.21798],[28.99621,53.2295],[28.96562,53.24959],[28.97796,53.26877],[29.02401,53.27182],[29.03997,53.25844],[29.09279,53.26167],[29.05877,53.28615],[29.07213,53.30028],[29.06622,53.31763],[29.05491,53.32623],[29.02125,53.33713],[29.02741,53.37425],[29.01945,53.39724],[29.00274,53.40842],[29.00557,53.41746],[28.97499,53.42604],[28.97653,53.44487],[28.9498,53.45344],[28.95211,53.47608],[28.9701,53.49168],[28.95751,53.50514],[28.95182,53.52724],[28.91882,53.53097],[28.8902,53.56232],[28.85804,53.57218],[28.83117,53.5756],[28.8258,53.58994],[28.78466,53.58834],[28.7784,53.57401],[28.73905,53.56763],[28.70953,53.57029],[28.6988,53.58357],[28.64335,53.60161],[28.62635,53.59631],[28.61204,53.5687],[28.59237,53.56657],[28.587,53.5501],[28.54627,53.54544],[28.52082,53.54107],[28.50651,53.53044],[28.52171,53.5198],[28.56643,53.52193],[28.5709,53.51608],[28.51992,53.50544],[28.49041,53.51076],[28.45732,53.50757],[28.41606,53.47761],[28.37274,53.48676],[28.36296,53.47096],[28.33641,53.46596],[28.36995,53.45265],[28.41746,53.44599],[28.41886,53.42268],[28.40069,53.39353],[28.38811,53.38436],[28.36296,53.38186],[28.35877,53.35434],[28.36715,53.34266],[28.42724,53.32347],[28.43703,53.27586],[28.40908,53.26416],[28.33641,53.26834],[28.33501,53.25246],[28.27212,53.25162],[28.19806,53.26584],[28.15753,53.26751],[28.15194,53.27419],[28.10398,53.26626],[28.09604,53.25413],[28.12399,53.22988],[28.1198,53.21566],[28.18548,53.20227],[28.19806,53.18385],[28.22042,53.19054],[28.24417,53.18217],[28.26933,53.19054],[28.28051,53.17798],[28.30846,53.18301],[28.30986,53.19892],[28.34759,53.19138],[28.35877,53.18468],[28.36156,53.16793],[28.35457,53.15285],[28.36715,53.14531],[28.3951,53.15117],[28.42724,53.14195],[28.47056,53.15285],[28.51109,53.15201],[28.51808,53.1277],[28.5396,53.09986],[28.57484,53.09845],[28.57946,53.1074],[28.55659,53.12344],[28.57561,53.15089],[28.59899,53.16676],[28.61827,53.16599],[28.63395,53.1569],[28.636,53.14395],[28.6671,53.14827],[28.68766,53.1441],[28.71404,53.12494]]]}}