{"type":"Feature","properties":{"id":"VEN.12.8","name":"Papelón","level":2,"country":"VEN"},"geometry":{"type":"Polygon","coordinates":[[[-69.0999,8.93748],[-69.09875,8.93074],[-69.10913,8.92635],[-69.11644,8.93578],[-69.12207,8.92751],[-69.13105,8.94138],[-69.13618,8.92927],[-69.1568,8.92459],[-69.16864,8.92891],[-69.17526,8.93857],[-69.18311,8.92351],[-69.19403,8.92858],[-69.19796,8.92086],[-69.2134,8.92116],[-69.21536,8.92888],[-69.22479,8.92555],[-69.22985,8.93225],[-69.22328,8.94357],[-69.2354,8.95456],[-69.243,8.95638],[-69.24619,8.96354],[-69.26815,8.95874],[-69.27391,8.9705],[-69.28364,8.97697],[-69.30691,8.9812],[-69.31367,8.98525],[-69.3147,8.99318],[-69.32491,8.99454],[-69.33404,8.98395],[-69.35141,8.9834],[-69.35161,8.99292],[-69.36172,8.99293],[-69.37071,9.00857],[-69.37827,8.99971],[-69.38292,9.00623],[-69.39122,8.99718],[-69.4065,8.99935],[-69.41553,9.01271],[-69.43491,9.01911],[-69.4335,9.02907],[-69.44216,9.03253],[-69.44883,9.03758],[-69.45881,9.02445],[-69.46963,9.0238],[-69.47317,9.0364],[-69.48064,9.05089],[-69.48784,9.05524],[-69.49766,9.04248],[-69.49901,9.03451],[-69.49452,9.02424],[-69.50633,9.01314],[-69.52419,9.00469],[-69.53288,8.98858],[-69.52673,8.97652],[-69.54251,8.96131],[-69.55439,8.96155],[-69.55193,8.94266],[-69.57622,8.94919],[-69.59157,8.93763],[-69.59812,8.9447],[-69.62039,8.93],[-69.63914,8.92281],[-69.6453,8.91708],[-69.65833,8.91432],[-69.66673,8.91892],[-69.69367,8.89775],[-69.68992,8.8897],[-69.69183,8.87231],[-69.69548,8.8632],[-69.67883,8.84727],[-69.67925,8.84019],[-69.65844,8.83269],[-69.64955,8.82201],[-69.64603,8.80733],[-69.64107,8.80387],[-69.65149,8.79335],[-69.66008,8.78977],[-69.6499,8.77498],[-69.63893,8.77472],[-69.64182,8.76391],[-69.63443,8.7615],[-69.63573,8.75206],[-69.60791,8.73515],[-69.59797,8.73569],[-69.5939,8.7303],[-69.58352,8.73082],[-69.57754,8.73728],[-69.57,8.72382],[-69.57514,8.71823],[-69.56162,8.71188],[-69.56506,8.69138],[-69.55613,8.69383],[-69.55063,8.6872],[-69.53385,8.68875],[-69.52556,8.68593],[-69.50923,8.67595],[-69.50081,8.67605],[-69.47009,8.69466],[-69.46409,8.686],[-69.44737,8.69153],[-69.44147,8.67866],[-69.4336,8.68541],[-69.42009,8.68361],[-69.41268,8.68733],[-69.4057,8.68374],[-69.39855,8.68741],[-69.38177,8.68793],[-69.37246,8.70149],[-69.37796,8.71516],[-69.37152,8.71975],[-69.35728,8.71464],[-69.35608,8.72162],[-69.34749,8.72721],[-69.33471,8.72744],[-69.31933,8.71771],[-69.31644,8.72581],[-69.30426,8.72139],[-69.27919,8.72154],[-69.27285,8.72439],[-69.26517,8.71974],[-69.25574,8.72703],[-69.25088,8.72267],[-69.23543,8.72145],[-69.21843,8.70064],[-69.1997,8.7057],[-69.18847,8.69977],[-69.18672,8.69342],[-69.16877,8.69199],[-69.15192,8.67827],[-69.14623,8.66754],[-69.13321,8.67153],[-69.10694,8.6707],[-69.09865,8.67757],[-69.08548,8.67648],[-69.077,8.68365],[-69.06149,8.68962],[-69.05636,8.70547],[-69.08132,8.79383],[-69.06394,8.78334],[-69.04174,8.78655],[-69.03797,8.78253],[-69.02082,8.78325],[-69.0185,8.77876],[-69.00381,8.78716],[-68.97864,8.7794],[-68.9704,8.78071],[-68.94627,8.76935],[-68.93874,8.77815],[-68.9271,8.77394],[-68.91642,8.78111],[-68.90657,8.77567],[-68.89596,8.7748],[-68.88788,8.75151],[-68.88018,8.74989],[-68.87458,8.74112],[-68.85384,8.73208],[-68.84984,8.72678],[-68.82905,8.7229],[-68.82185,8.71746],[-68.8131,8.72122],[-68.81112,8.73406],[-68.77911,8.73848],[-68.76656,8.75933],[-68.76894,8.76467],[-68.76133,8.77318],[-68.75322,8.76522],[-68.74024,8.76932],[-68.72713,8.75867],[-68.72344,8.75227],[-68.70898,8.75913],[-68.69785,8.75478],[-68.6908,8.76339],[-68.68518,8.75965],[-68.671,8.76254],[-68.64541,8.77398],[-68.64246,8.79238],[-68.63215,8.79474],[-68.6197,8.80638],[-68.62108,8.81449],[-68.60989,8.82207],[-68.60004,8.81496],[-68.58657,8.8138],[-68.57268,8.81813],[-68.5523,8.83067],[-68.55709,8.83939],[-68.56257,8.83024],[-68.57634,8.83489],[-68.59301,8.8274],[-68.61416,8.83076],[-68.62255,8.83902],[-68.62501,8.85439],[-68.6349,8.86224],[-68.6523,8.8597],[-68.65206,8.87116],[-68.66594,8.8736],[-68.67702,8.86324],[-68.67302,8.8539],[-68.67778,8.84895],[-68.68675,8.85016],[-68.68937,8.85785],[-68.70262,8.85582],[-68.71628,8.85879],[-68.71622,8.84871],[-68.73688,8.84573],[-68.74199,8.84934],[-68.76047,8.85165],[-68.76968,8.84641],[-68.78597,8.85102],[-68.79284,8.84936],[-68.79851,8.84123],[-68.8086,8.84158],[-68.81916,8.83414],[-68.82658,8.82366],[-68.84563,8.83333],[-68.84587,8.84097],[-68.868,8.86098],[-68.88306,8.8664],[-68.89282,8.87328],[-68.90586,8.85924],[-68.91056,8.87164],[-68.9209,8.86372],[-68.92643,8.87751],[-68.94021,8.88213],[-68.94924,8.89245],[-68.94644,8.90076],[-68.95769,8.90848],[-68.96132,8.91507],[-68.95861,8.92454],[-68.97696,8.9234],[-68.97666,8.93534],[-68.98464,8.93852],[-68.99079,8.93182],[-69.00155,8.93216],[-69.00388,8.93927],[-69.01327,8.94024],[-69.01208,8.93127],[-69.02319,8.92878],[-69.02402,8.93999],[-69.03118,8.93453],[-69.04012,8.93611],[-69.0464,8.94432],[-69.06484,8.93088],[-69.07489,8.936],[-69.07782,8.92768],[-69.0999,8.93748]]]}}