{"type":"Feature","properties":{"id":"VEN.21.2","name":"El Socorro","level":2,"country":"VEN"},"geometry":{"type":"Polygon","coordinates":[[[-65.59941,9.14285],[-65.60117,9.1354],[-65.61051,9.13186],[-65.61579,9.12458],[-65.62459,9.12212],[-65.64174,9.10706],[-65.65501,9.10348],[-65.65655,9.09677],[-65.66618,9.09186],[-65.6859,9.07696],[-65.69864,9.08219],[-65.71556,9.08352],[-65.747,9.06482],[-65.76419,9.07246],[-65.77855,9.06715],[-65.91682,8.96614],[-65.90559,8.95126],[-65.90237,8.94145],[-65.89357,8.9387],[-65.88452,8.93027],[-65.88171,8.92045],[-65.88914,8.91405],[-65.86498,8.88538],[-65.85625,8.87907],[-65.83737,8.87293],[-65.8288,8.85837],[-65.80634,8.84495],[-65.81135,8.82533],[-65.81053,8.81722],[-65.81794,8.80955],[-65.80768,8.79666],[-65.80683,8.7893],[-65.81594,8.77988],[-65.80921,8.77037],[-65.79068,8.77071],[-65.78789,8.76665],[-65.7708,8.76152],[-65.76295,8.76277],[-65.74816,8.75855],[-65.74151,8.74555],[-65.71746,8.73295],[-65.71087,8.72721],[-65.70703,8.71605],[-65.69465,8.70419],[-65.68715,8.67715],[-65.67277,8.67143],[-65.66947,8.66064],[-65.66125,8.65821],[-65.65535,8.6505],[-65.66563,8.63999],[-65.6688,8.62378],[-65.66677,8.61495],[-65.67487,8.60502],[-65.6896,8.59866],[-65.68609,8.58988],[-65.68991,8.57913],[-65.70817,8.56312],[-65.7108,8.54964],[-65.70493,8.53879],[-65.70464,8.52712],[-65.69458,8.52114],[-65.69561,8.50692],[-65.68447,8.5007],[-65.68595,8.49269],[-65.67697,8.48552],[-65.68275,8.47973],[-65.67298,8.47139],[-65.67776,8.46447],[-65.67781,8.44716],[-65.66968,8.43409],[-65.66939,8.42705],[-65.64211,8.40769],[-65.64642,8.39244],[-65.6408,8.38923],[-65.63096,8.36604],[-65.62023,8.36332],[-65.61078,8.35379],[-65.62235,8.33176],[-65.62019,8.32386],[-65.63261,8.32076],[-65.62753,8.30578],[-65.62835,8.2914],[-65.63565,8.26843],[-65.64871,8.27113],[-65.66014,8.2395],[-65.65717,8.21696],[-65.66943,8.20914],[-65.67401,8.20072],[-65.67297,8.18795],[-65.68232,8.17345],[-65.67806,8.16217],[-65.6826,8.15246],[-65.68359,8.13838],[-65.67627,8.11879],[-65.67947,8.10061],[-65.67884,8.08539],[-65.68495,8.07775],[-65.6809,8.07047],[-65.68608,8.0629],[-65.68566,8.04638],[-65.68158,8.04261],[-65.6804,8.02618],[-65.68869,8.02003],[-65.6802,8.01415],[-65.68487,8.00806],[-65.6761,7.99861],[-65.68201,7.993],[-65.67572,7.9856],[-65.67354,7.97537],[-65.66141,7.97445],[-65.66158,7.96619],[-65.65112,7.95222],[-65.66155,7.94805],[-65.65976,7.92944],[-65.65376,7.91299],[-65.6391,7.91218],[-65.63525,7.90539],[-65.61428,7.90668],[-65.5893,7.91028],[-65.5708,7.91655],[-65.57047,7.92433],[-65.56035,7.93213],[-65.54937,7.93134],[-65.54827,7.94679],[-65.53635,7.96559],[-65.53298,7.97976],[-65.52384,7.9935],[-65.52328,8.00972],[-65.51306,8.03968],[-65.51437,8.04724],[-65.50832,8.06482],[-65.50791,8.08993],[-65.50349,8.10466],[-65.50586,8.12913],[-65.50185,8.14838],[-65.50329,8.15653],[-65.50124,8.1738],[-65.50526,8.19144],[-65.50533,8.20766],[-65.50225,8.22422],[-65.50327,8.23816],[-65.49389,8.26042],[-65.49926,8.27765],[-65.49562,8.29243],[-65.49735,8.31826],[-65.50026,8.33096],[-65.49095,8.35475],[-65.49522,8.37077],[-65.50203,8.38062],[-65.52164,8.37928],[-65.54533,8.39693],[-65.55233,8.39645],[-65.56004,8.40461],[-65.56535,8.42536],[-65.57544,8.43524],[-65.58145,8.44964],[-65.58458,8.46686],[-65.58947,8.47014],[-65.59391,8.48435],[-65.592,8.48889],[-65.5964,8.50232],[-65.6061,8.51397],[-65.59865,8.5191],[-65.58467,8.5165],[-65.5763,8.51844],[-65.57415,8.53493],[-65.56856,8.54509],[-65.56791,8.55685],[-65.57547,8.58016],[-65.57762,8.59601],[-65.59231,8.62],[-65.59686,8.64003],[-65.60505,8.66239],[-65.62205,8.67299],[-65.62159,8.67875],[-65.61316,8.69033],[-65.6137,8.69585],[-65.60525,8.70963],[-65.59531,8.71939],[-65.59404,8.72661],[-65.58339,8.74162],[-65.56292,8.7419],[-65.54151,8.7478],[-65.52728,8.7566],[-65.53058,8.77333],[-65.53008,8.79721],[-65.52078,8.82059],[-65.51976,8.83342],[-65.51108,8.84934],[-65.5199,8.86266],[-65.52494,8.88036],[-65.52278,8.88847],[-65.5248,8.90271],[-65.53135,8.9134],[-65.53417,8.93811],[-65.54119,8.95442],[-65.54454,8.96903],[-65.53982,8.97782],[-65.54088,8.99078],[-65.53832,9.00539],[-65.53982,9.01391],[-65.52965,9.01687],[-65.52718,9.02682],[-65.5197,9.02985],[-65.5011,9.02115],[-65.48814,9.02478],[-65.47308,9.02343],[-65.4654,9.02916],[-65.4433,9.03525],[-65.42722,9.04985],[-65.50521,9.08457],[-65.59698,9.12304],[-65.59941,9.14285]]]}}