{"type":"Feature","properties":{"id":"VEN.23.3","name":"Urdaneta","level":2,"country":"VEN"},"geometry":{"type":"Polygon","coordinates":[[[-66.91118,10.23216],[-66.92672,10.21804],[-66.97316,10.2172],[-66.97751,10.20263],[-66.97359,10.19238],[-66.96619,10.18712],[-66.96648,10.17301],[-66.98281,10.16305],[-66.98798,10.15391],[-66.98966,10.14134],[-66.97521,10.14111],[-66.98077,10.1254],[-66.99478,10.13136],[-67.00342,10.12793],[-67.0086,10.11726],[-67.00512,10.10819],[-67.00985,10.09961],[-67.01065,10.08554],[-66.9963,10.08172],[-66.99978,10.06528],[-66.97353,10.0675],[-66.96488,10.05248],[-66.96136,10.03712],[-66.93963,10.03565],[-66.92794,10.02462],[-66.93432,10.01094],[-66.91444,10.0117],[-66.90575,10.01795],[-66.89255,10.01032],[-66.88226,9.99839],[-66.87437,10.0019],[-66.86902,10.01519],[-66.85914,10.025],[-66.85177,10.02754],[-66.84322,10.05562],[-66.82815,10.06451],[-66.84553,10.06693],[-66.84926,10.10082],[-66.84512,10.12059],[-66.83655,10.12506],[-66.83462,10.14159],[-66.82881,10.14806],[-66.82738,10.16189],[-66.83032,10.16845],[-66.84298,10.15402],[-66.85559,10.17285],[-66.86576,10.17658],[-66.88631,10.19751],[-66.8928,10.215],[-66.9014,10.21679],[-66.91429,10.22718],[-66.91118,10.23216]]]}}