{"type":"Feature","properties":{"id":"VEN.23.1","name":"Sucre","level":2,"country":"VEN"},"geometry":{"type":"Polygon","coordinates":[[[-66.82538,10.44847],[-66.81732,10.45238],[-66.79936,10.447],[-66.79076,10.45296],[-66.78131,10.44931],[-66.78461,10.43746],[-66.77522,10.42826],[-66.76174,10.42637],[-66.7566,10.41399],[-66.74036,10.40236],[-66.72544,10.39428],[-66.71984,10.39538],[-66.70736,10.38869],[-66.7028,10.39775],[-66.69456,10.40151],[-66.69717,10.41289],[-66.70811,10.42742],[-66.71638,10.45131],[-66.71368,10.46237],[-66.72364,10.47942],[-66.72486,10.4925],[-66.72068,10.50146],[-66.72114,10.51152],[-66.71676,10.5221],[-66.71591,10.53743],[-66.72411,10.54426],[-66.74295,10.54344],[-66.7516,10.53868],[-66.76623,10.54407],[-66.77993,10.54418],[-66.79397,10.53738],[-66.80258,10.53753],[-66.81895,10.54582],[-66.83078,10.54432],[-66.84496,10.53575],[-66.84923,10.50033],[-66.84438,10.49161],[-66.84449,10.48026],[-66.83027,10.47416],[-66.82281,10.45891],[-66.82538,10.44847]]]}}