{"type":"Feature","properties":{"id":"VEN.16.20","name":"Francisco de Miranda","level":2,"country":"VEN"},"geometry":{"type":"Polygon","coordinates":[[[-64.74197,8.92157],[-64.7535,8.92021],[-64.76642,8.9238],[-64.80512,8.9258],[-64.81264,8.92133],[-64.82202,8.92744],[-64.8432,8.91905],[-64.82519,8.9104],[-64.81303,8.89668],[-64.80402,8.89225],[-64.79553,8.87608],[-64.78616,8.87248],[-64.78224,8.86577],[-64.78626,8.85823],[-64.77937,8.84387],[-64.7785,8.83301],[-64.78647,8.81349],[-64.78501,8.81077],[-64.84832,8.69425],[-64.80063,8.67756],[-64.79682,8.6836],[-64.78341,8.68312],[-64.76278,8.69048],[-64.75107,8.69203],[-64.67647,8.66661],[-64.60812,8.66265],[-64.60137,8.65402],[-64.60943,8.64358],[-64.59563,8.62253],[-64.59728,8.60757],[-64.60307,8.60065],[-64.59082,8.59297],[-64.59224,8.58421],[-64.58217,8.56949],[-64.58781,8.55813],[-64.58064,8.54228],[-64.58507,8.53146],[-64.57804,8.5238],[-64.56594,8.5184],[-64.56551,8.51328],[-64.55475,8.50775],[-64.54283,8.51221],[-64.52346,8.50807],[-64.52005,8.51102],[-64.50921,8.49732],[-64.5023,8.50101],[-64.48854,8.48558],[-64.45449,8.45692],[-64.44202,8.44093],[-64.43838,8.44682],[-64.42873,8.4439],[-64.41912,8.43288],[-64.39602,8.41579],[-64.38681,8.3951],[-64.38684,8.38723],[-64.37908,8.3851],[-64.37535,8.37593],[-64.37434,8.35372],[-64.36905,8.33597],[-64.36306,8.33256],[-64.36456,8.32293],[-64.35446,8.3245],[-64.34787,8.313],[-64.34881,8.304],[-64.33894,8.29555],[-64.34305,8.27679],[-64.33135,8.27432],[-64.3333,8.26664],[-64.34257,8.2623],[-64.33789,8.25328],[-64.3454,8.24815],[-64.34989,8.23729],[-64.34968,8.22723],[-64.34235,8.21704],[-64.34084,8.19872],[-64.33229,8.19566],[-64.33229,8.17683],[-64.31728,8.16403],[-64.32255,8.15561],[-64.3158,8.14543],[-64.32518,8.13681],[-64.31542,8.1216],[-64.31826,8.11582],[-64.3343,8.11733],[-64.33983,8.11397],[-64.3421,8.08039],[-64.33704,8.06269],[-64.31458,8.08551],[-64.29167,8.09432],[-64.26613,8.09207],[-64.25426,8.0956],[-64.22873,8.09818],[-64.21249,8.09071],[-64.20838,8.07868],[-64.1986,8.07339],[-64.19049,8.06093],[-64.18488,8.04017],[-64.17075,8.02473],[-64.15557,8.02498],[-64.14541,8.01422],[-64.14097,8.01002],[-64.10924,7.99527],[-64.0888,7.98239],[-64.07951,7.98313],[-64.07,7.97181],[-64.06866,7.959],[-64.03374,7.95198],[-64.02021,7.95267],[-64.00364,7.96068],[-63.97848,7.96983],[-63.95007,7.98662],[-63.93007,7.99541],[-63.91734,8.00441],[-63.90232,8.02597],[-63.88182,8.05236],[-63.87254,8.07868],[-63.8596,8.09504],[-63.86712,8.12894],[-63.88048,8.14843],[-63.88766,8.17015],[-63.88739,8.17676],[-63.89599,8.18485],[-63.89441,8.19495],[-63.89906,8.21012],[-63.89304,8.21674],[-63.9004,8.22479],[-63.90179,8.23307],[-63.91242,8.24105],[-63.92168,8.24028],[-63.93017,8.25124],[-63.94471,8.26106],[-63.95069,8.27264],[-63.95158,8.28453],[-63.95795,8.29775],[-63.95685,8.30307],[-63.96525,8.31238],[-63.96957,8.32707],[-63.98087,8.32817],[-63.98783,8.33397],[-63.99015,8.56698],[-64.00153,8.57528],[-64.00527,8.58629],[-64.02357,8.58058],[-64.03527,8.59255],[-64.04713,8.59861],[-64.05937,8.59995],[-64.06743,8.59714],[-64.07971,8.60316],[-64.08984,8.60271],[-64.09705,8.60957],[-64.12067,8.61353],[-64.14083,8.63159],[-64.15044,8.65137],[-64.15733,8.65846],[-64.15832,8.66635],[-64.18104,8.68818],[-64.18892,8.73135],[-64.2094,8.75137],[-64.22433,8.75721],[-64.24065,8.77102],[-64.25899,8.77413],[-64.29009,8.79116],[-64.29929,8.78892],[-64.31835,8.80338],[-64.32846,8.8065],[-64.33599,8.81494],[-64.34473,8.81507],[-64.35599,8.82077],[-64.35795,8.82582],[-64.63394,8.94687],[-64.74197,8.92157]]]}}