{"type":"Feature","properties":{"id":"VEN.17.10","name":"Tovar","level":2,"country":"VEN"},"geometry":{"type":"Polygon","coordinates":[[[-67.22178,10.40687],[-67.2323,10.40927],[-67.25009,10.4232],[-67.28484,10.41661],[-67.29363,10.42109],[-67.31493,10.40779],[-67.33538,10.40187],[-67.3389,10.39482],[-67.3493,10.39572],[-67.36412,10.41015],[-67.36616,10.42225],[-67.36514,10.43953],[-67.37173,10.44115],[-67.38053,10.45205],[-67.38587,10.47117],[-67.385,10.47904],[-67.39491,10.48271],[-67.39275,10.49195],[-67.40041,10.49356],[-67.41139,10.50336],[-67.40889,10.52104],[-67.39987,10.52971],[-67.41813,10.53399],[-67.44613,10.52897],[-67.46063,10.52897],[-67.473,10.53296],[-67.46485,10.52473],[-67.46505,10.50562],[-67.45495,10.49739],[-67.44977,10.47304],[-67.43759,10.45558],[-67.4233,10.44616],[-67.4208,10.43757],[-67.42119,10.42071],[-67.40029,10.39062],[-67.42425,10.37495],[-67.41044,10.36094],[-67.40528,10.35142],[-67.40506,10.33011],[-67.40102,10.31091],[-67.29939,10.34829],[-67.27745,10.34052],[-67.26911,10.34675],[-67.25532,10.34396],[-67.24027,10.34996],[-67.22708,10.34064],[-67.21386,10.324],[-67.20168,10.31872],[-67.19007,10.32182],[-67.16537,10.32893],[-67.16537,10.33826],[-67.19305,10.35474],[-67.20435,10.37605],[-67.20457,10.38398],[-67.21966,10.39665],[-67.22178,10.40687]]]}}