{"type":"Feature","properties":{"id":"VEN.16.6","name":"Píritu","level":2,"country":"VEN"},"geometry":{"type":"Polygon","coordinates":[[[-65.00979,9.80047],[-65.00946,9.83194],[-65.05669,9.87441],[-65.06467,9.91106],[-65.01089,9.97488],[-64.9508,9.96086],[-64.97397,9.97348],[-64.97073,9.99111],[-64.97463,10.0082],[-64.98018,10.02023],[-65.00883,10.05368],[-65.02731,10.04779],[-65.05643,10.04738],[-65.05867,10.01519],[-65.05491,10.00627],[-65.05843,9.99178],[-65.0658,9.98609],[-65.08645,9.95731],[-65.0889,9.93807],[-65.09391,9.92382],[-65.0899,9.91224],[-65.0906,9.89781],[-65.0997,9.87692],[-65.10407,9.85714],[-65.11297,9.84823],[-65.11362,9.84032],[-65.11627,9.80838],[-65.02826,9.80015],[-65.00979,9.80047]]]}}