{"type":"Feature","properties":{"id":"SRB.17.5","name":"Tutin Municipality","level":2,"country":"SRB"},"geometry":{"type":"Polygon","coordinates":[[[20.30263,43.17603],[20.28714,43.17028],[20.26192,43.16589],[20.25615,43.16019],[20.21738,43.15147],[20.19016,43.15274],[20.18061,43.13709],[20.16123,43.13131],[20.17302,43.11861],[20.1731,43.11152],[20.1615,43.10579],[20.14592,43.10854],[20.12656,43.10134],[20.08814,43.05855],[20.07673,43.03434],[20.0692,43.01015],[20.06149,43.00442],[20.05344,43.00727],[20.05942,42.99468],[20.07589,42.99148],[20.08718,42.98619],[20.09035,42.97565],[20.1085,42.9722],[20.12188,42.96335],[20.13182,42.96928],[20.13772,42.98006],[20.14719,42.98853],[20.15751,42.98813],[20.15949,42.97285],[20.16917,42.97248],[20.20035,42.95644],[20.21183,42.9561],[20.22684,42.94405],[20.26144,42.93632],[20.28081,42.92777],[20.32034,42.91397],[20.34513,42.91069],[20.34913,42.89569],[20.34229,42.86862],[20.35386,42.84174],[20.35404,42.83263],[20.37398,42.83648],[20.40879,42.84721],[20.41618,42.84589],[20.43271,42.83438],[20.44012,42.83361],[20.46387,42.8533],[20.47772,42.85966],[20.48688,42.86786],[20.50188,42.87096],[20.51496,42.87783],[20.53593,42.88256],[20.52115,42.89336],[20.52032,42.8982],[20.50468,42.90703],[20.48551,42.93228],[20.49543,42.93946],[20.49986,42.95118],[20.51473,42.96939],[20.51865,42.97719],[20.50894,43.00106],[20.51466,43.01232],[20.46665,43.00378],[20.45704,43.00376],[20.43968,43.02058],[20.42041,43.03178],[20.41844,43.04442],[20.42799,43.05708],[20.4241,43.06971],[20.39717,43.07526],[20.38559,43.08647],[20.37211,43.09346],[20.35277,43.12288],[20.35083,43.12849],[20.33158,43.13546],[20.32963,43.14246],[20.31615,43.14804],[20.30456,43.16484],[20.30263,43.17603]]]}}