{"type":"Feature","properties":{"id":"SRB.2.6","name":"Vrsac Municipality","level":2,"country":"SRB"},"geometry":{"type":"Polygon","coordinates":[[[21.06197,44.94528],[21.05185,44.93687],[21.1327,44.89183],[21.152,44.90668],[21.16351,44.89964],[21.18017,44.91361],[21.1297,44.95266],[21.13411,44.95474],[21.15918,44.9421],[21.16058,44.95267],[21.16874,44.9638],[21.20624,44.95764],[21.22857,44.95034],[21.22996,44.94046],[21.25004,44.93836],[21.26089,44.9325],[21.27878,44.95254],[21.29056,44.95282],[21.30706,44.96657],[21.32445,44.96075],[21.32584,44.97417],[21.33263,44.98271],[21.35688,44.99673],[21.34604,45.00949],[21.36071,45.01972],[21.37463,45.02791],[21.39235,45.02669],[21.40819,45.03517],[21.42549,45.03524],[21.4562,45.03985],[21.44826,45.05395],[21.45956,45.07223],[21.48344,45.09108],[21.47134,45.10309],[21.47874,45.12077],[21.52731,45.13818],[21.52895,45.14722],[21.51476,45.17126],[21.49336,45.1728],[21.48291,45.19196],[21.43812,45.2019],[21.43211,45.21211],[21.41083,45.22085],[21.40299,45.22888],[21.39531,45.21833],[21.36964,45.22579],[21.36005,45.22161],[21.34363,45.23174],[21.29228,45.24229],[21.2745,45.22974],[21.25171,45.24244],[21.22354,45.25277],[21.2189,45.25029],[21.21081,45.2467],[21.21743,45.21595],[21.23193,45.20248],[21.10823,45.12156],[21.10131,45.12001],[21.10732,45.09643],[21.08077,45.00853],[21.07987,44.99417],[21.08759,44.98446],[21.09056,44.97237],[21.07878,44.95418],[21.07033,44.94598],[21.06197,44.94528]]]}}