{"type":"Feature","properties":{"id":"SRB.24.3","name":"Crna Trava Municipality","level":2,"country":"SRB"},"geometry":{"type":"Polygon","coordinates":[[[22.20797,42.7983],[22.22429,42.78973],[22.222,42.78025],[22.23251,42.76637],[22.25439,42.75765],[22.2801,42.75157],[22.30081,42.75788],[22.30316,42.76873],[22.3259,42.77907],[22.34265,42.78003],[22.35959,42.78506],[22.37492,42.79558],[22.38097,42.80633],[22.39043,42.81019],[22.40903,42.81109],[22.42615,42.82021],[22.43722,42.81858],[22.44131,42.82532],[22.46485,42.83339],[22.47503,42.8317],[22.49912,42.84908],[22.51569,42.85675],[22.51688,42.87025],[22.50724,42.87177],[22.49197,42.88039],[22.465,42.88206],[22.45148,42.88077],[22.43621,42.88939],[22.41508,42.89383],[22.396,42.90531],[22.39234,42.91665],[22.37324,42.92671],[22.36758,42.93382],[22.35865,42.9394],[22.34755,42.93831],[22.32742,42.94148],[22.31114,42.9486],[22.30711,42.9406],[22.32131,42.92813],[22.31543,42.92017],[22.29512,42.91929],[22.29121,42.91399],[22.26567,42.91998],[22.25629,42.91615],[22.24157,42.91649],[22.23011,42.90731],[22.22954,42.89481],[22.22778,42.88503],[22.21658,42.86819],[22.21293,42.857],[22.19788,42.84432],[22.21121,42.84442],[22.22083,42.83751],[22.22097,42.82773],[22.23263,42.81105],[22.21926,42.81375],[22.20979,42.80948],[22.18886,42.80793],[22.20797,42.7983]]]}}