{"type":"Feature","properties":{"id":"SRB.23.1","name":"Presevo Municipality","level":2,"country":"SRB"},"geometry":{"type":"Polygon","coordinates":[[[21.64487,42.40832],[21.62816,42.3927],[21.62065,42.37792],[21.60621,42.37517],[21.5943,42.38387],[21.57485,42.376],[21.5732,42.36533],[21.55373,42.36692],[21.53909,42.37101],[21.53542,42.35971],[21.52543,42.34222],[21.52835,42.33082],[21.54203,42.30896],[21.5589,42.31533],[21.56729,42.30657],[21.56171,42.29892],[21.58434,42.28279],[21.58661,42.2627],[21.60102,42.25421],[21.612,42.25667],[21.63712,42.2501],[21.65858,42.24857],[21.67585,42.24075],[21.6849,42.24213],[21.6944,42.23317],[21.70201,42.23388],[21.72089,42.25073],[21.7265,42.26409],[21.75599,42.25681],[21.77381,42.2653],[21.78953,42.28451],[21.79488,42.29824],[21.80412,42.2938],[21.81614,42.29454],[21.82591,42.30532],[21.83574,42.31117],[21.83436,42.32166],[21.84616,42.32545],[21.80451,42.34527],[21.77678,42.34518],[21.74332,42.33736],[21.72272,42.34129],[21.72684,42.37579],[21.70075,42.38378],[21.66685,42.38737],[21.64487,42.40832]]]}}