{"type":"Feature","properties":{"id":"SRB.2.4","name":"Kovacica Municipality","level":2,"country":"SRB"},"geometry":{"type":"Polygon","coordinates":[[[20.77278,45.0449],[20.79815,45.05492],[20.79276,45.07029],[20.81556,45.11588],[20.82011,45.11448],[20.83667,45.1473],[20.81709,45.15247],[20.80961,45.16561],[20.77862,45.18294],[20.8024,45.21613],[20.80969,45.2219],[20.7956,45.22413],[20.78334,45.20853],[20.76471,45.21396],[20.73684,45.16785],[20.71882,45.18316],[20.67732,45.19701],[20.69038,45.20617],[20.62775,45.23105],[20.62517,45.22213],[20.59584,45.23613],[20.58147,45.23637],[20.57563,45.23199],[20.57124,45.20757],[20.55906,45.20823],[20.54826,45.21633],[20.52834,45.20593],[20.51894,45.20897],[20.50501,45.22072],[20.48739,45.20483],[20.48822,45.19117],[20.47961,45.18259],[20.49884,45.17675],[20.51309,45.1757],[20.53589,45.15432],[20.59182,45.11598],[20.59093,45.10015],[20.57207,45.06731],[20.57141,45.06002],[20.5809,45.04277],[20.60404,45.02838],[20.60622,45.02007],[20.60754,45.01306],[20.62825,44.98137],[20.64794,44.97843],[20.71606,45.00258],[20.69862,45.02619],[20.73928,45.04362],[20.76071,45.03961],[20.77278,45.0449]]]}}