{"type":"Feature","properties":{"id":"MWI.6","name":"Nkhotakota","level":1,"country":"MWI"},"geometry":{"type":"Polygon","coordinates":[[[34.35558,-12.20494],[34.0287,-12.20473],[33.95532,-12.18763],[33.87988,-12.14262],[33.84267,-12.14334],[33.76071,-12.2238],[33.76862,-12.27258],[33.84732,-12.30922],[33.89109,-12.37516],[33.90799,-12.43893],[34.10193,-12.50234],[34.05723,-12.56425],[33.88468,-12.63478],[33.83507,-12.70956],[33.8206,-12.81973],[33.8327,-12.84604],[33.94349,-12.85405],[34.00044,-12.94148],[33.95093,-12.97776],[33.92086,-13.02277],[33.92179,-13.07191],[33.9792,-13.17196],[34.01522,-13.11904],[34.09774,-13.16452],[34.11454,-13.2349],[34.10441,-13.28022],[34.12492,-13.35732],[34.13361,-13.48962],[34.2413,-13.45236],[34.3277,-13.40383],[34.58276,-13.40363],[34.54531,-13.32575],[34.54934,-13.15909],[34.49446,-12.68739],[34.35558,-12.20494]]]}}