{"type":"Feature","properties":{"id":"YEM.10","name":"Al Mahrah","level":1,"country":"YEM"},"geometry":{"type":"Polygon","coordinates":[[[51.98569,18.97973],[51.71228,18.5962],[51.54097,18.1839],[51.47922,17.88436],[51.38485,17.60027],[51.26243,17.33811],[51.13241,17.15275],[50.73006,16.83473],[50.65337,16.7467],[50.57224,16.69464],[50.3969,16.62374],[50.33034,16.57982],[50.29247,16.51481],[50.31324,16.43473],[50.23536,16.14558],[50.30192,16.00174],[50.22994,15.85337],[50.21754,15.69527],[50.19237,15.60931],[50.21878,15.55251],[50.32084,15.529],[50.3319,15.45908],[50.25939,15.36377],[50.27913,15.29398],[50.34135,15.27351],[50.58449,15.29741],[50.72836,15.26116],[50.80499,15.09738],[51.06984,15.14964],[51.36785,15.22972],[51.54949,15.32298],[51.65528,15.33275],[51.67994,15.40347],[52.04713,15.57001],[52.22836,15.61612],[52.22438,15.84675],[52.15553,15.98387],[52.22438,16.11359],[52.21705,16.14838],[52.29274,16.26382],[52.42042,16.37124],[52.59767,16.47671],[52.85109,16.55614],[52.98487,16.62816],[53.09034,16.6424],[52.80156,17.26742],[52.73015,17.29988],[52.48453,17.85416],[52.18501,18.52993],[51.98569,18.97973]]]}}