{"type":"Feature","properties":{"id":"EST.13.11","name":"Tarvastu vald","level":2,"country":"EST"},"geometry":{"type":"Polygon","coordinates":[[[25.77643,58.06995],[25.78491,58.07254],[25.79288,58.07862],[25.80081,58.07587],[25.80365,58.08394],[25.81679,58.086],[25.82037,58.08929],[25.83552,58.09118],[25.84322,58.09376],[25.83763,58.10015],[25.858,58.10058],[25.85273,58.10566],[25.85353,58.11281],[25.8501,58.11874],[25.83561,58.10545],[25.83336,58.118],[25.83833,58.12244],[25.85228,58.12394],[25.85011,58.12834],[25.86337,58.12968],[25.86115,58.13828],[25.85419,58.13974],[25.84988,58.14745],[25.87108,58.14717],[25.88654,58.14472],[25.90748,58.1336],[25.90855,58.12625],[25.9205,58.11968],[25.92125,58.10612],[25.92649,58.09867],[25.94253,58.10013],[25.95304,58.09818],[25.97394,58.10019],[25.97831,58.10254],[25.98003,58.10967],[26.00242,58.11161],[26.02056,58.11598],[26.01873,58.12023],[26.02445,58.12311],[26.05933,58.12287],[26.06036,58.12681],[26.05249,58.1311],[26.04678,58.1403],[26.05263,58.1443],[26.05339,58.15124],[26.04289,58.15053],[26.03452,58.15721],[26.03678,58.17298],[26.04344,58.17755],[26.03089,58.189],[26.02548,58.1913],[26.00656,58.19014],[26.00062,58.19465],[25.99426,58.20409],[25.99903,58.21253],[25.99,58.21589],[25.97967,58.22935],[25.98191,58.23726],[25.99034,58.24035],[25.98661,58.24364],[25.9692,58.25059],[25.95654,58.25922],[25.94866,58.27021],[25.92995,58.28315],[25.91383,58.29949],[25.91338,58.32119],[25.91503,58.32499],[25.92364,58.32771],[25.92789,58.33342],[25.92553,58.35061],[25.91605,58.35381],[25.91449,58.3669],[25.88893,58.36323],[25.8755,58.36342],[25.86666,58.35618],[25.85329,58.35482],[25.85436,58.3595],[25.84422,58.36261],[25.84525,58.35449],[25.83549,58.35413],[25.83142,58.35717],[25.80826,58.35964],[25.80959,58.35017],[25.80806,58.3384],[25.81303,58.32863],[25.79099,58.32204],[25.79383,58.31236],[25.79185,58.30535],[25.79832,58.29586],[25.79348,58.289],[25.7955,58.28101],[25.79942,58.2778],[25.78549,58.275],[25.76395,58.27365],[25.74791,58.26928],[25.74258,58.25593],[25.73006,58.25356],[25.7291,58.24789],[25.715,58.24636],[25.70522,58.24172],[25.69768,58.24193],[25.6974,58.22885],[25.69387,58.2258],[25.6993,58.21998],[25.69332,58.21437],[25.67135,58.21023],[25.66963,58.20872],[25.68603,58.19148],[25.68321,58.18499],[25.688,58.17427],[25.67362,58.17045],[25.67711,58.16601],[25.6667,58.15773],[25.6692,58.15451],[25.6687,58.14179],[25.68744,58.14348],[25.70122,58.14667],[25.71591,58.13096],[25.71498,58.12719],[25.72692,58.11796],[25.74561,58.1116],[25.73603,58.10539],[25.73684,58.09908],[25.74606,58.08794],[25.76133,58.08261],[25.76614,58.07869],[25.76285,58.07246],[25.77643,58.06995]]]}}