{"type":"Feature","properties":{"id":"EST.5.8","name":"Kadrina vald","level":2,"country":"EST"},"geometry":{"type":"Polygon","coordinates":[[[25.9551,59.27824],[25.96652,59.27262],[25.97929,59.26886],[26.03458,59.29723],[26.04455,59.28907],[26.05249,59.28825],[26.05226,59.28074],[26.06951,59.26811],[26.08297,59.2705],[26.10175,59.26809],[26.10646,59.26081],[26.11801,59.25868],[26.13074,59.25932],[26.15505,59.24917],[26.16462,59.24952],[26.16461,59.25597],[26.17406,59.25931],[26.17197,59.26224],[26.17549,59.27043],[26.18786,59.27996],[26.22263,59.29104],[26.22157,59.29808],[26.23065,59.30937],[26.22517,59.31537],[26.22905,59.32534],[26.2504,59.32525],[26.23914,59.34319],[26.25001,59.34426],[26.24843,59.34911],[26.23549,59.35012],[26.23568,59.3663],[26.23208,59.37103],[26.23506,59.37771],[26.21766,59.384],[26.20333,59.38586],[26.20397,59.39129],[26.16221,59.39873],[26.16592,59.41226],[26.15752,59.41436],[26.12809,59.41462],[26.12068,59.41745],[26.09307,59.43597],[26.09098,59.44035],[26.07448,59.44647],[26.07267,59.45074],[26.06326,59.457],[26.05092,59.45771],[26.0448,59.46155],[26.04841,59.46704],[26.06642,59.47615],[26.08248,59.47304],[26.08425,59.47731],[26.09455,59.48452],[26.09619,59.48842],[26.08544,59.49012],[26.08018,59.48701],[26.05631,59.48935],[26.05616,59.48718],[26.03322,59.48753],[26.03218,59.4848],[26.0107,59.4747],[26.00936,59.46595],[25.99521,59.46658],[25.9753,59.4635],[25.95671,59.46877],[25.95775,59.46415],[25.93159,59.46616],[25.92358,59.46928],[25.91795,59.47758],[25.90855,59.47844],[25.89003,59.48621],[25.87211,59.49063],[25.84178,59.50007],[25.83263,59.49813],[25.84495,59.44399],[25.85679,59.44204],[25.87783,59.44347],[25.8811,59.4349],[25.89596,59.42971],[25.89671,59.42504],[25.88418,59.41284],[25.89115,59.40874],[25.88369,59.40581],[25.89414,59.3975],[25.89728,59.38774],[25.90719,59.38419],[25.91831,59.37707],[25.91983,59.37238],[25.92825,59.36597],[25.93006,59.35742],[25.93561,59.34913],[25.93136,59.3429],[25.93362,59.33496],[25.93819,59.33253],[25.93652,59.32676],[25.94231,59.31504],[25.93774,59.30962],[25.95037,59.2904],[25.94524,59.28641],[25.9551,59.27824]]]}}